<?xml version="1.0" encoding="UTF-8"?>
<gpx version="1.1" creator="WeeklyCyclingRoutes"
  xmlns="http://www.topografix.com/GPX/1/1"
  xmlns:xsi="http://www.w3.org/2001/XMLSchema-instance"
  xsi:schemaLocation="http://www.topografix.com/GPX/1/1 http://www.topografix.com/GPX/1/1/gpx.xsd">
  <metadata>
    <name>30km Route – August 10, 2026</name>
    <desc>Round trip from Cremerstraat, Haarlem. Actual: 23.0km</desc>
    <time>2026-08-10T07:19:03Z</time>
  </metadata>
  <rte>
    <name>30km Cycling Route – Haarlem</name>
    <rtept lat="52.380029" lon="4.657510"><ele>0.0</ele></rtept>
    <rtept lat="52.380041" lon="4.657887"><ele>0.0</ele></rtept>
    <rtept lat="52.379804" lon="4.657899"><ele>0.0</ele></rtept>
    <rtept lat="52.379791" lon="4.658682"><ele>0.0</ele></rtept>
    <rtept lat="52.379764" lon="4.659601"><ele>0.0</ele></rtept>
    <rtept lat="52.380949" lon="4.659839"><ele>0.0</ele></rtept>
    <rtept lat="52.380937" lon="4.659581"><ele>0.0</ele></rtept>
    <rtept lat="52.381454" lon="4.659467"><ele>0.0</ele></rtept>
    <rtept lat="52.381481" lon="4.659422"><ele>0.0</ele></rtept>
    <rtept lat="52.381555" lon="4.659568"><ele>0.0</ele></rtept>
    <rtept lat="52.381596" lon="4.660113"><ele>0.0</ele></rtept>
    <rtept lat="52.381618" lon="4.660654"><ele>0.0</ele></rtept>
    <rtept lat="52.381544" lon="4.660816"><ele>0.0</ele></rtept>
    <rtept lat="52.381566" lon="4.661153"><ele>0.0</ele></rtept>
    <rtept lat="52.381559" lon="4.661512"><ele>0.0</ele></rtept>
    <rtept lat="52.381630" lon="4.661848"><ele>0.0</ele></rtept>
    <rtept lat="52.381994" lon="4.666423"><ele>0.0</ele></rtept>
    <rtept lat="52.382083" lon="4.668033"><ele>0.0</ele></rtept>
    <rtept lat="52.382126" lon="4.668888"><ele>0.0</ele></rtept>
    <rtept lat="52.382081" lon="4.669001"><ele>0.0</ele></rtept>
    <rtept lat="52.381821" lon="4.669146"><ele>0.0</ele></rtept>
    <rtept lat="52.381681" lon="4.669329"><ele>0.0</ele></rtept>
    <rtept lat="52.381642" lon="4.669425"><ele>0.0</ele></rtept>
    <rtept lat="52.381600" lon="4.669560"><ele>0.0</ele></rtept>
    <rtept lat="52.381583" lon="4.669749"><ele>0.0</ele></rtept>
    <rtept lat="52.381603" lon="4.670462"><ele>0.0</ele></rtept>
    <rtept lat="52.381614" lon="4.670649"><ele>0.0</ele></rtept>
    <rtept lat="52.381628" lon="4.670879"><ele>0.0</ele></rtept>
    <rtept lat="52.381633" lon="4.670943"><ele>0.0</ele></rtept>
    <rtept lat="52.381643" lon="4.671069"><ele>0.0</ele></rtept>
    <rtept lat="52.381680" lon="4.672064"><ele>0.0</ele></rtept>
    <rtept lat="52.381694" lon="4.672099"><ele>0.0</ele></rtept>
    <rtept lat="52.381725" lon="4.672127"><ele>0.0</ele></rtept>
    <rtept lat="52.382021" lon="4.672080"><ele>0.0</ele></rtept>
    <rtept lat="52.382061" lon="4.672121"><ele>0.0</ele></rtept>
    <rtept lat="52.382102" lon="4.672635"><ele>0.0</ele></rtept>
    <rtept lat="52.382112" lon="4.672675"><ele>0.0</ele></rtept>
    <rtept lat="52.382158" lon="4.672706"><ele>0.0</ele></rtept>
    <rtept lat="52.382322" lon="4.672671"><ele>0.0</ele></rtept>
    <rtept lat="52.382359" lon="4.672730"><ele>0.0</ele></rtept>
    <rtept lat="52.382403" lon="4.673346"><ele>0.0</ele></rtept>
    <rtept lat="52.382439" lon="4.674017"><ele>0.0</ele></rtept>
    <rtept lat="52.382415" lon="4.674893"><ele>0.0</ele></rtept>
    <rtept lat="52.382414" lon="4.675667"><ele>0.0</ele></rtept>
    <rtept lat="52.382460" lon="4.676615"><ele>0.0</ele></rtept>
    <rtept lat="52.382526" lon="4.677270"><ele>0.0</ele></rtept>
    <rtept lat="52.382742" lon="4.678856"><ele>0.0</ele></rtept>
    <rtept lat="52.382873" lon="4.679976"><ele>0.0</ele></rtept>
    <rtept lat="52.382884" lon="4.680313"><ele>0.0</ele></rtept>
    <rtept lat="52.382870" lon="4.680472"><ele>0.0</ele></rtept>
    <rtept lat="52.382828" lon="4.680840"><ele>0.0</ele></rtept>
    <rtept lat="52.382791" lon="4.681123"><ele>0.0</ele></rtept>
    <rtept lat="52.382746" lon="4.681586"><ele>0.0</ele></rtept>
    <rtept lat="52.382747" lon="4.681843"><ele>0.0</ele></rtept>
    <rtept lat="52.382770" lon="4.682133"><ele>0.0</ele></rtept>
    <rtept lat="52.382810" lon="4.682410"><ele>0.0</ele></rtept>
    <rtept lat="52.382875" lon="4.682698"><ele>0.0</ele></rtept>
    <rtept lat="52.382992" lon="4.683096"><ele>0.0</ele></rtept>
    <rtept lat="52.383033" lon="4.683302"><ele>0.0</ele></rtept>
    <rtept lat="52.383222" lon="4.685672"><ele>0.0</ele></rtept>
    <rtept lat="52.383273" lon="4.686379"><ele>0.0</ele></rtept>
    <rtept lat="52.383293" lon="4.687046"><ele>0.0</ele></rtept>
    <rtept lat="52.383324" lon="4.688063"><ele>0.0</ele></rtept>
    <rtept lat="52.383362" lon="4.688525"><ele>0.0</ele></rtept>
    <rtept lat="52.383394" lon="4.688793"><ele>0.0</ele></rtept>
    <rtept lat="52.383591" lon="4.690995"><ele>0.0</ele></rtept>
    <rtept lat="52.383642" lon="4.691686"><ele>0.0</ele></rtept>
    <rtept lat="52.383607" lon="4.692281"><ele>0.0</ele></rtept>
    <rtept lat="52.383802" lon="4.694548"><ele>0.0</ele></rtept>
    <rtept lat="52.383884" lon="4.695286"><ele>0.0</ele></rtept>
    <rtept lat="52.383903" lon="4.695418"><ele>0.0</ele></rtept>
    <rtept lat="52.383978" lon="4.696881"><ele>0.0</ele></rtept>
    <rtept lat="52.384004" lon="4.697808"><ele>0.0</ele></rtept>
    <rtept lat="52.384018" lon="4.699234"><ele>0.0</ele></rtept>
    <rtept lat="52.383982" lon="4.699473"><ele>0.0</ele></rtept>
    <rtept lat="52.383930" lon="4.699663"><ele>0.0</ele></rtept>
    <rtept lat="52.383909" lon="4.699802"><ele>0.0</ele></rtept>
    <rtept lat="52.383906" lon="4.700086"><ele>0.0</ele></rtept>
    <rtept lat="52.383910" lon="4.700207"><ele>0.0</ele></rtept>
    <rtept lat="52.383946" lon="4.700324"><ele>0.0</ele></rtept>
    <rtept lat="52.383973" lon="4.700469"><ele>0.0</ele></rtept>
    <rtept lat="52.383958" lon="4.700846"><ele>0.0</ele></rtept>
    <rtept lat="52.383749" lon="4.703579"><ele>0.0</ele></rtept>
    <rtept lat="52.383682" lon="4.704091"><ele>0.0</ele></rtept>
    <rtept lat="52.383567" lon="4.704509"><ele>0.0</ele></rtept>
    <rtept lat="52.383479" lon="4.704742"><ele>0.0</ele></rtept>
    <rtept lat="52.383024" lon="4.705491"><ele>0.0</ele></rtept>
    <rtept lat="52.382830" lon="4.705912"><ele>0.0</ele></rtept>
    <rtept lat="52.382756" lon="4.706165"><ele>0.0</ele></rtept>
    <rtept lat="52.382677" lon="4.706639"><ele>0.0</ele></rtept>
    <rtept lat="52.382649" lon="4.707081"><ele>0.0</ele></rtept>
    <rtept lat="52.382668" lon="4.707451"><ele>0.0</ele></rtept>
    <rtept lat="52.382757" lon="4.708016"><ele>0.0</ele></rtept>
    <rtept lat="52.382856" lon="4.708337"><ele>0.0</ele></rtept>
    <rtept lat="52.383070" lon="4.708804"><ele>0.0</ele></rtept>
    <rtept lat="52.383740" lon="4.709674"><ele>0.0</ele></rtept>
    <rtept lat="52.383844" lon="4.709839"><ele>0.0</ele></rtept>
    <rtept lat="52.383927" lon="4.710016"><ele>0.0</ele></rtept>
    <rtept lat="52.383998" lon="4.710171"><ele>0.0</ele></rtept>
    <rtept lat="52.384059" lon="4.710360"><ele>0.0</ele></rtept>
    <rtept lat="52.385266" lon="4.715553"><ele>0.0</ele></rtept>
    <rtept lat="52.385407" lon="4.716301"><ele>0.0</ele></rtept>
    <rtept lat="52.385593" lon="4.717426"><ele>0.0</ele></rtept>
    <rtept lat="52.385731" lon="4.718945"><ele>0.0</ele></rtept>
    <rtept lat="52.385827" lon="4.720306"><ele>0.0</ele></rtept>
    <rtept lat="52.385951" lon="4.722133"><ele>0.0</ele></rtept>
    <rtept lat="52.385991" lon="4.722693"><ele>0.0</ele></rtept>
    <rtept lat="52.386078" lon="4.723860"><ele>0.0</ele></rtept>
    <rtept lat="52.386413" lon="4.728660"><ele>0.0</ele></rtept>
    <rtept lat="52.386486" lon="4.731357"><ele>0.0</ele></rtept>
    <rtept lat="52.386479" lon="4.731798"><ele>0.0</ele></rtept>
    <rtept lat="52.386455" lon="4.732206"><ele>0.0</ele></rtept>
    <rtept lat="52.386385" lon="4.732958"><ele>0.0</ele></rtept>
    <rtept lat="52.386291" lon="4.733661"><ele>0.0</ele></rtept>
    <rtept lat="52.386268" lon="4.733732"><ele>0.0</ele></rtept>
    <rtept lat="52.386227" lon="4.733787"><ele>0.0</ele></rtept>
    <rtept lat="52.386188" lon="4.733959"><ele>0.0</ele></rtept>
    <rtept lat="52.386173" lon="4.734058"><ele>0.0</ele></rtept>
    <rtept lat="52.386150" lon="4.734185"><ele>0.0</ele></rtept>
    <rtept lat="52.386173" lon="4.734304"><ele>0.0</ele></rtept>
    <rtept lat="52.386163" lon="4.734377"><ele>0.0</ele></rtept>
    <rtept lat="52.385982" lon="4.734924"><ele>0.0</ele></rtept>
    <rtept lat="52.385850" lon="4.735542"><ele>0.0</ele></rtept>
    <rtept lat="52.385848" lon="4.735609"><ele>0.0</ele></rtept>
    <rtept lat="52.385888" lon="4.735793"><ele>0.0</ele></rtept>
    <rtept lat="52.386201" lon="4.736332"><ele>0.0</ele></rtept>
    <rtept lat="52.386209" lon="4.736996"><ele>0.0</ele></rtept>
    <rtept lat="52.386204" lon="4.738830"><ele>0.0</ele></rtept>
    <rtept lat="52.386186" lon="4.740366"><ele>0.0</ele></rtept>
    <rtept lat="52.386152" lon="4.740968"><ele>0.0</ele></rtept>
    <rtept lat="52.385972" lon="4.742702"><ele>0.0</ele></rtept>
    <rtept lat="52.385937" lon="4.743013"><ele>0.0</ele></rtept>
    <rtept lat="52.385814" lon="4.744137"><ele>0.0</ele></rtept>
    <rtept lat="52.385763" lon="4.744666"><ele>0.0</ele></rtept>
    <rtept lat="52.385666" lon="4.745497"><ele>0.0</ele></rtept>
    <rtept lat="52.385634" lon="4.745722"><ele>0.0</ele></rtept>
    <rtept lat="52.385621" lon="4.745827"><ele>0.0</ele></rtept>
    <rtept lat="52.385611" lon="4.745929"><ele>0.0</ele></rtept>
    <rtept lat="52.385593" lon="4.746021"><ele>0.0</ele></rtept>
    <rtept lat="52.385546" lon="4.746442"><ele>0.0</ele></rtept>
    <rtept lat="52.385516" lon="4.746693"><ele>0.0</ele></rtept>
    <rtept lat="52.385500" lon="4.746822"><ele>0.0</ele></rtept>
    <rtept lat="52.385457" lon="4.747221"><ele>0.0</ele></rtept>
    <rtept lat="52.385477" lon="4.747519"><ele>0.0</ele></rtept>
    <rtept lat="52.385399" lon="4.747873"><ele>0.0</ele></rtept>
    <rtept lat="52.385288" lon="4.748128"><ele>0.0</ele></rtept>
    <rtept lat="52.384996" lon="4.748590"><ele>0.0</ele></rtept>
    <rtept lat="52.384490" lon="4.749405"><ele>0.0</ele></rtept>
    <rtept lat="52.384433" lon="4.749522"><ele>0.0</ele></rtept>
    <rtept lat="52.384339" lon="4.749844"><ele>0.0</ele></rtept>
    <rtept lat="52.384225" lon="4.750407"><ele>0.0</ele></rtept>
    <rtept lat="52.383960" lon="4.751698"><ele>0.0</ele></rtept>
    <rtept lat="52.383864" lon="4.752287"><ele>0.0</ele></rtept>
    <rtept lat="52.383837" lon="4.752562"><ele>0.0</ele></rtept>
    <rtept lat="52.383827" lon="4.752945"><ele>0.0</ele></rtept>
    <rtept lat="52.383802" lon="4.753551"><ele>0.0</ele></rtept>
    <rtept lat="52.383752" lon="4.754300"><ele>0.0</ele></rtept>
    <rtept lat="52.383939" lon="4.754315"><ele>0.0</ele></rtept>
    <rtept lat="52.384333" lon="4.754292"><ele>0.0</ele></rtept>
    <rtept lat="52.384333" lon="4.753866"><ele>0.0</ele></rtept>
    <rtept lat="52.384379" lon="4.753794"><ele>0.0</ele></rtept>
    <rtept lat="52.384443" lon="4.753762"><ele>0.0</ele></rtept>
    <rtept lat="52.384458" lon="4.753628"><ele>0.0</ele></rtept>
    <rtept lat="52.384506" lon="4.753551"><ele>0.0</ele></rtept>
    <rtept lat="52.384525" lon="4.753588"><ele>0.0</ele></rtept>
    <rtept lat="52.384607" lon="4.753755"><ele>0.0</ele></rtept>
    <rtept lat="52.384622" lon="4.753788"><ele>0.0</ele></rtept>
    <rtept lat="52.384666" lon="4.753903"><ele>0.0</ele></rtept>
    <rtept lat="52.384685" lon="4.754005"><ele>0.0</ele></rtept>
    <rtept lat="52.384690" lon="4.754349"><ele>0.0</ele></rtept>
    <rtept lat="52.384718" lon="4.754718"><ele>0.0</ele></rtept>
    <rtept lat="52.384776" lon="4.755108"><ele>0.0</ele></rtept>
    <rtept lat="52.384819" lon="4.755238"><ele>0.0</ele></rtept>
    <rtept lat="52.384892" lon="4.755325"><ele>0.0</ele></rtept>
    <rtept lat="52.384947" lon="4.755343"><ele>0.0</ele></rtept>
    <rtept lat="52.385007" lon="4.755335"><ele>0.0</ele></rtept>
    <rtept lat="52.385162" lon="4.755213"><ele>0.0</ele></rtept>
    <rtept lat="52.385469" lon="4.756386"><ele>0.0</ele></rtept>
    <rtept lat="52.385592" lon="4.756628"><ele>0.0</ele></rtept>
    <rtept lat="52.385682" lon="4.756624"><ele>0.0</ele></rtept>
    <rtept lat="52.385964" lon="4.756759"><ele>0.0</ele></rtept>
    <rtept lat="52.386279" lon="4.756893"><ele>0.0</ele></rtept>
    <rtept lat="52.386432" lon="4.756968"><ele>0.0</ele></rtept>
    <rtept lat="52.386641" lon="4.757170"><ele>0.0</ele></rtept>
    <rtept lat="52.386743" lon="4.757314"><ele>0.0</ele></rtept>
    <rtept lat="52.386836" lon="4.757183"><ele>0.0</ele></rtept>
    <rtept lat="52.387116" lon="4.757714"><ele>0.0</ele></rtept>
    <rtept lat="52.387332" lon="4.757997"><ele>0.0</ele></rtept>
    <rtept lat="52.387436" lon="4.758158"><ele>0.0</ele></rtept>
    <rtept lat="52.387485" lon="4.758319"><ele>0.0</ele></rtept>
    <rtept lat="52.387527" lon="4.758487"><ele>0.0</ele></rtept>
    <rtept lat="52.387539" lon="4.759149"><ele>0.0</ele></rtept>
    <rtept lat="52.387517" lon="4.759286"><ele>0.0</ele></rtept>
    <rtept lat="52.387497" lon="4.759417"><ele>0.0</ele></rtept>
    <rtept lat="52.387430" lon="4.759585"><ele>0.0</ele></rtept>
    <rtept lat="52.387170" lon="4.759999"><ele>0.0</ele></rtept>
    <rtept lat="52.387102" lon="4.760308"><ele>0.0</ele></rtept>
    <rtept lat="52.387083" lon="4.760536"><ele>0.0</ele></rtept>
    <rtept lat="52.387091" lon="4.760729"><ele>0.0</ele></rtept>
    <rtept lat="52.387131" lon="4.760888"><ele>0.0</ele></rtept>
    <rtept lat="52.387296" lon="4.761193"><ele>0.0</ele></rtept>
    <rtept lat="52.387364" lon="4.761312"><ele>0.0</ele></rtept>
    <rtept lat="52.387553" lon="4.761641"><ele>0.0</ele></rtept>
    <rtept lat="52.387576" lon="4.761746"><ele>0.0</ele></rtept>
    <rtept lat="52.387587" lon="4.767548"><ele>0.0</ele></rtept>
    <rtept lat="52.387595" lon="4.767919"><ele>0.0</ele></rtept>
    <rtept lat="52.387675" lon="4.768219"><ele>0.0</ele></rtept>
    <rtept lat="52.387681" lon="4.768264"><ele>0.0</ele></rtept>
    <rtept lat="52.387750" lon="4.768365"><ele>0.0</ele></rtept>
    <rtept lat="52.388116" lon="4.768636"><ele>0.0</ele></rtept>
    <rtept lat="52.388507" lon="4.769004"><ele>0.0</ele></rtept>
    <rtept lat="52.389142" lon="4.769532"><ele>0.0</ele></rtept>
    <rtept lat="52.389467" lon="4.769850"><ele>0.0</ele></rtept>
    <rtept lat="52.389622" lon="4.769933"><ele>0.0</ele></rtept>
    <rtept lat="52.389720" lon="4.770048"><ele>0.0</ele></rtept>
    <rtept lat="52.389806" lon="4.770218"><ele>0.0</ele></rtept>
    <rtept lat="52.389918" lon="4.770353"><ele>0.0</ele></rtept>
    <rtept lat="52.389841" lon="4.770536"><ele>0.0</ele></rtept>
    <rtept lat="52.389690" lon="4.770868"><ele>0.0</ele></rtept>
    <rtept lat="52.389615" lon="4.771034"><ele>0.0</ele></rtept>
    <rtept lat="52.389269" lon="4.771809"><ele>0.0</ele></rtept>
    <rtept lat="52.389263" lon="4.772516"><ele>0.0</ele></rtept>
    <rtept lat="52.389261" lon="4.775482"><ele>0.0</ele></rtept>
    <rtept lat="52.389263" lon="4.776781"><ele>0.0</ele></rtept>
    <rtept lat="52.389259" lon="4.777397"><ele>0.0</ele></rtept>
    <rtept lat="52.389265" lon="4.778003"><ele>0.0</ele></rtept>
    <rtept lat="52.389265" lon="4.778162"><ele>0.0</ele></rtept>
    <rtept lat="52.389264" lon="4.780351"><ele>0.0</ele></rtept>
    <rtept lat="52.389265" lon="4.781662"><ele>0.0</ele></rtept>
    <rtept lat="52.389265" lon="4.782475"><ele>0.0</ele></rtept>
    <rtept lat="52.389274" lon="4.786964"><ele>0.0</ele></rtept>
    <rtept lat="52.389272" lon="4.788111"><ele>0.0</ele></rtept>
    <rtept lat="52.389298" lon="4.788476"><ele>0.0</ele></rtept>
    <rtept lat="52.389312" lon="4.789037"><ele>0.0</ele></rtept>
    <rtept lat="52.389338" lon="4.793035"><ele>0.0</ele></rtept>
    <rtept lat="52.389341" lon="4.794092"><ele>0.0</ele></rtept>
    <rtept lat="52.389203" lon="4.794126"><ele>0.0</ele></rtept>
    <rtept lat="52.389118" lon="4.794184"><ele>0.0</ele></rtept>
    <rtept lat="52.389102" lon="4.794195"><ele>0.0</ele></rtept>
    <rtept lat="52.389108" lon="4.794634"><ele>0.0</ele></rtept>
    <rtept lat="52.389144" lon="4.794840"><ele>0.0</ele></rtept>
    <rtept lat="52.389147" lon="4.795107"><ele>0.0</ele></rtept>
    <rtept lat="52.389144" lon="4.794840"><ele>0.0</ele></rtept>
    <rtept lat="52.389408" lon="4.794842"><ele>0.0</ele></rtept>
    <rtept lat="52.389609" lon="4.794731"><ele>0.0</ele></rtept>
    <rtept lat="52.390109" lon="4.794724"><ele>0.0</ele></rtept>
    <rtept lat="52.390190" lon="4.794743"><ele>0.0</ele></rtept>
    <rtept lat="52.390177" lon="4.794195"><ele>0.0</ele></rtept>
    <rtept lat="52.390306" lon="4.794102"><ele>0.0</ele></rtept>
    <rtept lat="52.390376" lon="4.794101"><ele>0.0</ele></rtept>
    <rtept lat="52.390440" lon="4.794102"><ele>0.0</ele></rtept>
    <rtept lat="52.390401" lon="4.793789"><ele>0.0</ele></rtept>
    <rtept lat="52.390402" lon="4.793059"><ele>0.0</ele></rtept>
    <rtept lat="52.390411" lon="4.790788"><ele>0.0</ele></rtept>
    <rtept lat="52.390442" lon="4.790651"><ele>0.0</ele></rtept>
    <rtept lat="52.390492" lon="4.790599"><ele>0.0</ele></rtept>
    <rtept lat="52.390633" lon="4.790596"><ele>0.0</ele></rtept>
    <rtept lat="52.391839" lon="4.790583"><ele>0.0</ele></rtept>
    <rtept lat="52.391827" lon="4.789714"><ele>0.0</ele></rtept>
    <rtept lat="52.391827" lon="4.788095"><ele>0.0</ele></rtept>
    <rtept lat="52.391831" lon="4.786942"><ele>0.0</ele></rtept>
    <rtept lat="52.391826" lon="4.785357"><ele>0.0</ele></rtept>
    <rtept lat="52.391820" lon="4.783858"><ele>0.0</ele></rtept>
    <rtept lat="52.391830" lon="4.782468"><ele>0.0</ele></rtept>
    <rtept lat="52.391827" lon="4.780919"><ele>0.0</ele></rtept>
    <rtept lat="52.391825" lon="4.780645"><ele>0.0</ele></rtept>
    <rtept lat="52.391804" lon="4.780507"><ele>0.0</ele></rtept>
    <rtept lat="52.391750" lon="4.780440"><ele>0.0</ele></rtept>
    <rtept lat="52.391281" lon="4.780413"><ele>0.0</ele></rtept>
    <rtept lat="52.391205" lon="4.780326"><ele>0.0</ele></rtept>
    <rtept lat="52.391182" lon="4.780167"><ele>0.0</ele></rtept>
    <rtept lat="52.391178" lon="4.779438"><ele>0.0</ele></rtept>
    <rtept lat="52.391177" lon="4.779198"><ele>0.0</ele></rtept>
    <rtept lat="52.391243" lon="4.778903"><ele>0.0</ele></rtept>
    <rtept lat="52.391303" lon="4.778743"><ele>0.0</ele></rtept>
    <rtept lat="52.391383" lon="4.778528"><ele>0.0</ele></rtept>
    <rtept lat="52.391403" lon="4.778432"><ele>0.0</ele></rtept>
    <rtept lat="52.391402" lon="4.778317"><ele>0.0</ele></rtept>
    <rtept lat="52.391385" lon="4.778215"><ele>0.0</ele></rtept>
    <rtept lat="52.391348" lon="4.778119"><ele>0.0</ele></rtept>
    <rtept lat="52.391424" lon="4.778122"><ele>0.0</ele></rtept>
    <rtept lat="52.391811" lon="4.778131"><ele>0.0</ele></rtept>
    <rtept lat="52.393537" lon="4.778098"><ele>0.0</ele></rtept>
    <rtept lat="52.393602" lon="4.777563"><ele>0.0</ele></rtept>
    <rtept lat="52.393582" lon="4.777333"><ele>0.0</ele></rtept>
    <rtept lat="52.393543" lon="4.777153"><ele>0.0</ele></rtept>
    <rtept lat="52.393234" lon="4.775737"><ele>0.0</ele></rtept>
    <rtept lat="52.393172" lon="4.775507"><ele>0.0</ele></rtept>
    <rtept lat="52.393110" lon="4.775276"><ele>0.0</ele></rtept>
    <rtept lat="52.392779" lon="4.774411"><ele>0.0</ele></rtept>
    <rtept lat="52.392295" lon="4.773148"><ele>0.0</ele></rtept>
    <rtept lat="52.392251" lon="4.772911"><ele>0.0</ele></rtept>
    <rtept lat="52.392269" lon="4.772664"><ele>0.0</ele></rtept>
    <rtept lat="52.392326" lon="4.772392"><ele>0.0</ele></rtept>
    <rtept lat="52.392563" lon="4.771218"><ele>0.0</ele></rtept>
    <rtept lat="52.392550" lon="4.771176"><ele>0.0</ele></rtept>
    <rtept lat="52.392488" lon="4.771115"><ele>0.0</ele></rtept>
    <rtept lat="52.392473" lon="4.771036"><ele>0.0</ele></rtept>
    <rtept lat="52.392506" lon="4.770845"><ele>0.0</ele></rtept>
    <rtept lat="52.392579" lon="4.770498"><ele>0.0</ele></rtept>
    <rtept lat="52.392671" lon="4.770314"><ele>0.0</ele></rtept>
    <rtept lat="52.392791" lon="4.770141"><ele>0.0</ele></rtept>
    <rtept lat="52.393100" lon="4.770526"><ele>0.0</ele></rtept>
    <rtept lat="52.393210" lon="4.770603"><ele>0.0</ele></rtept>
    <rtept lat="52.393774" lon="4.770893"><ele>0.0</ele></rtept>
    <rtept lat="52.393869" lon="4.770964"><ele>0.0</ele></rtept>
    <rtept lat="52.394134" lon="4.771325"><ele>0.0</ele></rtept>
    <rtept lat="52.394218" lon="4.771351"><ele>0.0</ele></rtept>
    <rtept lat="52.394291" lon="4.771328"><ele>0.0</ele></rtept>
    <rtept lat="52.394379" lon="4.771236"><ele>0.0</ele></rtept>
    <rtept lat="52.394413" lon="4.771135"><ele>0.0</ele></rtept>
    <rtept lat="52.394648" lon="4.769953"><ele>0.0</ele></rtept>
    <rtept lat="52.394723" lon="4.769246"><ele>0.0</ele></rtept>
    <rtept lat="52.394737" lon="4.768971"><ele>0.0</ele></rtept>
    <rtept lat="52.394733" lon="4.768789"><ele>0.0</ele></rtept>
    <rtept lat="52.394596" lon="4.768366"><ele>0.0</ele></rtept>
    <rtept lat="52.394586" lon="4.768250"><ele>0.0</ele></rtept>
    <rtept lat="52.394577" lon="4.765810"><ele>0.0</ele></rtept>
    <rtept lat="52.394554" lon="4.764925"><ele>0.0</ele></rtept>
    <rtept lat="52.394503" lon="4.764465"><ele>0.0</ele></rtept>
    <rtept lat="52.394358" lon="4.763778"><ele>0.0</ele></rtept>
    <rtept lat="52.393812" lon="4.761795"><ele>0.0</ele></rtept>
    <rtept lat="52.393745" lon="4.761495"><ele>0.0</ele></rtept>
    <rtept lat="52.393643" lon="4.760846"><ele>0.0</ele></rtept>
    <rtept lat="52.393616" lon="4.760403"><ele>0.0</ele></rtept>
    <rtept lat="52.393608" lon="4.759989"><ele>0.0</ele></rtept>
    <rtept lat="52.393608" lon="4.758246"><ele>0.0</ele></rtept>
    <rtept lat="52.393608" lon="4.758082"><ele>0.0</ele></rtept>
    <rtept lat="52.393611" lon="4.756267"><ele>0.0</ele></rtept>
    <rtept lat="52.393541" lon="4.755468"><ele>0.0</ele></rtept>
    <rtept lat="52.393469" lon="4.754860"><ele>0.0</ele></rtept>
    <rtept lat="52.393440" lon="4.754773"><ele>0.0</ele></rtept>
    <rtept lat="52.392847" lon="4.753650"><ele>0.0</ele></rtept>
    <rtept lat="52.392580" lon="4.753224"><ele>0.0</ele></rtept>
    <rtept lat="52.392334" lon="4.752937"><ele>0.0</ele></rtept>
    <rtept lat="52.391939" lon="4.752645"><ele>0.0</ele></rtept>
    <rtept lat="52.391690" lon="4.752509"><ele>0.0</ele></rtept>
    <rtept lat="52.390992" lon="4.752237"><ele>0.0</ele></rtept>
    <rtept lat="52.390923" lon="4.752178"><ele>0.0</ele></rtept>
    <rtept lat="52.390879" lon="4.752086"><ele>0.0</ele></rtept>
    <rtept lat="52.390862" lon="4.751955"><ele>0.0</ele></rtept>
    <rtept lat="52.390859" lon="4.751868"><ele>0.0</ele></rtept>
    <rtept lat="52.390839" lon="4.751489"><ele>0.0</ele></rtept>
    <rtept lat="52.390835" lon="4.751140"><ele>0.0</ele></rtept>
    <rtept lat="52.390854" lon="4.751063"><ele>0.0</ele></rtept>
    <rtept lat="52.391125" lon="4.750648"><ele>0.0</ele></rtept>
    <rtept lat="52.391395" lon="4.750157"><ele>0.0</ele></rtept>
    <rtept lat="52.391488" lon="4.749882"><ele>0.0</ele></rtept>
    <rtept lat="52.391502" lon="4.749785"><ele>0.0</ele></rtept>
    <rtept lat="52.391496" lon="4.749674"><ele>0.0</ele></rtept>
    <rtept lat="52.391320" lon="4.749243"><ele>0.0</ele></rtept>
    <rtept lat="52.391215" lon="4.749053"><ele>0.0</ele></rtept>
    <rtept lat="52.391139" lon="4.748947"><ele>0.0</ele></rtept>
    <rtept lat="52.391066" lon="4.748883"><ele>0.0</ele></rtept>
    <rtept lat="52.390880" lon="4.748757"><ele>0.0</ele></rtept>
    <rtept lat="52.390777" lon="4.748660"><ele>0.0</ele></rtept>
    <rtept lat="52.390732" lon="4.748585"><ele>0.0</ele></rtept>
    <rtept lat="52.390617" lon="4.748216"><ele>0.0</ele></rtept>
    <rtept lat="52.390594" lon="4.748099"><ele>0.0</ele></rtept>
    <rtept lat="52.390585" lon="4.747855"><ele>0.0</ele></rtept>
    <rtept lat="52.390647" lon="4.747117"><ele>0.0</ele></rtept>
    <rtept lat="52.390608" lon="4.746872"><ele>0.0</ele></rtept>
    <rtept lat="52.390542" lon="4.746629"><ele>0.0</ele></rtept>
    <rtept lat="52.390465" lon="4.746442"><ele>0.0</ele></rtept>
    <rtept lat="52.390394" lon="4.746359"><ele>0.0</ele></rtept>
    <rtept lat="52.390240" lon="4.746321"><ele>0.0</ele></rtept>
    <rtept lat="52.390183" lon="4.746313"><ele>0.0</ele></rtept>
    <rtept lat="52.390122" lon="4.746262"><ele>0.0</ele></rtept>
    <rtept lat="52.389958" lon="4.746154"><ele>0.0</ele></rtept>
    <rtept lat="52.389918" lon="4.746113"><ele>0.0</ele></rtept>
    <rtept lat="52.389823" lon="4.745848"><ele>0.0</ele></rtept>
    <rtept lat="52.389772" lon="4.745779"><ele>0.0</ele></rtept>
    <rtept lat="52.389718" lon="4.745751"><ele>0.0</ele></rtept>
    <rtept lat="52.389564" lon="4.745717"><ele>0.0</ele></rtept>
    <rtept lat="52.389234" lon="4.745725"><ele>0.0</ele></rtept>
    <rtept lat="52.389142" lon="4.745709"><ele>0.0</ele></rtept>
    <rtept lat="52.389116" lon="4.745658"><ele>0.0</ele></rtept>
    <rtept lat="52.389102" lon="4.745610"><ele>0.0</ele></rtept>
    <rtept lat="52.389025" lon="4.744610"><ele>0.0</ele></rtept>
    <rtept lat="52.388880" lon="4.744087"><ele>0.0</ele></rtept>
    <rtept lat="52.388692" lon="4.743760"><ele>0.0</ele></rtept>
    <rtept lat="52.388453" lon="4.743478"><ele>0.0</ele></rtept>
    <rtept lat="52.388207" lon="4.743369"><ele>0.0</ele></rtept>
    <rtept lat="52.387947" lon="4.743357"><ele>0.0</ele></rtept>
    <rtept lat="52.387719" lon="4.743362"><ele>0.0</ele></rtept>
    <rtept lat="52.387585" lon="4.743419"><ele>0.0</ele></rtept>
    <rtept lat="52.387422" lon="4.743669"><ele>0.0</ele></rtept>
    <rtept lat="52.387205" lon="4.743893"><ele>0.0</ele></rtept>
    <rtept lat="52.387003" lon="4.744062"><ele>0.0</ele></rtept>
    <rtept lat="52.386659" lon="4.744317"><ele>0.0</ele></rtept>
    <rtept lat="52.386598" lon="4.744313"><ele>0.0</ele></rtept>
    <rtept lat="52.386569" lon="4.744175"><ele>0.0</ele></rtept>
    <rtept lat="52.386583" lon="4.743953"><ele>0.0</ele></rtept>
    <rtept lat="52.386634" lon="4.743685"><ele>0.0</ele></rtept>
    <rtept lat="52.387247" lon="4.741250"><ele>0.0</ele></rtept>
    <rtept lat="52.387350" lon="4.740992"><ele>0.0</ele></rtept>
    <rtept lat="52.387668" lon="4.740503"><ele>0.0</ele></rtept>
    <rtept lat="52.387762" lon="4.740357"><ele>0.0</ele></rtept>
    <rtept lat="52.387923" lon="4.739998"><ele>0.0</ele></rtept>
    <rtept lat="52.388270" lon="4.739174"><ele>0.0</ele></rtept>
    <rtept lat="52.388645" lon="4.738072"><ele>0.0</ele></rtept>
    <rtept lat="52.389287" lon="4.736757"><ele>0.0</ele></rtept>
    <rtept lat="52.389387" lon="4.736309"><ele>0.0</ele></rtept>
    <rtept lat="52.389382" lon="4.736155"><ele>0.0</ele></rtept>
    <rtept lat="52.389346" lon="4.736066"><ele>0.0</ele></rtept>
    <rtept lat="52.389280" lon="4.735972"><ele>0.0</ele></rtept>
    <rtept lat="52.388878" lon="4.735570"><ele>0.0</ele></rtept>
    <rtept lat="52.388760" lon="4.735411"><ele>0.0</ele></rtept>
    <rtept lat="52.388607" lon="4.735039"><ele>0.0</ele></rtept>
    <rtept lat="52.388530" lon="4.734931"><ele>0.0</ele></rtept>
    <rtept lat="52.388075" lon="4.734563"><ele>0.0</ele></rtept>
    <rtept lat="52.387893" lon="4.734450"><ele>0.0</ele></rtept>
    <rtept lat="52.387709" lon="4.734441"><ele>0.0</ele></rtept>
    <rtept lat="52.387595" lon="4.734402"><ele>0.0</ele></rtept>
    <rtept lat="52.387515" lon="4.734309"><ele>0.0</ele></rtept>
    <rtept lat="52.387473" lon="4.734164"><ele>0.0</ele></rtept>
    <rtept lat="52.387359" lon="4.732417"><ele>0.0</ele></rtept>
    <rtept lat="52.387362" lon="4.732265"><ele>0.0</ele></rtept>
    <rtept lat="52.387425" lon="4.731928"><ele>0.0</ele></rtept>
    <rtept lat="52.387427" lon="4.731789"><ele>0.0</ele></rtept>
    <rtept lat="52.386582" lon="4.720224"><ele>0.0</ele></rtept>
    <rtept lat="52.386572" lon="4.719958"><ele>0.0</ele></rtept>
    <rtept lat="52.386518" lon="4.719534"><ele>0.0</ele></rtept>
    <rtept lat="52.386471" lon="4.718700"><ele>0.0</ele></rtept>
    <rtept lat="52.386319" lon="4.716657"><ele>0.0</ele></rtept>
    <rtept lat="52.386145" lon="4.714243"><ele>0.0</ele></rtept>
    <rtept lat="52.386060" lon="4.713074"><ele>0.0</ele></rtept>
    <rtept lat="52.386025" lon="4.712588"><ele>0.0</ele></rtept>
    <rtept lat="52.385993" lon="4.712069"><ele>0.0</ele></rtept>
    <rtept lat="52.385726" lon="4.708322"><ele>0.0</ele></rtept>
    <rtept lat="52.385769" lon="4.708272"><ele>0.0</ele></rtept>
    <rtept lat="52.385648" lon="4.706683"><ele>0.0</ele></rtept>
    <rtept lat="52.385696" lon="4.706491"><ele>0.0</ele></rtept>
    <rtept lat="52.385700" lon="4.706416"><ele>0.0</ele></rtept>
    <rtept lat="52.385582" lon="4.704640"><ele>0.0</ele></rtept>
    <rtept lat="52.385555" lon="4.704252"><ele>0.0</ele></rtept>
    <rtept lat="52.385568" lon="4.704118"><ele>0.0</ele></rtept>
    <rtept lat="52.385523" lon="4.703423"><ele>0.0</ele></rtept>
    <rtept lat="52.385464" lon="4.702515"><ele>0.0</ele></rtept>
    <rtept lat="52.385321" lon="4.700560"><ele>0.0</ele></rtept>
    <rtept lat="52.385245" lon="4.699301"><ele>0.0</ele></rtept>
    <rtept lat="52.385145" lon="4.698259"><ele>0.0</ele></rtept>
    <rtept lat="52.384937" lon="4.695142"><ele>0.0</ele></rtept>
    <rtept lat="52.384870" lon="4.694351"><ele>0.0</ele></rtept>
    <rtept lat="52.384793" lon="4.693072"><ele>0.0</ele></rtept>
    <rtept lat="52.384769" lon="4.691728"><ele>0.0</ele></rtept>
    <rtept lat="52.384643" lon="4.689990"><ele>0.0</ele></rtept>
    <rtept lat="52.384552" lon="4.689864"><ele>0.0</ele></rtept>
    <rtept lat="52.384471" lon="4.689818"><ele>0.0</ele></rtept>
    <rtept lat="52.384373" lon="4.688449"><ele>0.0</ele></rtept>
    <rtept lat="52.384124" lon="4.688398"><ele>0.0</ele></rtept>
    <rtept lat="52.383819" lon="4.688425"><ele>0.0</ele></rtept>
    <rtept lat="52.383572" lon="4.688479"><ele>0.0</ele></rtept>
    <rtept lat="52.383439" lon="4.688509"><ele>0.0</ele></rtept>
    <rtept lat="52.383428" lon="4.688350"><ele>0.0</ele></rtept>
    <rtept lat="52.383404" lon="4.688042"><ele>0.0</ele></rtept>
    <rtept lat="52.383354" lon="4.687037"><ele>0.0</ele></rtept>
    <rtept lat="52.383316" lon="4.686371"><ele>0.0</ele></rtept>
    <rtept lat="52.383281" lon="4.685867"><ele>0.0</ele></rtept>
    <rtept lat="52.383267" lon="4.685663"><ele>0.0</ele></rtept>
    <rtept lat="52.383107" lon="4.683503"><ele>0.0</ele></rtept>
    <rtept lat="52.383030" lon="4.683062"><ele>0.0</ele></rtept>
    <rtept lat="52.382861" lon="4.682389"><ele>0.0</ele></rtept>
    <rtept lat="52.382821" lon="4.682121"><ele>0.0</ele></rtept>
    <rtept lat="52.382800" lon="4.681590"><ele>0.0</ele></rtept>
    <rtept lat="52.382841" lon="4.681140"><ele>0.0</ele></rtept>
    <rtept lat="52.382879" lon="4.680852"><ele>0.0</ele></rtept>
    <rtept lat="52.382917" lon="4.680484"><ele>0.0</ele></rtept>
    <rtept lat="52.382870" lon="4.680472"><ele>0.0</ele></rtept>
    <rtept lat="52.382596" lon="4.680399"><ele>0.0</ele></rtept>
    <rtept lat="52.382350" lon="4.680330"><ele>0.0</ele></rtept>
    <rtept lat="52.382168" lon="4.680323"><ele>0.0</ele></rtept>
    <rtept lat="52.381960" lon="4.680370"><ele>0.0</ele></rtept>
    <rtept lat="52.381749" lon="4.680335"><ele>0.0</ele></rtept>
    <rtept lat="52.381002" lon="4.679804"><ele>0.0</ele></rtept>
    <rtept lat="52.380908" lon="4.679705"><ele>0.0</ele></rtept>
    <rtept lat="52.380583" lon="4.679251"><ele>0.0</ele></rtept>
    <rtept lat="52.380442" lon="4.679084"><ele>0.0</ele></rtept>
    <rtept lat="52.380096" lon="4.678659"><ele>0.0</ele></rtept>
    <rtept lat="52.379917" lon="4.678449"><ele>0.0</ele></rtept>
    <rtept lat="52.379431" lon="4.677736"><ele>0.0</ele></rtept>
    <rtept lat="52.379122" lon="4.677372"><ele>0.0</ele></rtept>
    <rtept lat="52.378708" lon="4.676989"><ele>0.0</ele></rtept>
    <rtept lat="52.378574" lon="4.676825"><ele>0.0</ele></rtept>
    <rtept lat="52.378356" lon="4.676576"><ele>0.0</ele></rtept>
    <rtept lat="52.378297" lon="4.676528"><ele>0.0</ele></rtept>
    <rtept lat="52.377863" lon="4.676161"><ele>0.0</ele></rtept>
    <rtept lat="52.377769" lon="4.676071"><ele>0.0</ele></rtept>
    <rtept lat="52.376845" lon="4.674951"><ele>0.0</ele></rtept>
    <rtept lat="52.376615" lon="4.674749"><ele>0.0</ele></rtept>
    <rtept lat="52.376014" lon="4.674395"><ele>0.0</ele></rtept>
    <rtept lat="52.375623" lon="4.674199"><ele>0.0</ele></rtept>
    <rtept lat="52.375246" lon="4.673710"><ele>0.0</ele></rtept>
    <rtept lat="52.375105" lon="4.673444"><ele>0.0</ele></rtept>
    <rtept lat="52.374961" lon="4.673083"><ele>0.0</ele></rtept>
    <rtept lat="52.374770" lon="4.672871"><ele>0.0</ele></rtept>
    <rtept lat="52.374787" lon="4.672813"><ele>0.0</ele></rtept>
    <rtept lat="52.374838" lon="4.672647"><ele>0.0</ele></rtept>
    <rtept lat="52.374998" lon="4.671912"><ele>0.0</ele></rtept>
    <rtept lat="52.375024" lon="4.671784"><ele>0.0</ele></rtept>
    <rtept lat="52.375117" lon="4.671357"><ele>0.0</ele></rtept>
    <rtept lat="52.375148" lon="4.671214"><ele>0.0</ele></rtept>
    <rtept lat="52.375338" lon="4.670337"><ele>0.0</ele></rtept>
    <rtept lat="52.375344" lon="4.670311"><ele>0.0</ele></rtept>
    <rtept lat="52.375277" lon="4.670186"><ele>0.0</ele></rtept>
    <rtept lat="52.375443" lon="4.669516"><ele>0.0</ele></rtept>
    <rtept lat="52.375661" lon="4.668707"><ele>0.0</ele></rtept>
    <rtept lat="52.375844" lon="4.667928"><ele>0.0</ele></rtept>
    <rtept lat="52.376022" lon="4.667169"><ele>0.0</ele></rtept>
    <rtept lat="52.376036" lon="4.667112"><ele>0.0</ele></rtept>
    <rtept lat="52.376156" lon="4.667160"><ele>0.0</ele></rtept>
    <rtept lat="52.376234" lon="4.666826"><ele>0.0</ele></rtept>
    <rtept lat="52.376319" lon="4.666451"><ele>0.0</ele></rtept>
    <rtept lat="52.377157" lon="4.666678"><ele>0.0</ele></rtept>
    <rtept lat="52.377212" lon="4.666182"><ele>0.0</ele></rtept>
    <rtept lat="52.377168" lon="4.666011"><ele>0.0</ele></rtept>
    <rtept lat="52.377220" lon="4.665698"><ele>0.0</ele></rtept>
    <rtept lat="52.377262" lon="4.665360"><ele>0.0</ele></rtept>
    <rtept lat="52.377364" lon="4.664525"><ele>0.0</ele></rtept>
    <rtept lat="52.377374" lon="4.664441"><ele>0.0</ele></rtept>
    <rtept lat="52.377407" lon="4.664166"><ele>0.0</ele></rtept>
    <rtept lat="52.377453" lon="4.663777"><ele>0.0</ele></rtept>
    <rtept lat="52.377470" lon="4.663647"><ele>0.0</ele></rtept>
    <rtept lat="52.377624" lon="4.662784"><ele>0.0</ele></rtept>
    <rtept lat="52.377686" lon="4.662808"><ele>0.0</ele></rtept>
    <rtept lat="52.377775" lon="4.662822"><ele>0.0</ele></rtept>
    <rtept lat="52.377880" lon="4.661470"><ele>0.0</ele></rtept>
    <rtept lat="52.378060" lon="4.660699"><ele>0.0</ele></rtept>
    <rtept lat="52.378040" lon="4.660632"><ele>0.0</ele></rtept>
    <rtept lat="52.378083" lon="4.660444"><ele>0.0</ele></rtept>
    <rtept lat="52.378107" lon="4.660341"><ele>0.0</ele></rtept>
    <rtept lat="52.378754" lon="4.660632"><ele>0.0</ele></rtept>
    <rtept lat="52.378835" lon="4.660666"><ele>0.0</ele></rtept>
    <rtept lat="52.378880" lon="4.660685"><ele>0.0</ele></rtept>
    <rtept lat="52.378915" lon="4.660505"><ele>0.0</ele></rtept>
    <rtept lat="52.378941" lon="4.660375"><ele>0.0</ele></rtept>
    <rtept lat="52.378971" lon="4.660226"><ele>0.0</ele></rtept>
    <rtept lat="52.378980" lon="4.659944"><ele>0.0</ele></rtept>
    <rtept lat="52.378994" lon="4.659805"><ele>0.0</ele></rtept>
    <rtept lat="52.379026" lon="4.659422"><ele>0.0</ele></rtept>
    <rtept lat="52.379192" lon="4.657600"><ele>0.0</ele></rtept>
    <rtept lat="52.379265" lon="4.656910"><ele>0.0</ele></rtept>
    <rtept lat="52.379322" lon="4.656758"><ele>0.0</ele></rtept>
    <rtept lat="52.379484" lon="4.656332"><ele>0.0</ele></rtept>
    <rtept lat="52.379811" lon="4.656611"><ele>0.0</ele></rtept>
    <rtept lat="52.379890" lon="4.656860"><ele>0.0</ele></rtept>
    <rtept lat="52.379960" lon="4.657149"><ele>0.0</ele></rtept>
    <rtept lat="52.380029" lon="4.657505"><ele>0.0</ele></rtept>
    <rtept lat="52.380029" lon="4.657510"><ele>0.0</ele></rtept>
  </rte>
</gpx>