<?xml version="1.0" encoding="UTF-8"?>
<gpx version="1.1" creator="WeeklyCyclingRoutes"
  xmlns="http://www.topografix.com/GPX/1/1"
  xmlns:xsi="http://www.w3.org/2001/XMLSchema-instance"
  xsi:schemaLocation="http://www.topografix.com/GPX/1/1 http://www.topografix.com/GPX/1/1/gpx.xsd">
  <metadata>
    <name>20km Route – August 10, 2026</name>
    <desc>Round trip from Cremerstraat, Haarlem. Actual: 22.7km</desc>
    <time>2026-08-10T07:19:01Z</time>
  </metadata>
  <rte>
    <name>20km Cycling Route – Haarlem</name>
    <rtept lat="52.380029" lon="4.657510"><ele>0.0</ele></rtept>
    <rtept lat="52.380041" lon="4.657887"><ele>0.0</ele></rtept>
    <rtept lat="52.379804" lon="4.657899"><ele>0.0</ele></rtept>
    <rtept lat="52.379574" lon="4.657888"><ele>0.0</ele></rtept>
    <rtept lat="52.379447" lon="4.659520"><ele>0.0</ele></rtept>
    <rtept lat="52.379026" lon="4.659422"><ele>0.0</ele></rtept>
    <rtept lat="52.378994" lon="4.659805"><ele>0.0</ele></rtept>
    <rtept lat="52.378980" lon="4.659944"><ele>0.0</ele></rtept>
    <rtept lat="52.378919" lon="4.660207"><ele>0.0</ele></rtept>
    <rtept lat="52.378892" lon="4.660355"><ele>0.0</ele></rtept>
    <rtept lat="52.378869" lon="4.660481"><ele>0.0</ele></rtept>
    <rtept lat="52.378835" lon="4.660666"><ele>0.0</ele></rtept>
    <rtept lat="52.378754" lon="4.660632"><ele>0.0</ele></rtept>
    <rtept lat="52.378107" lon="4.660341"><ele>0.0</ele></rtept>
    <rtept lat="52.376591" lon="4.659639"><ele>0.0</ele></rtept>
    <rtept lat="52.376416" lon="4.659550"><ele>0.0</ele></rtept>
    <rtept lat="52.376248" lon="4.659469"><ele>0.0</ele></rtept>
    <rtept lat="52.375939" lon="4.659321"><ele>0.0</ele></rtept>
    <rtept lat="52.375387" lon="4.658920"><ele>0.0</ele></rtept>
    <rtept lat="52.375299" lon="4.658822"><ele>0.0</ele></rtept>
    <rtept lat="52.375264" lon="4.658783"><ele>0.0</ele></rtept>
    <rtept lat="52.375174" lon="4.658688"><ele>0.0</ele></rtept>
    <rtept lat="52.375071" lon="4.658558"><ele>0.0</ele></rtept>
    <rtept lat="52.374903" lon="4.658355"><ele>0.0</ele></rtept>
    <rtept lat="52.374774" lon="4.658199"><ele>0.0</ele></rtept>
    <rtept lat="52.374640" lon="4.658034"><ele>0.0</ele></rtept>
    <rtept lat="52.374391" lon="4.657790"><ele>0.0</ele></rtept>
    <rtept lat="52.374222" lon="4.657609"><ele>0.0</ele></rtept>
    <rtept lat="52.372821" lon="4.656439"><ele>0.0</ele></rtept>
    <rtept lat="52.371743" lon="4.655569"><ele>0.0</ele></rtept>
    <rtept lat="52.371644" lon="4.655494"><ele>0.0</ele></rtept>
    <rtept lat="52.371432" lon="4.655322"><ele>0.0</ele></rtept>
    <rtept lat="52.370928" lon="4.654930"><ele>0.0</ele></rtept>
    <rtept lat="52.370723" lon="4.654874"><ele>0.0</ele></rtept>
    <rtept lat="52.370389" lon="4.654836"><ele>0.0</ele></rtept>
    <rtept lat="52.370283" lon="4.654833"><ele>0.0</ele></rtept>
    <rtept lat="52.370075" lon="4.654826"><ele>0.0</ele></rtept>
    <rtept lat="52.369981" lon="4.654809"><ele>0.0</ele></rtept>
    <rtept lat="52.369938" lon="4.654772"><ele>0.0</ele></rtept>
    <rtept lat="52.369824" lon="4.654648"><ele>0.0</ele></rtept>
    <rtept lat="52.368957" lon="4.654543"><ele>0.0</ele></rtept>
    <rtept lat="52.368663" lon="4.654470"><ele>0.0</ele></rtept>
    <rtept lat="52.368353" lon="4.654479"><ele>0.0</ele></rtept>
    <rtept lat="52.368337" lon="4.654479"><ele>0.0</ele></rtept>
    <rtept lat="52.368020" lon="4.654482"><ele>0.0</ele></rtept>
    <rtept lat="52.367966" lon="4.654499"><ele>0.0</ele></rtept>
    <rtept lat="52.367813" lon="4.654557"><ele>0.0</ele></rtept>
    <rtept lat="52.367800" lon="4.654688"><ele>0.0</ele></rtept>
    <rtept lat="52.367802" lon="4.655012"><ele>0.0</ele></rtept>
    <rtept lat="52.367801" lon="4.656505"><ele>0.0</ele></rtept>
    <rtept lat="52.367811" lon="4.657704"><ele>0.0</ele></rtept>
    <rtept lat="52.367821" lon="4.659432"><ele>0.0</ele></rtept>
    <rtept lat="52.367829" lon="4.660912"><ele>0.0</ele></rtept>
    <rtept lat="52.367827" lon="4.662490"><ele>0.0</ele></rtept>
    <rtept lat="52.367872" lon="4.663787"><ele>0.0</ele></rtept>
    <rtept lat="52.367879" lon="4.664269"><ele>0.0</ele></rtept>
    <rtept lat="52.367889" lon="4.666109"><ele>0.0</ele></rtept>
    <rtept lat="52.367838" lon="4.666112"><ele>0.0</ele></rtept>
    <rtept lat="52.367782" lon="4.666114"><ele>0.0</ele></rtept>
    <rtept lat="52.367674" lon="4.666133"><ele>0.0</ele></rtept>
    <rtept lat="52.367549" lon="4.666157"><ele>0.0</ele></rtept>
    <rtept lat="52.366772" lon="4.666360"><ele>0.0</ele></rtept>
    <rtept lat="52.366728" lon="4.666376"><ele>0.0</ele></rtept>
    <rtept lat="52.366226" lon="4.666499"><ele>0.0</ele></rtept>
    <rtept lat="52.364616" lon="4.666862"><ele>0.0</ele></rtept>
    <rtept lat="52.364555" lon="4.666877"><ele>0.0</ele></rtept>
    <rtept lat="52.364252" lon="4.666958"><ele>0.0</ele></rtept>
    <rtept lat="52.362877" lon="4.667285"><ele>0.0</ele></rtept>
    <rtept lat="52.362158" lon="4.667456"><ele>0.0</ele></rtept>
    <rtept lat="52.362034" lon="4.667495"><ele>0.0</ele></rtept>
    <rtept lat="52.361115" lon="4.667716"><ele>0.0</ele></rtept>
    <rtept lat="52.360741" lon="4.667804"><ele>0.0</ele></rtept>
    <rtept lat="52.360693" lon="4.668029"><ele>0.0</ele></rtept>
    <rtept lat="52.360581" lon="4.668367"><ele>0.0</ele></rtept>
    <rtept lat="52.360467" lon="4.668618"><ele>0.0</ele></rtept>
    <rtept lat="52.360332" lon="4.668884"><ele>0.0</ele></rtept>
    <rtept lat="52.360291" lon="4.668924"><ele>0.0</ele></rtept>
    <rtept lat="52.360156" lon="4.669100"><ele>0.0</ele></rtept>
    <rtept lat="52.359958" lon="4.669296"><ele>0.0</ele></rtept>
    <rtept lat="52.359637" lon="4.669464"><ele>0.0</ele></rtept>
    <rtept lat="52.359469" lon="4.669519"><ele>0.0</ele></rtept>
    <rtept lat="52.359365" lon="4.669522"><ele>0.0</ele></rtept>
    <rtept lat="52.358102" lon="4.669544"><ele>0.0</ele></rtept>
    <rtept lat="52.357541" lon="4.669577"><ele>0.0</ele></rtept>
    <rtept lat="52.356571" lon="4.669792"><ele>0.0</ele></rtept>
    <rtept lat="52.356332" lon="4.669868"><ele>0.0</ele></rtept>
    <rtept lat="52.355799" lon="4.670115"><ele>0.0</ele></rtept>
    <rtept lat="52.355744" lon="4.670136"><ele>0.0</ele></rtept>
    <rtept lat="52.355673" lon="4.670170"><ele>0.0</ele></rtept>
    <rtept lat="52.355736" lon="4.670631"><ele>0.0</ele></rtept>
    <rtept lat="52.355992" lon="4.672205"><ele>0.0</ele></rtept>
    <rtept lat="52.356103" lon="4.673000"><ele>0.0</ele></rtept>
    <rtept lat="52.356060" lon="4.673244"><ele>0.0</ele></rtept>
    <rtept lat="52.355980" lon="4.673417"><ele>0.0</ele></rtept>
    <rtept lat="52.355766" lon="4.673762"><ele>0.0</ele></rtept>
    <rtept lat="52.354878" lon="4.674952"><ele>0.0</ele></rtept>
    <rtept lat="52.354134" lon="4.675928"><ele>0.0</ele></rtept>
    <rtept lat="52.354027" lon="4.676138"><ele>0.0</ele></rtept>
    <rtept lat="52.354006" lon="4.676245"><ele>0.0</ele></rtept>
    <rtept lat="52.353924" lon="4.676809"><ele>0.0</ele></rtept>
    <rtept lat="52.353909" lon="4.676910"><ele>0.0</ele></rtept>
    <rtept lat="52.353525" lon="4.676767"><ele>0.0</ele></rtept>
    <rtept lat="52.352686" lon="4.676218"><ele>0.0</ele></rtept>
    <rtept lat="52.352414" lon="4.676000"><ele>0.0</ele></rtept>
    <rtept lat="52.351765" lon="4.675341"><ele>0.0</ele></rtept>
    <rtept lat="52.351536" lon="4.675076"><ele>0.0</ele></rtept>
    <rtept lat="52.351073" lon="4.674468"><ele>0.0</ele></rtept>
    <rtept lat="52.350937" lon="4.674255"><ele>0.0</ele></rtept>
    <rtept lat="52.350570" lon="4.673550"><ele>0.0</ele></rtept>
    <rtept lat="52.349416" lon="4.670958"><ele>0.0</ele></rtept>
    <rtept lat="52.349319" lon="4.671047"><ele>0.0</ele></rtept>
    <rtept lat="52.348940" lon="4.671303"><ele>0.0</ele></rtept>
    <rtept lat="52.348565" lon="4.671474"><ele>0.0</ele></rtept>
    <rtept lat="52.348137" lon="4.671580"><ele>0.0</ele></rtept>
    <rtept lat="52.347251" lon="4.671674"><ele>0.0</ele></rtept>
    <rtept lat="52.347037" lon="4.671690"><ele>0.0</ele></rtept>
    <rtept lat="52.346890" lon="4.671700"><ele>0.0</ele></rtept>
    <rtept lat="52.346472" lon="4.671729"><ele>0.0</ele></rtept>
    <rtept lat="52.346320" lon="4.671657"><ele>0.0</ele></rtept>
    <rtept lat="52.346288" lon="4.671669"><ele>0.0</ele></rtept>
    <rtept lat="52.346274" lon="4.671698"><ele>0.0</ele></rtept>
    <rtept lat="52.346253" lon="4.671740"><ele>0.0</ele></rtept>
    <rtept lat="52.346236" lon="4.671775"><ele>0.0</ele></rtept>
    <rtept lat="52.346208" lon="4.671801"><ele>0.0</ele></rtept>
    <rtept lat="52.346099" lon="4.671824"><ele>0.0</ele></rtept>
    <rtept lat="52.346064" lon="4.671865"><ele>0.0</ele></rtept>
    <rtept lat="52.346041" lon="4.671887"><ele>0.0</ele></rtept>
    <rtept lat="52.345250" lon="4.672126"><ele>0.0</ele></rtept>
    <rtept lat="52.345076" lon="4.672242"><ele>0.0</ele></rtept>
    <rtept lat="52.344572" lon="4.672383"><ele>0.0</ele></rtept>
    <rtept lat="52.344355" lon="4.672373"><ele>0.0</ele></rtept>
    <rtept lat="52.343553" lon="4.672596"><ele>0.0</ele></rtept>
    <rtept lat="52.343522" lon="4.672605"><ele>0.0</ele></rtept>
    <rtept lat="52.343406" lon="4.672650"><ele>0.0</ele></rtept>
    <rtept lat="52.343232" lon="4.672765"><ele>0.0</ele></rtept>
    <rtept lat="52.342456" lon="4.672992"><ele>0.0</ele></rtept>
    <rtept lat="52.342132" lon="4.673000"><ele>0.0</ele></rtept>
    <rtept lat="52.341895" lon="4.673064"><ele>0.0</ele></rtept>
    <rtept lat="52.339506" lon="4.673740"><ele>0.0</ele></rtept>
    <rtept lat="52.339330" lon="4.673743"><ele>0.0</ele></rtept>
    <rtept lat="52.338432" lon="4.673864"><ele>0.0</ele></rtept>
    <rtept lat="52.338064" lon="4.673973"><ele>0.0</ele></rtept>
    <rtept lat="52.337773" lon="4.674005"><ele>0.0</ele></rtept>
    <rtept lat="52.336415" lon="4.674412"><ele>0.0</ele></rtept>
    <rtept lat="52.336239" lon="4.674488"><ele>0.0</ele></rtept>
    <rtept lat="52.335163" lon="4.674789"><ele>0.0</ele></rtept>
    <rtept lat="52.334916" lon="4.674863"><ele>0.0</ele></rtept>
    <rtept lat="52.334850" lon="4.674881"><ele>0.0</ele></rtept>
    <rtept lat="52.334561" lon="4.674958"><ele>0.0</ele></rtept>
    <rtept lat="52.334141" lon="4.675025"><ele>0.0</ele></rtept>
    <rtept lat="52.333495" lon="4.675123"><ele>0.0</ele></rtept>
    <rtept lat="52.333059" lon="4.675149"><ele>0.0</ele></rtept>
    <rtept lat="52.329442" lon="4.676183"><ele>0.0</ele></rtept>
    <rtept lat="52.329411" lon="4.676192"><ele>0.0</ele></rtept>
    <rtept lat="52.324001" lon="4.677735"><ele>0.0</ele></rtept>
    <rtept lat="52.323922" lon="4.677682"><ele>0.0</ele></rtept>
    <rtept lat="52.323778" lon="4.677457"><ele>0.0</ele></rtept>
    <rtept lat="52.323647" lon="4.677378"><ele>0.0</ele></rtept>
    <rtept lat="52.323527" lon="4.677397"><ele>0.0</ele></rtept>
    <rtept lat="52.323453" lon="4.677527"><ele>0.0</ele></rtept>
    <rtept lat="52.323383" lon="4.677735"><ele>0.0</ele></rtept>
    <rtept lat="52.323270" lon="4.678009"><ele>0.0</ele></rtept>
    <rtept lat="52.323221" lon="4.678099"><ele>0.0</ele></rtept>
    <rtept lat="52.323179" lon="4.678185"><ele>0.0</ele></rtept>
    <rtept lat="52.323216" lon="4.678279"><ele>0.0</ele></rtept>
    <rtept lat="52.323287" lon="4.678321"><ele>0.0</ele></rtept>
    <rtept lat="52.323359" lon="4.678407"><ele>0.0</ele></rtept>
    <rtept lat="52.323492" lon="4.678595"><ele>0.0</ele></rtept>
    <rtept lat="52.323798" lon="4.679055"><ele>0.0</ele></rtept>
    <rtept lat="52.323833" lon="4.678987"><ele>0.0</ele></rtept>
    <rtept lat="52.324582" lon="4.680051"><ele>0.0</ele></rtept>
    <rtept lat="52.324682" lon="4.680193"><ele>0.0</ele></rtept>
    <rtept lat="52.324655" lon="4.680256"><ele>0.0</ele></rtept>
    <rtept lat="52.324688" lon="4.680305"><ele>0.0</ele></rtept>
    <rtept lat="52.323507" lon="4.682511"><ele>0.0</ele></rtept>
    <rtept lat="52.323147" lon="4.683181"><ele>0.0</ele></rtept>
    <rtept lat="52.321742" lon="4.685812"><ele>0.0</ele></rtept>
    <rtept lat="52.319763" lon="4.689491"><ele>0.0</ele></rtept>
    <rtept lat="52.319709" lon="4.689631"><ele>0.0</ele></rtept>
    <rtept lat="52.319192" lon="4.691535"><ele>0.0</ele></rtept>
    <rtept lat="52.319142" lon="4.691719"><ele>0.0</ele></rtept>
    <rtept lat="52.319029" lon="4.691946"><ele>0.0</ele></rtept>
    <rtept lat="52.319008" lon="4.692020"><ele>0.0</ele></rtept>
    <rtept lat="52.318831" lon="4.692636"><ele>0.0</ele></rtept>
    <rtept lat="52.318691" lon="4.692908"><ele>0.0</ele></rtept>
    <rtept lat="52.318109" lon="4.694034"><ele>0.0</ele></rtept>
    <rtept lat="52.315356" lon="4.699127"><ele>0.0</ele></rtept>
    <rtept lat="52.313997" lon="4.701641"><ele>0.0</ele></rtept>
    <rtept lat="52.313837" lon="4.701870"><ele>0.0</ele></rtept>
    <rtept lat="52.313215" lon="4.702995"><ele>0.0</ele></rtept>
    <rtept lat="52.313137" lon="4.703179"><ele>0.0</ele></rtept>
    <rtept lat="52.313261" lon="4.703360"><ele>0.0</ele></rtept>
    <rtept lat="52.313364" lon="4.703512"><ele>0.0</ele></rtept>
    <rtept lat="52.313488" lon="4.703687"><ele>0.0</ele></rtept>
    <rtept lat="52.313364" lon="4.703512"><ele>0.0</ele></rtept>
    <rtept lat="52.313261" lon="4.703360"><ele>0.0</ele></rtept>
    <rtept lat="52.313137" lon="4.703179"><ele>0.0</ele></rtept>
    <rtept lat="52.313059" lon="4.703063"><ele>0.0</ele></rtept>
    <rtept lat="52.312960" lon="4.702899"><ele>0.0</ele></rtept>
    <rtept lat="52.312913" lon="4.702830"><ele>0.0</ele></rtept>
    <rtept lat="52.312871" lon="4.702895"><ele>0.0</ele></rtept>
    <rtept lat="52.312718" lon="4.703181"><ele>0.0</ele></rtept>
    <rtept lat="52.312695" lon="4.703263"><ele>0.0</ele></rtept>
    <rtept lat="52.312666" lon="4.703411"><ele>0.0</ele></rtept>
    <rtept lat="52.311928" lon="4.702349"><ele>0.0</ele></rtept>
    <rtept lat="52.311852" lon="4.702048"><ele>0.0</ele></rtept>
    <rtept lat="52.311575" lon="4.701663"><ele>0.0</ele></rtept>
    <rtept lat="52.310868" lon="4.700656"><ele>0.0</ele></rtept>
    <rtept lat="52.310519" lon="4.700151"><ele>0.0</ele></rtept>
    <rtept lat="52.310403" lon="4.699983"><ele>0.0</ele></rtept>
    <rtept lat="52.310102" lon="4.699553"><ele>0.0</ele></rtept>
    <rtept lat="52.309852" lon="4.699220"><ele>0.0</ele></rtept>
    <rtept lat="52.309370" lon="4.698518"><ele>0.0</ele></rtept>
    <rtept lat="52.308994" lon="4.697965"><ele>0.0</ele></rtept>
    <rtept lat="52.308566" lon="4.697391"><ele>0.0</ele></rtept>
    <rtept lat="52.307993" lon="4.696569"><ele>0.0</ele></rtept>
    <rtept lat="52.307721" lon="4.696180"><ele>0.0</ele></rtept>
    <rtept lat="52.307292" lon="4.695540"><ele>0.0</ele></rtept>
    <rtept lat="52.307328" lon="4.695461"><ele>0.0</ele></rtept>
    <rtept lat="52.307481" lon="4.695173"><ele>0.0</ele></rtept>
    <rtept lat="52.307517" lon="4.695107"><ele>0.0</ele></rtept>
    <rtept lat="52.307564" lon="4.695023"><ele>0.0</ele></rtept>
    <rtept lat="52.307963" lon="4.694302"><ele>0.0</ele></rtept>
    <rtept lat="52.308376" lon="4.693537"><ele>0.0</ele></rtept>
    <rtept lat="52.308396" lon="4.693501"><ele>0.0</ele></rtept>
    <rtept lat="52.308457" lon="4.693392"><ele>0.0</ele></rtept>
    <rtept lat="52.309223" lon="4.691968"><ele>0.0</ele></rtept>
    <rtept lat="52.309242" lon="4.691933"><ele>0.0</ele></rtept>
    <rtept lat="52.309587" lon="4.691286"><ele>0.0</ele></rtept>
    <rtept lat="52.310017" lon="4.690489"><ele>0.0</ele></rtept>
    <rtept lat="52.310100" lon="4.690337"><ele>0.0</ele></rtept>
    <rtept lat="52.310142" lon="4.690259"><ele>0.0</ele></rtept>
    <rtept lat="52.310184" lon="4.690002"><ele>0.0</ele></rtept>
    <rtept lat="52.310322" lon="4.689739"><ele>0.0</ele></rtept>
    <rtept lat="52.310345" lon="4.689692"><ele>0.0</ele></rtept>
    <rtept lat="52.310519" lon="4.689378"><ele>0.0</ele></rtept>
    <rtept lat="52.310574" lon="4.689043"><ele>0.0</ele></rtept>
    <rtept lat="52.310957" lon="4.688336"><ele>0.0</ele></rtept>
    <rtept lat="52.310992" lon="4.688224"><ele>0.0</ele></rtept>
    <rtept lat="52.311108" lon="4.687990"><ele>0.0</ele></rtept>
    <rtept lat="52.311211" lon="4.687805"><ele>0.0</ele></rtept>
    <rtept lat="52.311310" lon="4.687623"><ele>0.0</ele></rtept>
    <rtept lat="52.311371" lon="4.687465"><ele>0.0</ele></rtept>
    <rtept lat="52.311416" lon="4.687240"><ele>0.0</ele></rtept>
    <rtept lat="52.311421" lon="4.687089"><ele>0.0</ele></rtept>
    <rtept lat="52.311352" lon="4.686592"><ele>0.0</ele></rtept>
    <rtept lat="52.311291" lon="4.686201"><ele>0.0</ele></rtept>
    <rtept lat="52.311249" lon="4.686064"><ele>0.0</ele></rtept>
    <rtept lat="52.311052" lon="4.684788"><ele>0.0</ele></rtept>
    <rtept lat="52.311050" lon="4.684580"><ele>0.0</ele></rtept>
    <rtept lat="52.310957" lon="4.683941"><ele>0.0</ele></rtept>
    <rtept lat="52.310828" lon="4.683468"><ele>0.0</ele></rtept>
    <rtept lat="52.310969" lon="4.683194"><ele>0.0</ele></rtept>
    <rtept lat="52.311093" lon="4.682862"><ele>0.0</ele></rtept>
    <rtept lat="52.311275" lon="4.682530"><ele>0.0</ele></rtept>
    <rtept lat="52.311360" lon="4.682337"><ele>0.0</ele></rtept>
    <rtept lat="52.311426" lon="4.682400"><ele>0.0</ele></rtept>
    <rtept lat="52.311473" lon="4.682399"><ele>0.0</ele></rtept>
    <rtept lat="52.311523" lon="4.682385"><ele>0.0</ele></rtept>
    <rtept lat="52.311730" lon="4.682245"><ele>0.0</ele></rtept>
    <rtept lat="52.311777" lon="4.682177"><ele>0.0</ele></rtept>
    <rtept lat="52.311961" lon="4.682044"><ele>0.0</ele></rtept>
    <rtept lat="52.312158" lon="4.682050"><ele>0.0</ele></rtept>
    <rtept lat="52.312199" lon="4.682078"><ele>0.0</ele></rtept>
    <rtept lat="52.313964" lon="4.681423"><ele>0.0</ele></rtept>
    <rtept lat="52.314020" lon="4.681404"><ele>0.0</ele></rtept>
    <rtept lat="52.314092" lon="4.681384"><ele>0.0</ele></rtept>
    <rtept lat="52.314367" lon="4.681654"><ele>0.0</ele></rtept>
    <rtept lat="52.314416" lon="4.681646"><ele>0.0</ele></rtept>
    <rtept lat="52.314498" lon="4.681614"><ele>0.0</ele></rtept>
    <rtept lat="52.315717" lon="4.681151"><ele>0.0</ele></rtept>
    <rtept lat="52.315765" lon="4.681138"><ele>0.0</ele></rtept>
    <rtept lat="52.316009" lon="4.681085"><ele>0.0</ele></rtept>
    <rtept lat="52.316281" lon="4.680986"><ele>0.0</ele></rtept>
    <rtept lat="52.316541" lon="4.680892"><ele>0.0</ele></rtept>
    <rtept lat="52.316816" lon="4.680786"><ele>0.0</ele></rtept>
    <rtept lat="52.317032" lon="4.680676"><ele>0.0</ele></rtept>
    <rtept lat="52.317106" lon="4.680641"><ele>0.0</ele></rtept>
    <rtept lat="52.318071" lon="4.680272"><ele>0.0</ele></rtept>
    <rtept lat="52.322978" lon="4.678431"><ele>0.0</ele></rtept>
    <rtept lat="52.323069" lon="4.678349"><ele>0.0</ele></rtept>
    <rtept lat="52.323179" lon="4.678185"><ele>0.0</ele></rtept>
    <rtept lat="52.323221" lon="4.678099"><ele>0.0</ele></rtept>
    <rtept lat="52.322910" lon="4.677642"><ele>0.0</ele></rtept>
    <rtept lat="52.322961" lon="4.677557"><ele>0.0</ele></rtept>
    <rtept lat="52.323354" lon="4.677043"><ele>0.0</ele></rtept>
    <rtept lat="52.323578" lon="4.676803"><ele>0.0</ele></rtept>
    <rtept lat="52.323674" lon="4.676534"><ele>0.0</ele></rtept>
    <rtept lat="52.323381" lon="4.675983"><ele>0.0</ele></rtept>
    <rtept lat="52.323293" lon="4.675784"><ele>0.0</ele></rtept>
    <rtept lat="52.323183" lon="4.675418"><ele>0.0</ele></rtept>
    <rtept lat="52.323119" lon="4.675120"><ele>0.0</ele></rtept>
    <rtept lat="52.323083" lon="4.674757"><ele>0.0</ele></rtept>
    <rtept lat="52.323092" lon="4.674534"><ele>0.0</ele></rtept>
    <rtept lat="52.323139" lon="4.674263"><ele>0.0</ele></rtept>
    <rtept lat="52.323194" lon="4.673896"><ele>0.0</ele></rtept>
    <rtept lat="52.323200" lon="4.673826"><ele>0.0</ele></rtept>
    <rtept lat="52.323208" lon="4.673713"><ele>0.0</ele></rtept>
    <rtept lat="52.323245" lon="4.673476"><ele>0.0</ele></rtept>
    <rtept lat="52.323455" lon="4.672941"><ele>0.0</ele></rtept>
    <rtept lat="52.323527" lon="4.672704"><ele>0.0</ele></rtept>
    <rtept lat="52.323694" lon="4.672230"><ele>0.0</ele></rtept>
    <rtept lat="52.323765" lon="4.671981"><ele>0.0</ele></rtept>
    <rtept lat="52.323897" lon="4.671353"><ele>0.0</ele></rtept>
    <rtept lat="52.324135" lon="4.670675"><ele>0.0</ele></rtept>
    <rtept lat="52.324271" lon="4.670404"><ele>0.0</ele></rtept>
    <rtept lat="52.324422" lon="4.670134"><ele>0.0</ele></rtept>
    <rtept lat="52.324605" lon="4.669899"><ele>0.0</ele></rtept>
    <rtept lat="52.324761" lon="4.669725"><ele>0.0</ele></rtept>
    <rtept lat="52.324876" lon="4.669621"><ele>0.0</ele></rtept>
    <rtept lat="52.325229" lon="4.669228"><ele>0.0</ele></rtept>
    <rtept lat="52.325375" lon="4.669155"><ele>0.0</ele></rtept>
    <rtept lat="52.325487" lon="4.669050"><ele>0.0</ele></rtept>
    <rtept lat="52.325529" lon="4.668962"><ele>0.0</ele></rtept>
    <rtept lat="52.325699" lon="4.668401"><ele>0.0</ele></rtept>
    <rtept lat="52.325842" lon="4.667832"><ele>0.0</ele></rtept>
    <rtept lat="52.325980" lon="4.667515"><ele>0.0</ele></rtept>
    <rtept lat="52.325998" lon="4.667489"><ele>0.0</ele></rtept>
    <rtept lat="52.326441" lon="4.667245"><ele>0.0</ele></rtept>
    <rtept lat="52.326646" lon="4.667029"><ele>0.0</ele></rtept>
    <rtept lat="52.326705" lon="4.666923"><ele>0.0</ele></rtept>
    <rtept lat="52.326862" lon="4.666520"><ele>0.0</ele></rtept>
    <rtept lat="52.326891" lon="4.666440"><ele>0.0</ele></rtept>
    <rtept lat="52.326994" lon="4.666317"><ele>0.0</ele></rtept>
    <rtept lat="52.327245" lon="4.666208"><ele>0.0</ele></rtept>
    <rtept lat="52.327460" lon="4.666142"><ele>0.0</ele></rtept>
    <rtept lat="52.327669" lon="4.665743"><ele>0.0</ele></rtept>
    <rtept lat="52.327732" lon="4.665623"><ele>0.0</ele></rtept>
    <rtept lat="52.327847" lon="4.665403"><ele>0.0</ele></rtept>
    <rtept lat="52.327873" lon="4.665354"><ele>0.0</ele></rtept>
    <rtept lat="52.327981" lon="4.665150"><ele>0.0</ele></rtept>
    <rtept lat="52.328025" lon="4.665071"><ele>0.0</ele></rtept>
    <rtept lat="52.328117" lon="4.664893"><ele>0.0</ele></rtept>
    <rtept lat="52.328383" lon="4.664442"><ele>0.0</ele></rtept>
    <rtept lat="52.328516" lon="4.664281"><ele>0.0</ele></rtept>
    <rtept lat="52.328658" lon="4.664138"><ele>0.0</ele></rtept>
    <rtept lat="52.329032" lon="4.663892"><ele>0.0</ele></rtept>
    <rtept lat="52.329106" lon="4.663757"><ele>0.0</ele></rtept>
    <rtept lat="52.329182" lon="4.663665"><ele>0.0</ele></rtept>
    <rtept lat="52.329356" lon="4.663671"><ele>0.0</ele></rtept>
    <rtept lat="52.329425" lon="4.663651"><ele>0.0</ele></rtept>
    <rtept lat="52.329751" lon="4.663456"><ele>0.0</ele></rtept>
    <rtept lat="52.330127" lon="4.663227"><ele>0.0</ele></rtept>
    <rtept lat="52.330399" lon="4.663079"><ele>0.0</ele></rtept>
    <rtept lat="52.330788" lon="4.662873"><ele>0.0</ele></rtept>
    <rtept lat="52.330809" lon="4.662862"><ele>0.0</ele></rtept>
    <rtept lat="52.330974" lon="4.662770"><ele>0.0</ele></rtept>
    <rtept lat="52.331095" lon="4.662699"><ele>0.0</ele></rtept>
    <rtept lat="52.330676" lon="4.660698"><ele>0.0</ele></rtept>
    <rtept lat="52.330668" lon="4.660661"><ele>0.0</ele></rtept>
    <rtept lat="52.330632" lon="4.660507"><ele>0.0</ele></rtept>
    <rtept lat="52.330628" lon="4.660482"><ele>0.0</ele></rtept>
    <rtept lat="52.330585" lon="4.660281"><ele>0.0</ele></rtept>
    <rtept lat="52.330598" lon="4.660138"><ele>0.0</ele></rtept>
    <rtept lat="52.331189" lon="4.659050"><ele>0.0</ele></rtept>
    <rtept lat="52.333187" lon="4.655387"><ele>0.0</ele></rtept>
    <rtept lat="52.333224" lon="4.655307"><ele>0.0</ele></rtept>
    <rtept lat="52.333845" lon="4.655259"><ele>0.0</ele></rtept>
    <rtept lat="52.334082" lon="4.654797"><ele>0.0</ele></rtept>
    <rtept lat="52.334239" lon="4.654503"><ele>0.0</ele></rtept>
    <rtept lat="52.334341" lon="4.654314"><ele>0.0</ele></rtept>
    <rtept lat="52.334472" lon="4.654075"><ele>0.0</ele></rtept>
    <rtept lat="52.334616" lon="4.654284"><ele>0.0</ele></rtept>
    <rtept lat="52.335240" lon="4.653117"><ele>0.0</ele></rtept>
    <rtept lat="52.335329" lon="4.652958"><ele>0.0</ele></rtept>
    <rtept lat="52.335480" lon="4.652674"><ele>0.0</ele></rtept>
    <rtept lat="52.335770" lon="4.652129"><ele>0.0</ele></rtept>
    <rtept lat="52.336089" lon="4.651531"><ele>0.0</ele></rtept>
    <rtept lat="52.336316" lon="4.651106"><ele>0.0</ele></rtept>
    <rtept lat="52.336413" lon="4.650926"><ele>0.0</ele></rtept>
    <rtept lat="52.336640" lon="4.650501"><ele>0.0</ele></rtept>
    <rtept lat="52.336879" lon="4.650054"><ele>0.0</ele></rtept>
    <rtept lat="52.336898" lon="4.650018"><ele>0.0</ele></rtept>
    <rtept lat="52.337156" lon="4.649537"><ele>0.0</ele></rtept>
    <rtept lat="52.337442" lon="4.649002"><ele>0.0</ele></rtept>
    <rtept lat="52.337525" lon="4.648846"><ele>0.0</ele></rtept>
    <rtept lat="52.337857" lon="4.648242"><ele>0.0</ele></rtept>
    <rtept lat="52.338066" lon="4.647864"><ele>0.0</ele></rtept>
    <rtept lat="52.338343" lon="4.647357"><ele>0.0</ele></rtept>
    <rtept lat="52.338416" lon="4.647218"><ele>0.0</ele></rtept>
    <rtept lat="52.338585" lon="4.646916"><ele>0.0</ele></rtept>
    <rtept lat="52.338598" lon="4.646848"><ele>0.0</ele></rtept>
    <rtept lat="52.338609" lon="4.646795"><ele>0.0</ele></rtept>
    <rtept lat="52.338687" lon="4.646762"><ele>0.0</ele></rtept>
    <rtept lat="52.338729" lon="4.646795"><ele>0.0</ele></rtept>
    <rtept lat="52.338939" lon="4.646973"><ele>0.0</ele></rtept>
    <rtept lat="52.338980" lon="4.647058"><ele>0.0</ele></rtept>
    <rtept lat="52.339474" lon="4.646640"><ele>0.0</ele></rtept>
    <rtept lat="52.339580" lon="4.647310"><ele>0.0</ele></rtept>
    <rtept lat="52.339680" lon="4.647815"><ele>0.0</ele></rtept>
    <rtept lat="52.339721" lon="4.647795"><ele>0.0</ele></rtept>
    <rtept lat="52.339712" lon="4.647744"><ele>0.0</ele></rtept>
    <rtept lat="52.339726" lon="4.647736"><ele>0.0</ele></rtept>
    <rtept lat="52.340053" lon="4.647559"><ele>0.0</ele></rtept>
    <rtept lat="52.340080" lon="4.647544"><ele>0.0</ele></rtept>
    <rtept lat="52.340255" lon="4.648278"><ele>0.0</ele></rtept>
    <rtept lat="52.340435" lon="4.648894"><ele>0.0</ele></rtept>
    <rtept lat="52.340674" lon="4.649522"><ele>0.0</ele></rtept>
    <rtept lat="52.341459" lon="4.651327"><ele>0.0</ele></rtept>
    <rtept lat="52.341595" lon="4.651586"><ele>0.0</ele></rtept>
    <rtept lat="52.341685" lon="4.651698"><ele>0.0</ele></rtept>
    <rtept lat="52.341754" lon="4.651698"><ele>0.0</ele></rtept>
    <rtept lat="52.341957" lon="4.651794"><ele>0.0</ele></rtept>
    <rtept lat="52.342013" lon="4.651801"><ele>0.0</ele></rtept>
    <rtept lat="52.342064" lon="4.651800"><ele>0.0</ele></rtept>
    <rtept lat="52.342335" lon="4.651730"><ele>0.0</ele></rtept>
    <rtept lat="52.342369" lon="4.651696"><ele>0.0</ele></rtept>
    <rtept lat="52.342425" lon="4.650730"><ele>0.0</ele></rtept>
    <rtept lat="52.342485" lon="4.650390"><ele>0.0</ele></rtept>
    <rtept lat="52.342556" lon="4.650180"><ele>0.0</ele></rtept>
    <rtept lat="52.342666" lon="4.649972"><ele>0.0</ele></rtept>
    <rtept lat="52.343001" lon="4.649581"><ele>0.0</ele></rtept>
    <rtept lat="52.343159" lon="4.649484"><ele>0.0</ele></rtept>
    <rtept lat="52.343416" lon="4.649421"><ele>0.0</ele></rtept>
    <rtept lat="52.343613" lon="4.649427"><ele>0.0</ele></rtept>
    <rtept lat="52.343773" lon="4.649476"><ele>0.0</ele></rtept>
    <rtept lat="52.343950" lon="4.649604"><ele>0.0</ele></rtept>
    <rtept lat="52.344176" lon="4.649928"><ele>0.0</ele></rtept>
    <rtept lat="52.344881" lon="4.651016"><ele>0.0</ele></rtept>
    <rtept lat="52.344940" lon="4.651020"><ele>0.0</ele></rtept>
    <rtept lat="52.345066" lon="4.650982"><ele>0.0</ele></rtept>
    <rtept lat="52.345236" lon="4.650922"><ele>0.0</ele></rtept>
    <rtept lat="52.345388" lon="4.651110"><ele>0.0</ele></rtept>
    <rtept lat="52.345436" lon="4.652011"><ele>0.0</ele></rtept>
    <rtept lat="52.345513" lon="4.652414"><ele>0.0</ele></rtept>
    <rtept lat="52.345667" lon="4.652911"><ele>0.0</ele></rtept>
    <rtept lat="52.346012" lon="4.653697"><ele>0.0</ele></rtept>
    <rtept lat="52.346234" lon="4.654221"><ele>0.0</ele></rtept>
    <rtept lat="52.346377" lon="4.654461"><ele>0.0</ele></rtept>
    <rtept lat="52.346476" lon="4.654604"><ele>0.0</ele></rtept>
    <rtept lat="52.346709" lon="4.654815"><ele>0.0</ele></rtept>
    <rtept lat="52.346819" lon="4.654898"><ele>0.0</ele></rtept>
    <rtept lat="52.347350" lon="4.655372"><ele>0.0</ele></rtept>
    <rtept lat="52.347802" lon="4.656989"><ele>0.0</ele></rtept>
    <rtept lat="52.347871" lon="4.657263"><ele>0.0</ele></rtept>
    <rtept lat="52.348028" lon="4.657212"><ele>0.0</ele></rtept>
    <rtept lat="52.348146" lon="4.657134"><ele>0.0</ele></rtept>
    <rtept lat="52.348360" lon="4.656988"><ele>0.0</ele></rtept>
    <rtept lat="52.348946" lon="4.656599"><ele>0.0</ele></rtept>
    <rtept lat="52.349204" lon="4.656432"><ele>0.0</ele></rtept>
    <rtept lat="52.349542" lon="4.656005"><ele>0.0</ele></rtept>
    <rtept lat="52.349598" lon="4.655934"><ele>0.0</ele></rtept>
    <rtept lat="52.349690" lon="4.655819"><ele>0.0</ele></rtept>
    <rtept lat="52.349725" lon="4.655773"><ele>0.0</ele></rtept>
    <rtept lat="52.349755" lon="4.655811"><ele>0.0</ele></rtept>
    <rtept lat="52.349959" lon="4.655751"><ele>0.0</ele></rtept>
    <rtept lat="52.350596" lon="4.655503"><ele>0.0</ele></rtept>
    <rtept lat="52.350713" lon="4.655459"><ele>0.0</ele></rtept>
    <rtept lat="52.350811" lon="4.655391"><ele>0.0</ele></rtept>
    <rtept lat="52.350866" lon="4.655353"><ele>0.0</ele></rtept>
    <rtept lat="52.350980" lon="4.655276"><ele>0.0</ele></rtept>
    <rtept lat="52.351047" lon="4.655272"><ele>0.0</ele></rtept>
    <rtept lat="52.351114" lon="4.655229"><ele>0.0</ele></rtept>
    <rtept lat="52.351185" lon="4.655180"><ele>0.0</ele></rtept>
    <rtept lat="52.351231" lon="4.655094"><ele>0.0</ele></rtept>
    <rtept lat="52.351301" lon="4.655048"><ele>0.0</ele></rtept>
    <rtept lat="52.351612" lon="4.654882"><ele>0.0</ele></rtept>
    <rtept lat="52.351732" lon="4.654852"><ele>0.0</ele></rtept>
    <rtept lat="52.351833" lon="4.654827"><ele>0.0</ele></rtept>
    <rtept lat="52.352156" lon="4.654831"><ele>0.0</ele></rtept>
    <rtept lat="52.352801" lon="4.654823"><ele>0.0</ele></rtept>
    <rtept lat="52.352927" lon="4.654821"><ele>0.0</ele></rtept>
    <rtept lat="52.353138" lon="4.654814"><ele>0.0</ele></rtept>
    <rtept lat="52.353194" lon="4.654813"><ele>0.0</ele></rtept>
    <rtept lat="52.353264" lon="4.654814"><ele>0.0</ele></rtept>
    <rtept lat="52.353325" lon="4.654862"><ele>0.0</ele></rtept>
    <rtept lat="52.353576" lon="4.654870"><ele>0.0</ele></rtept>
    <rtept lat="52.353647" lon="4.654847"><ele>0.0</ele></rtept>
    <rtept lat="52.354127" lon="4.654831"><ele>0.0</ele></rtept>
    <rtept lat="52.354181" lon="4.654880"><ele>0.0</ele></rtept>
    <rtept lat="52.354234" lon="4.654883"><ele>0.0</ele></rtept>
    <rtept lat="52.354286" lon="4.654875"><ele>0.0</ele></rtept>
    <rtept lat="52.354343" lon="4.654865"><ele>0.0</ele></rtept>
    <rtept lat="52.354383" lon="4.654791"><ele>0.0</ele></rtept>
    <rtept lat="52.354582" lon="4.654610"><ele>0.0</ele></rtept>
    <rtept lat="52.354857" lon="4.654336"><ele>0.0</ele></rtept>
    <rtept lat="52.355102" lon="4.654089"><ele>0.0</ele></rtept>
    <rtept lat="52.355348" lon="4.653602"><ele>0.0</ele></rtept>
    <rtept lat="52.355447" lon="4.653387"><ele>0.0</ele></rtept>
    <rtept lat="52.355506" lon="4.653269"><ele>0.0</ele></rtept>
    <rtept lat="52.355523" lon="4.653267"><ele>0.0</ele></rtept>
    <rtept lat="52.355619" lon="4.653326"><ele>0.0</ele></rtept>
    <rtept lat="52.355910" lon="4.653484"><ele>0.0</ele></rtept>
    <rtept lat="52.356053" lon="4.653510"><ele>0.0</ele></rtept>
    <rtept lat="52.356272" lon="4.653494"><ele>0.0</ele></rtept>
    <rtept lat="52.356404" lon="4.653460"><ele>0.0</ele></rtept>
    <rtept lat="52.356452" lon="4.653449"><ele>0.0</ele></rtept>
    <rtept lat="52.356813" lon="4.653357"><ele>0.0</ele></rtept>
    <rtept lat="52.356883" lon="4.653437"><ele>0.0</ele></rtept>
    <rtept lat="52.356955" lon="4.653484"><ele>0.0</ele></rtept>
    <rtept lat="52.357045" lon="4.653480"><ele>0.0</ele></rtept>
    <rtept lat="52.357132" lon="4.653378"><ele>0.0</ele></rtept>
    <rtept lat="52.357206" lon="4.653257"><ele>0.0</ele></rtept>
    <rtept lat="52.357489" lon="4.653170"><ele>0.0</ele></rtept>
    <rtept lat="52.357534" lon="4.653126"><ele>0.0</ele></rtept>
    <rtept lat="52.358212" lon="4.652945"><ele>0.0</ele></rtept>
    <rtept lat="52.358760" lon="4.652870"><ele>0.0</ele></rtept>
    <rtept lat="52.358933" lon="4.652817"><ele>0.0</ele></rtept>
    <rtept lat="52.359366" lon="4.652714"><ele>0.0</ele></rtept>
    <rtept lat="52.360114" lon="4.652458"><ele>0.0</ele></rtept>
    <rtept lat="52.360177" lon="4.652473"><ele>0.0</ele></rtept>
    <rtept lat="52.360202" lon="4.652505"><ele>0.0</ele></rtept>
    <rtept lat="52.360233" lon="4.652646"><ele>0.0</ele></rtept>
    <rtept lat="52.360253" lon="4.653322"><ele>0.0</ele></rtept>
    <rtept lat="52.360285" lon="4.653486"><ele>0.0</ele></rtept>
    <rtept lat="52.360367" lon="4.653773"><ele>0.0</ele></rtept>
    <rtept lat="52.360403" lon="4.654166"><ele>0.0</ele></rtept>
    <rtept lat="52.360461" lon="4.654152"><ele>0.0</ele></rtept>
    <rtept lat="52.360621" lon="4.654102"><ele>0.0</ele></rtept>
    <rtept lat="52.360711" lon="4.654127"><ele>0.0</ele></rtept>
    <rtept lat="52.360742" lon="4.654147"><ele>0.0</ele></rtept>
    <rtept lat="52.360844" lon="4.654168"><ele>0.0</ele></rtept>
    <rtept lat="52.361216" lon="4.654163"><ele>0.0</ele></rtept>
    <rtept lat="52.361326" lon="4.654162"><ele>0.0</ele></rtept>
    <rtept lat="52.361412" lon="4.654126"><ele>0.0</ele></rtept>
    <rtept lat="52.361570" lon="4.654125"><ele>0.0</ele></rtept>
    <rtept lat="52.361783" lon="4.654123"><ele>0.0</ele></rtept>
    <rtept lat="52.362071" lon="4.654118"><ele>0.0</ele></rtept>
    <rtept lat="52.362123" lon="4.654117"><ele>0.0</ele></rtept>
    <rtept lat="52.362590" lon="4.654102"><ele>0.0</ele></rtept>
    <rtept lat="52.362878" lon="4.654092"><ele>0.0</ele></rtept>
    <rtept lat="52.363395" lon="4.654083"><ele>0.0</ele></rtept>
    <rtept lat="52.364269" lon="4.654060"><ele>0.0</ele></rtept>
    <rtept lat="52.364322" lon="4.654021"><ele>0.0</ele></rtept>
    <rtept lat="52.364433" lon="4.653981"><ele>0.0</ele></rtept>
    <rtept lat="52.364513" lon="4.653978"><ele>0.0</ele></rtept>
    <rtept lat="52.364581" lon="4.653989"><ele>0.0</ele></rtept>
    <rtept lat="52.364782" lon="4.654057"><ele>0.0</ele></rtept>
    <rtept lat="52.365750" lon="4.654064"><ele>0.0</ele></rtept>
    <rtept lat="52.365789" lon="4.654064"><ele>0.0</ele></rtept>
    <rtept lat="52.366357" lon="4.654069"><ele>0.0</ele></rtept>
    <rtept lat="52.366848" lon="4.654073"><ele>0.0</ele></rtept>
    <rtept lat="52.367097" lon="4.654035"><ele>0.0</ele></rtept>
    <rtept lat="52.367538" lon="4.654010"><ele>0.0</ele></rtept>
    <rtept lat="52.367578" lon="4.653977"><ele>0.0</ele></rtept>
    <rtept lat="52.367619" lon="4.653893"><ele>0.0</ele></rtept>
    <rtept lat="52.367730" lon="4.653866"><ele>0.0</ele></rtept>
    <rtept lat="52.367835" lon="4.653868"><ele>0.0</ele></rtept>
    <rtept lat="52.367914" lon="4.653873"><ele>0.0</ele></rtept>
    <rtept lat="52.367956" lon="4.653903"><ele>0.0</ele></rtept>
    <rtept lat="52.368048" lon="4.653989"><ele>0.0</ele></rtept>
    <rtept lat="52.368746" lon="4.654020"><ele>0.0</ele></rtept>
    <rtept lat="52.368986" lon="4.654073"><ele>0.0</ele></rtept>
    <rtept lat="52.369718" lon="4.654141"><ele>0.0</ele></rtept>
    <rtept lat="52.369915" lon="4.654083"><ele>0.0</ele></rtept>
    <rtept lat="52.370021" lon="4.654058"><ele>0.0</ele></rtept>
    <rtept lat="52.370091" lon="4.654053"><ele>0.0</ele></rtept>
    <rtept lat="52.370213" lon="4.654051"><ele>0.0</ele></rtept>
    <rtept lat="52.370315" lon="4.654049"><ele>0.0</ele></rtept>
    <rtept lat="52.370383" lon="4.654046"><ele>0.0</ele></rtept>
    <rtept lat="52.370538" lon="4.654082"><ele>0.0</ele></rtept>
    <rtept lat="52.370725" lon="4.654174"><ele>0.0</ele></rtept>
    <rtept lat="52.370859" lon="4.654271"><ele>0.0</ele></rtept>
    <rtept lat="52.371236" lon="4.654599"><ele>0.0</ele></rtept>
    <rtept lat="52.371585" lon="4.654921"><ele>0.0</ele></rtept>
    <rtept lat="52.371732" lon="4.655058"><ele>0.0</ele></rtept>
    <rtept lat="52.371869" lon="4.655171"><ele>0.0</ele></rtept>
    <rtept lat="52.372940" lon="4.656054"><ele>0.0</ele></rtept>
    <rtept lat="52.374345" lon="4.657221"><ele>0.0</ele></rtept>
    <rtept lat="52.374521" lon="4.657375"><ele>0.0</ele></rtept>
    <rtept lat="52.374915" lon="4.657845"><ele>0.0</ele></rtept>
    <rtept lat="52.375156" lon="4.658134"><ele>0.0</ele></rtept>
    <rtept lat="52.375240" lon="4.658240"><ele>0.0</ele></rtept>
    <rtept lat="52.375421" lon="4.658427"><ele>0.0</ele></rtept>
    <rtept lat="52.375447" lon="4.658454"><ele>0.0</ele></rtept>
    <rtept lat="52.375661" lon="4.658648"><ele>0.0</ele></rtept>
    <rtept lat="52.376522" lon="4.659138"><ele>0.0</ele></rtept>
    <rtept lat="52.376692" lon="4.659214"><ele>0.0</ele></rtept>
    <rtept lat="52.376770" lon="4.658786"><ele>0.0</ele></rtept>
    <rtept lat="52.376889" lon="4.658028"><ele>0.0</ele></rtept>
    <rtept lat="52.376953" lon="4.657698"><ele>0.0</ele></rtept>
    <rtept lat="52.377061" lon="4.657177"><ele>0.0</ele></rtept>
    <rtept lat="52.377292" lon="4.657322"><ele>0.0</ele></rtept>
    <rtept lat="52.377344" lon="4.657312"><ele>0.0</ele></rtept>
    <rtept lat="52.377768" lon="4.657592"><ele>0.0</ele></rtept>
    <rtept lat="52.378400" lon="4.658055"><ele>0.0</ele></rtept>
    <rtept lat="52.378439" lon="4.658196"><ele>0.0</ele></rtept>
    <rtept lat="52.378633" lon="4.658301"><ele>0.0</ele></rtept>
    <rtept lat="52.378896" lon="4.657371"><ele>0.0</ele></rtept>
    <rtept lat="52.379010" lon="4.657010"><ele>0.0</ele></rtept>
    <rtept lat="52.379172" lon="4.656914"><ele>0.0</ele></rtept>
    <rtept lat="52.379265" lon="4.656910"><ele>0.0</ele></rtept>
    <rtept lat="52.379322" lon="4.656758"><ele>0.0</ele></rtept>
    <rtept lat="52.379484" lon="4.656332"><ele>0.0</ele></rtept>
    <rtept lat="52.379811" lon="4.656611"><ele>0.0</ele></rtept>
    <rtept lat="52.379890" lon="4.656860"><ele>0.0</ele></rtept>
    <rtept lat="52.379960" lon="4.657149"><ele>0.0</ele></rtept>
    <rtept lat="52.380029" lon="4.657505"><ele>0.0</ele></rtept>
    <rtept lat="52.380029" lon="4.657510"><ele>0.0</ele></rtept>
  </rte>
</gpx>