<?xml version="1.0" encoding="UTF-8"?>
<gpx version="1.1" creator="WeeklyCyclingRoutes"
  xmlns="http://www.topografix.com/GPX/1/1"
  xmlns:xsi="http://www.w3.org/2001/XMLSchema-instance"
  xsi:schemaLocation="http://www.topografix.com/GPX/1/1 http://www.topografix.com/GPX/1/1/gpx.xsd">
  <metadata>
    <name>70km Route – August 10, 2026</name>
    <desc>Round trip from Cremerstraat, Haarlem. Actual: 56.8km</desc>
    <time>2026-08-10T07:19:17Z</time>
  </metadata>
  <rte>
    <name>70km Cycling Route – Haarlem</name>
    <rtept lat="52.380029" lon="4.657510"><ele>0.0</ele></rtept>
    <rtept lat="52.380041" lon="4.657887"><ele>0.0</ele></rtept>
    <rtept lat="52.380803" lon="4.657858"><ele>0.0</ele></rtept>
    <rtept lat="52.380868" lon="4.658723"><ele>0.0</ele></rtept>
    <rtept lat="52.380937" lon="4.659581"><ele>0.0</ele></rtept>
    <rtept lat="52.380949" lon="4.659839"><ele>0.0</ele></rtept>
    <rtept lat="52.381009" lon="4.660558"><ele>0.0</ele></rtept>
    <rtept lat="52.381028" lon="4.660835"><ele>0.0</ele></rtept>
    <rtept lat="52.381037" lon="4.661040"><ele>0.0</ele></rtept>
    <rtept lat="52.381073" lon="4.661219"><ele>0.0</ele></rtept>
    <rtept lat="52.381131" lon="4.661312"><ele>0.0</ele></rtept>
    <rtept lat="52.381231" lon="4.661355"><ele>0.0</ele></rtept>
    <rtept lat="52.381374" lon="4.661421"><ele>0.0</ele></rtept>
    <rtept lat="52.381476" lon="4.661472"><ele>0.0</ele></rtept>
    <rtept lat="52.381559" lon="4.661512"><ele>0.0</ele></rtept>
    <rtept lat="52.381630" lon="4.661848"><ele>0.0</ele></rtept>
    <rtept lat="52.381994" lon="4.666423"><ele>0.0</ele></rtept>
    <rtept lat="52.382083" lon="4.668033"><ele>0.0</ele></rtept>
    <rtept lat="52.382126" lon="4.668888"><ele>0.0</ele></rtept>
    <rtept lat="52.382081" lon="4.669001"><ele>0.0</ele></rtept>
    <rtept lat="52.381821" lon="4.669146"><ele>0.0</ele></rtept>
    <rtept lat="52.381681" lon="4.669329"><ele>0.0</ele></rtept>
    <rtept lat="52.381642" lon="4.669425"><ele>0.0</ele></rtept>
    <rtept lat="52.381600" lon="4.669560"><ele>0.0</ele></rtept>
    <rtept lat="52.381583" lon="4.669749"><ele>0.0</ele></rtept>
    <rtept lat="52.381603" lon="4.670462"><ele>0.0</ele></rtept>
    <rtept lat="52.381614" lon="4.670649"><ele>0.0</ele></rtept>
    <rtept lat="52.381628" lon="4.670879"><ele>0.0</ele></rtept>
    <rtept lat="52.381633" lon="4.670943"><ele>0.0</ele></rtept>
    <rtept lat="52.381643" lon="4.671069"><ele>0.0</ele></rtept>
    <rtept lat="52.381680" lon="4.672064"><ele>0.0</ele></rtept>
    <rtept lat="52.381694" lon="4.672099"><ele>0.0</ele></rtept>
    <rtept lat="52.381725" lon="4.672127"><ele>0.0</ele></rtept>
    <rtept lat="52.382021" lon="4.672080"><ele>0.0</ele></rtept>
    <rtept lat="52.382061" lon="4.672121"><ele>0.0</ele></rtept>
    <rtept lat="52.382102" lon="4.672635"><ele>0.0</ele></rtept>
    <rtept lat="52.382112" lon="4.672675"><ele>0.0</ele></rtept>
    <rtept lat="52.382158" lon="4.672706"><ele>0.0</ele></rtept>
    <rtept lat="52.382322" lon="4.672671"><ele>0.0</ele></rtept>
    <rtept lat="52.382359" lon="4.672730"><ele>0.0</ele></rtept>
    <rtept lat="52.382403" lon="4.673346"><ele>0.0</ele></rtept>
    <rtept lat="52.382439" lon="4.674017"><ele>0.0</ele></rtept>
    <rtept lat="52.382415" lon="4.674893"><ele>0.0</ele></rtept>
    <rtept lat="52.382414" lon="4.675667"><ele>0.0</ele></rtept>
    <rtept lat="52.382460" lon="4.676615"><ele>0.0</ele></rtept>
    <rtept lat="52.382526" lon="4.677270"><ele>0.0</ele></rtept>
    <rtept lat="52.382742" lon="4.678856"><ele>0.0</ele></rtept>
    <rtept lat="52.382873" lon="4.679976"><ele>0.0</ele></rtept>
    <rtept lat="52.382884" lon="4.680313"><ele>0.0</ele></rtept>
    <rtept lat="52.382870" lon="4.680472"><ele>0.0</ele></rtept>
    <rtept lat="52.382828" lon="4.680840"><ele>0.0</ele></rtept>
    <rtept lat="52.382791" lon="4.681123"><ele>0.0</ele></rtept>
    <rtept lat="52.382746" lon="4.681586"><ele>0.0</ele></rtept>
    <rtept lat="52.382747" lon="4.681843"><ele>0.0</ele></rtept>
    <rtept lat="52.382770" lon="4.682133"><ele>0.0</ele></rtept>
    <rtept lat="52.382810" lon="4.682410"><ele>0.0</ele></rtept>
    <rtept lat="52.382875" lon="4.682698"><ele>0.0</ele></rtept>
    <rtept lat="52.382992" lon="4.683096"><ele>0.0</ele></rtept>
    <rtept lat="52.383033" lon="4.683302"><ele>0.0</ele></rtept>
    <rtept lat="52.383222" lon="4.685672"><ele>0.0</ele></rtept>
    <rtept lat="52.383273" lon="4.686379"><ele>0.0</ele></rtept>
    <rtept lat="52.383293" lon="4.687046"><ele>0.0</ele></rtept>
    <rtept lat="52.383324" lon="4.688063"><ele>0.0</ele></rtept>
    <rtept lat="52.383362" lon="4.688525"><ele>0.0</ele></rtept>
    <rtept lat="52.383439" lon="4.688509"><ele>0.0</ele></rtept>
    <rtept lat="52.383572" lon="4.688479"><ele>0.0</ele></rtept>
    <rtept lat="52.383819" lon="4.688425"><ele>0.0</ele></rtept>
    <rtept lat="52.384124" lon="4.688398"><ele>0.0</ele></rtept>
    <rtept lat="52.384373" lon="4.688449"><ele>0.0</ele></rtept>
    <rtept lat="52.384471" lon="4.689818"><ele>0.0</ele></rtept>
    <rtept lat="52.384552" lon="4.689864"><ele>0.0</ele></rtept>
    <rtept lat="52.384643" lon="4.689990"><ele>0.0</ele></rtept>
    <rtept lat="52.384769" lon="4.691728"><ele>0.0</ele></rtept>
    <rtept lat="52.384793" lon="4.693072"><ele>0.0</ele></rtept>
    <rtept lat="52.384870" lon="4.694351"><ele>0.0</ele></rtept>
    <rtept lat="52.384937" lon="4.695142"><ele>0.0</ele></rtept>
    <rtept lat="52.385145" lon="4.698259"><ele>0.0</ele></rtept>
    <rtept lat="52.385245" lon="4.699301"><ele>0.0</ele></rtept>
    <rtept lat="52.385321" lon="4.700560"><ele>0.0</ele></rtept>
    <rtept lat="52.385464" lon="4.702515"><ele>0.0</ele></rtept>
    <rtept lat="52.385523" lon="4.703423"><ele>0.0</ele></rtept>
    <rtept lat="52.385568" lon="4.704118"><ele>0.0</ele></rtept>
    <rtept lat="52.385555" lon="4.704252"><ele>0.0</ele></rtept>
    <rtept lat="52.385582" lon="4.704640"><ele>0.0</ele></rtept>
    <rtept lat="52.385700" lon="4.706416"><ele>0.0</ele></rtept>
    <rtept lat="52.385696" lon="4.706491"><ele>0.0</ele></rtept>
    <rtept lat="52.385648" lon="4.706683"><ele>0.0</ele></rtept>
    <rtept lat="52.385769" lon="4.708272"><ele>0.0</ele></rtept>
    <rtept lat="52.385726" lon="4.708322"><ele>0.0</ele></rtept>
    <rtept lat="52.385993" lon="4.712069"><ele>0.0</ele></rtept>
    <rtept lat="52.386025" lon="4.712588"><ele>0.0</ele></rtept>
    <rtept lat="52.386060" lon="4.713074"><ele>0.0</ele></rtept>
    <rtept lat="52.386145" lon="4.714243"><ele>0.0</ele></rtept>
    <rtept lat="52.386319" lon="4.716657"><ele>0.0</ele></rtept>
    <rtept lat="52.386471" lon="4.718700"><ele>0.0</ele></rtept>
    <rtept lat="52.386518" lon="4.719534"><ele>0.0</ele></rtept>
    <rtept lat="52.386572" lon="4.719958"><ele>0.0</ele></rtept>
    <rtept lat="52.386582" lon="4.720224"><ele>0.0</ele></rtept>
    <rtept lat="52.387427" lon="4.731789"><ele>0.0</ele></rtept>
    <rtept lat="52.387425" lon="4.731928"><ele>0.0</ele></rtept>
    <rtept lat="52.387362" lon="4.732265"><ele>0.0</ele></rtept>
    <rtept lat="52.387359" lon="4.732417"><ele>0.0</ele></rtept>
    <rtept lat="52.387473" lon="4.734164"><ele>0.0</ele></rtept>
    <rtept lat="52.387515" lon="4.734309"><ele>0.0</ele></rtept>
    <rtept lat="52.387595" lon="4.734402"><ele>0.0</ele></rtept>
    <rtept lat="52.387709" lon="4.734441"><ele>0.0</ele></rtept>
    <rtept lat="52.387893" lon="4.734450"><ele>0.0</ele></rtept>
    <rtept lat="52.388075" lon="4.734563"><ele>0.0</ele></rtept>
    <rtept lat="52.388530" lon="4.734931"><ele>0.0</ele></rtept>
    <rtept lat="52.388607" lon="4.735039"><ele>0.0</ele></rtept>
    <rtept lat="52.388760" lon="4.735411"><ele>0.0</ele></rtept>
    <rtept lat="52.388878" lon="4.735570"><ele>0.0</ele></rtept>
    <rtept lat="52.389280" lon="4.735972"><ele>0.0</ele></rtept>
    <rtept lat="52.389346" lon="4.736066"><ele>0.0</ele></rtept>
    <rtept lat="52.389382" lon="4.736155"><ele>0.0</ele></rtept>
    <rtept lat="52.389387" lon="4.736309"><ele>0.0</ele></rtept>
    <rtept lat="52.389287" lon="4.736757"><ele>0.0</ele></rtept>
    <rtept lat="52.388645" lon="4.738072"><ele>0.0</ele></rtept>
    <rtept lat="52.388270" lon="4.739174"><ele>0.0</ele></rtept>
    <rtept lat="52.387923" lon="4.739998"><ele>0.0</ele></rtept>
    <rtept lat="52.387762" lon="4.740357"><ele>0.0</ele></rtept>
    <rtept lat="52.387668" lon="4.740503"><ele>0.0</ele></rtept>
    <rtept lat="52.387350" lon="4.740992"><ele>0.0</ele></rtept>
    <rtept lat="52.387247" lon="4.741250"><ele>0.0</ele></rtept>
    <rtept lat="52.386634" lon="4.743685"><ele>0.0</ele></rtept>
    <rtept lat="52.386583" lon="4.743953"><ele>0.0</ele></rtept>
    <rtept lat="52.386569" lon="4.744175"><ele>0.0</ele></rtept>
    <rtept lat="52.386598" lon="4.744313"><ele>0.0</ele></rtept>
    <rtept lat="52.386493" lon="4.744495"><ele>0.0</ele></rtept>
    <rtept lat="52.386337" lon="4.744446"><ele>0.0</ele></rtept>
    <rtept lat="52.386260" lon="4.744356"><ele>0.0</ele></rtept>
    <rtept lat="52.386242" lon="4.744457"><ele>0.0</ele></rtept>
    <rtept lat="52.386224" lon="4.744559"><ele>0.0</ele></rtept>
    <rtept lat="52.386210" lon="4.744641"><ele>0.0</ele></rtept>
    <rtept lat="52.386086" lon="4.744729"><ele>0.0</ele></rtept>
    <rtept lat="52.386003" lon="4.745441"><ele>0.0</ele></rtept>
    <rtept lat="52.385968" lon="4.745672"><ele>0.0</ele></rtept>
    <rtept lat="52.385949" lon="4.745808"><ele>0.0</ele></rtept>
    <rtept lat="52.385865" lon="4.746474"><ele>0.0</ele></rtept>
    <rtept lat="52.385672" lon="4.747730"><ele>0.0</ele></rtept>
    <rtept lat="52.385610" lon="4.748047"><ele>0.0</ele></rtept>
    <rtept lat="52.385286" lon="4.749137"><ele>0.0</ele></rtept>
    <rtept lat="52.385251" lon="4.749227"><ele>0.0</ele></rtept>
    <rtept lat="52.385060" lon="4.749617"><ele>0.0</ele></rtept>
    <rtept lat="52.385014" lon="4.749724"><ele>0.0</ele></rtept>
    <rtept lat="52.384872" lon="4.750098"><ele>0.0</ele></rtept>
    <rtept lat="52.384844" lon="4.750178"><ele>0.0</ele></rtept>
    <rtept lat="52.384806" lon="4.750331"><ele>0.0</ele></rtept>
    <rtept lat="52.384614" lon="4.751230"><ele>0.0</ele></rtept>
    <rtept lat="52.384623" lon="4.751423"><ele>0.0</ele></rtept>
    <rtept lat="52.384568" lon="4.751505"><ele>0.0</ele></rtept>
    <rtept lat="52.384533" lon="4.751707"><ele>0.0</ele></rtept>
    <rtept lat="52.384361" lon="4.752721"><ele>0.0</ele></rtept>
    <rtept lat="52.384329" lon="4.753311"><ele>0.0</ele></rtept>
    <rtept lat="52.384333" lon="4.753866"><ele>0.0</ele></rtept>
    <rtept lat="52.384333" lon="4.754292"><ele>0.0</ele></rtept>
    <rtept lat="52.383939" lon="4.754315"><ele>0.0</ele></rtept>
    <rtept lat="52.383752" lon="4.754300"><ele>0.0</ele></rtept>
    <rtept lat="52.383746" lon="4.754460"><ele>0.0</ele></rtept>
    <rtept lat="52.383743" lon="4.754539"><ele>0.0</ele></rtept>
    <rtept lat="52.383740" lon="4.754622"><ele>0.0</ele></rtept>
    <rtept lat="52.383735" lon="4.754787"><ele>0.0</ele></rtept>
    <rtept lat="52.383731" lon="4.754927"><ele>0.0</ele></rtept>
    <rtept lat="52.383689" lon="4.756299"><ele>0.0</ele></rtept>
    <rtept lat="52.383713" lon="4.758268"><ele>0.0</ele></rtept>
    <rtept lat="52.383694" lon="4.758466"><ele>0.0</ele></rtept>
    <rtept lat="52.383692" lon="4.758745"><ele>0.0</ele></rtept>
    <rtept lat="52.383668" lon="4.758851"><ele>0.0</ele></rtept>
    <rtept lat="52.383667" lon="4.759023"><ele>0.0</ele></rtept>
    <rtept lat="52.383674" lon="4.759187"><ele>0.0</ele></rtept>
    <rtept lat="52.383738" lon="4.759321"><ele>0.0</ele></rtept>
    <rtept lat="52.383879" lon="4.770285"><ele>0.0</ele></rtept>
    <rtept lat="52.384051" lon="4.784883"><ele>0.0</ele></rtept>
    <rtept lat="52.384066" lon="4.787833"><ele>0.0</ele></rtept>
    <rtept lat="52.384139" lon="4.793427"><ele>0.0</ele></rtept>
    <rtept lat="52.384122" lon="4.793733"><ele>0.0</ele></rtept>
    <rtept lat="52.384140" lon="4.793775"><ele>0.0</ele></rtept>
    <rtept lat="52.384182" lon="4.797791"><ele>0.0</ele></rtept>
    <rtept lat="52.384117" lon="4.799200"><ele>0.0</ele></rtept>
    <rtept lat="52.384152" lon="4.802767"><ele>0.0</ele></rtept>
    <rtept lat="52.384155" lon="4.803023"><ele>0.0</ele></rtept>
    <rtept lat="52.384157" lon="4.803150"><ele>0.0</ele></rtept>
    <rtept lat="52.384159" lon="4.803432"><ele>0.0</ele></rtept>
    <rtept lat="52.384162" lon="4.803978"><ele>0.0</ele></rtept>
    <rtept lat="52.384252" lon="4.805571"><ele>0.0</ele></rtept>
    <rtept lat="52.384298" lon="4.808605"><ele>0.0</ele></rtept>
    <rtept lat="52.384350" lon="4.811877"><ele>0.0</ele></rtept>
    <rtept lat="52.384384" lon="4.815244"><ele>0.0</ele></rtept>
    <rtept lat="52.384364" lon="4.815796"><ele>0.0</ele></rtept>
    <rtept lat="52.384242" lon="4.817748"><ele>0.0</ele></rtept>
    <rtept lat="52.384242" lon="4.818360"><ele>0.0</ele></rtept>
    <rtept lat="52.384247" lon="4.818849"><ele>0.0</ele></rtept>
    <rtept lat="52.384251" lon="4.819121"><ele>0.0</ele></rtept>
    <rtept lat="52.384440" lon="4.821527"><ele>0.0</ele></rtept>
    <rtept lat="52.384514" lon="4.826952"><ele>0.0</ele></rtept>
    <rtept lat="52.384496" lon="4.827206"><ele>0.0</ele></rtept>
    <rtept lat="52.384524" lon="4.827498"><ele>0.0</ele></rtept>
    <rtept lat="52.384610" lon="4.833777"><ele>0.0</ele></rtept>
    <rtept lat="52.384595" lon="4.834148"><ele>0.0</ele></rtept>
    <rtept lat="52.384594" lon="4.834290"><ele>0.0</ele></rtept>
    <rtept lat="52.384594" lon="4.834334"><ele>0.0</ele></rtept>
    <rtept lat="52.384608" lon="4.835046"><ele>0.0</ele></rtept>
    <rtept lat="52.384637" lon="4.835568"><ele>0.0</ele></rtept>
    <rtept lat="52.384669" lon="4.837525"><ele>0.0</ele></rtept>
    <rtept lat="52.384684" lon="4.838380"><ele>0.0</ele></rtept>
    <rtept lat="52.384625" lon="4.838721"><ele>0.0</ele></rtept>
    <rtept lat="52.384637" lon="4.839584"><ele>0.0</ele></rtept>
    <rtept lat="52.384698" lon="4.839884"><ele>0.0</ele></rtept>
    <rtept lat="52.384698" lon="4.839957"><ele>0.0</ele></rtept>
    <rtept lat="52.384700" lon="4.840003"><ele>0.0</ele></rtept>
    <rtept lat="52.384699" lon="4.840068"><ele>0.0</ele></rtept>
    <rtept lat="52.384706" lon="4.840612"><ele>0.0</ele></rtept>
    <rtept lat="52.384738" lon="4.842556"><ele>0.0</ele></rtept>
    <rtept lat="52.384732" lon="4.842949"><ele>0.0</ele></rtept>
    <rtept lat="52.384749" lon="4.843555"><ele>0.0</ele></rtept>
    <rtept lat="52.384735" lon="4.843654"><ele>0.0</ele></rtept>
    <rtept lat="52.384726" lon="4.843750"><ele>0.0</ele></rtept>
    <rtept lat="52.384752" lon="4.845328"><ele>0.0</ele></rtept>
    <rtept lat="52.384758" lon="4.845472"><ele>0.0</ele></rtept>
    <rtept lat="52.384790" lon="4.845593"><ele>0.0</ele></rtept>
    <rtept lat="52.384797" lon="4.846206"><ele>0.0</ele></rtept>
    <rtept lat="52.384794" lon="4.846729"><ele>0.0</ele></rtept>
    <rtept lat="52.384767" lon="4.847116"><ele>0.0</ele></rtept>
    <rtept lat="52.384760" lon="4.847210"><ele>0.0</ele></rtept>
    <rtept lat="52.384695" lon="4.847240"><ele>0.0</ele></rtept>
    <rtept lat="52.384602" lon="4.847284"><ele>0.0</ele></rtept>
    <rtept lat="52.384509" lon="4.847293"><ele>0.0</ele></rtept>
    <rtept lat="52.384299" lon="4.847323"><ele>0.0</ele></rtept>
    <rtept lat="52.384198" lon="4.847399"><ele>0.0</ele></rtept>
    <rtept lat="52.382611" lon="4.850983"><ele>0.0</ele></rtept>
    <rtept lat="52.382507" lon="4.851196"><ele>0.0</ele></rtept>
    <rtept lat="52.382469" lon="4.851284"><ele>0.0</ele></rtept>
    <rtept lat="52.382454" lon="4.851363"><ele>0.0</ele></rtept>
    <rtept lat="52.381959" lon="4.852254"><ele>0.0</ele></rtept>
    <rtept lat="52.380752" lon="4.854338"><ele>0.0</ele></rtept>
    <rtept lat="52.380715" lon="4.854398"><ele>0.0</ele></rtept>
    <rtept lat="52.380688" lon="4.854444"><ele>0.0</ele></rtept>
    <rtept lat="52.380612" lon="4.854574"><ele>0.0</ele></rtept>
    <rtept lat="52.380579" lon="4.854630"><ele>0.0</ele></rtept>
    <rtept lat="52.380547" lon="4.854700"><ele>0.0</ele></rtept>
    <rtept lat="52.380387" lon="4.854969"><ele>0.0</ele></rtept>
    <rtept lat="52.380148" lon="4.855363"><ele>0.0</ele></rtept>
    <rtept lat="52.379791" lon="4.855841"><ele>0.0</ele></rtept>
    <rtept lat="52.379491" lon="4.856214"><ele>0.0</ele></rtept>
    <rtept lat="52.379060" lon="4.856640"><ele>0.0</ele></rtept>
    <rtept lat="52.378905" lon="4.856789"><ele>0.0</ele></rtept>
    <rtept lat="52.378468" lon="4.857114"><ele>0.0</ele></rtept>
    <rtept lat="52.378031" lon="4.857345"><ele>0.0</ele></rtept>
    <rtept lat="52.377736" lon="4.857478"><ele>0.0</ele></rtept>
    <rtept lat="52.377166" lon="4.857669"><ele>0.0</ele></rtept>
    <rtept lat="52.377113" lon="4.857682"><ele>0.0</ele></rtept>
    <rtept lat="52.377060" lon="4.857694"><ele>0.0</ele></rtept>
    <rtept lat="52.374781" lon="4.858416"><ele>0.0</ele></rtept>
    <rtept lat="52.374740" lon="4.858383"><ele>0.0</ele></rtept>
    <rtept lat="52.374579" lon="4.858428"><ele>0.0</ele></rtept>
    <rtept lat="52.374582" lon="4.858490"><ele>0.0</ele></rtept>
    <rtept lat="52.374602" lon="4.858646"><ele>0.0</ele></rtept>
    <rtept lat="52.374609" lon="4.858708"><ele>0.0</ele></rtept>
    <rtept lat="52.374710" lon="4.859623"><ele>0.0</ele></rtept>
    <rtept lat="52.374721" lon="4.859865"><ele>0.0</ele></rtept>
    <rtept lat="52.374940" lon="4.861703"><ele>0.0</ele></rtept>
    <rtept lat="52.375045" lon="4.862567"><ele>0.0</ele></rtept>
    <rtept lat="52.375060" lon="4.862677"><ele>0.0</ele></rtept>
    <rtept lat="52.375073" lon="4.862768"><ele>0.0</ele></rtept>
    <rtept lat="52.375089" lon="4.862915"><ele>0.0</ele></rtept>
    <rtept lat="52.375143" lon="4.863141"><ele>0.0</ele></rtept>
    <rtept lat="52.375258" lon="4.863797"><ele>0.0</ele></rtept>
    <rtept lat="52.375304" lon="4.863919"><ele>0.0</ele></rtept>
    <rtept lat="52.375336" lon="4.864139"><ele>0.0</ele></rtept>
    <rtept lat="52.375363" lon="4.864334"><ele>0.0</ele></rtept>
    <rtept lat="52.375387" lon="4.864507"><ele>0.0</ele></rtept>
    <rtept lat="52.375385" lon="4.864696"><ele>0.0</ele></rtept>
    <rtept lat="52.375404" lon="4.864821"><ele>0.0</ele></rtept>
    <rtept lat="52.375412" lon="4.865030"><ele>0.0</ele></rtept>
    <rtept lat="52.375401" lon="4.865210"><ele>0.0</ele></rtept>
    <rtept lat="52.375546" lon="4.866225"><ele>0.0</ele></rtept>
    <rtept lat="52.375568" lon="4.866330"><ele>0.0</ele></rtept>
    <rtept lat="52.375671" lon="4.867440"><ele>0.0</ele></rtept>
    <rtept lat="52.375677" lon="4.867961"><ele>0.0</ele></rtept>
    <rtept lat="52.375640" lon="4.868410"><ele>0.0</ele></rtept>
    <rtept lat="52.375555" lon="4.868972"><ele>0.0</ele></rtept>
    <rtept lat="52.375454" lon="4.869372"><ele>0.0</ele></rtept>
    <rtept lat="52.375429" lon="4.869527"><ele>0.0</ele></rtept>
    <rtept lat="52.375376" lon="4.869711"><ele>0.0</ele></rtept>
    <rtept lat="52.375323" lon="4.869881"><ele>0.0</ele></rtept>
    <rtept lat="52.375282" lon="4.869993"><ele>0.0</ele></rtept>
    <rtept lat="52.375209" lon="4.870172"><ele>0.0</ele></rtept>
    <rtept lat="52.375016" lon="4.870954"><ele>0.0</ele></rtept>
    <rtept lat="52.374990" lon="4.871070"><ele>0.0</ele></rtept>
    <rtept lat="52.374931" lon="4.871335"><ele>0.0</ele></rtept>
    <rtept lat="52.374782" lon="4.871985"><ele>0.0</ele></rtept>
    <rtept lat="52.374686" lon="4.872364"><ele>0.0</ele></rtept>
    <rtept lat="52.374590" lon="4.872380"><ele>0.0</ele></rtept>
    <rtept lat="52.374544" lon="4.872412"><ele>0.0</ele></rtept>
    <rtept lat="52.374473" lon="4.872512"><ele>0.0</ele></rtept>
    <rtept lat="52.374436" lon="4.872621"><ele>0.0</ele></rtept>
    <rtept lat="52.374420" lon="4.872773"><ele>0.0</ele></rtept>
    <rtept lat="52.374433" lon="4.872883"><ele>0.0</ele></rtept>
    <rtept lat="52.374495" lon="4.873037"><ele>0.0</ele></rtept>
    <rtept lat="52.374485" lon="4.873248"><ele>0.0</ele></rtept>
    <rtept lat="52.374317" lon="4.873958"><ele>0.0</ele></rtept>
    <rtept lat="52.374285" lon="4.874097"><ele>0.0</ele></rtept>
    <rtept lat="52.374121" lon="4.874773"><ele>0.0</ele></rtept>
    <rtept lat="52.374078" lon="4.874889"><ele>0.0</ele></rtept>
    <rtept lat="52.374070" lon="4.874963"><ele>0.0</ele></rtept>
    <rtept lat="52.373848" lon="4.874982"><ele>0.0</ele></rtept>
    <rtept lat="52.373739" lon="4.874926"><ele>0.0</ele></rtept>
    <rtept lat="52.373487" lon="4.874946"><ele>0.0</ele></rtept>
    <rtept lat="52.373362" lon="4.874894"><ele>0.0</ele></rtept>
    <rtept lat="52.373245" lon="4.874838"><ele>0.0</ele></rtept>
    <rtept lat="52.373190" lon="4.874802"><ele>0.0</ele></rtept>
    <rtept lat="52.373072" lon="4.874652"><ele>0.0</ele></rtept>
    <rtept lat="52.372897" lon="4.874373"><ele>0.0</ele></rtept>
    <rtept lat="52.372665" lon="4.874092"><ele>0.0</ele></rtept>
    <rtept lat="52.372429" lon="4.873935"><ele>0.0</ele></rtept>
    <rtept lat="52.372213" lon="4.873883"><ele>0.0</ele></rtept>
    <rtept lat="52.372091" lon="4.873883"><ele>0.0</ele></rtept>
    <rtept lat="52.371845" lon="4.873927"><ele>0.0</ele></rtept>
    <rtept lat="52.371816" lon="4.873913"><ele>0.0</ele></rtept>
    <rtept lat="52.371758" lon="4.873935"><ele>0.0</ele></rtept>
    <rtept lat="52.371723" lon="4.873951"><ele>0.0</ele></rtept>
    <rtept lat="52.371648" lon="4.874034"><ele>0.0</ele></rtept>
    <rtept lat="52.370803" lon="4.874404"><ele>0.0</ele></rtept>
    <rtept lat="52.369896" lon="4.874810"><ele>0.0</ele></rtept>
    <rtept lat="52.369319" lon="4.875072"><ele>0.0</ele></rtept>
    <rtept lat="52.368944" lon="4.875350"><ele>0.0</ele></rtept>
    <rtept lat="52.368534" lon="4.875876"><ele>0.0</ele></rtept>
    <rtept lat="52.368421" lon="4.876051"><ele>0.0</ele></rtept>
    <rtept lat="52.368396" lon="4.876087"><ele>0.0</ele></rtept>
    <rtept lat="52.368339" lon="4.876177"><ele>0.0</ele></rtept>
    <rtept lat="52.368268" lon="4.876296"><ele>0.0</ele></rtept>
    <rtept lat="52.368105" lon="4.876474"><ele>0.0</ele></rtept>
    <rtept lat="52.367898" lon="4.876629"><ele>0.0</ele></rtept>
    <rtept lat="52.367744" lon="4.876700"><ele>0.0</ele></rtept>
    <rtept lat="52.367531" lon="4.876756"><ele>0.0</ele></rtept>
    <rtept lat="52.367243" lon="4.876765"><ele>0.0</ele></rtept>
    <rtept lat="52.367057" lon="4.876799"><ele>0.0</ele></rtept>
    <rtept lat="52.366783" lon="4.876928"><ele>0.0</ele></rtept>
    <rtept lat="52.366755" lon="4.876951"><ele>0.0</ele></rtept>
    <rtept lat="52.366524" lon="4.877131"><ele>0.0</ele></rtept>
    <rtept lat="52.366483" lon="4.877167"><ele>0.0</ele></rtept>
    <rtept lat="52.366264" lon="4.877423"><ele>0.0</ele></rtept>
    <rtept lat="52.366054" lon="4.877763"><ele>0.0</ele></rtept>
    <rtept lat="52.366011" lon="4.877849"><ele>0.0</ele></rtept>
    <rtept lat="52.365829" lon="4.878126"><ele>0.0</ele></rtept>
    <rtept lat="52.365619" lon="4.878351"><ele>0.0</ele></rtept>
    <rtept lat="52.365316" lon="4.878532"><ele>0.0</ele></rtept>
    <rtept lat="52.365163" lon="4.878571"><ele>0.0</ele></rtept>
    <rtept lat="52.365049" lon="4.878554"><ele>0.0</ele></rtept>
    <rtept lat="52.364636" lon="4.878444"><ele>0.0</ele></rtept>
    <rtept lat="52.364424" lon="4.878423"><ele>0.0</ele></rtept>
    <rtept lat="52.364424" lon="4.878511"><ele>0.0</ele></rtept>
    <rtept lat="52.364388" lon="4.878514"><ele>0.0</ele></rtept>
    <rtept lat="52.364221" lon="4.878552"><ele>0.0</ele></rtept>
    <rtept lat="52.363960" lon="4.878653"><ele>0.0</ele></rtept>
    <rtept lat="52.363908" lon="4.878676"><ele>0.0</ele></rtept>
    <rtept lat="52.363815" lon="4.878719"><ele>0.0</ele></rtept>
    <rtept lat="52.363758" lon="4.878759"><ele>0.0</ele></rtept>
    <rtept lat="52.363694" lon="4.878808"><ele>0.0</ele></rtept>
    <rtept lat="52.363669" lon="4.878832"><ele>0.0</ele></rtept>
    <rtept lat="52.363622" lon="4.878892"><ele>0.0</ele></rtept>
    <rtept lat="52.363388" lon="4.879310"><ele>0.0</ele></rtept>
    <rtept lat="52.362965" lon="4.879897"><ele>0.0</ele></rtept>
    <rtept lat="52.362877" lon="4.880013"><ele>0.0</ele></rtept>
    <rtept lat="52.362772" lon="4.880176"><ele>0.0</ele></rtept>
    <rtept lat="52.362737" lon="4.880227"><ele>0.0</ele></rtept>
    <rtept lat="52.362688" lon="4.880301"><ele>0.0</ele></rtept>
    <rtept lat="52.362666" lon="4.880334"><ele>0.0</ele></rtept>
    <rtept lat="52.362628" lon="4.880385"><ele>0.0</ele></rtept>
    <rtept lat="52.362358" lon="4.880665"><ele>0.0</ele></rtept>
    <rtept lat="52.362104" lon="4.880980"><ele>0.0</ele></rtept>
    <rtept lat="52.361947" lon="4.881248"><ele>0.0</ele></rtept>
    <rtept lat="52.361900" lon="4.881349"><ele>0.0</ele></rtept>
    <rtept lat="52.361790" lon="4.881656"><ele>0.0</ele></rtept>
    <rtept lat="52.361763" lon="4.881732"><ele>0.0</ele></rtept>
    <rtept lat="52.361739" lon="4.881810"><ele>0.0</ele></rtept>
    <rtept lat="52.361800" lon="4.881901"><ele>0.0</ele></rtept>
    <rtept lat="52.361904" lon="4.882023"><ele>0.0</ele></rtept>
    <rtept lat="52.361928" lon="4.882018"><ele>0.0</ele></rtept>
    <rtept lat="52.361943" lon="4.882044"><ele>0.0</ele></rtept>
    <rtept lat="52.362109" lon="4.882296"><ele>0.0</ele></rtept>
    <rtept lat="52.362118" lon="4.882312"><ele>0.0</ele></rtept>
    <rtept lat="52.362209" lon="4.882483"><ele>0.0</ele></rtept>
    <rtept lat="52.362265" lon="4.882660"><ele>0.0</ele></rtept>
    <rtept lat="52.362269" lon="4.882762"><ele>0.0</ele></rtept>
    <rtept lat="52.362240" lon="4.883000"><ele>0.0</ele></rtept>
    <rtept lat="52.362255" lon="4.883109"><ele>0.0</ele></rtept>
    <rtept lat="52.362405" lon="4.883354"><ele>0.0</ele></rtept>
    <rtept lat="52.362441" lon="4.883408"><ele>0.0</ele></rtept>
    <rtept lat="52.362522" lon="4.883614"><ele>0.0</ele></rtept>
    <rtept lat="52.362546" lon="4.883680"><ele>0.0</ele></rtept>
    <rtept lat="52.362450" lon="4.883848"><ele>0.0</ele></rtept>
    <rtept lat="52.362245" lon="4.884268"><ele>0.0</ele></rtept>
    <rtept lat="52.361312" lon="4.886203"><ele>0.0</ele></rtept>
    <rtept lat="52.361164" lon="4.886479"><ele>0.0</ele></rtept>
    <rtept lat="52.361103" lon="4.886577"><ele>0.0</ele></rtept>
    <rtept lat="52.361067" lon="4.886622"><ele>0.0</ele></rtept>
    <rtept lat="52.361058" lon="4.886709"><ele>0.0</ele></rtept>
    <rtept lat="52.361032" lon="4.886778"><ele>0.0</ele></rtept>
    <rtept lat="52.360987" lon="4.886919"><ele>0.0</ele></rtept>
    <rtept lat="52.360484" lon="4.888010"><ele>0.0</ele></rtept>
    <rtept lat="52.360459" lon="4.888066"><ele>0.0</ele></rtept>
    <rtept lat="52.360426" lon="4.888134"><ele>0.0</ele></rtept>
    <rtept lat="52.360409" lon="4.888168"><ele>0.0</ele></rtept>
    <rtept lat="52.360265" lon="4.888471"><ele>0.0</ele></rtept>
    <rtept lat="52.359899" lon="4.889229"><ele>0.0</ele></rtept>
    <rtept lat="52.359759" lon="4.889568"><ele>0.0</ele></rtept>
    <rtept lat="52.359625" lon="4.890088"><ele>0.0</ele></rtept>
    <rtept lat="52.359591" lon="4.890204"><ele>0.0</ele></rtept>
    <rtept lat="52.359546" lon="4.890290"><ele>0.0</ele></rtept>
    <rtept lat="52.359534" lon="4.890403"><ele>0.0</ele></rtept>
    <rtept lat="52.359535" lon="4.890548"><ele>0.0</ele></rtept>
    <rtept lat="52.359519" lon="4.890921"><ele>0.0</ele></rtept>
    <rtept lat="52.359470" lon="4.891337"><ele>0.0</ele></rtept>
    <rtept lat="52.359443" lon="4.891518"><ele>0.0</ele></rtept>
    <rtept lat="52.359401" lon="4.891713"><ele>0.0</ele></rtept>
    <rtept lat="52.359402" lon="4.891762"><ele>0.0</ele></rtept>
    <rtept lat="52.359397" lon="4.892128"><ele>0.0</ele></rtept>
    <rtept lat="52.359437" lon="4.892781"><ele>0.0</ele></rtept>
    <rtept lat="52.359438" lon="4.892944"><ele>0.0</ele></rtept>
    <rtept lat="52.359450" lon="4.893161"><ele>0.0</ele></rtept>
    <rtept lat="52.359268" lon="4.896366"><ele>0.0</ele></rtept>
    <rtept lat="52.359269" lon="4.897239"><ele>0.0</ele></rtept>
    <rtept lat="52.359271" lon="4.897317"><ele>0.0</ele></rtept>
    <rtept lat="52.359283" lon="4.897502"><ele>0.0</ele></rtept>
    <rtept lat="52.359310" lon="4.897658"><ele>0.0</ele></rtept>
    <rtept lat="52.359404" lon="4.898376"><ele>0.0</ele></rtept>
    <rtept lat="52.359437" lon="4.898626"><ele>0.0</ele></rtept>
    <rtept lat="52.359313" lon="4.898639"><ele>0.0</ele></rtept>
    <rtept lat="52.358511" lon="4.899000"><ele>0.0</ele></rtept>
    <rtept lat="52.358272" lon="4.899081"><ele>0.0</ele></rtept>
    <rtept lat="52.358153" lon="4.899115"><ele>0.0</ele></rtept>
    <rtept lat="52.358002" lon="4.899151"><ele>0.0</ele></rtept>
    <rtept lat="52.357952" lon="4.899162"><ele>0.0</ele></rtept>
    <rtept lat="52.357909" lon="4.899178"><ele>0.0</ele></rtept>
    <rtept lat="52.357836" lon="4.899150"><ele>0.0</ele></rtept>
    <rtept lat="52.357760" lon="4.899200"><ele>0.0</ele></rtept>
    <rtept lat="52.357714" lon="4.899238"><ele>0.0</ele></rtept>
    <rtept lat="52.357199" lon="4.899465"><ele>0.0</ele></rtept>
    <rtept lat="52.357167" lon="4.899564"><ele>0.0</ele></rtept>
    <rtept lat="52.356704" lon="4.899769"><ele>0.0</ele></rtept>
    <rtept lat="52.356709" lon="4.899790"><ele>0.0</ele></rtept>
    <rtept lat="52.357420" lon="4.902268"><ele>0.0</ele></rtept>
    <rtept lat="52.357914" lon="4.904034"><ele>0.0</ele></rtept>
    <rtept lat="52.357282" lon="4.904338"><ele>0.0</ele></rtept>
    <rtept lat="52.356673" lon="4.904610"><ele>0.0</ele></rtept>
    <rtept lat="52.356136" lon="4.904866"><ele>0.0</ele></rtept>
    <rtept lat="52.356084" lon="4.904868"><ele>0.0</ele></rtept>
    <rtept lat="52.356013" lon="4.904878"><ele>0.0</ele></rtept>
    <rtept lat="52.355902" lon="4.904969"><ele>0.0</ele></rtept>
    <rtept lat="52.355861" lon="4.905010"><ele>0.0</ele></rtept>
    <rtept lat="52.355806" lon="4.905106"><ele>0.0</ele></rtept>
    <rtept lat="52.355385" lon="4.905440"><ele>0.0</ele></rtept>
    <rtept lat="52.355165" lon="4.905588"><ele>0.0</ele></rtept>
    <rtept lat="52.355011" lon="4.905722"><ele>0.0</ele></rtept>
    <rtept lat="52.354979" lon="4.905750"><ele>0.0</ele></rtept>
    <rtept lat="52.354580" lon="4.906108"><ele>0.0</ele></rtept>
    <rtept lat="52.354214" lon="4.906431"><ele>0.0</ele></rtept>
    <rtept lat="52.354178" lon="4.906465"><ele>0.0</ele></rtept>
    <rtept lat="52.353996" lon="4.906623"><ele>0.0</ele></rtept>
    <rtept lat="52.353516" lon="4.907173"><ele>0.0</ele></rtept>
    <rtept lat="52.353218" lon="4.907494"><ele>0.0</ele></rtept>
    <rtept lat="52.353170" lon="4.907542"><ele>0.0</ele></rtept>
    <rtept lat="52.353139" lon="4.907572"><ele>0.0</ele></rtept>
    <rtept lat="52.352671" lon="4.908006"><ele>0.0</ele></rtept>
    <rtept lat="52.352413" lon="4.908212"><ele>0.0</ele></rtept>
    <rtept lat="52.352388" lon="4.908228"><ele>0.0</ele></rtept>
    <rtept lat="52.351301" lon="4.908920"><ele>0.0</ele></rtept>
    <rtept lat="52.351217" lon="4.908971"><ele>0.0</ele></rtept>
    <rtept lat="52.350080" lon="4.909545"><ele>0.0</ele></rtept>
    <rtept lat="52.350044" lon="4.909560"><ele>0.0</ele></rtept>
    <rtept lat="52.349947" lon="4.909600"><ele>0.0</ele></rtept>
    <rtept lat="52.349711" lon="4.909700"><ele>0.0</ele></rtept>
    <rtept lat="52.349615" lon="4.909740"><ele>0.0</ele></rtept>
    <rtept lat="52.349538" lon="4.909771"><ele>0.0</ele></rtept>
    <rtept lat="52.349238" lon="4.909892"><ele>0.0</ele></rtept>
    <rtept lat="52.348696" lon="4.910106"><ele>0.0</ele></rtept>
    <rtept lat="52.348480" lon="4.910295"><ele>0.0</ele></rtept>
    <rtept lat="52.347862" lon="4.911037"><ele>0.0</ele></rtept>
    <rtept lat="52.347598" lon="4.911303"><ele>0.0</ele></rtept>
    <rtept lat="52.347476" lon="4.911371"><ele>0.0</ele></rtept>
    <rtept lat="52.347347" lon="4.911361"><ele>0.0</ele></rtept>
    <rtept lat="52.347297" lon="4.911370"><ele>0.0</ele></rtept>
    <rtept lat="52.347216" lon="4.911394"><ele>0.0</ele></rtept>
    <rtept lat="52.347013" lon="4.911479"><ele>0.0</ele></rtept>
    <rtept lat="52.347023" lon="4.911560"><ele>0.0</ele></rtept>
    <rtept lat="52.347042" lon="4.911663"><ele>0.0</ele></rtept>
    <rtept lat="52.347075" lon="4.911866"><ele>0.0</ele></rtept>
    <rtept lat="52.347086" lon="4.911936"><ele>0.0</ele></rtept>
    <rtept lat="52.347095" lon="4.911995"><ele>0.0</ele></rtept>
    <rtept lat="52.347099" lon="4.912015"><ele>0.0</ele></rtept>
    <rtept lat="52.347123" lon="4.912028"><ele>0.0</ele></rtept>
    <rtept lat="52.347173" lon="4.912101"><ele>0.0</ele></rtept>
    <rtept lat="52.347196" lon="4.912198"><ele>0.0</ele></rtept>
    <rtept lat="52.347343" lon="4.913253"><ele>0.0</ele></rtept>
    <rtept lat="52.347353" lon="4.913337"><ele>0.0</ele></rtept>
    <rtept lat="52.347342" lon="4.913468"><ele>0.0</ele></rtept>
    <rtept lat="52.347336" lon="4.913485"><ele>0.0</ele></rtept>
    <rtept lat="52.347257" lon="4.913659"><ele>0.0</ele></rtept>
    <rtept lat="52.347202" lon="4.913710"><ele>0.0</ele></rtept>
    <rtept lat="52.346705" lon="4.913964"><ele>0.0</ele></rtept>
    <rtept lat="52.346092" lon="4.914283"><ele>0.0</ele></rtept>
    <rtept lat="52.346065" lon="4.914298"><ele>0.0</ele></rtept>
    <rtept lat="52.345964" lon="4.914347"><ele>0.0</ele></rtept>
    <rtept lat="52.345904" lon="4.914419"><ele>0.0</ele></rtept>
    <rtept lat="52.345913" lon="4.914579"><ele>0.0</ele></rtept>
    <rtept lat="52.345898" lon="4.914637"><ele>0.0</ele></rtept>
    <rtept lat="52.345865" lon="4.914702"><ele>0.0</ele></rtept>
    <rtept lat="52.345527" lon="4.915334"><ele>0.0</ele></rtept>
    <rtept lat="52.345396" lon="4.915581"><ele>0.0</ele></rtept>
    <rtept lat="52.345196" lon="4.915965"><ele>0.0</ele></rtept>
    <rtept lat="52.344932" lon="4.916464"><ele>0.0</ele></rtept>
    <rtept lat="52.344708" lon="4.916879"><ele>0.0</ele></rtept>
    <rtept lat="52.344662" lon="4.916965"><ele>0.0</ele></rtept>
    <rtept lat="52.344512" lon="4.917250"><ele>0.0</ele></rtept>
    <rtept lat="52.344323" lon="4.917608"><ele>0.0</ele></rtept>
    <rtept lat="52.344206" lon="4.917819"><ele>0.0</ele></rtept>
    <rtept lat="52.344078" lon="4.917907"><ele>0.0</ele></rtept>
    <rtept lat="52.344049" lon="4.917922"><ele>0.0</ele></rtept>
    <rtept lat="52.343893" lon="4.918007"><ele>0.0</ele></rtept>
    <rtept lat="52.343837" lon="4.918038"><ele>0.0</ele></rtept>
    <rtept lat="52.343787" lon="4.918155"><ele>0.0</ele></rtept>
    <rtept lat="52.343758" lon="4.918280"><ele>0.0</ele></rtept>
    <rtept lat="52.343760" lon="4.918365"><ele>0.0</ele></rtept>
    <rtept lat="52.343768" lon="4.918412"><ele>0.0</ele></rtept>
    <rtept lat="52.343802" lon="4.918504"><ele>0.0</ele></rtept>
    <rtept lat="52.343827" lon="4.918546"><ele>0.0</ele></rtept>
    <rtept lat="52.343834" lon="4.918596"><ele>0.0</ele></rtept>
    <rtept lat="52.343820" lon="4.918666"><ele>0.0</ele></rtept>
    <rtept lat="52.343499" lon="4.919391"><ele>0.0</ele></rtept>
    <rtept lat="52.343504" lon="4.919504"><ele>0.0</ele></rtept>
    <rtept lat="52.343607" lon="4.919773"><ele>0.0</ele></rtept>
    <rtept lat="52.343472" lon="4.919909"><ele>0.0</ele></rtept>
    <rtept lat="52.343286" lon="4.920139"><ele>0.0</ele></rtept>
    <rtept lat="52.343139" lon="4.920414"><ele>0.0</ele></rtept>
    <rtept lat="52.343085" lon="4.920496"><ele>0.0</ele></rtept>
    <rtept lat="52.343042" lon="4.920574"><ele>0.0</ele></rtept>
    <rtept lat="52.342924" lon="4.920832"><ele>0.0</ele></rtept>
    <rtept lat="52.342866" lon="4.920959"><ele>0.0</ele></rtept>
    <rtept lat="52.341651" lon="4.923632"><ele>0.0</ele></rtept>
    <rtept lat="52.341197" lon="4.924631"><ele>0.0</ele></rtept>
    <rtept lat="52.340853" lon="4.925389"><ele>0.0</ele></rtept>
    <rtept lat="52.340814" lon="4.925472"><ele>0.0</ele></rtept>
    <rtept lat="52.340266" lon="4.926684"><ele>0.0</ele></rtept>
    <rtept lat="52.339983" lon="4.927303"><ele>0.0</ele></rtept>
    <rtept lat="52.339436" lon="4.928512"><ele>0.0</ele></rtept>
    <rtept lat="52.339244" lon="4.928973"><ele>0.0</ele></rtept>
    <rtept lat="52.339110" lon="4.929466"><ele>0.0</ele></rtept>
    <rtept lat="52.337914" lon="4.935985"><ele>0.0</ele></rtept>
    <rtept lat="52.337244" lon="4.939650"><ele>0.0</ele></rtept>
    <rtept lat="52.336903" lon="4.941502"><ele>0.0</ele></rtept>
    <rtept lat="52.336897" lon="4.941597"><ele>0.0</ele></rtept>
    <rtept lat="52.336961" lon="4.942633"><ele>0.0</ele></rtept>
    <rtept lat="52.336987" lon="4.942726"><ele>0.0</ele></rtept>
    <rtept lat="52.337101" lon="4.943085"><ele>0.0</ele></rtept>
    <rtept lat="52.337137" lon="4.943150"><ele>0.0</ele></rtept>
    <rtept lat="52.336994" lon="4.943408"><ele>0.0</ele></rtept>
    <rtept lat="52.336739" lon="4.943852"><ele>0.0</ele></rtept>
    <rtept lat="52.336675" lon="4.943962"><ele>0.0</ele></rtept>
    <rtept lat="52.336617" lon="4.944067"><ele>0.0</ele></rtept>
    <rtept lat="52.336583" lon="4.944127"><ele>0.0</ele></rtept>
    <rtept lat="52.336396" lon="4.944385"><ele>0.0</ele></rtept>
    <rtept lat="52.336001" lon="4.944834"><ele>0.0</ele></rtept>
    <rtept lat="52.335838" lon="4.945066"><ele>0.0</ele></rtept>
    <rtept lat="52.335396" lon="4.945787"><ele>0.0</ele></rtept>
    <rtept lat="52.335245" lon="4.946038"><ele>0.0</ele></rtept>
    <rtept lat="52.335201" lon="4.946337"><ele>0.0</ele></rtept>
    <rtept lat="52.334945" lon="4.946919"><ele>0.0</ele></rtept>
    <rtept lat="52.334861" lon="4.946958"><ele>0.0</ele></rtept>
    <rtept lat="52.334815" lon="4.946936"><ele>0.0</ele></rtept>
    <rtept lat="52.334764" lon="4.946876"><ele>0.0</ele></rtept>
    <rtept lat="52.334727" lon="4.946948"><ele>0.0</ele></rtept>
    <rtept lat="52.334687" lon="4.947018"><ele>0.0</ele></rtept>
    <rtept lat="52.334652" lon="4.947080"><ele>0.0</ele></rtept>
    <rtept lat="52.334556" lon="4.947340"><ele>0.0</ele></rtept>
    <rtept lat="52.334531" lon="4.947466"><ele>0.0</ele></rtept>
    <rtept lat="52.334528" lon="4.947887"><ele>0.0</ele></rtept>
    <rtept lat="52.334484" lon="4.948125"><ele>0.0</ele></rtept>
    <rtept lat="52.334314" lon="4.948399"><ele>0.0</ele></rtept>
    <rtept lat="52.334180" lon="4.948575"><ele>0.0</ele></rtept>
    <rtept lat="52.333822" lon="4.948945"><ele>0.0</ele></rtept>
    <rtept lat="52.333659" lon="4.949173"><ele>0.0</ele></rtept>
    <rtept lat="52.333544" lon="4.949406"><ele>0.0</ele></rtept>
    <rtept lat="52.333439" lon="4.949692"><ele>0.0</ele></rtept>
    <rtept lat="52.333204" lon="4.950134"><ele>0.0</ele></rtept>
    <rtept lat="52.333068" lon="4.950308"><ele>0.0</ele></rtept>
    <rtept lat="52.332863" lon="4.950522"><ele>0.0</ele></rtept>
    <rtept lat="52.332769" lon="4.950703"><ele>0.0</ele></rtept>
    <rtept lat="52.332683" lon="4.950908"><ele>0.0</ele></rtept>
    <rtept lat="52.332594" lon="4.951368"><ele>0.0</ele></rtept>
    <rtept lat="52.332473" lon="4.951491"><ele>0.0</ele></rtept>
    <rtept lat="52.332340" lon="4.951615"><ele>0.0</ele></rtept>
    <rtept lat="52.331462" lon="4.952416"><ele>0.0</ele></rtept>
    <rtept lat="52.331421" lon="4.952441"><ele>0.0</ele></rtept>
    <rtept lat="52.331270" lon="4.952442"><ele>0.0</ele></rtept>
    <rtept lat="52.331210" lon="4.952438"><ele>0.0</ele></rtept>
    <rtept lat="52.330956" lon="4.952429"><ele>0.0</ele></rtept>
    <rtept lat="52.330126" lon="4.952117"><ele>0.0</ele></rtept>
    <rtept lat="52.330054" lon="4.952113"><ele>0.0</ele></rtept>
    <rtept lat="52.329972" lon="4.952149"><ele>0.0</ele></rtept>
    <rtept lat="52.329591" lon="4.952495"><ele>0.0</ele></rtept>
    <rtept lat="52.328502" lon="4.953479"><ele>0.0</ele></rtept>
    <rtept lat="52.328461" lon="4.953515"><ele>0.0</ele></rtept>
    <rtept lat="52.328320" lon="4.953675"><ele>0.0</ele></rtept>
    <rtept lat="52.328119" lon="4.953957"><ele>0.0</ele></rtept>
    <rtept lat="52.327659" lon="4.954603"><ele>0.0</ele></rtept>
    <rtept lat="52.327551" lon="4.954742"><ele>0.0</ele></rtept>
    <rtept lat="52.326213" lon="4.956226"><ele>0.0</ele></rtept>
    <rtept lat="52.326071" lon="4.956360"><ele>0.0</ele></rtept>
    <rtept lat="52.326038" lon="4.956387"><ele>0.0</ele></rtept>
    <rtept lat="52.326016" lon="4.956408"><ele>0.0</ele></rtept>
    <rtept lat="52.325997" lon="4.956425"><ele>0.0</ele></rtept>
    <rtept lat="52.325933" lon="4.956500"><ele>0.0</ele></rtept>
    <rtept lat="52.325917" lon="4.956581"><ele>0.0</ele></rtept>
    <rtept lat="52.325968" lon="4.957290"><ele>0.0</ele></rtept>
    <rtept lat="52.326024" lon="4.957466"><ele>0.0</ele></rtept>
    <rtept lat="52.325789" lon="4.957918"><ele>0.0</ele></rtept>
    <rtept lat="52.324781" lon="4.958843"><ele>0.0</ele></rtept>
    <rtept lat="52.324684" lon="4.958931"><ele>0.0</ele></rtept>
    <rtept lat="52.324340" lon="4.959239"><ele>0.0</ele></rtept>
    <rtept lat="52.324243" lon="4.959323"><ele>0.0</ele></rtept>
    <rtept lat="52.324143" lon="4.959389"><ele>0.0</ele></rtept>
    <rtept lat="52.323973" lon="4.959545"><ele>0.0</ele></rtept>
    <rtept lat="52.323898" lon="4.959616"><ele>0.0</ele></rtept>
    <rtept lat="52.323761" lon="4.959741"><ele>0.0</ele></rtept>
    <rtept lat="52.323686" lon="4.959811"><ele>0.0</ele></rtept>
    <rtept lat="52.323606" lon="4.959885"><ele>0.0</ele></rtept>
    <rtept lat="52.323559" lon="4.959927"><ele>0.0</ele></rtept>
    <rtept lat="52.323504" lon="4.959976"><ele>0.0</ele></rtept>
    <rtept lat="52.323433" lon="4.960041"><ele>0.0</ele></rtept>
    <rtept lat="52.323362" lon="4.960106"><ele>0.0</ele></rtept>
    <rtept lat="52.322905" lon="4.960521"><ele>0.0</ele></rtept>
    <rtept lat="52.322502" lon="4.960890"><ele>0.0</ele></rtept>
    <rtept lat="52.322421" lon="4.960961"><ele>0.0</ele></rtept>
    <rtept lat="52.322399" lon="4.960984"><ele>0.0</ele></rtept>
    <rtept lat="52.322440" lon="4.961107"><ele>0.0</ele></rtept>
    <rtept lat="52.322470" lon="4.961192"><ele>0.0</ele></rtept>
    <rtept lat="52.322770" lon="4.962073"><ele>0.0</ele></rtept>
    <rtept lat="52.322855" lon="4.962314"><ele>0.0</ele></rtept>
    <rtept lat="52.322934" lon="4.962547"><ele>0.0</ele></rtept>
    <rtept lat="52.322896" lon="4.962583"><ele>0.0</ele></rtept>
    <rtept lat="52.322711" lon="4.962751"><ele>0.0</ele></rtept>
    <rtept lat="52.322669" lon="4.962811"><ele>0.0</ele></rtept>
    <rtept lat="52.322743" lon="4.963009"><ele>0.0</ele></rtept>
    <rtept lat="52.322741" lon="4.963119"><ele>0.0</ele></rtept>
    <rtept lat="52.322658" lon="4.964306"><ele>0.0</ele></rtept>
    <rtept lat="52.322674" lon="4.964542"><ele>0.0</ele></rtept>
    <rtept lat="52.322762" lon="4.964810"><ele>0.0</ele></rtept>
    <rtept lat="52.322786" lon="4.964977"><ele>0.0</ele></rtept>
    <rtept lat="52.322768" lon="4.965199"><ele>0.0</ele></rtept>
    <rtept lat="52.322691" lon="4.965477"><ele>0.0</ele></rtept>
    <rtept lat="52.322693" lon="4.965600"><ele>0.0</ele></rtept>
    <rtept lat="52.322723" lon="4.965706"><ele>0.0</ele></rtept>
    <rtept lat="52.322902" lon="4.966232"><ele>0.0</ele></rtept>
    <rtept lat="52.322956" lon="4.966379"><ele>0.0</ele></rtept>
    <rtept lat="52.323059" lon="4.966540"><ele>0.0</ele></rtept>
    <rtept lat="52.323087" lon="4.966683"><ele>0.0</ele></rtept>
    <rtept lat="52.323062" lon="4.966895"><ele>0.0</ele></rtept>
    <rtept lat="52.323032" lon="4.967090"><ele>0.0</ele></rtept>
    <rtept lat="52.322984" lon="4.967172"><ele>0.0</ele></rtept>
    <rtept lat="52.322950" lon="4.967317"><ele>0.0</ele></rtept>
    <rtept lat="52.322898" lon="4.967607"><ele>0.0</ele></rtept>
    <rtept lat="52.322902" lon="4.967700"><ele>0.0</ele></rtept>
    <rtept lat="52.322931" lon="4.967785"><ele>0.0</ele></rtept>
    <rtept lat="52.322990" lon="4.967853"><ele>0.0</ele></rtept>
    <rtept lat="52.322961" lon="4.967955"><ele>0.0</ele></rtept>
    <rtept lat="52.322956" lon="4.968077"><ele>0.0</ele></rtept>
    <rtept lat="52.322946" lon="4.968423"><ele>0.0</ele></rtept>
    <rtept lat="52.322932" lon="4.968767"><ele>0.0</ele></rtept>
    <rtept lat="52.322921" lon="4.968987"><ele>0.0</ele></rtept>
    <rtept lat="52.322890" lon="4.969620"><ele>0.0</ele></rtept>
    <rtept lat="52.322913" lon="4.969712"><ele>0.0</ele></rtept>
    <rtept lat="52.322862" lon="4.969759"><ele>0.0</ele></rtept>
    <rtept lat="52.322661" lon="4.969944"><ele>0.0</ele></rtept>
    <rtept lat="52.322553" lon="4.970043"><ele>0.0</ele></rtept>
    <rtept lat="52.322510" lon="4.970083"><ele>0.0</ele></rtept>
    <rtept lat="52.322632" lon="4.970438"><ele>0.0</ele></rtept>
    <rtept lat="52.322643" lon="4.970473"><ele>0.0</ele></rtept>
    <rtept lat="52.322654" lon="4.970505"><ele>0.0</ele></rtept>
    <rtept lat="52.322890" lon="4.971197"><ele>0.0</ele></rtept>
    <rtept lat="52.323085" lon="4.971781"><ele>0.0</ele></rtept>
    <rtept lat="52.323172" lon="4.972031"><ele>0.0</ele></rtept>
    <rtept lat="52.323269" lon="4.972321"><ele>0.0</ele></rtept>
    <rtept lat="52.323268" lon="4.972447"><ele>0.0</ele></rtept>
    <rtept lat="52.323291" lon="4.972558"><ele>0.0</ele></rtept>
    <rtept lat="52.323330" lon="4.972630"><ele>0.0</ele></rtept>
    <rtept lat="52.323408" lon="4.972715"><ele>0.0</ele></rtept>
    <rtept lat="52.323436" lon="4.972790"><ele>0.0</ele></rtept>
    <rtept lat="52.323454" lon="4.972844"><ele>0.0</ele></rtept>
    <rtept lat="52.323465" lon="4.972879"><ele>0.0</ele></rtept>
    <rtept lat="52.323475" lon="4.972910"><ele>0.0</ele></rtept>
    <rtept lat="52.323483" lon="4.972938"><ele>0.0</ele></rtept>
    <rtept lat="52.323497" lon="4.972994"><ele>0.0</ele></rtept>
    <rtept lat="52.323499" lon="4.973127"><ele>0.0</ele></rtept>
    <rtept lat="52.323504" lon="4.973163"><ele>0.0</ele></rtept>
    <rtept lat="52.323545" lon="4.973297"><ele>0.0</ele></rtept>
    <rtept lat="52.323582" lon="4.973404"><ele>0.0</ele></rtept>
    <rtept lat="52.323566" lon="4.973415"><ele>0.0</ele></rtept>
    <rtept lat="52.323541" lon="4.973438"><ele>0.0</ele></rtept>
    <rtept lat="52.323398" lon="4.973569"><ele>0.0</ele></rtept>
    <rtept lat="52.323367" lon="4.973597"><ele>0.0</ele></rtept>
    <rtept lat="52.323040" lon="4.973895"><ele>0.0</ele></rtept>
    <rtept lat="52.323018" lon="4.973916"><ele>0.0</ele></rtept>
    <rtept lat="52.322975" lon="4.973952"><ele>0.0</ele></rtept>
    <rtept lat="52.322923" lon="4.974000"><ele>0.0</ele></rtept>
    <rtept lat="52.322938" lon="4.974062"><ele>0.0</ele></rtept>
    <rtept lat="52.322926" lon="4.974279"><ele>0.0</ele></rtept>
    <rtept lat="52.322984" lon="4.974456"><ele>0.0</ele></rtept>
    <rtept lat="52.323552" lon="4.976111"><ele>0.0</ele></rtept>
    <rtept lat="52.323642" lon="4.976341"><ele>0.0</ele></rtept>
    <rtept lat="52.323668" lon="4.976335"><ele>0.0</ele></rtept>
    <rtept lat="52.323722" lon="4.976349"><ele>0.0</ele></rtept>
    <rtept lat="52.323733" lon="4.976444"><ele>0.0</ele></rtept>
    <rtept lat="52.323765" lon="4.976542"><ele>0.0</ele></rtept>
    <rtept lat="52.323871" lon="4.976829"><ele>0.0</ele></rtept>
    <rtept lat="52.323818" lon="4.976861"><ele>0.0</ele></rtept>
    <rtept lat="52.323783" lon="4.976891"><ele>0.0</ele></rtept>
    <rtept lat="52.323769" lon="4.976904"><ele>0.0</ele></rtept>
    <rtept lat="52.323731" lon="4.976937"><ele>0.0</ele></rtept>
    <rtept lat="52.323635" lon="4.977020"><ele>0.0</ele></rtept>
    <rtept lat="52.323573" lon="4.977075"><ele>0.0</ele></rtept>
    <rtept lat="52.323522" lon="4.977124"><ele>0.0</ele></rtept>
    <rtept lat="52.323094" lon="4.977520"><ele>0.0</ele></rtept>
    <rtept lat="52.323075" lon="4.977538"><ele>0.0</ele></rtept>
    <rtept lat="52.323107" lon="4.977630"><ele>0.0</ele></rtept>
    <rtept lat="52.323201" lon="4.977904"><ele>0.0</ele></rtept>
    <rtept lat="52.323477" lon="4.978707"><ele>0.0</ele></rtept>
    <rtept lat="52.323484" lon="4.978790"><ele>0.0</ele></rtept>
    <rtept lat="52.323426" lon="4.978807"><ele>0.0</ele></rtept>
    <rtept lat="52.323422" lon="4.978863"><ele>0.0</ele></rtept>
    <rtept lat="52.323334" lon="4.979144"><ele>0.0</ele></rtept>
    <rtept lat="52.323275" lon="4.979280"><ele>0.0</ele></rtept>
    <rtept lat="52.323151" lon="4.979471"><ele>0.0</ele></rtept>
    <rtept lat="52.323032" lon="4.979590"><ele>0.0</ele></rtept>
    <rtept lat="52.322994" lon="4.979622"><ele>0.0</ele></rtept>
    <rtept lat="52.322896" lon="4.979716"><ele>0.0</ele></rtept>
    <rtept lat="52.322876" lon="4.979661"><ele>0.0</ele></rtept>
    <rtept lat="52.322752" lon="4.979302"><ele>0.0</ele></rtept>
    <rtept lat="52.322629" lon="4.978943"><ele>0.0</ele></rtept>
    <rtept lat="52.322604" lon="4.978873"><ele>0.0</ele></rtept>
    <rtept lat="52.322582" lon="4.978809"><ele>0.0</ele></rtept>
    <rtept lat="52.322417" lon="4.978325"><ele>0.0</ele></rtept>
    <rtept lat="52.322398" lon="4.978266"><ele>0.0</ele></rtept>
    <rtept lat="52.322381" lon="4.978216"><ele>0.0</ele></rtept>
    <rtept lat="52.322366" lon="4.978176"><ele>0.0</ele></rtept>
    <rtept lat="52.322301" lon="4.977987"><ele>0.0</ele></rtept>
    <rtept lat="52.322233" lon="4.977785"><ele>0.0</ele></rtept>
    <rtept lat="52.322220" lon="4.977747"><ele>0.0</ele></rtept>
    <rtept lat="52.322216" lon="4.977736"><ele>0.0</ele></rtept>
    <rtept lat="52.322205" lon="4.977705"><ele>0.0</ele></rtept>
    <rtept lat="52.322193" lon="4.977669"><ele>0.0</ele></rtept>
    <rtept lat="52.322162" lon="4.977604"><ele>0.0</ele></rtept>
    <rtept lat="52.322106" lon="4.977528"><ele>0.0</ele></rtept>
    <rtept lat="52.321901" lon="4.977338"><ele>0.0</ele></rtept>
    <rtept lat="52.321834" lon="4.977212"><ele>0.0</ele></rtept>
    <rtept lat="52.321795" lon="4.977022"><ele>0.0</ele></rtept>
    <rtept lat="52.321758" lon="4.976535"><ele>0.0</ele></rtept>
    <rtept lat="52.321719" lon="4.976399"><ele>0.0</ele></rtept>
    <rtept lat="52.321650" lon="4.976193"><ele>0.0</ele></rtept>
    <rtept lat="52.321639" lon="4.976162"><ele>0.0</ele></rtept>
    <rtept lat="52.321626" lon="4.976128"><ele>0.0</ele></rtept>
    <rtept lat="52.321611" lon="4.976087"><ele>0.0</ele></rtept>
    <rtept lat="52.321594" lon="4.976037"><ele>0.0</ele></rtept>
    <rtept lat="52.321547" lon="4.975900"><ele>0.0</ele></rtept>
    <rtept lat="52.321527" lon="4.975839"><ele>0.0</ele></rtept>
    <rtept lat="52.321513" lon="4.975785"><ele>0.0</ele></rtept>
    <rtept lat="52.321518" lon="4.975496"><ele>0.0</ele></rtept>
    <rtept lat="52.321527" lon="4.975285"><ele>0.0</ele></rtept>
    <rtept lat="52.321510" lon="4.975151"><ele>0.0</ele></rtept>
    <rtept lat="52.321450" lon="4.974817"><ele>0.0</ele></rtept>
    <rtept lat="52.321418" lon="4.974541"><ele>0.0</ele></rtept>
    <rtept lat="52.321415" lon="4.974486"><ele>0.0</ele></rtept>
    <rtept lat="52.321410" lon="4.974398"><ele>0.0</ele></rtept>
    <rtept lat="52.321397" lon="4.974146"><ele>0.0</ele></rtept>
    <rtept lat="52.321393" lon="4.974093"><ele>0.0</ele></rtept>
    <rtept lat="52.321360" lon="4.973877"><ele>0.0</ele></rtept>
    <rtept lat="52.321311" lon="4.973694"><ele>0.0</ele></rtept>
    <rtept lat="52.321134" lon="4.973207"><ele>0.0</ele></rtept>
    <rtept lat="52.321103" lon="4.973123"><ele>0.0</ele></rtept>
    <rtept lat="52.321093" lon="4.973095"><ele>0.0</ele></rtept>
    <rtept lat="52.321086" lon="4.973075"><ele>0.0</ele></rtept>
    <rtept lat="52.321068" lon="4.973023"><ele>0.0</ele></rtept>
    <rtept lat="52.321065" lon="4.972963"><ele>0.0</ele></rtept>
    <rtept lat="52.321004" lon="4.972785"><ele>0.0</ele></rtept>
    <rtept lat="52.320961" lon="4.972721"><ele>0.0</ele></rtept>
    <rtept lat="52.320929" lon="4.972634"><ele>0.0</ele></rtept>
    <rtept lat="52.320710" lon="4.971994"><ele>0.0</ele></rtept>
    <rtept lat="52.320636" lon="4.971779"><ele>0.0</ele></rtept>
    <rtept lat="52.320486" lon="4.971342"><ele>0.0</ele></rtept>
    <rtept lat="52.320418" lon="4.971161"><ele>0.0</ele></rtept>
    <rtept lat="52.320264" lon="4.970974"><ele>0.0</ele></rtept>
    <rtept lat="52.320115" lon="4.970858"><ele>0.0</ele></rtept>
    <rtept lat="52.319948" lon="4.970820"><ele>0.0</ele></rtept>
    <rtept lat="52.319871" lon="4.970817"><ele>0.0</ele></rtept>
    <rtept lat="52.319825" lon="4.970816"><ele>0.0</ele></rtept>
    <rtept lat="52.319804" lon="4.970816"><ele>0.0</ele></rtept>
    <rtept lat="52.319774" lon="4.970816"><ele>0.0</ele></rtept>
    <rtept lat="52.319738" lon="4.970791"><ele>0.0</ele></rtept>
    <rtept lat="52.319613" lon="4.970788"><ele>0.0</ele></rtept>
    <rtept lat="52.319570" lon="4.970809"><ele>0.0</ele></rtept>
    <rtept lat="52.319549" lon="4.970805"><ele>0.0</ele></rtept>
    <rtept lat="52.319468" lon="4.970776"><ele>0.0</ele></rtept>
    <rtept lat="52.319341" lon="4.970685"><ele>0.0</ele></rtept>
    <rtept lat="52.319289" lon="4.970600"><ele>0.0</ele></rtept>
    <rtept lat="52.319021" lon="4.969828"><ele>0.0</ele></rtept>
    <rtept lat="52.318727" lon="4.968962"><ele>0.0</ele></rtept>
    <rtept lat="52.318613" lon="4.968636"><ele>0.0</ele></rtept>
    <rtept lat="52.318280" lon="4.967126"><ele>0.0</ele></rtept>
    <rtept lat="52.318199" lon="4.966692"><ele>0.0</ele></rtept>
    <rtept lat="52.318166" lon="4.966560"><ele>0.0</ele></rtept>
    <rtept lat="52.318069" lon="4.966312"><ele>0.0</ele></rtept>
    <rtept lat="52.317908" lon="4.966068"><ele>0.0</ele></rtept>
    <rtept lat="52.317873" lon="4.966016"><ele>0.0</ele></rtept>
    <rtept lat="52.317489" lon="4.965436"><ele>0.0</ele></rtept>
    <rtept lat="52.317324" lon="4.965137"><ele>0.0</ele></rtept>
    <rtept lat="52.317161" lon="4.964752"><ele>0.0</ele></rtept>
    <rtept lat="52.316679" lon="4.963384"><ele>0.0</ele></rtept>
    <rtept lat="52.316413" lon="4.962607"><ele>0.0</ele></rtept>
    <rtept lat="52.316375" lon="4.962366"><ele>0.0</ele></rtept>
    <rtept lat="52.316182" lon="4.961800"><ele>0.0</ele></rtept>
    <rtept lat="52.316129" lon="4.961646"><ele>0.0</ele></rtept>
    <rtept lat="52.316006" lon="4.961292"><ele>0.0</ele></rtept>
    <rtept lat="52.315809" lon="4.960725"><ele>0.0</ele></rtept>
    <rtept lat="52.315775" lon="4.960636"><ele>0.0</ele></rtept>
    <rtept lat="52.315694" lon="4.960612"><ele>0.0</ele></rtept>
    <rtept lat="52.315513" lon="4.960528"><ele>0.0</ele></rtept>
    <rtept lat="52.315167" lon="4.960371"><ele>0.0</ele></rtept>
    <rtept lat="52.315014" lon="4.960297"><ele>0.0</ele></rtept>
    <rtept lat="52.314994" lon="4.960279"><ele>0.0</ele></rtept>
    <rtept lat="52.314897" lon="4.960186"><ele>0.0</ele></rtept>
    <rtept lat="52.314672" lon="4.959949"><ele>0.0</ele></rtept>
    <rtept lat="52.314546" lon="4.959742"><ele>0.0</ele></rtept>
    <rtept lat="52.314440" lon="4.959512"><ele>0.0</ele></rtept>
    <rtept lat="52.314260" lon="4.959010"><ele>0.0</ele></rtept>
    <rtept lat="52.313888" lon="4.957958"><ele>0.0</ele></rtept>
    <rtept lat="52.313749" lon="4.957571"><ele>0.0</ele></rtept>
    <rtept lat="52.313642" lon="4.957268"><ele>0.0</ele></rtept>
    <rtept lat="52.313576" lon="4.957087"><ele>0.0</ele></rtept>
    <rtept lat="52.313481" lon="4.956956"><ele>0.0</ele></rtept>
    <rtept lat="52.313135" lon="4.956745"><ele>0.0</ele></rtept>
    <rtept lat="52.313053" lon="4.956649"><ele>0.0</ele></rtept>
    <rtept lat="52.312826" lon="4.956032"><ele>0.0</ele></rtept>
    <rtept lat="52.312663" lon="4.955520"><ele>0.0</ele></rtept>
    <rtept lat="52.312620" lon="4.955400"><ele>0.0</ele></rtept>
    <rtept lat="52.312878" lon="4.955165"><ele>0.0</ele></rtept>
    <rtept lat="52.312911" lon="4.955131"><ele>0.0</ele></rtept>
    <rtept lat="52.312927" lon="4.955066"><ele>0.0</ele></rtept>
    <rtept lat="52.312922" lon="4.954998"><ele>0.0</ele></rtept>
    <rtept lat="52.312397" lon="4.953256"><ele>0.0</ele></rtept>
    <rtept lat="52.312257" lon="4.952864"><ele>0.0</ele></rtept>
    <rtept lat="52.312235" lon="4.952809"><ele>0.0</ele></rtept>
    <rtept lat="52.312285" lon="4.952762"><ele>0.0</ele></rtept>
    <rtept lat="52.312166" lon="4.952431"><ele>0.0</ele></rtept>
    <rtept lat="52.311836" lon="4.951433"><ele>0.0</ele></rtept>
    <rtept lat="52.311801" lon="4.951333"><ele>0.0</ele></rtept>
    <rtept lat="52.311660" lon="4.951114"><ele>0.0</ele></rtept>
    <rtept lat="52.311597" lon="4.950945"><ele>0.0</ele></rtept>
    <rtept lat="52.311506" lon="4.950672"><ele>0.0</ele></rtept>
    <rtept lat="52.311448" lon="4.950508"><ele>0.0</ele></rtept>
    <rtept lat="52.311457" lon="4.950290"><ele>0.0</ele></rtept>
    <rtept lat="52.311471" lon="4.950150"><ele>0.0</ele></rtept>
    <rtept lat="52.311162" lon="4.949020"><ele>0.0</ele></rtept>
    <rtept lat="52.311129" lon="4.948910"><ele>0.0</ele></rtept>
    <rtept lat="52.311096" lon="4.948806"><ele>0.0</ele></rtept>
    <rtept lat="52.310796" lon="4.947933"><ele>0.0</ele></rtept>
    <rtept lat="52.310769" lon="4.947848"><ele>0.0</ele></rtept>
    <rtept lat="52.310752" lon="4.947805"><ele>0.0</ele></rtept>
    <rtept lat="52.310741" lon="4.947773"><ele>0.0</ele></rtept>
    <rtept lat="52.310651" lon="4.947549"><ele>0.0</ele></rtept>
    <rtept lat="52.310624" lon="4.947482"><ele>0.0</ele></rtept>
    <rtept lat="52.310562" lon="4.947306"><ele>0.0</ele></rtept>
    <rtept lat="52.310135" lon="4.946061"><ele>0.0</ele></rtept>
    <rtept lat="52.310087" lon="4.945907"><ele>0.0</ele></rtept>
    <rtept lat="52.310042" lon="4.945783"><ele>0.0</ele></rtept>
    <rtept lat="52.309660" lon="4.944620"><ele>0.0</ele></rtept>
    <rtept lat="52.309420" lon="4.943972"><ele>0.0</ele></rtept>
    <rtept lat="52.309156" lon="4.943187"><ele>0.0</ele></rtept>
    <rtept lat="52.309116" lon="4.943154"><ele>0.0</ele></rtept>
    <rtept lat="52.309061" lon="4.943178"><ele>0.0</ele></rtept>
    <rtept lat="52.308919" lon="4.942774"><ele>0.0</ele></rtept>
    <rtept lat="52.308924" lon="4.942679"><ele>0.0</ele></rtept>
    <rtept lat="52.308908" lon="4.942559"><ele>0.0</ele></rtept>
    <rtept lat="52.308686" lon="4.941938"><ele>0.0</ele></rtept>
    <rtept lat="52.308228" lon="4.940644"><ele>0.0</ele></rtept>
    <rtept lat="52.308160" lon="4.940537"><ele>0.0</ele></rtept>
    <rtept lat="52.308121" lon="4.940423"><ele>0.0</ele></rtept>
    <rtept lat="52.307943" lon="4.939910"><ele>0.0</ele></rtept>
    <rtept lat="52.307929" lon="4.939837"><ele>0.0</ele></rtept>
    <rtept lat="52.307879" lon="4.939493"><ele>0.0</ele></rtept>
    <rtept lat="52.307581" lon="4.938466"><ele>0.0</ele></rtept>
    <rtept lat="52.307452" lon="4.938114"><ele>0.0</ele></rtept>
    <rtept lat="52.306941" lon="4.936643"><ele>0.0</ele></rtept>
    <rtept lat="52.306695" lon="4.936085"><ele>0.0</ele></rtept>
    <rtept lat="52.306626" lon="4.935875"><ele>0.0</ele></rtept>
    <rtept lat="52.306695" lon="4.935809"><ele>0.0</ele></rtept>
    <rtept lat="52.308507" lon="4.934131"><ele>0.0</ele></rtept>
    <rtept lat="52.308586" lon="4.933902"><ele>0.0</ele></rtept>
    <rtept lat="52.308658" lon="4.933833"><ele>0.0</ele></rtept>
    <rtept lat="52.309244" lon="4.933281"><ele>0.0</ele></rtept>
    <rtept lat="52.309377" lon="4.932715"><ele>0.0</ele></rtept>
    <rtept lat="52.309487" lon="4.932438"><ele>0.0</ele></rtept>
    <rtept lat="52.310046" lon="4.931646"><ele>0.0</ele></rtept>
    <rtept lat="52.309788" lon="4.931152"><ele>0.0</ele></rtept>
    <rtept lat="52.309771" lon="4.931120"><ele>0.0</ele></rtept>
    <rtept lat="52.309496" lon="4.930615"><ele>0.0</ele></rtept>
    <rtept lat="52.309401" lon="4.930444"><ele>0.0</ele></rtept>
    <rtept lat="52.309241" lon="4.930157"><ele>0.0</ele></rtept>
    <rtept lat="52.309228" lon="4.930135"><ele>0.0</ele></rtept>
    <rtept lat="52.309145" lon="4.929986"><ele>0.0</ele></rtept>
    <rtept lat="52.309224" lon="4.929780"><ele>0.0</ele></rtept>
    <rtept lat="52.309206" lon="4.929627"><ele>0.0</ele></rtept>
    <rtept lat="52.308786" lon="4.928619"><ele>0.0</ele></rtept>
    <rtept lat="52.308535" lon="4.928132"><ele>0.0</ele></rtept>
    <rtept lat="52.308113" lon="4.927377"><ele>0.0</ele></rtept>
    <rtept lat="52.307629" lon="4.926606"><ele>0.0</ele></rtept>
    <rtept lat="52.307508" lon="4.926475"><ele>0.0</ele></rtept>
    <rtept lat="52.307440" lon="4.926458"><ele>0.0</ele></rtept>
    <rtept lat="52.307349" lon="4.926502"><ele>0.0</ele></rtept>
    <rtept lat="52.307267" lon="4.926586"><ele>0.0</ele></rtept>
    <rtept lat="52.307219" lon="4.926707"><ele>0.0</ele></rtept>
    <rtept lat="52.307215" lon="4.927063"><ele>0.0</ele></rtept>
    <rtept lat="52.307165" lon="4.927081"><ele>0.0</ele></rtept>
    <rtept lat="52.307114" lon="4.927100"><ele>0.0</ele></rtept>
    <rtept lat="52.307031" lon="4.927130"><ele>0.0</ele></rtept>
    <rtept lat="52.306840" lon="4.926610"><ele>0.0</ele></rtept>
    <rtept lat="52.306793" lon="4.926476"><ele>0.0</ele></rtept>
    <rtept lat="52.306826" lon="4.926261"><ele>0.0</ele></rtept>
    <rtept lat="52.307064" lon="4.925736"><ele>0.0</ele></rtept>
    <rtept lat="52.307245" lon="4.925316"><ele>0.0</ele></rtept>
    <rtept lat="52.307301" lon="4.925191"><ele>0.0</ele></rtept>
    <rtept lat="52.307238" lon="4.925110"><ele>0.0</ele></rtept>
    <rtept lat="52.306583" lon="4.924546"><ele>0.0</ele></rtept>
    <rtept lat="52.306311" lon="4.924277"><ele>0.0</ele></rtept>
    <rtept lat="52.306158" lon="4.924078"><ele>0.0</ele></rtept>
    <rtept lat="52.305883" lon="4.923634"><ele>0.0</ele></rtept>
    <rtept lat="52.305720" lon="4.923459"><ele>0.0</ele></rtept>
    <rtept lat="52.305420" lon="4.922977"><ele>0.0</ele></rtept>
    <rtept lat="52.304778" lon="4.921821"><ele>0.0</ele></rtept>
    <rtept lat="52.304572" lon="4.921462"><ele>0.0</ele></rtept>
    <rtept lat="52.302082" lon="4.916479"><ele>0.0</ele></rtept>
    <rtept lat="52.301954" lon="4.916194"><ele>0.0</ele></rtept>
    <rtept lat="52.301899" lon="4.916072"><ele>0.0</ele></rtept>
    <rtept lat="52.301492" lon="4.915186"><ele>0.0</ele></rtept>
    <rtept lat="52.299867" lon="4.911328"><ele>0.0</ele></rtept>
    <rtept lat="52.299855" lon="4.911302"><ele>0.0</ele></rtept>
    <rtept lat="52.299844" lon="4.911278"><ele>0.0</ele></rtept>
    <rtept lat="52.299432" lon="4.910371"><ele>0.0</ele></rtept>
    <rtept lat="52.299321" lon="4.910082"><ele>0.0</ele></rtept>
    <rtept lat="52.299167" lon="4.909568"><ele>0.0</ele></rtept>
    <rtept lat="52.299080" lon="4.909110"><ele>0.0</ele></rtept>
    <rtept lat="52.299024" lon="4.908601"><ele>0.0</ele></rtept>
    <rtept lat="52.299018" lon="4.907897"><ele>0.0</ele></rtept>
    <rtept lat="52.299040" lon="4.907503"><ele>0.0</ele></rtept>
    <rtept lat="52.299137" lon="4.906690"><ele>0.0</ele></rtept>
    <rtept lat="52.299258" lon="4.905843"><ele>0.0</ele></rtept>
    <rtept lat="52.299498" lon="4.904237"><ele>0.0</ele></rtept>
    <rtept lat="52.299579" lon="4.902971"><ele>0.0</ele></rtept>
    <rtept lat="52.299573" lon="4.902610"><ele>0.0</ele></rtept>
    <rtept lat="52.299495" lon="4.901390"><ele>0.0</ele></rtept>
    <rtept lat="52.299415" lon="4.900906"><ele>0.0</ele></rtept>
    <rtept lat="52.299282" lon="4.900316"><ele>0.0</ele></rtept>
    <rtept lat="52.299184" lon="4.899943"><ele>0.0</ele></rtept>
    <rtept lat="52.299146" lon="4.899886"><ele>0.0</ele></rtept>
    <rtept lat="52.299050" lon="4.899734"><ele>0.0</ele></rtept>
    <rtept lat="52.298905" lon="4.899334"><ele>0.0</ele></rtept>
    <rtept lat="52.298827" lon="4.899128"><ele>0.0</ele></rtept>
    <rtept lat="52.298789" lon="4.899026"><ele>0.0</ele></rtept>
    <rtept lat="52.298722" lon="4.898850"><ele>0.0</ele></rtept>
    <rtept lat="52.298612" lon="4.898555"><ele>0.0</ele></rtept>
    <rtept lat="52.298267" lon="4.897687"><ele>0.0</ele></rtept>
    <rtept lat="52.297989" lon="4.897039"><ele>0.0</ele></rtept>
    <rtept lat="52.297784" lon="4.896339"><ele>0.0</ele></rtept>
    <rtept lat="52.297670" lon="4.895784"><ele>0.0</ele></rtept>
    <rtept lat="52.297625" lon="4.895263"><ele>0.0</ele></rtept>
    <rtept lat="52.297626" lon="4.895057"><ele>0.0</ele></rtept>
    <rtept lat="52.297631" lon="4.894837"><ele>0.0</ele></rtept>
    <rtept lat="52.297537" lon="4.894825"><ele>0.0</ele></rtept>
    <rtept lat="52.297409" lon="4.894802"><ele>0.0</ele></rtept>
    <rtept lat="52.297192" lon="4.894764"><ele>0.0</ele></rtept>
    <rtept lat="52.297120" lon="4.894716"><ele>0.0</ele></rtept>
    <rtept lat="52.296815" lon="4.894150"><ele>0.0</ele></rtept>
    <rtept lat="52.296652" lon="4.893756"><ele>0.0</ele></rtept>
    <rtept lat="52.296315" lon="4.892855"><ele>0.0</ele></rtept>
    <rtept lat="52.296193" lon="4.892715"><ele>0.0</ele></rtept>
    <rtept lat="52.296087" lon="4.892666"><ele>0.0</ele></rtept>
    <rtept lat="52.295852" lon="4.892655"><ele>0.0</ele></rtept>
    <rtept lat="52.295588" lon="4.892716"><ele>0.0</ele></rtept>
    <rtept lat="52.295521" lon="4.892757"><ele>0.0</ele></rtept>
    <rtept lat="52.295447" lon="4.892665"><ele>0.0</ele></rtept>
    <rtept lat="52.295158" lon="4.891782"><ele>0.0</ele></rtept>
    <rtept lat="52.295013" lon="4.891367"><ele>0.0</ele></rtept>
    <rtept lat="52.294960" lon="4.891207"><ele>0.0</ele></rtept>
    <rtept lat="52.294855" lon="4.890978"><ele>0.0</ele></rtept>
    <rtept lat="52.294736" lon="4.890851"><ele>0.0</ele></rtept>
    <rtept lat="52.294384" lon="4.890781"><ele>0.0</ele></rtept>
    <rtept lat="52.293681" lon="4.890463"><ele>0.0</ele></rtept>
    <rtept lat="52.293408" lon="4.890406"><ele>0.0</ele></rtept>
    <rtept lat="52.293186" lon="4.890398"><ele>0.0</ele></rtept>
    <rtept lat="52.293335" lon="4.888450"><ele>0.0</ele></rtept>
    <rtept lat="52.293481" lon="4.886690"><ele>0.0</ele></rtept>
    <rtept lat="52.293519" lon="4.886232"><ele>0.0</ele></rtept>
    <rtept lat="52.293639" lon="4.884758"><ele>0.0</ele></rtept>
    <rtept lat="52.293933" lon="4.881782"><ele>0.0</ele></rtept>
    <rtept lat="52.294265" lon="4.879157"><ele>0.0</ele></rtept>
    <rtept lat="52.294316" lon="4.878708"><ele>0.0</ele></rtept>
    <rtept lat="52.294410" lon="4.878282"><ele>0.0</ele></rtept>
    <rtept lat="52.294396" lon="4.878218"><ele>0.0</ele></rtept>
    <rtept lat="52.294399" lon="4.878140"><ele>0.0</ele></rtept>
    <rtept lat="52.294455" lon="4.877857"><ele>0.0</ele></rtept>
    <rtept lat="52.294677" lon="4.876982"><ele>0.0</ele></rtept>
    <rtept lat="52.294887" lon="4.876290"><ele>0.0</ele></rtept>
    <rtept lat="52.294989" lon="4.875854"><ele>0.0</ele></rtept>
    <rtept lat="52.295172" lon="4.875055"><ele>0.0</ele></rtept>
    <rtept lat="52.295451" lon="4.873758"><ele>0.0</ele></rtept>
    <rtept lat="52.295552" lon="4.872820"><ele>0.0</ele></rtept>
    <rtept lat="52.295561" lon="4.872684"><ele>0.0</ele></rtept>
    <rtept lat="52.295577" lon="4.872559"><ele>0.0</ele></rtept>
    <rtept lat="52.295585" lon="4.872416"><ele>0.0</ele></rtept>
    <rtept lat="52.295619" lon="4.872307"><ele>0.0</ele></rtept>
    <rtept lat="52.296254" lon="4.869447"><ele>0.0</ele></rtept>
    <rtept lat="52.296303" lon="4.869107"><ele>0.0</ele></rtept>
    <rtept lat="52.296321" lon="4.868954"><ele>0.0</ele></rtept>
    <rtept lat="52.296377" lon="4.868626"><ele>0.0</ele></rtept>
    <rtept lat="52.296422" lon="4.868415"><ele>0.0</ele></rtept>
    <rtept lat="52.296497" lon="4.868090"><ele>0.0</ele></rtept>
    <rtept lat="52.296502" lon="4.868063"><ele>0.0</ele></rtept>
    <rtept lat="52.296562" lon="4.867797"><ele>0.0</ele></rtept>
    <rtept lat="52.296574" lon="4.867741"><ele>0.0</ele></rtept>
    <rtept lat="52.296642" lon="4.867443"><ele>0.0</ele></rtept>
    <rtept lat="52.296648" lon="4.867418"><ele>0.0</ele></rtept>
    <rtept lat="52.296665" lon="4.867339"><ele>0.0</ele></rtept>
    <rtept lat="52.296721" lon="4.867097"><ele>0.0</ele></rtept>
    <rtept lat="52.296856" lon="4.866690"><ele>0.0</ele></rtept>
    <rtept lat="52.296893" lon="4.866652"><ele>0.0</ele></rtept>
    <rtept lat="52.296962" lon="4.866569"><ele>0.0</ele></rtept>
    <rtept lat="52.297076" lon="4.866344"><ele>0.0</ele></rtept>
    <rtept lat="52.297164" lon="4.866195"><ele>0.0</ele></rtept>
    <rtept lat="52.297298" lon="4.866123"><ele>0.0</ele></rtept>
    <rtept lat="52.297358" lon="4.866099"><ele>0.0</ele></rtept>
    <rtept lat="52.297414" lon="4.866080"><ele>0.0</ele></rtept>
    <rtept lat="52.297354" lon="4.865707"><ele>0.0</ele></rtept>
    <rtept lat="52.297783" lon="4.863865"><ele>0.0</ele></rtept>
    <rtept lat="52.297975" lon="4.863129"><ele>0.0</ele></rtept>
    <rtept lat="52.297974" lon="4.863050"><ele>0.0</ele></rtept>
    <rtept lat="52.298018" lon="4.862981"><ele>0.0</ele></rtept>
    <rtept lat="52.298035" lon="4.862883"><ele>0.0</ele></rtept>
    <rtept lat="52.298024" lon="4.862798"><ele>0.0</ele></rtept>
    <rtept lat="52.298071" lon="4.862724"><ele>0.0</ele></rtept>
    <rtept lat="52.298179" lon="4.862133"><ele>0.0</ele></rtept>
    <rtept lat="52.298176" lon="4.861908"><ele>0.0</ele></rtept>
    <rtept lat="52.299037" lon="4.858353"><ele>0.0</ele></rtept>
    <rtept lat="52.299184" lon="4.857641"><ele>0.0</ele></rtept>
    <rtept lat="52.299205" lon="4.857561"><ele>0.0</ele></rtept>
    <rtept lat="52.299506" lon="4.856252"><ele>0.0</ele></rtept>
    <rtept lat="52.299534" lon="4.856019"><ele>0.0</ele></rtept>
    <rtept lat="52.299605" lon="4.855516"><ele>0.0</ele></rtept>
    <rtept lat="52.299810" lon="4.855733"><ele>0.0</ele></rtept>
    <rtept lat="52.299900" lon="4.855566"><ele>0.0</ele></rtept>
    <rtept lat="52.299929" lon="4.855500"><ele>0.0</ele></rtept>
    <rtept lat="52.299990" lon="4.855367"><ele>0.0</ele></rtept>
    <rtept lat="52.300025" lon="4.855284"><ele>0.0</ele></rtept>
    <rtept lat="52.300030" lon="4.855200"><ele>0.0</ele></rtept>
    <rtept lat="52.300007" lon="4.855124"><ele>0.0</ele></rtept>
    <rtept lat="52.299967" lon="4.855082"><ele>0.0</ele></rtept>
    <rtept lat="52.299825" lon="4.854991"><ele>0.0</ele></rtept>
    <rtept lat="52.299846" lon="4.854710"><ele>0.0</ele></rtept>
    <rtept lat="52.299907" lon="4.854475"><ele>0.0</ele></rtept>
    <rtept lat="52.300542" lon="4.851791"><ele>0.0</ele></rtept>
    <rtept lat="52.301222" lon="4.848846"><ele>0.0</ele></rtept>
    <rtept lat="52.301417" lon="4.848054"><ele>0.0</ele></rtept>
    <rtept lat="52.301490" lon="4.847769"><ele>0.0</ele></rtept>
    <rtept lat="52.301550" lon="4.847494"><ele>0.0</ele></rtept>
    <rtept lat="52.301593" lon="4.847294"><ele>0.0</ele></rtept>
    <rtept lat="52.301676" lon="4.846914"><ele>0.0</ele></rtept>
    <rtept lat="52.301797" lon="4.846356"><ele>0.0</ele></rtept>
    <rtept lat="52.301794" lon="4.846318"><ele>0.0</ele></rtept>
    <rtept lat="52.302441" lon="4.846481"><ele>0.0</ele></rtept>
    <rtept lat="52.302535" lon="4.845907"><ele>0.0</ele></rtept>
    <rtept lat="52.302699" lon="4.845139"><ele>0.0</ele></rtept>
    <rtept lat="52.302708" lon="4.845094"><ele>0.0</ele></rtept>
    <rtept lat="52.302780" lon="4.844698"><ele>0.0</ele></rtept>
    <rtept lat="52.302812" lon="4.844474"><ele>0.0</ele></rtept>
    <rtept lat="52.302790" lon="4.843790"><ele>0.0</ele></rtept>
    <rtept lat="52.302836" lon="4.843617"><ele>0.0</ele></rtept>
    <rtept lat="52.303354" lon="4.841637"><ele>0.0</ele></rtept>
    <rtept lat="52.303434" lon="4.841338"><ele>0.0</ele></rtept>
    <rtept lat="52.303764" lon="4.840991"><ele>0.0</ele></rtept>
    <rtept lat="52.304015" lon="4.840013"><ele>0.0</ele></rtept>
    <rtept lat="52.304058" lon="4.839763"><ele>0.0</ele></rtept>
    <rtept lat="52.304183" lon="4.839277"><ele>0.0</ele></rtept>
    <rtept lat="52.304220" lon="4.839138"><ele>0.0</ele></rtept>
    <rtept lat="52.304322" lon="4.838944"><ele>0.0</ele></rtept>
    <rtept lat="52.304435" lon="4.838662"><ele>0.0</ele></rtept>
    <rtept lat="52.304485" lon="4.838471"><ele>0.0</ele></rtept>
    <rtept lat="52.305060" lon="4.836158"><ele>0.0</ele></rtept>
    <rtept lat="52.305586" lon="4.833745"><ele>0.0</ele></rtept>
    <rtept lat="52.305690" lon="4.833253"><ele>0.0</ele></rtept>
    <rtept lat="52.306018" lon="4.831869"><ele>0.0</ele></rtept>
    <rtept lat="52.306096" lon="4.831491"><ele>0.0</ele></rtept>
    <rtept lat="52.306223" lon="4.830935"><ele>0.0</ele></rtept>
    <rtept lat="52.306238" lon="4.830863"><ele>0.0</ele></rtept>
    <rtept lat="52.306392" lon="4.830249"><ele>0.0</ele></rtept>
    <rtept lat="52.306827" lon="4.828412"><ele>0.0</ele></rtept>
    <rtept lat="52.307913" lon="4.824365"><ele>0.0</ele></rtept>
    <rtept lat="52.307976" lon="4.823936"><ele>0.0</ele></rtept>
    <rtept lat="52.307951" lon="4.823610"><ele>0.0</ele></rtept>
    <rtept lat="52.307930" lon="4.823456"><ele>0.0</ele></rtept>
    <rtept lat="52.307766" lon="4.822998"><ele>0.0</ele></rtept>
    <rtept lat="52.307729" lon="4.822897"><ele>0.0</ele></rtept>
    <rtept lat="52.307668" lon="4.821951"><ele>0.0</ele></rtept>
    <rtept lat="52.307664" lon="4.821902"><ele>0.0</ele></rtept>
    <rtept lat="52.307662" lon="4.821862"><ele>0.0</ele></rtept>
    <rtept lat="52.307636" lon="4.821457"><ele>0.0</ele></rtept>
    <rtept lat="52.307631" lon="4.821393"><ele>0.0</ele></rtept>
    <rtept lat="52.307628" lon="4.821341"><ele>0.0</ele></rtept>
    <rtept lat="52.307795" lon="4.821314"><ele>0.0</ele></rtept>
    <rtept lat="52.307844" lon="4.821243"><ele>0.0</ele></rtept>
    <rtept lat="52.307978" lon="4.820933"><ele>0.0</ele></rtept>
    <rtept lat="52.308010" lon="4.820899"><ele>0.0</ele></rtept>
    <rtept lat="52.308039" lon="4.820899"><ele>0.0</ele></rtept>
    <rtept lat="52.308840" lon="4.821634"><ele>0.0</ele></rtept>
    <rtept lat="52.308954" lon="4.821734"><ele>0.0</ele></rtept>
    <rtept lat="52.309082" lon="4.821843"><ele>0.0</ele></rtept>
    <rtept lat="52.309137" lon="4.821700"><ele>0.0</ele></rtept>
    <rtept lat="52.309164" lon="4.821598"><ele>0.0</ele></rtept>
    <rtept lat="52.309414" lon="4.820993"><ele>0.0</ele></rtept>
    <rtept lat="52.309793" lon="4.820200"><ele>0.0</ele></rtept>
    <rtept lat="52.309853" lon="4.820033"><ele>0.0</ele></rtept>
    <rtept lat="52.309891" lon="4.819838"><ele>0.0</ele></rtept>
    <rtept lat="52.309890" lon="4.819337"><ele>0.0</ele></rtept>
    <rtept lat="52.309910" lon="4.819167"><ele>0.0</ele></rtept>
    <rtept lat="52.309963" lon="4.818960"><ele>0.0</ele></rtept>
    <rtept lat="52.310508" lon="4.817766"><ele>0.0</ele></rtept>
    <rtept lat="52.310997" lon="4.816820"><ele>0.0</ele></rtept>
    <rtept lat="52.311213" lon="4.816385"><ele>0.0</ele></rtept>
    <rtept lat="52.311273" lon="4.816194"><ele>0.0</ele></rtept>
    <rtept lat="52.311480" lon="4.815815"><ele>0.0</ele></rtept>
    <rtept lat="52.311796" lon="4.815253"><ele>0.0</ele></rtept>
    <rtept lat="52.311884" lon="4.815127"><ele>0.0</ele></rtept>
    <rtept lat="52.312157" lon="4.814889"><ele>0.0</ele></rtept>
    <rtept lat="52.312252" lon="4.814891"><ele>0.0</ele></rtept>
    <rtept lat="52.312261" lon="4.814967"><ele>0.0</ele></rtept>
    <rtept lat="52.312286" lon="4.815002"><ele>0.0</ele></rtept>
    <rtept lat="52.312516" lon="4.815110"><ele>0.0</ele></rtept>
    <rtept lat="52.312561" lon="4.815096"><ele>0.0</ele></rtept>
    <rtept lat="52.312582" lon="4.815063"><ele>0.0</ele></rtept>
    <rtept lat="52.312726" lon="4.814687"><ele>0.0</ele></rtept>
    <rtept lat="52.312747" lon="4.814586"><ele>0.0</ele></rtept>
    <rtept lat="52.312754" lon="4.814324"><ele>0.0</ele></rtept>
    <rtept lat="52.312825" lon="4.814075"><ele>0.0</ele></rtept>
    <rtept lat="52.312878" lon="4.813825"><ele>0.0</ele></rtept>
    <rtept lat="52.313249" lon="4.813045"><ele>0.0</ele></rtept>
    <rtept lat="52.313667" lon="4.812254"><ele>0.0</ele></rtept>
    <rtept lat="52.314845" lon="4.810217"><ele>0.0</ele></rtept>
    <rtept lat="52.314983" lon="4.810030"><ele>0.0</ele></rtept>
    <rtept lat="52.315311" lon="4.809652"><ele>0.0</ele></rtept>
    <rtept lat="52.315559" lon="4.809273"><ele>0.0</ele></rtept>
    <rtept lat="52.315689" lon="4.809036"><ele>0.0</ele></rtept>
    <rtept lat="52.315839" lon="4.808764"><ele>0.0</ele></rtept>
    <rtept lat="52.316063" lon="4.808321"><ele>0.0</ele></rtept>
    <rtept lat="52.316247" lon="4.807888"><ele>0.0</ele></rtept>
    <rtept lat="52.316624" lon="4.806783"><ele>0.0</ele></rtept>
    <rtept lat="52.320742" lon="4.799158"><ele>0.0</ele></rtept>
    <rtept lat="52.321415" lon="4.798019"><ele>0.0</ele></rtept>
    <rtept lat="52.321447" lon="4.797956"><ele>0.0</ele></rtept>
    <rtept lat="52.321510" lon="4.797719"><ele>0.0</ele></rtept>
    <rtept lat="52.321627" lon="4.797514"><ele>0.0</ele></rtept>
    <rtept lat="52.321675" lon="4.797468"><ele>0.0</ele></rtept>
    <rtept lat="52.321773" lon="4.797402"><ele>0.0</ele></rtept>
    <rtept lat="52.322995" lon="4.795181"><ele>0.0</ele></rtept>
    <rtept lat="52.323190" lon="4.794878"><ele>0.0</ele></rtept>
    <rtept lat="52.323245" lon="4.794758"><ele>0.0</ele></rtept>
    <rtept lat="52.323296" lon="4.794539"><ele>0.0</ele></rtept>
    <rtept lat="52.323348" lon="4.794495"><ele>0.0</ele></rtept>
    <rtept lat="52.323391" lon="4.794395"><ele>0.0</ele></rtept>
    <rtept lat="52.323453" lon="4.794274"><ele>0.0</ele></rtept>
    <rtept lat="52.323523" lon="4.794147"><ele>0.0</ele></rtept>
    <rtept lat="52.323537" lon="4.794047"><ele>0.0</ele></rtept>
    <rtept lat="52.323596" lon="4.793932"><ele>0.0</ele></rtept>
    <rtept lat="52.323874" lon="4.793415"><ele>0.0</ele></rtept>
    <rtept lat="52.324189" lon="4.792900"><ele>0.0</ele></rtept>
    <rtept lat="52.324389" lon="4.792423"><ele>0.0</ele></rtept>
    <rtept lat="52.324996" lon="4.791121"><ele>0.0</ele></rtept>
    <rtept lat="52.325552" lon="4.789791"><ele>0.0</ele></rtept>
    <rtept lat="52.326016" lon="4.788789"><ele>0.0</ele></rtept>
    <rtept lat="52.327174" lon="4.786677"><ele>0.0</ele></rtept>
    <rtept lat="52.327565" lon="4.786033"><ele>0.0</ele></rtept>
    <rtept lat="52.328296" lon="4.784960"><ele>0.0</ele></rtept>
    <rtept lat="52.328530" lon="4.784703"><ele>0.0</ele></rtept>
    <rtept lat="52.328881" lon="4.784158"><ele>0.0</ele></rtept>
    <rtept lat="52.328978" lon="4.784064"><ele>0.0</ele></rtept>
    <rtept lat="52.329066" lon="4.784015"><ele>0.0</ele></rtept>
    <rtept lat="52.329222" lon="4.783771"><ele>0.0</ele></rtept>
    <rtept lat="52.329297" lon="4.783408"><ele>0.0</ele></rtept>
    <rtept lat="52.329735" lon="4.782615"><ele>0.0</ele></rtept>
    <rtept lat="52.330324" lon="4.781382"><ele>0.0</ele></rtept>
    <rtept lat="52.330769" lon="4.780549"><ele>0.0</ele></rtept>
    <rtept lat="52.331025" lon="4.780079"><ele>0.0</ele></rtept>
    <rtept lat="52.331524" lon="4.779380"><ele>0.0</ele></rtept>
    <rtept lat="52.331782" lon="4.778939"><ele>0.0</ele></rtept>
    <rtept lat="52.331847" lon="4.778829"><ele>0.0</ele></rtept>
    <rtept lat="52.332110" lon="4.778349"><ele>0.0</ele></rtept>
    <rtept lat="52.332480" lon="4.777497"><ele>0.0</ele></rtept>
    <rtept lat="52.332946" lon="4.776541"><ele>0.0</ele></rtept>
    <rtept lat="52.334167" lon="4.774253"><ele>0.0</ele></rtept>
    <rtept lat="52.334213" lon="4.774237"><ele>0.0</ele></rtept>
    <rtept lat="52.334267" lon="4.774145"><ele>0.0</ele></rtept>
    <rtept lat="52.334332" lon="4.773969"><ele>0.0</ele></rtept>
    <rtept lat="52.334385" lon="4.773853"><ele>0.0</ele></rtept>
    <rtept lat="52.334675" lon="4.773260"><ele>0.0</ele></rtept>
    <rtept lat="52.336112" lon="4.770605"><ele>0.0</ele></rtept>
    <rtept lat="52.339928" lon="4.763523"><ele>0.0</ele></rtept>
    <rtept lat="52.340292" lon="4.763060"><ele>0.0</ele></rtept>
    <rtept lat="52.340702" lon="4.762423"><ele>0.0</ele></rtept>
    <rtept lat="52.340915" lon="4.762030"><ele>0.0</ele></rtept>
    <rtept lat="52.340971" lon="4.761934"><ele>0.0</ele></rtept>
    <rtept lat="52.341159" lon="4.761586"><ele>0.0</ele></rtept>
    <rtept lat="52.341395" lon="4.761155"><ele>0.0</ele></rtept>
    <rtept lat="52.341611" lon="4.760755"><ele>0.0</ele></rtept>
    <rtept lat="52.342136" lon="4.759652"><ele>0.0</ele></rtept>
    <rtept lat="52.342209" lon="4.759579"><ele>0.0</ele></rtept>
    <rtept lat="52.342312" lon="4.759579"><ele>0.0</ele></rtept>
    <rtept lat="52.342361" lon="4.759617"><ele>0.0</ele></rtept>
    <rtept lat="52.342598" lon="4.759917"><ele>0.0</ele></rtept>
    <rtept lat="52.342700" lon="4.760005"><ele>0.0</ele></rtept>
    <rtept lat="52.342897" lon="4.760112"><ele>0.0</ele></rtept>
    <rtept lat="52.343004" lon="4.760134"><ele>0.0</ele></rtept>
    <rtept lat="52.343196" lon="4.760123"><ele>0.0</ele></rtept>
    <rtept lat="52.343379" lon="4.760047"><ele>0.0</ele></rtept>
    <rtept lat="52.343546" lon="4.759902"><ele>0.0</ele></rtept>
    <rtept lat="52.343808" lon="4.759605"><ele>0.0</ele></rtept>
    <rtept lat="52.343889" lon="4.759598"><ele>0.0</ele></rtept>
    <rtept lat="52.343938" lon="4.759570"><ele>0.0</ele></rtept>
    <rtept lat="52.343972" lon="4.759490"><ele>0.0</ele></rtept>
    <rtept lat="52.343973" lon="4.759445"><ele>0.0</ele></rtept>
    <rtept lat="52.343933" lon="4.759320"><ele>0.0</ele></rtept>
    <rtept lat="52.343713" lon="4.759019"><ele>0.0</ele></rtept>
    <rtept lat="52.343609" lon="4.758869"><ele>0.0</ele></rtept>
    <rtept lat="52.343597" lon="4.758762"><ele>0.0</ele></rtept>
    <rtept lat="52.343625" lon="4.758670"><ele>0.0</ele></rtept>
    <rtept lat="52.343902" lon="4.758072"><ele>0.0</ele></rtept>
    <rtept lat="52.343903" lon="4.758024"><ele>0.0</ele></rtept>
    <rtept lat="52.343872" lon="4.757928"><ele>0.0</ele></rtept>
    <rtept lat="52.343658" lon="4.757621"><ele>0.0</ele></rtept>
    <rtept lat="52.343508" lon="4.757363"><ele>0.0</ele></rtept>
    <rtept lat="52.343462" lon="4.757166"><ele>0.0</ele></rtept>
    <rtept lat="52.343462" lon="4.757075"><ele>0.0</ele></rtept>
    <rtept lat="52.343505" lon="4.756909"><ele>0.0</ele></rtept>
    <rtept lat="52.345471" lon="4.753230"><ele>0.0</ele></rtept>
    <rtept lat="52.346319" lon="4.751710"><ele>0.0</ele></rtept>
    <rtept lat="52.346370" lon="4.751643"><ele>0.0</ele></rtept>
    <rtept lat="52.346405" lon="4.751587"><ele>0.0</ele></rtept>
    <rtept lat="52.346579" lon="4.751262"><ele>0.0</ele></rtept>
    <rtept lat="52.346627" lon="4.751184"><ele>0.0</ele></rtept>
    <rtept lat="52.346715" lon="4.750995"><ele>0.0</ele></rtept>
    <rtept lat="52.347747" lon="4.749004"><ele>0.0</ele></rtept>
    <rtept lat="52.352621" lon="4.739924"><ele>0.0</ele></rtept>
    <rtept lat="52.353732" lon="4.737884"><ele>0.0</ele></rtept>
    <rtept lat="52.358489" lon="4.729016"><ele>0.0</ele></rtept>
    <rtept lat="52.358540" lon="4.728920"><ele>0.0</ele></rtept>
    <rtept lat="52.358559" lon="4.728853"><ele>0.0</ele></rtept>
    <rtept lat="52.358862" lon="4.728196"><ele>0.0</ele></rtept>
    <rtept lat="52.359442" lon="4.727116"><ele>0.0</ele></rtept>
    <rtept lat="52.359846" lon="4.726363"><ele>0.0</ele></rtept>
    <rtept lat="52.360061" lon="4.725964"><ele>0.0</ele></rtept>
    <rtept lat="52.360221" lon="4.725665"><ele>0.0</ele></rtept>
    <rtept lat="52.360411" lon="4.725312"><ele>0.0</ele></rtept>
    <rtept lat="52.360645" lon="4.724877"><ele>0.0</ele></rtept>
    <rtept lat="52.360954" lon="4.724303"><ele>0.0</ele></rtept>
    <rtept lat="52.361062" lon="4.724103"><ele>0.0</ele></rtept>
    <rtept lat="52.361155" lon="4.723928"><ele>0.0</ele></rtept>
    <rtept lat="52.361297" lon="4.723664"><ele>0.0</ele></rtept>
    <rtept lat="52.361575" lon="4.723148"><ele>0.0</ele></rtept>
    <rtept lat="52.362013" lon="4.722334"><ele>0.0</ele></rtept>
    <rtept lat="52.362257" lon="4.721878"><ele>0.0</ele></rtept>
    <rtept lat="52.362411" lon="4.721593"><ele>0.0</ele></rtept>
    <rtept lat="52.362569" lon="4.721299"><ele>0.0</ele></rtept>
    <rtept lat="52.362801" lon="4.720867"><ele>0.0</ele></rtept>
    <rtept lat="52.363242" lon="4.720047"><ele>0.0</ele></rtept>
    <rtept lat="52.363323" lon="4.719897"><ele>0.0</ele></rtept>
    <rtept lat="52.363468" lon="4.719626"><ele>0.0</ele></rtept>
    <rtept lat="52.363668" lon="4.719255"><ele>0.0</ele></rtept>
    <rtept lat="52.364192" lon="4.718280"><ele>0.0</ele></rtept>
    <rtept lat="52.364315" lon="4.718052"><ele>0.0</ele></rtept>
    <rtept lat="52.364443" lon="4.717813"><ele>0.0</ele></rtept>
    <rtept lat="52.364478" lon="4.717800"><ele>0.0</ele></rtept>
    <rtept lat="52.364511" lon="4.717768"><ele>0.0</ele></rtept>
    <rtept lat="52.364571" lon="4.717655"><ele>0.0</ele></rtept>
    <rtept lat="52.364686" lon="4.717502"><ele>0.0</ele></rtept>
    <rtept lat="52.364883" lon="4.717435"><ele>0.0</ele></rtept>
    <rtept lat="52.364971" lon="4.717322"><ele>0.0</ele></rtept>
    <rtept lat="52.364998" lon="4.717217"><ele>0.0</ele></rtept>
    <rtept lat="52.364967" lon="4.716893"><ele>0.0</ele></rtept>
    <rtept lat="52.365018" lon="4.716739"><ele>0.0</ele></rtept>
    <rtept lat="52.365645" lon="4.715724"><ele>0.0</ele></rtept>
    <rtept lat="52.366824" lon="4.713648"><ele>0.0</ele></rtept>
    <rtept lat="52.367271" lon="4.712824"><ele>0.0</ele></rtept>
    <rtept lat="52.367710" lon="4.711986"><ele>0.0</ele></rtept>
    <rtept lat="52.367873" lon="4.711631"><ele>0.0</ele></rtept>
    <rtept lat="52.368878" lon="4.709726"><ele>0.0</ele></rtept>
    <rtept lat="52.368957" lon="4.709555"><ele>0.0</ele></rtept>
    <rtept lat="52.368982" lon="4.709401"><ele>0.0</ele></rtept>
    <rtept lat="52.368954" lon="4.709130"><ele>0.0</ele></rtept>
    <rtept lat="52.368941" lon="4.709017"><ele>0.0</ele></rtept>
    <rtept lat="52.368925" lon="4.708875"><ele>0.0</ele></rtept>
    <rtept lat="52.368841" lon="4.708765"><ele>0.0</ele></rtept>
    <rtept lat="52.368816" lon="4.708698"><ele>0.0</ele></rtept>
    <rtept lat="52.368748" lon="4.708126"><ele>0.0</ele></rtept>
    <rtept lat="52.368631" lon="4.707540"><ele>0.0</ele></rtept>
    <rtept lat="52.368278" lon="4.706309"><ele>0.0</ele></rtept>
    <rtept lat="52.368098" lon="4.705687"><ele>0.0</ele></rtept>
    <rtept lat="52.367978" lon="4.705309"><ele>0.0</ele></rtept>
    <rtept lat="52.367946" lon="4.705140"><ele>0.0</ele></rtept>
    <rtept lat="52.367946" lon="4.704946"><ele>0.0</ele></rtept>
    <rtept lat="52.367990" lon="4.704749"><ele>0.0</ele></rtept>
    <rtept lat="52.368097" lon="4.704578"><ele>0.0</ele></rtept>
    <rtept lat="52.368509" lon="4.704183"><ele>0.0</ele></rtept>
    <rtept lat="52.368577" lon="4.704129"><ele>0.0</ele></rtept>
    <rtept lat="52.368682" lon="4.704088"><ele>0.0</ele></rtept>
    <rtept lat="52.368762" lon="4.703999"><ele>0.0</ele></rtept>
    <rtept lat="52.368803" lon="4.703843"><ele>0.0</ele></rtept>
    <rtept lat="52.368837" lon="4.703586"><ele>0.0</ele></rtept>
    <rtept lat="52.369084" lon="4.702738"><ele>0.0</ele></rtept>
    <rtept lat="52.369159" lon="4.702295"><ele>0.0</ele></rtept>
    <rtept lat="52.369186" lon="4.701987"><ele>0.0</ele></rtept>
    <rtept lat="52.369464" lon="4.697165"><ele>0.0</ele></rtept>
    <rtept lat="52.369467" lon="4.696764"><ele>0.0</ele></rtept>
    <rtept lat="52.369428" lon="4.695382"><ele>0.0</ele></rtept>
    <rtept lat="52.369448" lon="4.694843"><ele>0.0</ele></rtept>
    <rtept lat="52.369493" lon="4.694356"><ele>0.0</ele></rtept>
    <rtept lat="52.369631" lon="4.693449"><ele>0.0</ele></rtept>
    <rtept lat="52.369770" lon="4.692864"><ele>0.0</ele></rtept>
    <rtept lat="52.369930" lon="4.692337"><ele>0.0</ele></rtept>
    <rtept lat="52.370347" lon="4.691155"><ele>0.0</ele></rtept>
    <rtept lat="52.370504" lon="4.690579"><ele>0.0</ele></rtept>
    <rtept lat="52.370617" lon="4.689843"><ele>0.0</ele></rtept>
    <rtept lat="52.370647" lon="4.689521"><ele>0.0</ele></rtept>
    <rtept lat="52.370674" lon="4.688758"><ele>0.0</ele></rtept>
    <rtept lat="52.370666" lon="4.688167"><ele>0.0</ele></rtept>
    <rtept lat="52.370620" lon="4.687271"><ele>0.0</ele></rtept>
    <rtept lat="52.370312" lon="4.682255"><ele>0.0</ele></rtept>
    <rtept lat="52.370150" lon="4.680413"><ele>0.0</ele></rtept>
    <rtept lat="52.369795" lon="4.677610"><ele>0.0</ele></rtept>
    <rtept lat="52.369722" lon="4.677134"><ele>0.0</ele></rtept>
    <rtept lat="52.369623" lon="4.676681"><ele>0.0</ele></rtept>
    <rtept lat="52.369522" lon="4.676346"><ele>0.0</ele></rtept>
    <rtept lat="52.369413" lon="4.676046"><ele>0.0</ele></rtept>
    <rtept lat="52.369217" lon="4.675603"><ele>0.0</ele></rtept>
    <rtept lat="52.369198" lon="4.675524"><ele>0.0</ele></rtept>
    <rtept lat="52.369193" lon="4.675312"><ele>0.0</ele></rtept>
    <rtept lat="52.369141" lon="4.675195"><ele>0.0</ele></rtept>
    <rtept lat="52.369073" lon="4.675086"><ele>0.0</ele></rtept>
    <rtept lat="52.368968" lon="4.675043"><ele>0.0</ele></rtept>
    <rtept lat="52.368919" lon="4.674992"><ele>0.0</ele></rtept>
    <rtept lat="52.368866" lon="4.674893"><ele>0.0</ele></rtept>
    <rtept lat="52.368695" lon="4.674446"><ele>0.0</ele></rtept>
    <rtept lat="52.368564" lon="4.674041"><ele>0.0</ele></rtept>
    <rtept lat="52.368479" lon="4.673723"><ele>0.0</ele></rtept>
    <rtept lat="52.368331" lon="4.673051"><ele>0.0</ele></rtept>
    <rtept lat="52.368321" lon="4.672978"><ele>0.0</ele></rtept>
    <rtept lat="52.368198" lon="4.672077"><ele>0.0</ele></rtept>
    <rtept lat="52.368153" lon="4.671748"><ele>0.0</ele></rtept>
    <rtept lat="52.368143" lon="4.671666"><ele>0.0</ele></rtept>
    <rtept lat="52.368110" lon="4.671245"><ele>0.0</ele></rtept>
    <rtept lat="52.368000" lon="4.670304"><ele>0.0</ele></rtept>
    <rtept lat="52.367957" lon="4.669746"><ele>0.0</ele></rtept>
    <rtept lat="52.367915" lon="4.668930"><ele>0.0</ele></rtept>
    <rtept lat="52.367899" lon="4.667682"><ele>0.0</ele></rtept>
    <rtept lat="52.367891" lon="4.666413"><ele>0.0</ele></rtept>
    <rtept lat="52.367889" lon="4.666109"><ele>0.0</ele></rtept>
    <rtept lat="52.367879" lon="4.664269"><ele>0.0</ele></rtept>
    <rtept lat="52.367872" lon="4.663787"><ele>0.0</ele></rtept>
    <rtept lat="52.367827" lon="4.662490"><ele>0.0</ele></rtept>
    <rtept lat="52.367829" lon="4.660912"><ele>0.0</ele></rtept>
    <rtept lat="52.367821" lon="4.659432"><ele>0.0</ele></rtept>
    <rtept lat="52.367811" lon="4.657704"><ele>0.0</ele></rtept>
    <rtept lat="52.367801" lon="4.656505"><ele>0.0</ele></rtept>
    <rtept lat="52.367802" lon="4.655012"><ele>0.0</ele></rtept>
    <rtept lat="52.367800" lon="4.654688"><ele>0.0</ele></rtept>
    <rtept lat="52.367813" lon="4.654557"><ele>0.0</ele></rtept>
    <rtept lat="52.367966" lon="4.654499"><ele>0.0</ele></rtept>
    <rtept lat="52.368020" lon="4.654482"><ele>0.0</ele></rtept>
    <rtept lat="52.368337" lon="4.654479"><ele>0.0</ele></rtept>
    <rtept lat="52.368353" lon="4.654479"><ele>0.0</ele></rtept>
    <rtept lat="52.368663" lon="4.654470"><ele>0.0</ele></rtept>
    <rtept lat="52.368957" lon="4.654543"><ele>0.0</ele></rtept>
    <rtept lat="52.369824" lon="4.654648"><ele>0.0</ele></rtept>
    <rtept lat="52.369938" lon="4.654772"><ele>0.0</ele></rtept>
    <rtept lat="52.369981" lon="4.654809"><ele>0.0</ele></rtept>
    <rtept lat="52.370075" lon="4.654826"><ele>0.0</ele></rtept>
    <rtept lat="52.370283" lon="4.654833"><ele>0.0</ele></rtept>
    <rtept lat="52.370389" lon="4.654836"><ele>0.0</ele></rtept>
    <rtept lat="52.370723" lon="4.654874"><ele>0.0</ele></rtept>
    <rtept lat="52.370928" lon="4.654930"><ele>0.0</ele></rtept>
    <rtept lat="52.371432" lon="4.655322"><ele>0.0</ele></rtept>
    <rtept lat="52.371644" lon="4.655494"><ele>0.0</ele></rtept>
    <rtept lat="52.371743" lon="4.655569"><ele>0.0</ele></rtept>
    <rtept lat="52.372821" lon="4.656439"><ele>0.0</ele></rtept>
    <rtept lat="52.374222" lon="4.657609"><ele>0.0</ele></rtept>
    <rtept lat="52.374391" lon="4.657790"><ele>0.0</ele></rtept>
    <rtept lat="52.374640" lon="4.658034"><ele>0.0</ele></rtept>
    <rtept lat="52.374774" lon="4.658199"><ele>0.0</ele></rtept>
    <rtept lat="52.374903" lon="4.658355"><ele>0.0</ele></rtept>
    <rtept lat="52.375071" lon="4.658558"><ele>0.0</ele></rtept>
    <rtept lat="52.375174" lon="4.658688"><ele>0.0</ele></rtept>
    <rtept lat="52.375264" lon="4.658783"><ele>0.0</ele></rtept>
    <rtept lat="52.375299" lon="4.658822"><ele>0.0</ele></rtept>
    <rtept lat="52.375387" lon="4.658920"><ele>0.0</ele></rtept>
    <rtept lat="52.375939" lon="4.659321"><ele>0.0</ele></rtept>
    <rtept lat="52.376248" lon="4.659469"><ele>0.0</ele></rtept>
    <rtept lat="52.376416" lon="4.659550"><ele>0.0</ele></rtept>
    <rtept lat="52.376591" lon="4.659639"><ele>0.0</ele></rtept>
    <rtept lat="52.378107" lon="4.660341"><ele>0.0</ele></rtept>
    <rtept lat="52.378754" lon="4.660632"><ele>0.0</ele></rtept>
    <rtept lat="52.378835" lon="4.660666"><ele>0.0</ele></rtept>
    <rtept lat="52.378880" lon="4.660685"><ele>0.0</ele></rtept>
    <rtept lat="52.378915" lon="4.660505"><ele>0.0</ele></rtept>
    <rtept lat="52.378941" lon="4.660375"><ele>0.0</ele></rtept>
    <rtept lat="52.378971" lon="4.660226"><ele>0.0</ele></rtept>
    <rtept lat="52.378980" lon="4.659944"><ele>0.0</ele></rtept>
    <rtept lat="52.378994" lon="4.659805"><ele>0.0</ele></rtept>
    <rtept lat="52.379026" lon="4.659422"><ele>0.0</ele></rtept>
    <rtept lat="52.379447" lon="4.659520"><ele>0.0</ele></rtept>
    <rtept lat="52.379574" lon="4.657888"><ele>0.0</ele></rtept>
    <rtept lat="52.379804" lon="4.657899"><ele>0.0</ele></rtept>
    <rtept lat="52.380041" lon="4.657887"><ele>0.0</ele></rtept>
    <rtept lat="52.380029" lon="4.657510"><ele>0.0</ele></rtept>
  </rte>
</gpx>