<?xml version="1.0" encoding="UTF-8"?>
<gpx version="1.1" creator="WeeklyCyclingRoutes"
  xmlns="http://www.topografix.com/GPX/1/1"
  xmlns:xsi="http://www.w3.org/2001/XMLSchema-instance"
  xsi:schemaLocation="http://www.topografix.com/GPX/1/1 http://www.topografix.com/GPX/1/1/gpx.xsd">
  <metadata>
    <name>50km Route – August 03, 2026</name>
    <desc>Round trip from Cremerstraat, Haarlem. Actual: 48.8km</desc>
    <time>2026-08-03T09:32:04Z</time>
  </metadata>
  <rte>
    <name>50km Cycling Route – Haarlem</name>
    <rtept lat="52.380029" lon="4.657510"><ele>0.0</ele></rtept>
    <rtept lat="52.380041" lon="4.657887"><ele>0.0</ele></rtept>
    <rtept lat="52.379804" lon="4.657899"><ele>0.0</ele></rtept>
    <rtept lat="52.379574" lon="4.657888"><ele>0.0</ele></rtept>
    <rtept lat="52.379447" lon="4.659520"><ele>0.0</ele></rtept>
    <rtept lat="52.379026" lon="4.659422"><ele>0.0</ele></rtept>
    <rtept lat="52.378994" lon="4.659805"><ele>0.0</ele></rtept>
    <rtept lat="52.378980" lon="4.659944"><ele>0.0</ele></rtept>
    <rtept lat="52.378919" lon="4.660207"><ele>0.0</ele></rtept>
    <rtept lat="52.378892" lon="4.660355"><ele>0.0</ele></rtept>
    <rtept lat="52.378869" lon="4.660481"><ele>0.0</ele></rtept>
    <rtept lat="52.378835" lon="4.660666"><ele>0.0</ele></rtept>
    <rtept lat="52.378754" lon="4.660632"><ele>0.0</ele></rtept>
    <rtept lat="52.378107" lon="4.660341"><ele>0.0</ele></rtept>
    <rtept lat="52.376591" lon="4.659639"><ele>0.0</ele></rtept>
    <rtept lat="52.376416" lon="4.659550"><ele>0.0</ele></rtept>
    <rtept lat="52.376248" lon="4.659469"><ele>0.0</ele></rtept>
    <rtept lat="52.375939" lon="4.659321"><ele>0.0</ele></rtept>
    <rtept lat="52.375387" lon="4.658920"><ele>0.0</ele></rtept>
    <rtept lat="52.375299" lon="4.658822"><ele>0.0</ele></rtept>
    <rtept lat="52.375264" lon="4.658783"><ele>0.0</ele></rtept>
    <rtept lat="52.375174" lon="4.658688"><ele>0.0</ele></rtept>
    <rtept lat="52.375071" lon="4.658558"><ele>0.0</ele></rtept>
    <rtept lat="52.374903" lon="4.658355"><ele>0.0</ele></rtept>
    <rtept lat="52.374774" lon="4.658199"><ele>0.0</ele></rtept>
    <rtept lat="52.374640" lon="4.658034"><ele>0.0</ele></rtept>
    <rtept lat="52.374391" lon="4.657790"><ele>0.0</ele></rtept>
    <rtept lat="52.374222" lon="4.657609"><ele>0.0</ele></rtept>
    <rtept lat="52.372821" lon="4.656439"><ele>0.0</ele></rtept>
    <rtept lat="52.371743" lon="4.655569"><ele>0.0</ele></rtept>
    <rtept lat="52.371644" lon="4.655494"><ele>0.0</ele></rtept>
    <rtept lat="52.371432" lon="4.655322"><ele>0.0</ele></rtept>
    <rtept lat="52.370928" lon="4.654930"><ele>0.0</ele></rtept>
    <rtept lat="52.370723" lon="4.654874"><ele>0.0</ele></rtept>
    <rtept lat="52.370389" lon="4.654836"><ele>0.0</ele></rtept>
    <rtept lat="52.370283" lon="4.654833"><ele>0.0</ele></rtept>
    <rtept lat="52.370075" lon="4.654826"><ele>0.0</ele></rtept>
    <rtept lat="52.369981" lon="4.654809"><ele>0.0</ele></rtept>
    <rtept lat="52.369938" lon="4.654772"><ele>0.0</ele></rtept>
    <rtept lat="52.369824" lon="4.654648"><ele>0.0</ele></rtept>
    <rtept lat="52.368957" lon="4.654543"><ele>0.0</ele></rtept>
    <rtept lat="52.368663" lon="4.654470"><ele>0.0</ele></rtept>
    <rtept lat="52.368353" lon="4.654479"><ele>0.0</ele></rtept>
    <rtept lat="52.368337" lon="4.654479"><ele>0.0</ele></rtept>
    <rtept lat="52.368020" lon="4.654482"><ele>0.0</ele></rtept>
    <rtept lat="52.367966" lon="4.654499"><ele>0.0</ele></rtept>
    <rtept lat="52.367813" lon="4.654557"><ele>0.0</ele></rtept>
    <rtept lat="52.367800" lon="4.654688"><ele>0.0</ele></rtept>
    <rtept lat="52.367802" lon="4.655012"><ele>0.0</ele></rtept>
    <rtept lat="52.367801" lon="4.656505"><ele>0.0</ele></rtept>
    <rtept lat="52.367811" lon="4.657704"><ele>0.0</ele></rtept>
    <rtept lat="52.367821" lon="4.659432"><ele>0.0</ele></rtept>
    <rtept lat="52.367829" lon="4.660912"><ele>0.0</ele></rtept>
    <rtept lat="52.367827" lon="4.662490"><ele>0.0</ele></rtept>
    <rtept lat="52.367872" lon="4.663787"><ele>0.0</ele></rtept>
    <rtept lat="52.367879" lon="4.664269"><ele>0.0</ele></rtept>
    <rtept lat="52.367889" lon="4.666109"><ele>0.0</ele></rtept>
    <rtept lat="52.367838" lon="4.666112"><ele>0.0</ele></rtept>
    <rtept lat="52.367782" lon="4.666114"><ele>0.0</ele></rtept>
    <rtept lat="52.367674" lon="4.666133"><ele>0.0</ele></rtept>
    <rtept lat="52.367549" lon="4.666157"><ele>0.0</ele></rtept>
    <rtept lat="52.366772" lon="4.666360"><ele>0.0</ele></rtept>
    <rtept lat="52.366728" lon="4.666376"><ele>0.0</ele></rtept>
    <rtept lat="52.366226" lon="4.666499"><ele>0.0</ele></rtept>
    <rtept lat="52.364616" lon="4.666862"><ele>0.0</ele></rtept>
    <rtept lat="52.364555" lon="4.666877"><ele>0.0</ele></rtept>
    <rtept lat="52.364252" lon="4.666958"><ele>0.0</ele></rtept>
    <rtept lat="52.362877" lon="4.667285"><ele>0.0</ele></rtept>
    <rtept lat="52.362158" lon="4.667456"><ele>0.0</ele></rtept>
    <rtept lat="52.362034" lon="4.667495"><ele>0.0</ele></rtept>
    <rtept lat="52.361115" lon="4.667716"><ele>0.0</ele></rtept>
    <rtept lat="52.360741" lon="4.667804"><ele>0.0</ele></rtept>
    <rtept lat="52.360693" lon="4.668029"><ele>0.0</ele></rtept>
    <rtept lat="52.360581" lon="4.668367"><ele>0.0</ele></rtept>
    <rtept lat="52.360467" lon="4.668618"><ele>0.0</ele></rtept>
    <rtept lat="52.360332" lon="4.668884"><ele>0.0</ele></rtept>
    <rtept lat="52.360291" lon="4.668924"><ele>0.0</ele></rtept>
    <rtept lat="52.360156" lon="4.669100"><ele>0.0</ele></rtept>
    <rtept lat="52.359958" lon="4.669296"><ele>0.0</ele></rtept>
    <rtept lat="52.359637" lon="4.669464"><ele>0.0</ele></rtept>
    <rtept lat="52.359469" lon="4.669519"><ele>0.0</ele></rtept>
    <rtept lat="52.359365" lon="4.669522"><ele>0.0</ele></rtept>
    <rtept lat="52.358102" lon="4.669544"><ele>0.0</ele></rtept>
    <rtept lat="52.357541" lon="4.669577"><ele>0.0</ele></rtept>
    <rtept lat="52.356571" lon="4.669792"><ele>0.0</ele></rtept>
    <rtept lat="52.356332" lon="4.669868"><ele>0.0</ele></rtept>
    <rtept lat="52.355799" lon="4.670115"><ele>0.0</ele></rtept>
    <rtept lat="52.355744" lon="4.670136"><ele>0.0</ele></rtept>
    <rtept lat="52.355673" lon="4.670170"><ele>0.0</ele></rtept>
    <rtept lat="52.355736" lon="4.670631"><ele>0.0</ele></rtept>
    <rtept lat="52.355992" lon="4.672205"><ele>0.0</ele></rtept>
    <rtept lat="52.356103" lon="4.673000"><ele>0.0</ele></rtept>
    <rtept lat="52.356060" lon="4.673244"><ele>0.0</ele></rtept>
    <rtept lat="52.355980" lon="4.673417"><ele>0.0</ele></rtept>
    <rtept lat="52.355766" lon="4.673762"><ele>0.0</ele></rtept>
    <rtept lat="52.354878" lon="4.674952"><ele>0.0</ele></rtept>
    <rtept lat="52.354134" lon="4.675928"><ele>0.0</ele></rtept>
    <rtept lat="52.354027" lon="4.676138"><ele>0.0</ele></rtept>
    <rtept lat="52.354006" lon="4.676245"><ele>0.0</ele></rtept>
    <rtept lat="52.353924" lon="4.676809"><ele>0.0</ele></rtept>
    <rtept lat="52.353909" lon="4.676910"><ele>0.0</ele></rtept>
    <rtept lat="52.353525" lon="4.676767"><ele>0.0</ele></rtept>
    <rtept lat="52.352686" lon="4.676218"><ele>0.0</ele></rtept>
    <rtept lat="52.352414" lon="4.676000"><ele>0.0</ele></rtept>
    <rtept lat="52.351765" lon="4.675341"><ele>0.0</ele></rtept>
    <rtept lat="52.351536" lon="4.675076"><ele>0.0</ele></rtept>
    <rtept lat="52.351073" lon="4.674468"><ele>0.0</ele></rtept>
    <rtept lat="52.350937" lon="4.674255"><ele>0.0</ele></rtept>
    <rtept lat="52.350570" lon="4.673550"><ele>0.0</ele></rtept>
    <rtept lat="52.349416" lon="4.670958"><ele>0.0</ele></rtept>
    <rtept lat="52.349319" lon="4.671047"><ele>0.0</ele></rtept>
    <rtept lat="52.348940" lon="4.671303"><ele>0.0</ele></rtept>
    <rtept lat="52.348565" lon="4.671474"><ele>0.0</ele></rtept>
    <rtept lat="52.348137" lon="4.671580"><ele>0.0</ele></rtept>
    <rtept lat="52.347251" lon="4.671674"><ele>0.0</ele></rtept>
    <rtept lat="52.347037" lon="4.671690"><ele>0.0</ele></rtept>
    <rtept lat="52.346890" lon="4.671700"><ele>0.0</ele></rtept>
    <rtept lat="52.346472" lon="4.671729"><ele>0.0</ele></rtept>
    <rtept lat="52.346320" lon="4.671657"><ele>0.0</ele></rtept>
    <rtept lat="52.346288" lon="4.671669"><ele>0.0</ele></rtept>
    <rtept lat="52.346274" lon="4.671698"><ele>0.0</ele></rtept>
    <rtept lat="52.346253" lon="4.671740"><ele>0.0</ele></rtept>
    <rtept lat="52.346236" lon="4.671775"><ele>0.0</ele></rtept>
    <rtept lat="52.346208" lon="4.671801"><ele>0.0</ele></rtept>
    <rtept lat="52.346099" lon="4.671824"><ele>0.0</ele></rtept>
    <rtept lat="52.346064" lon="4.671865"><ele>0.0</ele></rtept>
    <rtept lat="52.346041" lon="4.671887"><ele>0.0</ele></rtept>
    <rtept lat="52.345250" lon="4.672126"><ele>0.0</ele></rtept>
    <rtept lat="52.345076" lon="4.672242"><ele>0.0</ele></rtept>
    <rtept lat="52.344572" lon="4.672383"><ele>0.0</ele></rtept>
    <rtept lat="52.344355" lon="4.672373"><ele>0.0</ele></rtept>
    <rtept lat="52.343553" lon="4.672596"><ele>0.0</ele></rtept>
    <rtept lat="52.343522" lon="4.672605"><ele>0.0</ele></rtept>
    <rtept lat="52.343406" lon="4.672650"><ele>0.0</ele></rtept>
    <rtept lat="52.343232" lon="4.672765"><ele>0.0</ele></rtept>
    <rtept lat="52.342456" lon="4.672992"><ele>0.0</ele></rtept>
    <rtept lat="52.342132" lon="4.673000"><ele>0.0</ele></rtept>
    <rtept lat="52.341895" lon="4.673064"><ele>0.0</ele></rtept>
    <rtept lat="52.339506" lon="4.673740"><ele>0.0</ele></rtept>
    <rtept lat="52.339330" lon="4.673743"><ele>0.0</ele></rtept>
    <rtept lat="52.338432" lon="4.673864"><ele>0.0</ele></rtept>
    <rtept lat="52.338064" lon="4.673973"><ele>0.0</ele></rtept>
    <rtept lat="52.337773" lon="4.674005"><ele>0.0</ele></rtept>
    <rtept lat="52.336415" lon="4.674412"><ele>0.0</ele></rtept>
    <rtept lat="52.336239" lon="4.674488"><ele>0.0</ele></rtept>
    <rtept lat="52.335163" lon="4.674789"><ele>0.0</ele></rtept>
    <rtept lat="52.334916" lon="4.674863"><ele>0.0</ele></rtept>
    <rtept lat="52.334850" lon="4.674881"><ele>0.0</ele></rtept>
    <rtept lat="52.334561" lon="4.674958"><ele>0.0</ele></rtept>
    <rtept lat="52.334141" lon="4.675025"><ele>0.0</ele></rtept>
    <rtept lat="52.333495" lon="4.675123"><ele>0.0</ele></rtept>
    <rtept lat="52.333059" lon="4.675149"><ele>0.0</ele></rtept>
    <rtept lat="52.329442" lon="4.676183"><ele>0.0</ele></rtept>
    <rtept lat="52.329411" lon="4.676192"><ele>0.0</ele></rtept>
    <rtept lat="52.324001" lon="4.677735"><ele>0.0</ele></rtept>
    <rtept lat="52.323922" lon="4.677682"><ele>0.0</ele></rtept>
    <rtept lat="52.323778" lon="4.677457"><ele>0.0</ele></rtept>
    <rtept lat="52.323647" lon="4.677378"><ele>0.0</ele></rtept>
    <rtept lat="52.323527" lon="4.677397"><ele>0.0</ele></rtept>
    <rtept lat="52.323453" lon="4.677527"><ele>0.0</ele></rtept>
    <rtept lat="52.323383" lon="4.677735"><ele>0.0</ele></rtept>
    <rtept lat="52.323270" lon="4.678009"><ele>0.0</ele></rtept>
    <rtept lat="52.323221" lon="4.678099"><ele>0.0</ele></rtept>
    <rtept lat="52.323179" lon="4.678185"><ele>0.0</ele></rtept>
    <rtept lat="52.323069" lon="4.678349"><ele>0.0</ele></rtept>
    <rtept lat="52.322978" lon="4.678431"><ele>0.0</ele></rtept>
    <rtept lat="52.318071" lon="4.680272"><ele>0.0</ele></rtept>
    <rtept lat="52.317106" lon="4.680641"><ele>0.0</ele></rtept>
    <rtept lat="52.317032" lon="4.680676"><ele>0.0</ele></rtept>
    <rtept lat="52.316816" lon="4.680786"><ele>0.0</ele></rtept>
    <rtept lat="52.316541" lon="4.680892"><ele>0.0</ele></rtept>
    <rtept lat="52.316281" lon="4.680986"><ele>0.0</ele></rtept>
    <rtept lat="52.316009" lon="4.681085"><ele>0.0</ele></rtept>
    <rtept lat="52.315765" lon="4.681138"><ele>0.0</ele></rtept>
    <rtept lat="52.315717" lon="4.681151"><ele>0.0</ele></rtept>
    <rtept lat="52.314498" lon="4.681614"><ele>0.0</ele></rtept>
    <rtept lat="52.314416" lon="4.681646"><ele>0.0</ele></rtept>
    <rtept lat="52.314367" lon="4.681654"><ele>0.0</ele></rtept>
    <rtept lat="52.314092" lon="4.681384"><ele>0.0</ele></rtept>
    <rtept lat="52.314020" lon="4.681404"><ele>0.0</ele></rtept>
    <rtept lat="52.313964" lon="4.681423"><ele>0.0</ele></rtept>
    <rtept lat="52.312199" lon="4.682078"><ele>0.0</ele></rtept>
    <rtept lat="52.312158" lon="4.682050"><ele>0.0</ele></rtept>
    <rtept lat="52.311961" lon="4.682044"><ele>0.0</ele></rtept>
    <rtept lat="52.311942" lon="4.681964"><ele>0.0</ele></rtept>
    <rtept lat="52.311901" lon="4.681944"><ele>0.0</ele></rtept>
    <rtept lat="52.311501" lon="4.682140"><ele>0.0</ele></rtept>
    <rtept lat="52.311281" lon="4.682226"><ele>0.0</ele></rtept>
    <rtept lat="52.311221" lon="4.682210"><ele>0.0</ele></rtept>
    <rtept lat="52.311101" lon="4.682063"><ele>0.0</ele></rtept>
    <rtept lat="52.311073" lon="4.682099"><ele>0.0</ele></rtept>
    <rtept lat="52.310267" lon="4.682425"><ele>0.0</ele></rtept>
    <rtept lat="52.310195" lon="4.682554"><ele>0.0</ele></rtept>
    <rtept lat="52.310165" lon="4.682607"><ele>0.0</ele></rtept>
    <rtept lat="52.310104" lon="4.682643"><ele>0.0</ele></rtept>
    <rtept lat="52.310029" lon="4.682669"><ele>0.0</ele></rtept>
    <rtept lat="52.309972" lon="4.682735"><ele>0.0</ele></rtept>
    <rtept lat="52.309914" lon="4.682801"><ele>0.0</ele></rtept>
    <rtept lat="52.309896" lon="4.682829"><ele>0.0</ele></rtept>
    <rtept lat="52.309805" lon="4.682955"><ele>0.0</ele></rtept>
    <rtept lat="52.307083" lon="4.683992"><ele>0.0</ele></rtept>
    <rtept lat="52.307013" lon="4.684035"><ele>0.0</ele></rtept>
    <rtept lat="52.306957" lon="4.684078"><ele>0.0</ele></rtept>
    <rtept lat="52.306886" lon="4.684134"><ele>0.0</ele></rtept>
    <rtept lat="52.306818" lon="4.684145"><ele>0.0</ele></rtept>
    <rtept lat="52.306759" lon="4.684125"><ele>0.0</ele></rtept>
    <rtept lat="52.306701" lon="4.684116"><ele>0.0</ele></rtept>
    <rtept lat="52.304362" lon="4.685013"><ele>0.0</ele></rtept>
    <rtept lat="52.303243" lon="4.685068"><ele>0.0</ele></rtept>
    <rtept lat="52.303071" lon="4.685109"><ele>0.0</ele></rtept>
    <rtept lat="52.302771" lon="4.685520"><ele>0.0</ele></rtept>
    <rtept lat="52.302540" lon="4.685804"><ele>0.0</ele></rtept>
    <rtept lat="52.302423" lon="4.685960"><ele>0.0</ele></rtept>
    <rtept lat="52.302372" lon="4.686068"><ele>0.0</ele></rtept>
    <rtept lat="52.302331" lon="4.686119"><ele>0.0</ele></rtept>
    <rtept lat="52.302256" lon="4.686265"><ele>0.0</ele></rtept>
    <rtept lat="52.302219" lon="4.686402"><ele>0.0</ele></rtept>
    <rtept lat="52.302041" lon="4.686756"><ele>0.0</ele></rtept>
    <rtept lat="52.301971" lon="4.686838"><ele>0.0</ele></rtept>
    <rtept lat="52.301874" lon="4.687020"><ele>0.0</ele></rtept>
    <rtept lat="52.301477" lon="4.686454"><ele>0.0</ele></rtept>
    <rtept lat="52.301411" lon="4.686587"><ele>0.0</ele></rtept>
    <rtept lat="52.301330" lon="4.686744"><ele>0.0</ele></rtept>
    <rtept lat="52.301293" lon="4.686820"><ele>0.0</ele></rtept>
    <rtept lat="52.301258" lon="4.686885"><ele>0.0</ele></rtept>
    <rtept lat="52.301226" lon="4.686947"><ele>0.0</ele></rtept>
    <rtept lat="52.301193" lon="4.687015"><ele>0.0</ele></rtept>
    <rtept lat="52.301133" lon="4.687138"><ele>0.0</ele></rtept>
    <rtept lat="52.301131" lon="4.687142"><ele>0.0</ele></rtept>
    <rtept lat="52.301099" lon="4.687205"><ele>0.0</ele></rtept>
    <rtept lat="52.300396" lon="4.688473"><ele>0.0</ele></rtept>
    <rtept lat="52.299756" lon="4.689222"><ele>0.0</ele></rtept>
    <rtept lat="52.299440" lon="4.689733"><ele>0.0</ele></rtept>
    <rtept lat="52.299361" lon="4.689818"><ele>0.0</ele></rtept>
    <rtept lat="52.299165" lon="4.689902"><ele>0.0</ele></rtept>
    <rtept lat="52.299064" lon="4.689992"><ele>0.0</ele></rtept>
    <rtept lat="52.298248" lon="4.690911"><ele>0.0</ele></rtept>
    <rtept lat="52.297939" lon="4.691299"><ele>0.0</ele></rtept>
    <rtept lat="52.297919" lon="4.691329"><ele>0.0</ele></rtept>
    <rtept lat="52.297868" lon="4.691422"><ele>0.0</ele></rtept>
    <rtept lat="52.297711" lon="4.691189"><ele>0.0</ele></rtept>
    <rtept lat="52.297463" lon="4.690810"><ele>0.0</ele></rtept>
    <rtept lat="52.297441" lon="4.690851"><ele>0.0</ele></rtept>
    <rtept lat="52.297400" lon="4.690929"><ele>0.0</ele></rtept>
    <rtept lat="52.297348" lon="4.691000"><ele>0.0</ele></rtept>
    <rtept lat="52.297173" lon="4.691003"><ele>0.0</ele></rtept>
    <rtept lat="52.296882" lon="4.691457"><ele>0.0</ele></rtept>
    <rtept lat="52.296353" lon="4.692078"><ele>0.0</ele></rtept>
    <rtept lat="52.295576" lon="4.692934"><ele>0.0</ele></rtept>
    <rtept lat="52.295390" lon="4.693139"><ele>0.0</ele></rtept>
    <rtept lat="52.294822" lon="4.693808"><ele>0.0</ele></rtept>
    <rtept lat="52.294293" lon="4.694405"><ele>0.0</ele></rtept>
    <rtept lat="52.293865" lon="4.694892"><ele>0.0</ele></rtept>
    <rtept lat="52.293624" lon="4.695212"><ele>0.0</ele></rtept>
    <rtept lat="52.293605" lon="4.695252"><ele>0.0</ele></rtept>
    <rtept lat="52.293602" lon="4.695606"><ele>0.0</ele></rtept>
    <rtept lat="52.293432" lon="4.695684"><ele>0.0</ele></rtept>
    <rtept lat="52.293143" lon="4.695992"><ele>0.0</ele></rtept>
    <rtept lat="52.293025" lon="4.696131"><ele>0.0</ele></rtept>
    <rtept lat="52.292732" lon="4.696472"><ele>0.0</ele></rtept>
    <rtept lat="52.292631" lon="4.696606"><ele>0.0</ele></rtept>
    <rtept lat="52.292614" lon="4.696670"><ele>0.0</ele></rtept>
    <rtept lat="52.292613" lon="4.696804"><ele>0.0</ele></rtept>
    <rtept lat="52.292642" lon="4.696911"><ele>0.0</ele></rtept>
    <rtept lat="52.292674" lon="4.696982"><ele>0.0</ele></rtept>
    <rtept lat="52.292979" lon="4.697717"><ele>0.0</ele></rtept>
    <rtept lat="52.293002" lon="4.697972"><ele>0.0</ele></rtept>
    <rtept lat="52.292795" lon="4.698310"><ele>0.0</ele></rtept>
    <rtept lat="52.292718" lon="4.698456"><ele>0.0</ele></rtept>
    <rtept lat="52.292632" lon="4.698598"><ele>0.0</ele></rtept>
    <rtept lat="52.292476" lon="4.698873"><ele>0.0</ele></rtept>
    <rtept lat="52.292427" lon="4.698955"><ele>0.0</ele></rtept>
    <rtept lat="52.292327" lon="4.699132"><ele>0.0</ele></rtept>
    <rtept lat="52.292215" lon="4.699307"><ele>0.0</ele></rtept>
    <rtept lat="52.291991" lon="4.699724"><ele>0.0</ele></rtept>
    <rtept lat="52.291837" lon="4.700004"><ele>0.0</ele></rtept>
    <rtept lat="52.291787" lon="4.700180"><ele>0.0</ele></rtept>
    <rtept lat="52.291680" lon="4.700136"><ele>0.0</ele></rtept>
    <rtept lat="52.291571" lon="4.700103"><ele>0.0</ele></rtept>
    <rtept lat="52.291473" lon="4.700086"><ele>0.0</ele></rtept>
    <rtept lat="52.291419" lon="4.700110"><ele>0.0</ele></rtept>
    <rtept lat="52.291178" lon="4.700557"><ele>0.0</ele></rtept>
    <rtept lat="52.291132" lon="4.700646"><ele>0.0</ele></rtept>
    <rtept lat="52.290954" lon="4.700388"><ele>0.0</ele></rtept>
    <rtept lat="52.290726" lon="4.700063"><ele>0.0</ele></rtept>
    <rtept lat="52.290506" lon="4.699745"><ele>0.0</ele></rtept>
    <rtept lat="52.290476" lon="4.699712"><ele>0.0</ele></rtept>
    <rtept lat="52.286669" lon="4.703980"><ele>0.0</ele></rtept>
    <rtept lat="52.286129" lon="4.704584"><ele>0.0</ele></rtept>
    <rtept lat="52.286082" lon="4.704686"><ele>0.0</ele></rtept>
    <rtept lat="52.285961" lon="4.704908"><ele>0.0</ele></rtept>
    <rtept lat="52.285291" lon="4.706187"><ele>0.0</ele></rtept>
    <rtept lat="52.285079" lon="4.706529"><ele>0.0</ele></rtept>
    <rtept lat="52.284752" lon="4.707171"><ele>0.0</ele></rtept>
    <rtept lat="52.283687" lon="4.709146"><ele>0.0</ele></rtept>
    <rtept lat="52.280982" lon="4.714133"><ele>0.0</ele></rtept>
    <rtept lat="52.280808" lon="4.714449"><ele>0.0</ele></rtept>
    <rtept lat="52.280730" lon="4.714599"><ele>0.0</ele></rtept>
    <rtept lat="52.280735" lon="4.714676"><ele>0.0</ele></rtept>
    <rtept lat="52.280850" lon="4.714832"><ele>0.0</ele></rtept>
    <rtept lat="52.280950" lon="4.714861"><ele>0.0</ele></rtept>
    <rtept lat="52.281013" lon="4.714832"><ele>0.0</ele></rtept>
    <rtept lat="52.281057" lon="4.714782"><ele>0.0</ele></rtept>
    <rtept lat="52.281262" lon="4.714396"><ele>0.0</ele></rtept>
    <rtept lat="52.281387" lon="4.714150"><ele>0.0</ele></rtept>
    <rtept lat="52.281275" lon="4.713971"><ele>0.0</ele></rtept>
    <rtept lat="52.281228" lon="4.713950"><ele>0.0</ele></rtept>
    <rtept lat="52.279989" lon="4.716243"><ele>0.0</ele></rtept>
    <rtept lat="52.279531" lon="4.717096"><ele>0.0</ele></rtept>
    <rtept lat="52.279538" lon="4.717156"><ele>0.0</ele></rtept>
    <rtept lat="52.279646" lon="4.717310"><ele>0.0</ele></rtept>
    <rtept lat="52.279680" lon="4.717329"><ele>0.0</ele></rtept>
    <rtept lat="52.279803" lon="4.717098"><ele>0.0</ele></rtept>
    <rtept lat="52.280011" lon="4.716705"><ele>0.0</ele></rtept>
    <rtept lat="52.280025" lon="4.716603"><ele>0.0</ele></rtept>
    <rtept lat="52.280019" lon="4.716504"><ele>0.0</ele></rtept>
    <rtept lat="52.279995" lon="4.716419"><ele>0.0</ele></rtept>
    <rtept lat="52.279953" lon="4.716344"><ele>0.0</ele></rtept>
    <rtept lat="52.279871" lon="4.716238"><ele>0.0</ele></rtept>
    <rtept lat="52.279839" lon="4.716236"><ele>0.0</ele></rtept>
    <rtept lat="52.279747" lon="4.716401"><ele>0.0</ele></rtept>
    <rtept lat="52.279735" lon="4.716423"><ele>0.0</ele></rtept>
    <rtept lat="52.279171" lon="4.717497"><ele>0.0</ele></rtept>
    <rtept lat="52.278718" lon="4.718316"><ele>0.0</ele></rtept>
    <rtept lat="52.277281" lon="4.720979"><ele>0.0</ele></rtept>
    <rtept lat="52.274257" lon="4.726584"><ele>0.0</ele></rtept>
    <rtept lat="52.274196" lon="4.726701"><ele>0.0</ele></rtept>
    <rtept lat="52.274151" lon="4.726789"><ele>0.0</ele></rtept>
    <rtept lat="52.274113" lon="4.726852"><ele>0.0</ele></rtept>
    <rtept lat="52.273499" lon="4.727987"><ele>0.0</ele></rtept>
    <rtept lat="52.273450" lon="4.728009"><ele>0.0</ele></rtept>
    <rtept lat="52.273304" lon="4.727825"><ele>0.0</ele></rtept>
    <rtept lat="52.273280" lon="4.727816"><ele>0.0</ele></rtept>
    <rtept lat="52.270553" lon="4.732874"><ele>0.0</ele></rtept>
    <rtept lat="52.270492" lon="4.733023"><ele>0.0</ele></rtept>
    <rtept lat="52.270458" lon="4.733053"><ele>0.0</ele></rtept>
    <rtept lat="52.270432" lon="4.733041"><ele>0.0</ele></rtept>
    <rtept lat="52.270174" lon="4.732894"><ele>0.0</ele></rtept>
    <rtept lat="52.270073" lon="4.732871"><ele>0.0</ele></rtept>
    <rtept lat="52.270048" lon="4.732866"><ele>0.0</ele></rtept>
    <rtept lat="52.269133" lon="4.732712"><ele>0.0</ele></rtept>
    <rtept lat="52.268057" lon="4.732623"><ele>0.0</ele></rtept>
    <rtept lat="52.267954" lon="4.732637"><ele>0.0</ele></rtept>
    <rtept lat="52.267873" lon="4.732703"><ele>0.0</ele></rtept>
    <rtept lat="52.267817" lon="4.732790"><ele>0.0</ele></rtept>
    <rtept lat="52.267002" lon="4.734307"><ele>0.0</ele></rtept>
    <rtept lat="52.266914" lon="4.734395"><ele>0.0</ele></rtept>
    <rtept lat="52.267150" lon="4.735286"><ele>0.0</ele></rtept>
    <rtept lat="52.267310" lon="4.736010"><ele>0.0</ele></rtept>
    <rtept lat="52.267539" lon="4.737103"><ele>0.0</ele></rtept>
    <rtept lat="52.267594" lon="4.737493"><ele>0.0</ele></rtept>
    <rtept lat="52.267747" lon="4.738210"><ele>0.0</ele></rtept>
    <rtept lat="52.267957" lon="4.738940"><ele>0.0</ele></rtept>
    <rtept lat="52.268036" lon="4.739140"><ele>0.0</ele></rtept>
    <rtept lat="52.268636" lon="4.740363"><ele>0.0</ele></rtept>
    <rtept lat="52.268912" lon="4.740927"><ele>0.0</ele></rtept>
    <rtept lat="52.269380" lon="4.741869"><ele>0.0</ele></rtept>
    <rtept lat="52.270087" lon="4.743284"><ele>0.0</ele></rtept>
    <rtept lat="52.270251" lon="4.743484"><ele>0.0</ele></rtept>
    <rtept lat="52.270542" lon="4.743772"><ele>0.0</ele></rtept>
    <rtept lat="52.271039" lon="4.744233"><ele>0.0</ele></rtept>
    <rtept lat="52.271524" lon="4.744740"><ele>0.0</ele></rtept>
    <rtept lat="52.271961" lon="4.745259"><ele>0.0</ele></rtept>
    <rtept lat="52.272194" lon="4.745619"><ele>0.0</ele></rtept>
    <rtept lat="52.272401" lon="4.746002"><ele>0.0</ele></rtept>
    <rtept lat="52.272601" lon="4.746451"><ele>0.0</ele></rtept>
    <rtept lat="52.272787" lon="4.746993"><ele>0.0</ele></rtept>
    <rtept lat="52.273770" lon="4.750100"><ele>0.0</ele></rtept>
    <rtept lat="52.273731" lon="4.750136"><ele>0.0</ele></rtept>
    <rtept lat="52.273709" lon="4.750157"><ele>0.0</ele></rtept>
    <rtept lat="52.273678" lon="4.750193"><ele>0.0</ele></rtept>
    <rtept lat="52.273674" lon="4.750237"><ele>0.0</ele></rtept>
    <rtept lat="52.273883" lon="4.751365"><ele>0.0</ele></rtept>
    <rtept lat="52.273926" lon="4.751701"><ele>0.0</ele></rtept>
    <rtept lat="52.273936" lon="4.751728"><ele>0.0</ele></rtept>
    <rtept lat="52.273972" lon="4.751736"><ele>0.0</ele></rtept>
    <rtept lat="52.274036" lon="4.751724"><ele>0.0</ele></rtept>
    <rtept lat="52.274044" lon="4.751412"><ele>0.0</ele></rtept>
    <rtept lat="52.274048" lon="4.751137"><ele>0.0</ele></rtept>
    <rtept lat="52.273976" lon="4.751132"><ele>0.0</ele></rtept>
    <rtept lat="52.273881" lon="4.751165"><ele>0.0</ele></rtept>
    <rtept lat="52.273534" lon="4.751345"><ele>0.0</ele></rtept>
    <rtept lat="52.272657" lon="4.751779"><ele>0.0</ele></rtept>
    <rtept lat="52.272438" lon="4.751925"><ele>0.0</ele></rtept>
    <rtept lat="52.272186" lon="4.752133"><ele>0.0</ele></rtept>
    <rtept lat="52.272029" lon="4.752321"><ele>0.0</ele></rtept>
    <rtept lat="52.271895" lon="4.752388"><ele>0.0</ele></rtept>
    <rtept lat="52.271823" lon="4.752468"><ele>0.0</ele></rtept>
    <rtept lat="52.271761" lon="4.752527"><ele>0.0</ele></rtept>
    <rtept lat="52.271725" lon="4.752562"><ele>0.0</ele></rtept>
    <rtept lat="52.270060" lon="4.754152"><ele>0.0</ele></rtept>
    <rtept lat="52.269737" lon="4.754384"><ele>0.0</ele></rtept>
    <rtept lat="52.269523" lon="4.754505"><ele>0.0</ele></rtept>
    <rtept lat="52.269498" lon="4.754356"><ele>0.0</ele></rtept>
    <rtept lat="52.269439" lon="4.754186"><ele>0.0</ele></rtept>
    <rtept lat="52.269414" lon="4.754134"><ele>0.0</ele></rtept>
    <rtept lat="52.269316" lon="4.754039"><ele>0.0</ele></rtept>
    <rtept lat="52.269204" lon="4.754037"><ele>0.0</ele></rtept>
    <rtept lat="52.269064" lon="4.753841"><ele>0.0</ele></rtept>
    <rtept lat="52.269011" lon="4.753737"><ele>0.0</ele></rtept>
    <rtept lat="52.268705" lon="4.753059"><ele>0.0</ele></rtept>
    <rtept lat="52.268635" lon="4.752881"><ele>0.0</ele></rtept>
    <rtept lat="52.268609" lon="4.752812"><ele>0.0</ele></rtept>
    <rtept lat="52.268553" lon="4.752651"><ele>0.0</ele></rtept>
    <rtept lat="52.268515" lon="4.752474"><ele>0.0</ele></rtept>
    <rtept lat="52.268451" lon="4.752311"><ele>0.0</ele></rtept>
    <rtept lat="52.268402" lon="4.752186"><ele>0.0</ele></rtept>
    <rtept lat="52.268321" lon="4.752061"><ele>0.0</ele></rtept>
    <rtept lat="52.268273" lon="4.751948"><ele>0.0</ele></rtept>
    <rtept lat="52.268215" lon="4.751856"><ele>0.0</ele></rtept>
    <rtept lat="52.268171" lon="4.751813"><ele>0.0</ele></rtept>
    <rtept lat="52.268130" lon="4.751676"><ele>0.0</ele></rtept>
    <rtept lat="52.268114" lon="4.751637"><ele>0.0</ele></rtept>
    <rtept lat="52.268034" lon="4.751447"><ele>0.0</ele></rtept>
    <rtept lat="52.267886" lon="4.751116"><ele>0.0</ele></rtept>
    <rtept lat="52.267821" lon="4.750958"><ele>0.0</ele></rtept>
    <rtept lat="52.267620" lon="4.750500"><ele>0.0</ele></rtept>
    <rtept lat="52.267538" lon="4.750315"><ele>0.0</ele></rtept>
    <rtept lat="52.267335" lon="4.749884"><ele>0.0</ele></rtept>
    <rtept lat="52.267308" lon="4.749820"><ele>0.0</ele></rtept>
    <rtept lat="52.267142" lon="4.749417"><ele>0.0</ele></rtept>
    <rtept lat="52.267033" lon="4.749145"><ele>0.0</ele></rtept>
    <rtept lat="52.266921" lon="4.748897"><ele>0.0</ele></rtept>
    <rtept lat="52.266865" lon="4.748888"><ele>0.0</ele></rtept>
    <rtept lat="52.266740" lon="4.748997"><ele>0.0</ele></rtept>
    <rtept lat="52.266642" lon="4.749078"><ele>0.0</ele></rtept>
    <rtept lat="52.266562" lon="4.749142"><ele>0.0</ele></rtept>
    <rtept lat="52.266513" lon="4.749181"><ele>0.0</ele></rtept>
    <rtept lat="52.266355" lon="4.749321"><ele>0.0</ele></rtept>
    <rtept lat="52.266263" lon="4.749403"><ele>0.0</ele></rtept>
    <rtept lat="52.265693" lon="4.749959"><ele>0.0</ele></rtept>
    <rtept lat="52.265503" lon="4.750130"><ele>0.0</ele></rtept>
    <rtept lat="52.265342" lon="4.750276"><ele>0.0</ele></rtept>
    <rtept lat="52.264940" lon="4.750648"><ele>0.0</ele></rtept>
    <rtept lat="52.264817" lon="4.750776"><ele>0.0</ele></rtept>
    <rtept lat="52.264763" lon="4.750840"><ele>0.0</ele></rtept>
    <rtept lat="52.264708" lon="4.750898"><ele>0.0</ele></rtept>
    <rtept lat="52.264674" lon="4.750934"><ele>0.0</ele></rtept>
    <rtept lat="52.264629" lon="4.750987"><ele>0.0</ele></rtept>
    <rtept lat="52.264162" lon="4.751450"><ele>0.0</ele></rtept>
    <rtept lat="52.264016" lon="4.751590"><ele>0.0</ele></rtept>
    <rtept lat="52.263836" lon="4.751761"><ele>0.0</ele></rtept>
    <rtept lat="52.263714" lon="4.751876"><ele>0.0</ele></rtept>
    <rtept lat="52.263602" lon="4.751982"><ele>0.0</ele></rtept>
    <rtept lat="52.263472" lon="4.752106"><ele>0.0</ele></rtept>
    <rtept lat="52.263278" lon="4.752291"><ele>0.0</ele></rtept>
    <rtept lat="52.262894" lon="4.752660"><ele>0.0</ele></rtept>
    <rtept lat="52.262825" lon="4.752726"><ele>0.0</ele></rtept>
    <rtept lat="52.261869" lon="4.753619"><ele>0.0</ele></rtept>
    <rtept lat="52.261560" lon="4.753898"><ele>0.0</ele></rtept>
    <rtept lat="52.260946" lon="4.754480"><ele>0.0</ele></rtept>
    <rtept lat="52.260220" lon="4.755120"><ele>0.0</ele></rtept>
    <rtept lat="52.259960" lon="4.755390"><ele>0.0</ele></rtept>
    <rtept lat="52.259876" lon="4.755485"><ele>0.0</ele></rtept>
    <rtept lat="52.259705" lon="4.755526"><ele>0.0</ele></rtept>
    <rtept lat="52.259660" lon="4.755560"><ele>0.0</ele></rtept>
    <rtept lat="52.259570" lon="4.755614"><ele>0.0</ele></rtept>
    <rtept lat="52.258531" lon="4.756585"><ele>0.0</ele></rtept>
    <rtept lat="52.258374" lon="4.756725"><ele>0.0</ele></rtept>
    <rtept lat="52.258063" lon="4.757008"><ele>0.0</ele></rtept>
    <rtept lat="52.257855" lon="4.757123"><ele>0.0</ele></rtept>
    <rtept lat="52.257624" lon="4.757210"><ele>0.0</ele></rtept>
    <rtept lat="52.257227" lon="4.757314"><ele>0.0</ele></rtept>
    <rtept lat="52.256961" lon="4.757371"><ele>0.0</ele></rtept>
    <rtept lat="52.256785" lon="4.757359"><ele>0.0</ele></rtept>
    <rtept lat="52.256752" lon="4.757354"><ele>0.0</ele></rtept>
    <rtept lat="52.256501" lon="4.757404"><ele>0.0</ele></rtept>
    <rtept lat="52.256378" lon="4.757472"><ele>0.0</ele></rtept>
    <rtept lat="52.256266" lon="4.757555"><ele>0.0</ele></rtept>
    <rtept lat="52.256170" lon="4.757646"><ele>0.0</ele></rtept>
    <rtept lat="52.255912" lon="4.757698"><ele>0.0</ele></rtept>
    <rtept lat="52.255879" lon="4.757711"><ele>0.0</ele></rtept>
    <rtept lat="52.255748" lon="4.757738"><ele>0.0</ele></rtept>
    <rtept lat="52.255673" lon="4.757782"><ele>0.0</ele></rtept>
    <rtept lat="52.255623" lon="4.757814"><ele>0.0</ele></rtept>
    <rtept lat="52.255286" lon="4.757907"><ele>0.0</ele></rtept>
    <rtept lat="52.255072" lon="4.757959"><ele>0.0</ele></rtept>
    <rtept lat="52.254959" lon="4.757957"><ele>0.0</ele></rtept>
    <rtept lat="52.254783" lon="4.757994"><ele>0.0</ele></rtept>
    <rtept lat="52.253760" lon="4.758213"><ele>0.0</ele></rtept>
    <rtept lat="52.252947" lon="4.758388"><ele>0.0</ele></rtept>
    <rtept lat="52.252816" lon="4.758344"><ele>0.0</ele></rtept>
    <rtept lat="52.252706" lon="4.758354"><ele>0.0</ele></rtept>
    <rtept lat="52.252685" lon="4.758357"><ele>0.0</ele></rtept>
    <rtept lat="52.252312" lon="4.758458"><ele>0.0</ele></rtept>
    <rtept lat="52.252203" lon="4.758485"><ele>0.0</ele></rtept>
    <rtept lat="52.252123" lon="4.758568"><ele>0.0</ele></rtept>
    <rtept lat="52.251344" lon="4.758751"><ele>0.0</ele></rtept>
    <rtept lat="52.251111" lon="4.758825"><ele>0.0</ele></rtept>
    <rtept lat="52.251026" lon="4.758913"><ele>0.0</ele></rtept>
    <rtept lat="52.250955" lon="4.759062"><ele>0.0</ele></rtept>
    <rtept lat="52.250892" lon="4.759244"><ele>0.0</ele></rtept>
    <rtept lat="52.250815" lon="4.759043"><ele>0.0</ele></rtept>
    <rtept lat="52.250541" lon="4.758852"><ele>0.0</ele></rtept>
    <rtept lat="52.249862" lon="4.758376"><ele>0.0</ele></rtept>
    <rtept lat="52.249656" lon="4.758234"><ele>0.0</ele></rtept>
    <rtept lat="52.249494" lon="4.758115"><ele>0.0</ele></rtept>
    <rtept lat="52.249329" lon="4.757997"><ele>0.0</ele></rtept>
    <rtept lat="52.249262" lon="4.757950"><ele>0.0</ele></rtept>
    <rtept lat="52.249073" lon="4.757824"><ele>0.0</ele></rtept>
    <rtept lat="52.248936" lon="4.757793"><ele>0.0</ele></rtept>
    <rtept lat="52.248784" lon="4.757681"><ele>0.0</ele></rtept>
    <rtept lat="52.248750" lon="4.757669"><ele>0.0</ele></rtept>
    <rtept lat="52.248691" lon="4.757743"><ele>0.0</ele></rtept>
    <rtept lat="52.248552" lon="4.757963"><ele>0.0</ele></rtept>
    <rtept lat="52.248400" lon="4.758156"><ele>0.0</ele></rtept>
    <rtept lat="52.247982" lon="4.758925"><ele>0.0</ele></rtept>
    <rtept lat="52.247883" lon="4.759066"><ele>0.0</ele></rtept>
    <rtept lat="52.247784" lon="4.759135"><ele>0.0</ele></rtept>
    <rtept lat="52.247692" lon="4.759143"><ele>0.0</ele></rtept>
    <rtept lat="52.247555" lon="4.759090"><ele>0.0</ele></rtept>
    <rtept lat="52.247332" lon="4.758925"><ele>0.0</ele></rtept>
    <rtept lat="52.247144" lon="4.758714"><ele>0.0</ele></rtept>
    <rtept lat="52.246993" lon="4.758405"><ele>0.0</ele></rtept>
    <rtept lat="52.246948" lon="4.758233"><ele>0.0</ele></rtept>
    <rtept lat="52.246918" lon="4.757884"><ele>0.0</ele></rtept>
    <rtept lat="52.246919" lon="4.757660"><ele>0.0</ele></rtept>
    <rtept lat="52.246961" lon="4.757069"><ele>0.0</ele></rtept>
    <rtept lat="52.246955" lon="4.756661"><ele>0.0</ele></rtept>
    <rtept lat="52.246891" lon="4.756441"><ele>0.0</ele></rtept>
    <rtept lat="52.246829" lon="4.756349"><ele>0.0</ele></rtept>
    <rtept lat="52.246699" lon="4.756222"><ele>0.0</ele></rtept>
    <rtept lat="52.242193" lon="4.753073"><ele>0.0</ele></rtept>
    <rtept lat="52.241201" lon="4.752427"><ele>0.0</ele></rtept>
    <rtept lat="52.240832" lon="4.752150"><ele>0.0</ele></rtept>
    <rtept lat="52.240795" lon="4.752117"><ele>0.0</ele></rtept>
    <rtept lat="52.240606" lon="4.751944"><ele>0.0</ele></rtept>
    <rtept lat="52.240468" lon="4.751807"><ele>0.0</ele></rtept>
    <rtept lat="52.240237" lon="4.751572"><ele>0.0</ele></rtept>
    <rtept lat="52.240047" lon="4.751406"><ele>0.0</ele></rtept>
    <rtept lat="52.239839" lon="4.751226"><ele>0.0</ele></rtept>
    <rtept lat="52.239574" lon="4.751051"><ele>0.0</ele></rtept>
    <rtept lat="52.239465" lon="4.751012"><ele>0.0</ele></rtept>
    <rtept lat="52.239414" lon="4.750994"><ele>0.0</ele></rtept>
    <rtept lat="52.239219" lon="4.751004"><ele>0.0</ele></rtept>
    <rtept lat="52.238886" lon="4.750919"><ele>0.0</ele></rtept>
    <rtept lat="52.238878" lon="4.750751"><ele>0.0</ele></rtept>
    <rtept lat="52.238853" lon="4.750733"><ele>0.0</ele></rtept>
    <rtept lat="52.238694" lon="4.750631"><ele>0.0</ele></rtept>
    <rtept lat="52.238579" lon="4.750549"><ele>0.0</ele></rtept>
    <rtept lat="52.238008" lon="4.750163"><ele>0.0</ele></rtept>
    <rtept lat="52.237816" lon="4.750034"><ele>0.0</ele></rtept>
    <rtept lat="52.237676" lon="4.749910"><ele>0.0</ele></rtept>
    <rtept lat="52.237631" lon="4.749876"><ele>0.0</ele></rtept>
    <rtept lat="52.237196" lon="4.749566"><ele>0.0</ele></rtept>
    <rtept lat="52.236966" lon="4.749404"><ele>0.0</ele></rtept>
    <rtept lat="52.236727" lon="4.749240"><ele>0.0</ele></rtept>
    <rtept lat="52.236585" lon="4.749143"><ele>0.0</ele></rtept>
    <rtept lat="52.236162" lon="4.748861"><ele>0.0</ele></rtept>
    <rtept lat="52.235798" lon="4.748649"><ele>0.0</ele></rtept>
    <rtept lat="52.235674" lon="4.748564"><ele>0.0</ele></rtept>
    <rtept lat="52.235406" lon="4.748375"><ele>0.0</ele></rtept>
    <rtept lat="52.235318" lon="4.748314"><ele>0.0</ele></rtept>
    <rtept lat="52.234949" lon="4.748042"><ele>0.0</ele></rtept>
    <rtept lat="52.234854" lon="4.747978"><ele>0.0</ele></rtept>
    <rtept lat="52.234759" lon="4.747900"><ele>0.0</ele></rtept>
    <rtept lat="52.234717" lon="4.747869"><ele>0.0</ele></rtept>
    <rtept lat="52.234759" lon="4.747711"><ele>0.0</ele></rtept>
    <rtept lat="52.234976" lon="4.746442"><ele>0.0</ele></rtept>
    <rtept lat="52.235022" lon="4.746167"><ele>0.0</ele></rtept>
    <rtept lat="52.235062" lon="4.745923"><ele>0.0</ele></rtept>
    <rtept lat="52.235065" lon="4.745908"><ele>0.0</ele></rtept>
    <rtept lat="52.235112" lon="4.745628"><ele>0.0</ele></rtept>
    <rtept lat="52.235172" lon="4.745263"><ele>0.0</ele></rtept>
    <rtept lat="52.235263" lon="4.744692"><ele>0.0</ele></rtept>
    <rtept lat="52.235313" lon="4.744335"><ele>0.0</ele></rtept>
    <rtept lat="52.235337" lon="4.744112"><ele>0.0</ele></rtept>
    <rtept lat="52.235339" lon="4.744083"><ele>0.0</ele></rtept>
    <rtept lat="52.235348" lon="4.743800"><ele>0.0</ele></rtept>
    <rtept lat="52.235323" lon="4.743475"><ele>0.0</ele></rtept>
    <rtept lat="52.235288" lon="4.743197"><ele>0.0</ele></rtept>
    <rtept lat="52.235230" lon="4.742832"><ele>0.0</ele></rtept>
    <rtept lat="52.235196" lon="4.742610"><ele>0.0</ele></rtept>
    <rtept lat="52.235141" lon="4.742247"><ele>0.0</ele></rtept>
    <rtept lat="52.235125" lon="4.742146"><ele>0.0</ele></rtept>
    <rtept lat="52.235057" lon="4.741730"><ele>0.0</ele></rtept>
    <rtept lat="52.234968" lon="4.741180"><ele>0.0</ele></rtept>
    <rtept lat="52.234837" lon="4.740412"><ele>0.0</ele></rtept>
    <rtept lat="52.234741" lon="4.739798"><ele>0.0</ele></rtept>
    <rtept lat="52.234673" lon="4.739367"><ele>0.0</ele></rtept>
    <rtept lat="52.234518" lon="4.738380"><ele>0.0</ele></rtept>
    <rtept lat="52.234382" lon="4.737515"><ele>0.0</ele></rtept>
    <rtept lat="52.234311" lon="4.737058"><ele>0.0</ele></rtept>
    <rtept lat="52.234034" lon="4.735405"><ele>0.0</ele></rtept>
    <rtept lat="52.233594" lon="4.732702"><ele>0.0</ele></rtept>
    <rtept lat="52.234027" lon="4.732693"><ele>0.0</ele></rtept>
    <rtept lat="52.234015" lon="4.732199"><ele>0.0</ele></rtept>
    <rtept lat="52.233493" lon="4.732103"><ele>0.0</ele></rtept>
    <rtept lat="52.233594" lon="4.732702"><ele>0.0</ele></rtept>
    <rtept lat="52.234034" lon="4.735405"><ele>0.0</ele></rtept>
    <rtept lat="52.232896" lon="4.735923"><ele>0.0</ele></rtept>
    <rtept lat="52.232770" lon="4.736099"><ele>0.0</ele></rtept>
    <rtept lat="52.232740" lon="4.736140"><ele>0.0</ele></rtept>
    <rtept lat="52.232929" lon="4.736509"><ele>0.0</ele></rtept>
    <rtept lat="52.232960" lon="4.736570"><ele>0.0</ele></rtept>
    <rtept lat="52.232330" lon="4.737411"><ele>0.0</ele></rtept>
    <rtept lat="52.232286" lon="4.737471"><ele>0.0</ele></rtept>
    <rtept lat="52.232242" lon="4.737528"><ele>0.0</ele></rtept>
    <rtept lat="52.231847" lon="4.738050"><ele>0.0</ele></rtept>
    <rtept lat="52.231791" lon="4.737937"><ele>0.0</ele></rtept>
    <rtept lat="52.231751" lon="4.737854"><ele>0.0</ele></rtept>
    <rtept lat="52.231689" lon="4.737934"><ele>0.0</ele></rtept>
    <rtept lat="52.231498" lon="4.738184"><ele>0.0</ele></rtept>
    <rtept lat="52.231482" lon="4.738261"><ele>0.0</ele></rtept>
    <rtept lat="52.231434" lon="4.738284"><ele>0.0</ele></rtept>
    <rtept lat="52.231318" lon="4.738435"><ele>0.0</ele></rtept>
    <rtept lat="52.231250" lon="4.738523"><ele>0.0</ele></rtept>
    <rtept lat="52.231279" lon="4.738583"><ele>0.0</ele></rtept>
    <rtept lat="52.231302" lon="4.738631"><ele>0.0</ele></rtept>
    <rtept lat="52.231311" lon="4.738697"><ele>0.0</ele></rtept>
    <rtept lat="52.231268" lon="4.738788"><ele>0.0</ele></rtept>
    <rtept lat="52.230971" lon="4.739181"><ele>0.0</ele></rtept>
    <rtept lat="52.230903" lon="4.739241"><ele>0.0</ele></rtept>
    <rtept lat="52.230914" lon="4.739413"><ele>0.0</ele></rtept>
    <rtept lat="52.230726" lon="4.739662"><ele>0.0</ele></rtept>
    <rtept lat="52.230655" lon="4.739754"><ele>0.0</ele></rtept>
    <rtept lat="52.230700" lon="4.739842"><ele>0.0</ele></rtept>
    <rtept lat="52.231024" lon="4.740493"><ele>0.0</ele></rtept>
    <rtept lat="52.231078" lon="4.740602"><ele>0.0</ele></rtept>
    <rtept lat="52.231128" lon="4.740703"><ele>0.0</ele></rtept>
    <rtept lat="52.231182" lon="4.740814"><ele>0.0</ele></rtept>
    <rtept lat="52.231451" lon="4.741360"><ele>0.0</ele></rtept>
    <rtept lat="52.231488" lon="4.741436"><ele>0.0</ele></rtept>
    <rtept lat="52.231737" lon="4.741947"><ele>0.0</ele></rtept>
    <rtept lat="52.231818" lon="4.742025"><ele>0.0</ele></rtept>
    <rtept lat="52.231857" lon="4.742084"><ele>0.0</ele></rtept>
    <rtept lat="52.231888" lon="4.742160"><ele>0.0</ele></rtept>
    <rtept lat="52.231912" lon="4.742296"><ele>0.0</ele></rtept>
    <rtept lat="52.232489" lon="4.743453"><ele>0.0</ele></rtept>
    <rtept lat="52.232581" lon="4.743550"><ele>0.0</ele></rtept>
    <rtept lat="52.232627" lon="4.743647"><ele>0.0</ele></rtept>
    <rtept lat="52.232681" lon="4.743762"><ele>0.0</ele></rtept>
    <rtept lat="52.232704" lon="4.743893"><ele>0.0</ele></rtept>
    <rtept lat="52.233131" lon="4.744758"><ele>0.0</ele></rtept>
    <rtept lat="52.233185" lon="4.744866"><ele>0.0</ele></rtept>
    <rtept lat="52.233303" lon="4.745106"><ele>0.0</ele></rtept>
    <rtept lat="52.233367" lon="4.745216"><ele>0.0</ele></rtept>
    <rtept lat="52.233802" lon="4.746116"><ele>0.0</ele></rtept>
    <rtept lat="52.234189" lon="4.746953"><ele>0.0</ele></rtept>
    <rtept lat="52.234158" lon="4.747022"><ele>0.0</ele></rtept>
    <rtept lat="52.234077" lon="4.747125"><ele>0.0</ele></rtept>
    <rtept lat="52.234030" lon="4.747200"><ele>0.0</ele></rtept>
    <rtept lat="52.233985" lon="4.747540"><ele>0.0</ele></rtept>
    <rtept lat="52.233922" lon="4.748021"><ele>0.0</ele></rtept>
    <rtept lat="52.233880" lon="4.748340"><ele>0.0</ele></rtept>
    <rtept lat="52.233833" lon="4.748404"><ele>0.0</ele></rtept>
    <rtept lat="52.233572" lon="4.748764"><ele>0.0</ele></rtept>
    <rtept lat="52.233501" lon="4.748862"><ele>0.0</ele></rtept>
    <rtept lat="52.233467" lon="4.748939"><ele>0.0</ele></rtept>
    <rtept lat="52.233463" lon="4.748990"><ele>0.0</ele></rtept>
    <rtept lat="52.233527" lon="4.749157"><ele>0.0</ele></rtept>
    <rtept lat="52.233569" lon="4.749241"><ele>0.0</ele></rtept>
    <rtept lat="52.233809" lon="4.749716"><ele>0.0</ele></rtept>
    <rtept lat="52.233893" lon="4.749898"><ele>0.0</ele></rtept>
    <rtept lat="52.233926" lon="4.750013"><ele>0.0</ele></rtept>
    <rtept lat="52.234016" lon="4.750224"><ele>0.0</ele></rtept>
    <rtept lat="52.234233" lon="4.750642"><ele>0.0</ele></rtept>
    <rtept lat="52.234285" lon="4.750742"><ele>0.0</ele></rtept>
    <rtept lat="52.234334" lon="4.750843"><ele>0.0</ele></rtept>
    <rtept lat="52.234444" lon="4.751061"><ele>0.0</ele></rtept>
    <rtept lat="52.234482" lon="4.751097"><ele>0.0</ele></rtept>
    <rtept lat="52.234518" lon="4.751064"><ele>0.0</ele></rtept>
    <rtept lat="52.234561" lon="4.751075"><ele>0.0</ele></rtept>
    <rtept lat="52.234637" lon="4.751086"><ele>0.0</ele></rtept>
    <rtept lat="52.235131" lon="4.751500"><ele>0.0</ele></rtept>
    <rtept lat="52.235352" lon="4.751659"><ele>0.0</ele></rtept>
    <rtept lat="52.235642" lon="4.751857"><ele>0.0</ele></rtept>
    <rtept lat="52.235662" lon="4.751871"><ele>0.0</ele></rtept>
    <rtept lat="52.235960" lon="4.752079"><ele>0.0</ele></rtept>
    <rtept lat="52.236169" lon="4.752221"><ele>0.0</ele></rtept>
    <rtept lat="52.236347" lon="4.752345"><ele>0.0</ele></rtept>
    <rtept lat="52.236448" lon="4.752414"><ele>0.0</ele></rtept>
    <rtept lat="52.236500" lon="4.752448"><ele>0.0</ele></rtept>
    <rtept lat="52.236678" lon="4.752563"><ele>0.0</ele></rtept>
    <rtept lat="52.236818" lon="4.752677"><ele>0.0</ele></rtept>
    <rtept lat="52.236846" lon="4.752691"><ele>0.0</ele></rtept>
    <rtept lat="52.237031" lon="4.752819"><ele>0.0</ele></rtept>
    <rtept lat="52.237093" lon="4.752890"><ele>0.0</ele></rtept>
    <rtept lat="52.237151" lon="4.752977"><ele>0.0</ele></rtept>
    <rtept lat="52.237415" lon="4.753503"><ele>0.0</ele></rtept>
    <rtept lat="52.237483" lon="4.753590"><ele>0.0</ele></rtept>
    <rtept lat="52.237528" lon="4.753678"><ele>0.0</ele></rtept>
    <rtept lat="52.237556" lon="4.753737"><ele>0.0</ele></rtept>
    <rtept lat="52.239030" lon="4.756710"><ele>0.0</ele></rtept>
    <rtept lat="52.239234" lon="4.757133"><ele>0.0</ele></rtept>
    <rtept lat="52.239292" lon="4.757248"><ele>0.0</ele></rtept>
    <rtept lat="52.239699" lon="4.758077"><ele>0.0</ele></rtept>
    <rtept lat="52.239788" lon="4.758152"><ele>0.0</ele></rtept>
    <rtept lat="52.239816" lon="4.758209"><ele>0.0</ele></rtept>
    <rtept lat="52.239849" lon="4.758284"><ele>0.0</ele></rtept>
    <rtept lat="52.239857" lon="4.758391"><ele>0.0</ele></rtept>
    <rtept lat="52.240053" lon="4.758797"><ele>0.0</ele></rtept>
    <rtept lat="52.240415" lon="4.759530"><ele>0.0</ele></rtept>
    <rtept lat="52.240523" lon="4.759750"><ele>0.0</ele></rtept>
    <rtept lat="52.240529" lon="4.759761"><ele>0.0</ele></rtept>
    <rtept lat="52.240977" lon="4.760664"><ele>0.0</ele></rtept>
    <rtept lat="52.241398" lon="4.761526"><ele>0.0</ele></rtept>
    <rtept lat="52.241545" lon="4.761826"><ele>0.0</ele></rtept>
    <rtept lat="52.241927" lon="4.762607"><ele>0.0</ele></rtept>
    <rtept lat="52.242209" lon="4.763164"><ele>0.0</ele></rtept>
    <rtept lat="52.242243" lon="4.763239"><ele>0.0</ele></rtept>
    <rtept lat="52.242495" lon="4.763751"><ele>0.0</ele></rtept>
    <rtept lat="52.242978" lon="4.764734"><ele>0.0</ele></rtept>
    <rtept lat="52.244534" lon="4.767869"><ele>0.0</ele></rtept>
    <rtept lat="52.244620" lon="4.767972"><ele>0.0</ele></rtept>
    <rtept lat="52.244712" lon="4.767945"><ele>0.0</ele></rtept>
    <rtept lat="52.244975" lon="4.767726"><ele>0.0</ele></rtept>
    <rtept lat="52.245315" lon="4.767481"><ele>0.0</ele></rtept>
    <rtept lat="52.245513" lon="4.767378"><ele>0.0</ele></rtept>
    <rtept lat="52.245761" lon="4.767294"><ele>0.0</ele></rtept>
    <rtept lat="52.246065" lon="4.767218"><ele>0.0</ele></rtept>
    <rtept lat="52.246334" lon="4.767197"><ele>0.0</ele></rtept>
    <rtept lat="52.246893" lon="4.767254"><ele>0.0</ele></rtept>
    <rtept lat="52.247392" lon="4.767455"><ele>0.0</ele></rtept>
    <rtept lat="52.247926" lon="4.767793"><ele>0.0</ele></rtept>
    <rtept lat="52.248558" lon="4.768433"><ele>0.0</ele></rtept>
    <rtept lat="52.248828" lon="4.768778"><ele>0.0</ele></rtept>
    <rtept lat="52.248877" lon="4.768834"><ele>0.0</ele></rtept>
    <rtept lat="52.248962" lon="4.768817"><ele>0.0</ele></rtept>
    <rtept lat="52.249291" lon="4.768600"><ele>0.0</ele></rtept>
    <rtept lat="52.249416" lon="4.768425"><ele>0.0</ele></rtept>
    <rtept lat="52.249457" lon="4.768369"><ele>0.0</ele></rtept>
    <rtept lat="52.249561" lon="4.768195"><ele>0.0</ele></rtept>
    <rtept lat="52.249589" lon="4.768032"><ele>0.0</ele></rtept>
    <rtept lat="52.250070" lon="4.764993"><ele>0.0</ele></rtept>
    <rtept lat="52.250086" lon="4.764894"><ele>0.0</ele></rtept>
    <rtept lat="52.250227" lon="4.764019"><ele>0.0</ele></rtept>
    <rtept lat="52.250395" lon="4.762968"><ele>0.0</ele></rtept>
    <rtept lat="52.250576" lon="4.761843"><ele>0.0</ele></rtept>
    <rtept lat="52.250703" lon="4.761052"><ele>0.0</ele></rtept>
    <rtept lat="52.250837" lon="4.760190"><ele>0.0</ele></rtept>
    <rtept lat="52.250859" lon="4.759914"><ele>0.0</ele></rtept>
    <rtept lat="52.250858" lon="4.759539"><ele>0.0</ele></rtept>
    <rtept lat="52.250915" lon="4.759293"><ele>0.0</ele></rtept>
    <rtept lat="52.250970" lon="4.759325"><ele>0.0</ele></rtept>
    <rtept lat="52.251093" lon="4.759388"><ele>0.0</ele></rtept>
    <rtept lat="52.251200" lon="4.759091"><ele>0.0</ele></rtept>
    <rtept lat="52.251254" lon="4.758995"><ele>0.0</ele></rtept>
    <rtept lat="52.251324" lon="4.758922"><ele>0.0</ele></rtept>
    <rtept lat="52.251422" lon="4.758872"><ele>0.0</ele></rtept>
    <rtept lat="52.252209" lon="4.758701"><ele>0.0</ele></rtept>
    <rtept lat="52.252331" lon="4.758696"><ele>0.0</ele></rtept>
    <rtept lat="52.252712" lon="4.758645"><ele>0.0</ele></rtept>
    <rtept lat="52.252848" lon="4.758607"><ele>0.0</ele></rtept>
    <rtept lat="52.252924" lon="4.758538"><ele>0.0</ele></rtept>
    <rtept lat="52.252984" lon="4.758521"><ele>0.0</ele></rtept>
    <rtept lat="52.254458" lon="4.758202"><ele>0.0</ele></rtept>
    <rtept lat="52.255208" lon="4.758029"><ele>0.0</ele></rtept>
    <rtept lat="52.256448" lon="4.757728"><ele>0.0</ele></rtept>
    <rtept lat="52.256819" lon="4.757642"><ele>0.0</ele></rtept>
    <rtept lat="52.256930" lon="4.757596"><ele>0.0</ele></rtept>
    <rtept lat="52.257063" lon="4.757506"><ele>0.0</ele></rtept>
    <rtept lat="52.257238" lon="4.757459"><ele>0.0</ele></rtept>
    <rtept lat="52.257846" lon="4.757346"><ele>0.0</ele></rtept>
    <rtept lat="52.258116" lon="4.757140"><ele>0.0</ele></rtept>
    <rtept lat="52.258416" lon="4.756854"><ele>0.0</ele></rtept>
    <rtept lat="52.259693" lon="4.755690"><ele>0.0</ele></rtept>
    <rtept lat="52.259772" lon="4.755602"><ele>0.0</ele></rtept>
    <rtept lat="52.259876" lon="4.755485"><ele>0.0</ele></rtept>
    <rtept lat="52.259960" lon="4.755390"><ele>0.0</ele></rtept>
    <rtept lat="52.260110" lon="4.755770"><ele>0.0</ele></rtept>
    <rtept lat="52.260497" lon="4.756826"><ele>0.0</ele></rtept>
    <rtept lat="52.260519" lon="4.756887"><ele>0.0</ele></rtept>
    <rtept lat="52.260824" lon="4.757742"><ele>0.0</ele></rtept>
    <rtept lat="52.260840" lon="4.757785"><ele>0.0</ele></rtept>
    <rtept lat="52.261016" lon="4.758294"><ele>0.0</ele></rtept>
    <rtept lat="52.261203" lon="4.758826"><ele>0.0</ele></rtept>
    <rtept lat="52.261220" lon="4.758937"><ele>0.0</ele></rtept>
    <rtept lat="52.261261" lon="4.759326"><ele>0.0</ele></rtept>
    <rtept lat="52.261281" lon="4.759425"><ele>0.0</ele></rtept>
    <rtept lat="52.261589" lon="4.760290"><ele>0.0</ele></rtept>
    <rtept lat="52.261642" lon="4.760444"><ele>0.0</ele></rtept>
    <rtept lat="52.261743" lon="4.760727"><ele>0.0</ele></rtept>
    <rtept lat="52.261791" lon="4.760862"><ele>0.0</ele></rtept>
    <rtept lat="52.261905" lon="4.761169"><ele>0.0</ele></rtept>
    <rtept lat="52.261973" lon="4.761365"><ele>0.0</ele></rtept>
    <rtept lat="52.262065" lon="4.761620"><ele>0.0</ele></rtept>
    <rtept lat="52.262186" lon="4.761481"><ele>0.0</ele></rtept>
    <rtept lat="52.262210" lon="4.761413"><ele>0.0</ele></rtept>
    <rtept lat="52.262235" lon="4.761240"><ele>0.0</ele></rtept>
    <rtept lat="52.262273" lon="4.761176"><ele>0.0</ele></rtept>
    <rtept lat="52.263475" lon="4.760027"><ele>0.0</ele></rtept>
    <rtept lat="52.263563" lon="4.760094"><ele>0.0</ele></rtept>
    <rtept lat="52.263659" lon="4.760110"><ele>0.0</ele></rtept>
    <rtept lat="52.263718" lon="4.760085"><ele>0.0</ele></rtept>
    <rtept lat="52.263777" lon="4.760030"><ele>0.0</ele></rtept>
    <rtept lat="52.263834" lon="4.759930"><ele>0.0</ele></rtept>
    <rtept lat="52.263876" lon="4.759696"><ele>0.0</ele></rtept>
    <rtept lat="52.265803" lon="4.757819"><ele>0.0</ele></rtept>
    <rtept lat="52.265959" lon="4.757598"><ele>0.0</ele></rtept>
    <rtept lat="52.266688" lon="4.756928"><ele>0.0</ele></rtept>
    <rtept lat="52.267321" lon="4.756340"><ele>0.0</ele></rtept>
    <rtept lat="52.267495" lon="4.756286"><ele>0.0</ele></rtept>
    <rtept lat="52.267666" lon="4.756188"><ele>0.0</ele></rtept>
    <rtept lat="52.267707" lon="4.756183"><ele>0.0</ele></rtept>
    <rtept lat="52.267800" lon="4.756238"><ele>0.0</ele></rtept>
    <rtept lat="52.267853" lon="4.756242"><ele>0.0</ele></rtept>
    <rtept lat="52.267915" lon="4.756225"><ele>0.0</ele></rtept>
    <rtept lat="52.267974" lon="4.756179"><ele>0.0</ele></rtept>
    <rtept lat="52.268013" lon="4.756135"><ele>0.0</ele></rtept>
    <rtept lat="52.268054" lon="4.756041"><ele>0.0</ele></rtept>
    <rtept lat="52.268108" lon="4.755812"><ele>0.0</ele></rtept>
    <rtept lat="52.268141" lon="4.755768"><ele>0.0</ele></rtept>
    <rtept lat="52.268795" lon="4.755118"><ele>0.0</ele></rtept>
    <rtept lat="52.268935" lon="4.755042"><ele>0.0</ele></rtept>
    <rtept lat="52.268993" lon="4.754984"><ele>0.0</ele></rtept>
    <rtept lat="52.269046" lon="4.754881"><ele>0.0</ele></rtept>
    <rtept lat="52.269182" lon="4.754763"><ele>0.0</ele></rtept>
    <rtept lat="52.269267" lon="4.754815"><ele>0.0</ele></rtept>
    <rtept lat="52.269314" lon="4.754822"><ele>0.0</ele></rtept>
    <rtept lat="52.269378" lon="4.754806"><ele>0.0</ele></rtept>
    <rtept lat="52.269418" lon="4.754775"><ele>0.0</ele></rtept>
    <rtept lat="52.269481" lon="4.754674"><ele>0.0</ele></rtept>
    <rtept lat="52.269523" lon="4.754505"><ele>0.0</ele></rtept>
    <rtept lat="52.269498" lon="4.754356"><ele>0.0</ele></rtept>
    <rtept lat="52.269720" lon="4.754151"><ele>0.0</ele></rtept>
    <rtept lat="52.269987" lon="4.753920"><ele>0.0</ele></rtept>
    <rtept lat="52.270349" lon="4.753604"><ele>0.0</ele></rtept>
    <rtept lat="52.271582" lon="4.752525"><ele>0.0</ele></rtept>
    <rtept lat="52.271775" lon="4.752324"><ele>0.0</ele></rtept>
    <rtept lat="52.271821" lon="4.752281"><ele>0.0</ele></rtept>
    <rtept lat="52.271901" lon="4.752207"><ele>0.0</ele></rtept>
    <rtept lat="52.271950" lon="4.752222"><ele>0.0</ele></rtept>
    <rtept lat="52.271998" lon="4.752207"><ele>0.0</ele></rtept>
    <rtept lat="52.272029" lon="4.752321"><ele>0.0</ele></rtept>
    <rtept lat="52.272186" lon="4.752133"><ele>0.0</ele></rtept>
    <rtept lat="52.272438" lon="4.751925"><ele>0.0</ele></rtept>
    <rtept lat="52.272657" lon="4.751779"><ele>0.0</ele></rtept>
    <rtept lat="52.273534" lon="4.751345"><ele>0.0</ele></rtept>
    <rtept lat="52.273881" lon="4.751165"><ele>0.0</ele></rtept>
    <rtept lat="52.273976" lon="4.751132"><ele>0.0</ele></rtept>
    <rtept lat="52.274048" lon="4.751137"><ele>0.0</ele></rtept>
    <rtept lat="52.274121" lon="4.751126"><ele>0.0</ele></rtept>
    <rtept lat="52.274185" lon="4.751079"><ele>0.0</ele></rtept>
    <rtept lat="52.274270" lon="4.750944"><ele>0.0</ele></rtept>
    <rtept lat="52.274305" lon="4.750811"><ele>0.0</ele></rtept>
    <rtept lat="52.274335" lon="4.750577"><ele>0.0</ele></rtept>
    <rtept lat="52.274364" lon="4.750508"><ele>0.0</ele></rtept>
    <rtept lat="52.275535" lon="4.748404"><ele>0.0</ele></rtept>
    <rtept lat="52.276348" lon="4.747039"><ele>0.0</ele></rtept>
    <rtept lat="52.276509" lon="4.746841"><ele>0.0</ele></rtept>
    <rtept lat="52.276556" lon="4.746780"><ele>0.0</ele></rtept>
    <rtept lat="52.276676" lon="4.746602"><ele>0.0</ele></rtept>
    <rtept lat="52.276843" lon="4.746299"><ele>0.0</ele></rtept>
    <rtept lat="52.277036" lon="4.745943"><ele>0.0</ele></rtept>
    <rtept lat="52.277260" lon="4.745527"><ele>0.0</ele></rtept>
    <rtept lat="52.277619" lon="4.744857"><ele>0.0</ele></rtept>
    <rtept lat="52.277771" lon="4.744680"><ele>0.0</ele></rtept>
    <rtept lat="52.277933" lon="4.744379"><ele>0.0</ele></rtept>
    <rtept lat="52.278028" lon="4.744202"><ele>0.0</ele></rtept>
    <rtept lat="52.278042" lon="4.744076"><ele>0.0</ele></rtept>
    <rtept lat="52.278561" lon="4.743122"><ele>0.0</ele></rtept>
    <rtept lat="52.281266" lon="4.738104"><ele>0.0</ele></rtept>
    <rtept lat="52.281238" lon="4.738065"><ele>0.0</ele></rtept>
    <rtept lat="52.281559" lon="4.737437"><ele>0.0</ele></rtept>
    <rtept lat="52.281640" lon="4.737214"><ele>0.0</ele></rtept>
    <rtept lat="52.281897" lon="4.736707"><ele>0.0</ele></rtept>
    <rtept lat="52.283443" lon="4.733841"><ele>0.0</ele></rtept>
    <rtept lat="52.283672" lon="4.733418"><ele>0.0</ele></rtept>
    <rtept lat="52.283860" lon="4.733388"><ele>0.0</ele></rtept>
    <rtept lat="52.283928" lon="4.733340"><ele>0.0</ele></rtept>
    <rtept lat="52.283936" lon="4.733131"><ele>0.0</ele></rtept>
    <rtept lat="52.283993" lon="4.732820"><ele>0.0</ele></rtept>
    <rtept lat="52.284022" lon="4.732762"><ele>0.0</ele></rtept>
    <rtept lat="52.284128" lon="4.732565"><ele>0.0</ele></rtept>
    <rtept lat="52.284329" lon="4.732194"><ele>0.0</ele></rtept>
    <rtept lat="52.284371" lon="4.732116"><ele>0.0</ele></rtept>
    <rtept lat="52.284453" lon="4.731964"><ele>0.0</ele></rtept>
    <rtept lat="52.284543" lon="4.731797"><ele>0.0</ele></rtept>
    <rtept lat="52.284756" lon="4.731399"><ele>0.0</ele></rtept>
    <rtept lat="52.284970" lon="4.731006"><ele>0.0</ele></rtept>
    <rtept lat="52.286171" lon="4.728794"><ele>0.0</ele></rtept>
    <rtept lat="52.286672" lon="4.727900"><ele>0.0</ele></rtept>
    <rtept lat="52.286792" lon="4.727693"><ele>0.0</ele></rtept>
    <rtept lat="52.286831" lon="4.727747"><ele>0.0</ele></rtept>
    <rtept lat="52.286967" lon="4.727507"><ele>0.0</ele></rtept>
    <rtept lat="52.287083" lon="4.727344"><ele>0.0</ele></rtept>
    <rtept lat="52.287212" lon="4.727329"><ele>0.0</ele></rtept>
    <rtept lat="52.287225" lon="4.727296"><ele>0.0</ele></rtept>
    <rtept lat="52.287224" lon="4.727208"><ele>0.0</ele></rtept>
    <rtept lat="52.287225" lon="4.727090"><ele>0.0</ele></rtept>
    <rtept lat="52.287229" lon="4.726998"><ele>0.0</ele></rtept>
    <rtept lat="52.287329" lon="4.726830"><ele>0.0</ele></rtept>
    <rtept lat="52.287634" lon="4.726329"><ele>0.0</ele></rtept>
    <rtept lat="52.288123" lon="4.725426"><ele>0.0</ele></rtept>
    <rtept lat="52.288201" lon="4.725232"><ele>0.0</ele></rtept>
    <rtept lat="52.288384" lon="4.724839"><ele>0.0</ele></rtept>
    <rtept lat="52.288465" lon="4.724677"><ele>0.0</ele></rtept>
    <rtept lat="52.288789" lon="4.724017"><ele>0.0</ele></rtept>
    <rtept lat="52.288940" lon="4.723750"><ele>0.0</ele></rtept>
    <rtept lat="52.288994" lon="4.723651"><ele>0.0</ele></rtept>
    <rtept lat="52.289075" lon="4.723509"><ele>0.0</ele></rtept>
    <rtept lat="52.289156" lon="4.723289"><ele>0.0</ele></rtept>
    <rtept lat="52.289485" lon="4.722645"><ele>0.0</ele></rtept>
    <rtept lat="52.289836" lon="4.721980"><ele>0.0</ele></rtept>
    <rtept lat="52.290044" lon="4.721592"><ele>0.0</ele></rtept>
    <rtept lat="52.290173" lon="4.721356"><ele>0.0</ele></rtept>
    <rtept lat="52.290426" lon="4.720899"><ele>0.0</ele></rtept>
    <rtept lat="52.290520" lon="4.720725"><ele>0.0</ele></rtept>
    <rtept lat="52.291047" lon="4.719743"><ele>0.0</ele></rtept>
    <rtept lat="52.291380" lon="4.719127"><ele>0.0</ele></rtept>
    <rtept lat="52.291566" lon="4.718786"><ele>0.0</ele></rtept>
    <rtept lat="52.291656" lon="4.718621"><ele>0.0</ele></rtept>
    <rtept lat="52.292099" lon="4.717796"><ele>0.0</ele></rtept>
    <rtept lat="52.292417" lon="4.717209"><ele>0.0</ele></rtept>
    <rtept lat="52.292605" lon="4.716867"><ele>0.0</ele></rtept>
    <rtept lat="52.292826" lon="4.716465"><ele>0.0</ele></rtept>
    <rtept lat="52.292955" lon="4.716312"><ele>0.0</ele></rtept>
    <rtept lat="52.293244" lon="4.715786"><ele>0.0</ele></rtept>
    <rtept lat="52.293402" lon="4.715662"><ele>0.0</ele></rtept>
    <rtept lat="52.293469" lon="4.715536"><ele>0.0</ele></rtept>
    <rtept lat="52.293639" lon="4.715219"><ele>0.0</ele></rtept>
    <rtept lat="52.293673" lon="4.715136"><ele>0.0</ele></rtept>
    <rtept lat="52.293705" lon="4.714877"><ele>0.0</ele></rtept>
    <rtept lat="52.293837" lon="4.714619"><ele>0.0</ele></rtept>
    <rtept lat="52.294881" lon="4.712698"><ele>0.0</ele></rtept>
    <rtept lat="52.295762" lon="4.711083"><ele>0.0</ele></rtept>
    <rtept lat="52.296139" lon="4.710463"><ele>0.0</ele></rtept>
    <rtept lat="52.296297" lon="4.710278"><ele>0.0</ele></rtept>
    <rtept lat="52.296460" lon="4.710123"><ele>0.0</ele></rtept>
    <rtept lat="52.296551" lon="4.710091"><ele>0.0</ele></rtept>
    <rtept lat="52.296654" lon="4.710087"><ele>0.0</ele></rtept>
    <rtept lat="52.297037" lon="4.710201"><ele>0.0</ele></rtept>
    <rtept lat="52.297091" lon="4.710203"><ele>0.0</ele></rtept>
    <rtept lat="52.297202" lon="4.710158"><ele>0.0</ele></rtept>
    <rtept lat="52.297263" lon="4.710104"><ele>0.0</ele></rtept>
    <rtept lat="52.297362" lon="4.709942"><ele>0.0</ele></rtept>
    <rtept lat="52.297410" lon="4.709761"><ele>0.0</ele></rtept>
    <rtept lat="52.297419" lon="4.709565"><ele>0.0</ele></rtept>
    <rtept lat="52.297375" lon="4.708946"><ele>0.0</ele></rtept>
    <rtept lat="52.297164" lon="4.707757"><ele>0.0</ele></rtept>
    <rtept lat="52.297777" lon="4.707277"><ele>0.0</ele></rtept>
    <rtept lat="52.298031" lon="4.706992"><ele>0.0</ele></rtept>
    <rtept lat="52.298083" lon="4.706901"><ele>0.0</ele></rtept>
    <rtept lat="52.298791" lon="4.705578"><ele>0.0</ele></rtept>
    <rtept lat="52.298954" lon="4.705293"><ele>0.0</ele></rtept>
    <rtept lat="52.299405" lon="4.704427"><ele>0.0</ele></rtept>
    <rtept lat="52.299430" lon="4.704320"><ele>0.0</ele></rtept>
    <rtept lat="52.299463" lon="4.704216"><ele>0.0</ele></rtept>
    <rtept lat="52.299529" lon="4.704082"><ele>0.0</ele></rtept>
    <rtept lat="52.299548" lon="4.704034"><ele>0.0</ele></rtept>
    <rtept lat="52.299855" lon="4.703466"><ele>0.0</ele></rtept>
    <rtept lat="52.300140" lon="4.703023"><ele>0.0</ele></rtept>
    <rtept lat="52.300212" lon="4.702901"><ele>0.0</ele></rtept>
    <rtept lat="52.300305" lon="4.702754"><ele>0.0</ele></rtept>
    <rtept lat="52.300393" lon="4.702583"><ele>0.0</ele></rtept>
    <rtept lat="52.300679" lon="4.702034"><ele>0.0</ele></rtept>
    <rtept lat="52.301287" lon="4.700918"><ele>0.0</ele></rtept>
    <rtept lat="52.301613" lon="4.700321"><ele>0.0</ele></rtept>
    <rtept lat="52.301556" lon="4.700242"><ele>0.0</ele></rtept>
    <rtept lat="52.301619" lon="4.700155"><ele>0.0</ele></rtept>
    <rtept lat="52.301641" lon="4.700076"><ele>0.0</ele></rtept>
    <rtept lat="52.301671" lon="4.700027"><ele>0.0</ele></rtept>
    <rtept lat="52.301767" lon="4.699847"><ele>0.0</ele></rtept>
    <rtept lat="52.301860" lon="4.699673"><ele>0.0</ele></rtept>
    <rtept lat="52.301880" lon="4.699636"><ele>0.0</ele></rtept>
    <rtept lat="52.302033" lon="4.699353"><ele>0.0</ele></rtept>
    <rtept lat="52.302383" lon="4.698705"><ele>0.0</ele></rtept>
    <rtept lat="52.302468" lon="4.698542"><ele>0.0</ele></rtept>
    <rtept lat="52.302527" lon="4.698623"><ele>0.0</ele></rtept>
    <rtept lat="52.303101" lon="4.697556"><ele>0.0</ele></rtept>
    <rtept lat="52.303134" lon="4.697491"><ele>0.0</ele></rtept>
    <rtept lat="52.303239" lon="4.697326"><ele>0.0</ele></rtept>
    <rtept lat="52.303564" lon="4.696707"><ele>0.0</ele></rtept>
    <rtept lat="52.303716" lon="4.696438"><ele>0.0</ele></rtept>
    <rtept lat="52.303926" lon="4.696029"><ele>0.0</ele></rtept>
    <rtept lat="52.304705" lon="4.694612"><ele>0.0</ele></rtept>
    <rtept lat="52.305240" lon="4.693619"><ele>0.0</ele></rtept>
    <rtept lat="52.305505" lon="4.693122"><ele>0.0</ele></rtept>
    <rtept lat="52.305519" lon="4.693059"><ele>0.0</ele></rtept>
    <rtept lat="52.305589" lon="4.693036"><ele>0.0</ele></rtept>
    <rtept lat="52.305638" lon="4.693003"><ele>0.0</ele></rtept>
    <rtept lat="52.305709" lon="4.692912"><ele>0.0</ele></rtept>
    <rtept lat="52.305744" lon="4.692831"><ele>0.0</ele></rtept>
    <rtept lat="52.305769" lon="4.692690"><ele>0.0</ele></rtept>
    <rtept lat="52.305844" lon="4.692685"><ele>0.0</ele></rtept>
    <rtept lat="52.305843" lon="4.692610"><ele>0.0</ele></rtept>
    <rtept lat="52.305868" lon="4.692513"><ele>0.0</ele></rtept>
    <rtept lat="52.305991" lon="4.692274"><ele>0.0</ele></rtept>
    <rtept lat="52.306069" lon="4.692137"><ele>0.0</ele></rtept>
    <rtept lat="52.306188" lon="4.691911"><ele>0.0</ele></rtept>
    <rtept lat="52.306661" lon="4.691029"><ele>0.0</ele></rtept>
    <rtept lat="52.307353" lon="4.689737"><ele>0.0</ele></rtept>
    <rtept lat="52.307617" lon="4.689253"><ele>0.0</ele></rtept>
    <rtept lat="52.307707" lon="4.689086"><ele>0.0</ele></rtept>
    <rtept lat="52.308431" lon="4.687746"><ele>0.0</ele></rtept>
    <rtept lat="52.308510" lon="4.687595"><ele>0.0</ele></rtept>
    <rtept lat="52.308533" lon="4.687541"><ele>0.0</ele></rtept>
    <rtept lat="52.308604" lon="4.687407"><ele>0.0</ele></rtept>
    <rtept lat="52.309348" lon="4.686022"><ele>0.0</ele></rtept>
    <rtept lat="52.309377" lon="4.685969"><ele>0.0</ele></rtept>
    <rtept lat="52.309491" lon="4.685756"><ele>0.0</ele></rtept>
    <rtept lat="52.309519" lon="4.685704"><ele>0.0</ele></rtept>
    <rtept lat="52.309651" lon="4.685459"><ele>0.0</ele></rtept>
    <rtept lat="52.309845" lon="4.685098"><ele>0.0</ele></rtept>
    <rtept lat="52.310511" lon="4.683956"><ele>0.0</ele></rtept>
    <rtept lat="52.310557" lon="4.683897"><ele>0.0</ele></rtept>
    <rtept lat="52.310591" lon="4.683877"><ele>0.0</ele></rtept>
    <rtept lat="52.310629" lon="4.683791"><ele>0.0</ele></rtept>
    <rtept lat="52.310696" lon="4.683689"><ele>0.0</ele></rtept>
    <rtept lat="52.310736" lon="4.683621"><ele>0.0</ele></rtept>
    <rtept lat="52.310828" lon="4.683468"><ele>0.0</ele></rtept>
    <rtept lat="52.310969" lon="4.683194"><ele>0.0</ele></rtept>
    <rtept lat="52.311093" lon="4.682862"><ele>0.0</ele></rtept>
    <rtept lat="52.311275" lon="4.682530"><ele>0.0</ele></rtept>
    <rtept lat="52.311360" lon="4.682337"><ele>0.0</ele></rtept>
    <rtept lat="52.311431" lon="4.682198"><ele>0.0</ele></rtept>
    <rtept lat="52.311510" lon="4.682053"><ele>0.0</ele></rtept>
    <rtept lat="52.311926" lon="4.681317"><ele>0.0</ele></rtept>
    <rtept lat="52.312442" lon="4.680348"><ele>0.0</ele></rtept>
    <rtept lat="52.312930" lon="4.679452"><ele>0.0</ele></rtept>
    <rtept lat="52.313301" lon="4.678772"><ele>0.0</ele></rtept>
    <rtept lat="52.313446" lon="4.678564"><ele>0.0</ele></rtept>
    <rtept lat="52.313535" lon="4.678398"><ele>0.0</ele></rtept>
    <rtept lat="52.313628" lon="4.678219"><ele>0.0</ele></rtept>
    <rtept lat="52.313729" lon="4.677965"><ele>0.0</ele></rtept>
    <rtept lat="52.314085" lon="4.677312"><ele>0.0</ele></rtept>
    <rtept lat="52.314095" lon="4.677293"><ele>0.0</ele></rtept>
    <rtept lat="52.314531" lon="4.676496"><ele>0.0</ele></rtept>
    <rtept lat="52.314760" lon="4.676338"><ele>0.0</ele></rtept>
    <rtept lat="52.314847" lon="4.676288"><ele>0.0</ele></rtept>
    <rtept lat="52.315034" lon="4.676073"><ele>0.0</ele></rtept>
    <rtept lat="52.315070" lon="4.676151"><ele>0.0</ele></rtept>
    <rtept lat="52.315110" lon="4.676187"><ele>0.0</ele></rtept>
    <rtept lat="52.315653" lon="4.676314"><ele>0.0</ele></rtept>
    <rtept lat="52.316017" lon="4.676298"><ele>0.0</ele></rtept>
    <rtept lat="52.316606" lon="4.676027"><ele>0.0</ele></rtept>
    <rtept lat="52.316810" lon="4.675921"><ele>0.0</ele></rtept>
    <rtept lat="52.316870" lon="4.675853"><ele>0.0</ele></rtept>
    <rtept lat="52.317003" lon="4.675585"><ele>0.0</ele></rtept>
    <rtept lat="52.317025" lon="4.675538"><ele>0.0</ele></rtept>
    <rtept lat="52.317210" lon="4.675193"><ele>0.0</ele></rtept>
    <rtept lat="52.317303" lon="4.675019"><ele>0.0</ele></rtept>
    <rtept lat="52.317405" lon="4.674905"><ele>0.0</ele></rtept>
    <rtept lat="52.317615" lon="4.674763"><ele>0.0</ele></rtept>
    <rtept lat="52.317800" lon="4.674647"><ele>0.0</ele></rtept>
    <rtept lat="52.317922" lon="4.674626"><ele>0.0</ele></rtept>
    <rtept lat="52.317976" lon="4.674592"><ele>0.0</ele></rtept>
    <rtept lat="52.318052" lon="4.674542"><ele>0.0</ele></rtept>
    <rtept lat="52.318116" lon="4.674500"><ele>0.0</ele></rtept>
    <rtept lat="52.318207" lon="4.674403"><ele>0.0</ele></rtept>
    <rtept lat="52.318504" lon="4.674212"><ele>0.0</ele></rtept>
    <rtept lat="52.318560" lon="4.674159"><ele>0.0</ele></rtept>
    <rtept lat="52.319223" lon="4.672942"><ele>0.0</ele></rtept>
    <rtept lat="52.319302" lon="4.672851"><ele>0.0</ele></rtept>
    <rtept lat="52.319400" lon="4.672667"><ele>0.0</ele></rtept>
    <rtept lat="52.319445" lon="4.672591"><ele>0.0</ele></rtept>
    <rtept lat="52.319540" lon="4.672419"><ele>0.0</ele></rtept>
    <rtept lat="52.319592" lon="4.672510"><ele>0.0</ele></rtept>
    <rtept lat="52.319656" lon="4.672806"><ele>0.0</ele></rtept>
    <rtept lat="52.319832" lon="4.673072"><ele>0.0</ele></rtept>
    <rtept lat="52.320410" lon="4.673895"><ele>0.0</ele></rtept>
    <rtept lat="52.320973" lon="4.674710"><ele>0.0</ele></rtept>
    <rtept lat="52.321197" lon="4.675030"><ele>0.0</ele></rtept>
    <rtept lat="52.321303" lon="4.675143"><ele>0.0</ele></rtept>
    <rtept lat="52.321478" lon="4.674828"><ele>0.0</ele></rtept>
    <rtept lat="52.321511" lon="4.674794"><ele>0.0</ele></rtept>
    <rtept lat="52.321627" lon="4.674741"><ele>0.0</ele></rtept>
    <rtept lat="52.321759" lon="4.674719"><ele>0.0</ele></rtept>
    <rtept lat="52.321861" lon="4.674390"><ele>0.0</ele></rtept>
    <rtept lat="52.321970" lon="4.674220"><ele>0.0</ele></rtept>
    <rtept lat="52.322043" lon="4.674141"><ele>0.0</ele></rtept>
    <rtept lat="52.322150" lon="4.674106"><ele>0.0</ele></rtept>
    <rtept lat="52.322197" lon="4.674157"><ele>0.0</ele></rtept>
    <rtept lat="52.322223" lon="4.674245"><ele>0.0</ele></rtept>
    <rtept lat="52.322577" lon="4.674151"><ele>0.0</ele></rtept>
    <rtept lat="52.322741" lon="4.674136"><ele>0.0</ele></rtept>
    <rtept lat="52.322903" lon="4.674161"><ele>0.0</ele></rtept>
    <rtept lat="52.323058" lon="4.674233"><ele>0.0</ele></rtept>
    <rtept lat="52.323139" lon="4.674263"><ele>0.0</ele></rtept>
    <rtept lat="52.323194" lon="4.673896"><ele>0.0</ele></rtept>
    <rtept lat="52.323200" lon="4.673826"><ele>0.0</ele></rtept>
    <rtept lat="52.323208" lon="4.673713"><ele>0.0</ele></rtept>
    <rtept lat="52.323245" lon="4.673476"><ele>0.0</ele></rtept>
    <rtept lat="52.323455" lon="4.672941"><ele>0.0</ele></rtept>
    <rtept lat="52.323527" lon="4.672704"><ele>0.0</ele></rtept>
    <rtept lat="52.323694" lon="4.672230"><ele>0.0</ele></rtept>
    <rtept lat="52.323765" lon="4.671981"><ele>0.0</ele></rtept>
    <rtept lat="52.323897" lon="4.671353"><ele>0.0</ele></rtept>
    <rtept lat="52.324135" lon="4.670675"><ele>0.0</ele></rtept>
    <rtept lat="52.324271" lon="4.670404"><ele>0.0</ele></rtept>
    <rtept lat="52.324422" lon="4.670134"><ele>0.0</ele></rtept>
    <rtept lat="52.324605" lon="4.669899"><ele>0.0</ele></rtept>
    <rtept lat="52.324761" lon="4.669725"><ele>0.0</ele></rtept>
    <rtept lat="52.324876" lon="4.669621"><ele>0.0</ele></rtept>
    <rtept lat="52.325229" lon="4.669228"><ele>0.0</ele></rtept>
    <rtept lat="52.325375" lon="4.669155"><ele>0.0</ele></rtept>
    <rtept lat="52.325487" lon="4.669050"><ele>0.0</ele></rtept>
    <rtept lat="52.325529" lon="4.668962"><ele>0.0</ele></rtept>
    <rtept lat="52.325699" lon="4.668401"><ele>0.0</ele></rtept>
    <rtept lat="52.325842" lon="4.667832"><ele>0.0</ele></rtept>
    <rtept lat="52.325980" lon="4.667515"><ele>0.0</ele></rtept>
    <rtept lat="52.325998" lon="4.667489"><ele>0.0</ele></rtept>
    <rtept lat="52.326441" lon="4.667245"><ele>0.0</ele></rtept>
    <rtept lat="52.326646" lon="4.667029"><ele>0.0</ele></rtept>
    <rtept lat="52.326705" lon="4.666923"><ele>0.0</ele></rtept>
    <rtept lat="52.326862" lon="4.666520"><ele>0.0</ele></rtept>
    <rtept lat="52.326891" lon="4.666440"><ele>0.0</ele></rtept>
    <rtept lat="52.326994" lon="4.666317"><ele>0.0</ele></rtept>
    <rtept lat="52.327245" lon="4.666208"><ele>0.0</ele></rtept>
    <rtept lat="52.327460" lon="4.666142"><ele>0.0</ele></rtept>
    <rtept lat="52.327669" lon="4.665743"><ele>0.0</ele></rtept>
    <rtept lat="52.327732" lon="4.665623"><ele>0.0</ele></rtept>
    <rtept lat="52.327847" lon="4.665403"><ele>0.0</ele></rtept>
    <rtept lat="52.327873" lon="4.665354"><ele>0.0</ele></rtept>
    <rtept lat="52.327981" lon="4.665150"><ele>0.0</ele></rtept>
    <rtept lat="52.328025" lon="4.665071"><ele>0.0</ele></rtept>
    <rtept lat="52.328117" lon="4.664893"><ele>0.0</ele></rtept>
    <rtept lat="52.328383" lon="4.664442"><ele>0.0</ele></rtept>
    <rtept lat="52.328516" lon="4.664281"><ele>0.0</ele></rtept>
    <rtept lat="52.328658" lon="4.664138"><ele>0.0</ele></rtept>
    <rtept lat="52.329032" lon="4.663892"><ele>0.0</ele></rtept>
    <rtept lat="52.329106" lon="4.663757"><ele>0.0</ele></rtept>
    <rtept lat="52.329182" lon="4.663665"><ele>0.0</ele></rtept>
    <rtept lat="52.329356" lon="4.663671"><ele>0.0</ele></rtept>
    <rtept lat="52.329425" lon="4.663651"><ele>0.0</ele></rtept>
    <rtept lat="52.329751" lon="4.663456"><ele>0.0</ele></rtept>
    <rtept lat="52.330127" lon="4.663227"><ele>0.0</ele></rtept>
    <rtept lat="52.330399" lon="4.663079"><ele>0.0</ele></rtept>
    <rtept lat="52.330788" lon="4.662873"><ele>0.0</ele></rtept>
    <rtept lat="52.330809" lon="4.662862"><ele>0.0</ele></rtept>
    <rtept lat="52.330974" lon="4.662770"><ele>0.0</ele></rtept>
    <rtept lat="52.331095" lon="4.662699"><ele>0.0</ele></rtept>
    <rtept lat="52.330676" lon="4.660698"><ele>0.0</ele></rtept>
    <rtept lat="52.330668" lon="4.660661"><ele>0.0</ele></rtept>
    <rtept lat="52.330632" lon="4.660507"><ele>0.0</ele></rtept>
    <rtept lat="52.330628" lon="4.660482"><ele>0.0</ele></rtept>
    <rtept lat="52.330585" lon="4.660281"><ele>0.0</ele></rtept>
    <rtept lat="52.330598" lon="4.660138"><ele>0.0</ele></rtept>
    <rtept lat="52.331189" lon="4.659050"><ele>0.0</ele></rtept>
    <rtept lat="52.333187" lon="4.655387"><ele>0.0</ele></rtept>
    <rtept lat="52.333224" lon="4.655307"><ele>0.0</ele></rtept>
    <rtept lat="52.333845" lon="4.655259"><ele>0.0</ele></rtept>
    <rtept lat="52.334082" lon="4.654797"><ele>0.0</ele></rtept>
    <rtept lat="52.334239" lon="4.654503"><ele>0.0</ele></rtept>
    <rtept lat="52.334341" lon="4.654314"><ele>0.0</ele></rtept>
    <rtept lat="52.334472" lon="4.654075"><ele>0.0</ele></rtept>
    <rtept lat="52.334616" lon="4.654284"><ele>0.0</ele></rtept>
    <rtept lat="52.335240" lon="4.653117"><ele>0.0</ele></rtept>
    <rtept lat="52.335329" lon="4.652958"><ele>0.0</ele></rtept>
    <rtept lat="52.335480" lon="4.652674"><ele>0.0</ele></rtept>
    <rtept lat="52.335770" lon="4.652129"><ele>0.0</ele></rtept>
    <rtept lat="52.336089" lon="4.651531"><ele>0.0</ele></rtept>
    <rtept lat="52.336316" lon="4.651106"><ele>0.0</ele></rtept>
    <rtept lat="52.336413" lon="4.650926"><ele>0.0</ele></rtept>
    <rtept lat="52.336640" lon="4.650501"><ele>0.0</ele></rtept>
    <rtept lat="52.336879" lon="4.650054"><ele>0.0</ele></rtept>
    <rtept lat="52.336898" lon="4.650018"><ele>0.0</ele></rtept>
    <rtept lat="52.337156" lon="4.649537"><ele>0.0</ele></rtept>
    <rtept lat="52.337442" lon="4.649002"><ele>0.0</ele></rtept>
    <rtept lat="52.337525" lon="4.648846"><ele>0.0</ele></rtept>
    <rtept lat="52.337857" lon="4.648242"><ele>0.0</ele></rtept>
    <rtept lat="52.338066" lon="4.647864"><ele>0.0</ele></rtept>
    <rtept lat="52.338343" lon="4.647357"><ele>0.0</ele></rtept>
    <rtept lat="52.338416" lon="4.647218"><ele>0.0</ele></rtept>
    <rtept lat="52.338585" lon="4.646916"><ele>0.0</ele></rtept>
    <rtept lat="52.338598" lon="4.646848"><ele>0.0</ele></rtept>
    <rtept lat="52.338609" lon="4.646795"><ele>0.0</ele></rtept>
    <rtept lat="52.338687" lon="4.646762"><ele>0.0</ele></rtept>
    <rtept lat="52.338729" lon="4.646795"><ele>0.0</ele></rtept>
    <rtept lat="52.338939" lon="4.646973"><ele>0.0</ele></rtept>
    <rtept lat="52.338980" lon="4.647058"><ele>0.0</ele></rtept>
    <rtept lat="52.339474" lon="4.646640"><ele>0.0</ele></rtept>
    <rtept lat="52.339580" lon="4.647310"><ele>0.0</ele></rtept>
    <rtept lat="52.339680" lon="4.647815"><ele>0.0</ele></rtept>
    <rtept lat="52.339721" lon="4.647795"><ele>0.0</ele></rtept>
    <rtept lat="52.339712" lon="4.647744"><ele>0.0</ele></rtept>
    <rtept lat="52.339726" lon="4.647736"><ele>0.0</ele></rtept>
    <rtept lat="52.340053" lon="4.647559"><ele>0.0</ele></rtept>
    <rtept lat="52.340080" lon="4.647544"><ele>0.0</ele></rtept>
    <rtept lat="52.340255" lon="4.648278"><ele>0.0</ele></rtept>
    <rtept lat="52.340435" lon="4.648894"><ele>0.0</ele></rtept>
    <rtept lat="52.340674" lon="4.649522"><ele>0.0</ele></rtept>
    <rtept lat="52.341459" lon="4.651327"><ele>0.0</ele></rtept>
    <rtept lat="52.341595" lon="4.651586"><ele>0.0</ele></rtept>
    <rtept lat="52.341685" lon="4.651698"><ele>0.0</ele></rtept>
    <rtept lat="52.341754" lon="4.651698"><ele>0.0</ele></rtept>
    <rtept lat="52.341957" lon="4.651794"><ele>0.0</ele></rtept>
    <rtept lat="52.342013" lon="4.651801"><ele>0.0</ele></rtept>
    <rtept lat="52.342064" lon="4.651800"><ele>0.0</ele></rtept>
    <rtept lat="52.342335" lon="4.651730"><ele>0.0</ele></rtept>
    <rtept lat="52.342369" lon="4.651696"><ele>0.0</ele></rtept>
    <rtept lat="52.342425" lon="4.650730"><ele>0.0</ele></rtept>
    <rtept lat="52.342485" lon="4.650390"><ele>0.0</ele></rtept>
    <rtept lat="52.342556" lon="4.650180"><ele>0.0</ele></rtept>
    <rtept lat="52.342666" lon="4.649972"><ele>0.0</ele></rtept>
    <rtept lat="52.343001" lon="4.649581"><ele>0.0</ele></rtept>
    <rtept lat="52.343159" lon="4.649484"><ele>0.0</ele></rtept>
    <rtept lat="52.343416" lon="4.649421"><ele>0.0</ele></rtept>
    <rtept lat="52.343613" lon="4.649427"><ele>0.0</ele></rtept>
    <rtept lat="52.343773" lon="4.649476"><ele>0.0</ele></rtept>
    <rtept lat="52.343950" lon="4.649604"><ele>0.0</ele></rtept>
    <rtept lat="52.344176" lon="4.649928"><ele>0.0</ele></rtept>
    <rtept lat="52.344881" lon="4.651016"><ele>0.0</ele></rtept>
    <rtept lat="52.344940" lon="4.651020"><ele>0.0</ele></rtept>
    <rtept lat="52.345066" lon="4.650982"><ele>0.0</ele></rtept>
    <rtept lat="52.345236" lon="4.650922"><ele>0.0</ele></rtept>
    <rtept lat="52.345388" lon="4.651110"><ele>0.0</ele></rtept>
    <rtept lat="52.345436" lon="4.652011"><ele>0.0</ele></rtept>
    <rtept lat="52.345513" lon="4.652414"><ele>0.0</ele></rtept>
    <rtept lat="52.345667" lon="4.652911"><ele>0.0</ele></rtept>
    <rtept lat="52.346012" lon="4.653697"><ele>0.0</ele></rtept>
    <rtept lat="52.346234" lon="4.654221"><ele>0.0</ele></rtept>
    <rtept lat="52.346377" lon="4.654461"><ele>0.0</ele></rtept>
    <rtept lat="52.346476" lon="4.654604"><ele>0.0</ele></rtept>
    <rtept lat="52.346709" lon="4.654815"><ele>0.0</ele></rtept>
    <rtept lat="52.346819" lon="4.654898"><ele>0.0</ele></rtept>
    <rtept lat="52.347350" lon="4.655372"><ele>0.0</ele></rtept>
    <rtept lat="52.347802" lon="4.656989"><ele>0.0</ele></rtept>
    <rtept lat="52.347871" lon="4.657263"><ele>0.0</ele></rtept>
    <rtept lat="52.348028" lon="4.657212"><ele>0.0</ele></rtept>
    <rtept lat="52.348146" lon="4.657134"><ele>0.0</ele></rtept>
    <rtept lat="52.348360" lon="4.656988"><ele>0.0</ele></rtept>
    <rtept lat="52.348946" lon="4.656599"><ele>0.0</ele></rtept>
    <rtept lat="52.349204" lon="4.656432"><ele>0.0</ele></rtept>
    <rtept lat="52.349542" lon="4.656005"><ele>0.0</ele></rtept>
    <rtept lat="52.349598" lon="4.655934"><ele>0.0</ele></rtept>
    <rtept lat="52.349690" lon="4.655819"><ele>0.0</ele></rtept>
    <rtept lat="52.349725" lon="4.655773"><ele>0.0</ele></rtept>
    <rtept lat="52.349755" lon="4.655811"><ele>0.0</ele></rtept>
    <rtept lat="52.349959" lon="4.655751"><ele>0.0</ele></rtept>
    <rtept lat="52.350596" lon="4.655503"><ele>0.0</ele></rtept>
    <rtept lat="52.350713" lon="4.655459"><ele>0.0</ele></rtept>
    <rtept lat="52.350811" lon="4.655391"><ele>0.0</ele></rtept>
    <rtept lat="52.350866" lon="4.655353"><ele>0.0</ele></rtept>
    <rtept lat="52.350980" lon="4.655276"><ele>0.0</ele></rtept>
    <rtept lat="52.351047" lon="4.655272"><ele>0.0</ele></rtept>
    <rtept lat="52.351114" lon="4.655229"><ele>0.0</ele></rtept>
    <rtept lat="52.351185" lon="4.655180"><ele>0.0</ele></rtept>
    <rtept lat="52.351231" lon="4.655094"><ele>0.0</ele></rtept>
    <rtept lat="52.351301" lon="4.655048"><ele>0.0</ele></rtept>
    <rtept lat="52.351612" lon="4.654882"><ele>0.0</ele></rtept>
    <rtept lat="52.351732" lon="4.654852"><ele>0.0</ele></rtept>
    <rtept lat="52.351833" lon="4.654827"><ele>0.0</ele></rtept>
    <rtept lat="52.352156" lon="4.654831"><ele>0.0</ele></rtept>
    <rtept lat="52.352801" lon="4.654823"><ele>0.0</ele></rtept>
    <rtept lat="52.352927" lon="4.654821"><ele>0.0</ele></rtept>
    <rtept lat="52.353138" lon="4.654814"><ele>0.0</ele></rtept>
    <rtept lat="52.353194" lon="4.654813"><ele>0.0</ele></rtept>
    <rtept lat="52.353264" lon="4.654814"><ele>0.0</ele></rtept>
    <rtept lat="52.353325" lon="4.654862"><ele>0.0</ele></rtept>
    <rtept lat="52.353576" lon="4.654870"><ele>0.0</ele></rtept>
    <rtept lat="52.353647" lon="4.654847"><ele>0.0</ele></rtept>
    <rtept lat="52.354127" lon="4.654831"><ele>0.0</ele></rtept>
    <rtept lat="52.354181" lon="4.654880"><ele>0.0</ele></rtept>
    <rtept lat="52.354234" lon="4.654883"><ele>0.0</ele></rtept>
    <rtept lat="52.354286" lon="4.654875"><ele>0.0</ele></rtept>
    <rtept lat="52.354343" lon="4.654865"><ele>0.0</ele></rtept>
    <rtept lat="52.354383" lon="4.654791"><ele>0.0</ele></rtept>
    <rtept lat="52.354582" lon="4.654610"><ele>0.0</ele></rtept>
    <rtept lat="52.354857" lon="4.654336"><ele>0.0</ele></rtept>
    <rtept lat="52.355102" lon="4.654089"><ele>0.0</ele></rtept>
    <rtept lat="52.355348" lon="4.653602"><ele>0.0</ele></rtept>
    <rtept lat="52.355447" lon="4.653387"><ele>0.0</ele></rtept>
    <rtept lat="52.355506" lon="4.653269"><ele>0.0</ele></rtept>
    <rtept lat="52.355523" lon="4.653267"><ele>0.0</ele></rtept>
    <rtept lat="52.355619" lon="4.653326"><ele>0.0</ele></rtept>
    <rtept lat="52.355910" lon="4.653484"><ele>0.0</ele></rtept>
    <rtept lat="52.356053" lon="4.653510"><ele>0.0</ele></rtept>
    <rtept lat="52.356272" lon="4.653494"><ele>0.0</ele></rtept>
    <rtept lat="52.356404" lon="4.653460"><ele>0.0</ele></rtept>
    <rtept lat="52.356452" lon="4.653449"><ele>0.0</ele></rtept>
    <rtept lat="52.356813" lon="4.653357"><ele>0.0</ele></rtept>
    <rtept lat="52.356883" lon="4.653437"><ele>0.0</ele></rtept>
    <rtept lat="52.356955" lon="4.653484"><ele>0.0</ele></rtept>
    <rtept lat="52.357045" lon="4.653480"><ele>0.0</ele></rtept>
    <rtept lat="52.357132" lon="4.653378"><ele>0.0</ele></rtept>
    <rtept lat="52.357206" lon="4.653257"><ele>0.0</ele></rtept>
    <rtept lat="52.357489" lon="4.653170"><ele>0.0</ele></rtept>
    <rtept lat="52.357534" lon="4.653126"><ele>0.0</ele></rtept>
    <rtept lat="52.358212" lon="4.652945"><ele>0.0</ele></rtept>
    <rtept lat="52.358760" lon="4.652870"><ele>0.0</ele></rtept>
    <rtept lat="52.358933" lon="4.652817"><ele>0.0</ele></rtept>
    <rtept lat="52.359366" lon="4.652714"><ele>0.0</ele></rtept>
    <rtept lat="52.360114" lon="4.652458"><ele>0.0</ele></rtept>
    <rtept lat="52.360177" lon="4.652473"><ele>0.0</ele></rtept>
    <rtept lat="52.360202" lon="4.652505"><ele>0.0</ele></rtept>
    <rtept lat="52.360233" lon="4.652646"><ele>0.0</ele></rtept>
    <rtept lat="52.360253" lon="4.653322"><ele>0.0</ele></rtept>
    <rtept lat="52.360285" lon="4.653486"><ele>0.0</ele></rtept>
    <rtept lat="52.360367" lon="4.653773"><ele>0.0</ele></rtept>
    <rtept lat="52.360403" lon="4.654166"><ele>0.0</ele></rtept>
    <rtept lat="52.360461" lon="4.654152"><ele>0.0</ele></rtept>
    <rtept lat="52.360621" lon="4.654102"><ele>0.0</ele></rtept>
    <rtept lat="52.360711" lon="4.654127"><ele>0.0</ele></rtept>
    <rtept lat="52.360742" lon="4.654147"><ele>0.0</ele></rtept>
    <rtept lat="52.360844" lon="4.654168"><ele>0.0</ele></rtept>
    <rtept lat="52.361216" lon="4.654163"><ele>0.0</ele></rtept>
    <rtept lat="52.361326" lon="4.654162"><ele>0.0</ele></rtept>
    <rtept lat="52.361412" lon="4.654126"><ele>0.0</ele></rtept>
    <rtept lat="52.361570" lon="4.654125"><ele>0.0</ele></rtept>
    <rtept lat="52.361783" lon="4.654123"><ele>0.0</ele></rtept>
    <rtept lat="52.362071" lon="4.654118"><ele>0.0</ele></rtept>
    <rtept lat="52.362123" lon="4.654117"><ele>0.0</ele></rtept>
    <rtept lat="52.362590" lon="4.654102"><ele>0.0</ele></rtept>
    <rtept lat="52.362878" lon="4.654092"><ele>0.0</ele></rtept>
    <rtept lat="52.363395" lon="4.654083"><ele>0.0</ele></rtept>
    <rtept lat="52.364269" lon="4.654060"><ele>0.0</ele></rtept>
    <rtept lat="52.364322" lon="4.654021"><ele>0.0</ele></rtept>
    <rtept lat="52.364433" lon="4.653981"><ele>0.0</ele></rtept>
    <rtept lat="52.364513" lon="4.653978"><ele>0.0</ele></rtept>
    <rtept lat="52.364581" lon="4.653989"><ele>0.0</ele></rtept>
    <rtept lat="52.364782" lon="4.654057"><ele>0.0</ele></rtept>
    <rtept lat="52.365750" lon="4.654064"><ele>0.0</ele></rtept>
    <rtept lat="52.365789" lon="4.654064"><ele>0.0</ele></rtept>
    <rtept lat="52.366357" lon="4.654069"><ele>0.0</ele></rtept>
    <rtept lat="52.366848" lon="4.654073"><ele>0.0</ele></rtept>
    <rtept lat="52.367097" lon="4.654035"><ele>0.0</ele></rtept>
    <rtept lat="52.367538" lon="4.654010"><ele>0.0</ele></rtept>
    <rtept lat="52.367578" lon="4.653977"><ele>0.0</ele></rtept>
    <rtept lat="52.367619" lon="4.653893"><ele>0.0</ele></rtept>
    <rtept lat="52.367730" lon="4.653866"><ele>0.0</ele></rtept>
    <rtept lat="52.367835" lon="4.653868"><ele>0.0</ele></rtept>
    <rtept lat="52.367914" lon="4.653873"><ele>0.0</ele></rtept>
    <rtept lat="52.367956" lon="4.653903"><ele>0.0</ele></rtept>
    <rtept lat="52.368048" lon="4.653989"><ele>0.0</ele></rtept>
    <rtept lat="52.368746" lon="4.654020"><ele>0.0</ele></rtept>
    <rtept lat="52.368986" lon="4.654073"><ele>0.0</ele></rtept>
    <rtept lat="52.369718" lon="4.654141"><ele>0.0</ele></rtept>
    <rtept lat="52.369915" lon="4.654083"><ele>0.0</ele></rtept>
    <rtept lat="52.370021" lon="4.654058"><ele>0.0</ele></rtept>
    <rtept lat="52.370091" lon="4.654053"><ele>0.0</ele></rtept>
    <rtept lat="52.370213" lon="4.654051"><ele>0.0</ele></rtept>
    <rtept lat="52.370315" lon="4.654049"><ele>0.0</ele></rtept>
    <rtept lat="52.370383" lon="4.654046"><ele>0.0</ele></rtept>
    <rtept lat="52.370538" lon="4.654082"><ele>0.0</ele></rtept>
    <rtept lat="52.370725" lon="4.654174"><ele>0.0</ele></rtept>
    <rtept lat="52.370859" lon="4.654271"><ele>0.0</ele></rtept>
    <rtept lat="52.371236" lon="4.654599"><ele>0.0</ele></rtept>
    <rtept lat="52.371585" lon="4.654921"><ele>0.0</ele></rtept>
    <rtept lat="52.371732" lon="4.655058"><ele>0.0</ele></rtept>
    <rtept lat="52.371869" lon="4.655171"><ele>0.0</ele></rtept>
    <rtept lat="52.372940" lon="4.656054"><ele>0.0</ele></rtept>
    <rtept lat="52.374345" lon="4.657221"><ele>0.0</ele></rtept>
    <rtept lat="52.374521" lon="4.657375"><ele>0.0</ele></rtept>
    <rtept lat="52.374915" lon="4.657845"><ele>0.0</ele></rtept>
    <rtept lat="52.375156" lon="4.658134"><ele>0.0</ele></rtept>
    <rtept lat="52.375240" lon="4.658240"><ele>0.0</ele></rtept>
    <rtept lat="52.375421" lon="4.658427"><ele>0.0</ele></rtept>
    <rtept lat="52.375447" lon="4.658454"><ele>0.0</ele></rtept>
    <rtept lat="52.375661" lon="4.658648"><ele>0.0</ele></rtept>
    <rtept lat="52.376522" lon="4.659138"><ele>0.0</ele></rtept>
    <rtept lat="52.376692" lon="4.659214"><ele>0.0</ele></rtept>
    <rtept lat="52.377331" lon="4.659496"><ele>0.0</ele></rtept>
    <rtept lat="52.378160" lon="4.659899"><ele>0.0</ele></rtept>
    <rtept lat="52.378179" lon="4.659797"><ele>0.0</ele></rtept>
    <rtept lat="52.378203" lon="4.659657"><ele>0.0</ele></rtept>
    <rtept lat="52.378241" lon="4.659432"><ele>0.0</ele></rtept>
    <rtept lat="52.378255" lon="4.659351"><ele>0.0</ele></rtept>
    <rtept lat="52.378439" lon="4.658196"><ele>0.0</ele></rtept>
    <rtept lat="52.378633" lon="4.658301"><ele>0.0</ele></rtept>
    <rtept lat="52.378896" lon="4.657371"><ele>0.0</ele></rtept>
    <rtept lat="52.379010" lon="4.657010"><ele>0.0</ele></rtept>
    <rtept lat="52.379172" lon="4.656914"><ele>0.0</ele></rtept>
    <rtept lat="52.379265" lon="4.656910"><ele>0.0</ele></rtept>
    <rtept lat="52.379322" lon="4.656758"><ele>0.0</ele></rtept>
    <rtept lat="52.379484" lon="4.656332"><ele>0.0</ele></rtept>
    <rtept lat="52.379811" lon="4.656611"><ele>0.0</ele></rtept>
    <rtept lat="52.379890" lon="4.656860"><ele>0.0</ele></rtept>
    <rtept lat="52.379960" lon="4.657149"><ele>0.0</ele></rtept>
    <rtept lat="52.380029" lon="4.657505"><ele>0.0</ele></rtept>
    <rtept lat="52.380029" lon="4.657510"><ele>0.0</ele></rtept>
  </rte>
</gpx>