<?xml version="1.0" encoding="UTF-8"?>
<gpx version="1.1" creator="WeeklyCyclingRoutes"
  xmlns="http://www.topografix.com/GPX/1/1"
  xmlns:xsi="http://www.w3.org/2001/XMLSchema-instance"
  xsi:schemaLocation="http://www.topografix.com/GPX/1/1 http://www.topografix.com/GPX/1/1/gpx.xsd">
  <metadata>
    <name>40km Route – August 03, 2026</name>
    <desc>Round trip from Cremerstraat, Haarlem. Actual: 24.0km</desc>
    <time>2026-08-03T09:32:02Z</time>
  </metadata>
  <rte>
    <name>40km Cycling Route – Haarlem</name>
    <rtept lat="52.380029" lon="4.657510"><ele>0.0</ele></rtept>
    <rtept lat="52.380029" lon="4.657505"><ele>0.0</ele></rtept>
    <rtept lat="52.379960" lon="4.657149"><ele>0.0</ele></rtept>
    <rtept lat="52.379890" lon="4.656860"><ele>0.0</ele></rtept>
    <rtept lat="52.379811" lon="4.656611"><ele>0.0</ele></rtept>
    <rtept lat="52.379484" lon="4.656332"><ele>0.0</ele></rtept>
    <rtept lat="52.379720" lon="4.655630"><ele>0.0</ele></rtept>
    <rtept lat="52.379947" lon="4.654788"><ele>0.0</ele></rtept>
    <rtept lat="52.379963" lon="4.654729"><ele>0.0</ele></rtept>
    <rtept lat="52.380132" lon="4.654088"><ele>0.0</ele></rtept>
    <rtept lat="52.380326" lon="4.653373"><ele>0.0</ele></rtept>
    <rtept lat="52.380708" lon="4.651959"><ele>0.0</ele></rtept>
    <rtept lat="52.380759" lon="4.651852"><ele>0.0</ele></rtept>
    <rtept lat="52.380737" lon="4.651796"><ele>0.0</ele></rtept>
    <rtept lat="52.380685" lon="4.651734"><ele>0.0</ele></rtept>
    <rtept lat="52.380262" lon="4.651351"><ele>0.0</ele></rtept>
    <rtept lat="52.379725" lon="4.650899"><ele>0.0</ele></rtept>
    <rtept lat="52.379260" lon="4.650511"><ele>0.0</ele></rtept>
    <rtept lat="52.378359" lon="4.649800"><ele>0.0</ele></rtept>
    <rtept lat="52.378273" lon="4.649729"><ele>0.0</ele></rtept>
    <rtept lat="52.377874" lon="4.649547"><ele>0.0</ele></rtept>
    <rtept lat="52.377378" lon="4.649321"><ele>0.0</ele></rtept>
    <rtept lat="52.376986" lon="4.649354"><ele>0.0</ele></rtept>
    <rtept lat="52.376935" lon="4.649362"><ele>0.0</ele></rtept>
    <rtept lat="52.376792" lon="4.649386"><ele>0.0</ele></rtept>
    <rtept lat="52.376626" lon="4.649419"><ele>0.0</ele></rtept>
    <rtept lat="52.376065" lon="4.649522"><ele>0.0</ele></rtept>
    <rtept lat="52.375810" lon="4.649550"><ele>0.0</ele></rtept>
    <rtept lat="52.375644" lon="4.649501"><ele>0.0</ele></rtept>
    <rtept lat="52.375431" lon="4.649330"><ele>0.0</ele></rtept>
    <rtept lat="52.374852" lon="4.648931"><ele>0.0</ele></rtept>
    <rtept lat="52.374726" lon="4.648878"><ele>0.0</ele></rtept>
    <rtept lat="52.374570" lon="4.648850"><ele>0.0</ele></rtept>
    <rtept lat="52.374260" lon="4.648870"><ele>0.0</ele></rtept>
    <rtept lat="52.373807" lon="4.648893"><ele>0.0</ele></rtept>
    <rtept lat="52.373741" lon="4.647203"><ele>0.0</ele></rtept>
    <rtept lat="52.373716" lon="4.646253"><ele>0.0</ele></rtept>
    <rtept lat="52.373649" lon="4.644390"><ele>0.0</ele></rtept>
    <rtept lat="52.373626" lon="4.643460"><ele>0.0</ele></rtept>
    <rtept lat="52.373635" lon="4.643324"><ele>0.0</ele></rtept>
    <rtept lat="52.373649" lon="4.643191"><ele>0.0</ele></rtept>
    <rtept lat="52.373346" lon="4.643068"><ele>0.0</ele></rtept>
    <rtept lat="52.373028" lon="4.642867"><ele>0.0</ele></rtept>
    <rtept lat="52.372544" lon="4.642493"><ele>0.0</ele></rtept>
    <rtept lat="52.372468" lon="4.642417"><ele>0.0</ele></rtept>
    <rtept lat="52.371916" lon="4.641663"><ele>0.0</ele></rtept>
    <rtept lat="52.371530" lon="4.641052"><ele>0.0</ele></rtept>
    <rtept lat="52.371312" lon="4.640703"><ele>0.0</ele></rtept>
    <rtept lat="52.371309" lon="4.640590"><ele>0.0</ele></rtept>
    <rtept lat="52.371345" lon="4.640491"><ele>0.0</ele></rtept>
    <rtept lat="52.371679" lon="4.639974"><ele>0.0</ele></rtept>
    <rtept lat="52.371722" lon="4.639922"><ele>0.0</ele></rtept>
    <rtept lat="52.371835" lon="4.639689"><ele>0.0</ele></rtept>
    <rtept lat="52.371889" lon="4.639515"><ele>0.0</ele></rtept>
    <rtept lat="52.371935" lon="4.639042"><ele>0.0</ele></rtept>
    <rtept lat="52.371936" lon="4.638929"><ele>0.0</ele></rtept>
    <rtept lat="52.371913" lon="4.638778"><ele>0.0</ele></rtept>
    <rtept lat="52.371884" lon="4.638636"><ele>0.0</ele></rtept>
    <rtept lat="52.371760" lon="4.638157"><ele>0.0</ele></rtept>
    <rtept lat="52.371671" lon="4.637889"><ele>0.0</ele></rtept>
    <rtept lat="52.371414" lon="4.637379"><ele>0.0</ele></rtept>
    <rtept lat="52.370971" lon="4.636702"><ele>0.0</ele></rtept>
    <rtept lat="52.370870" lon="4.636494"><ele>0.0</ele></rtept>
    <rtept lat="52.370839" lon="4.636297"><ele>0.0</ele></rtept>
    <rtept lat="52.370844" lon="4.636200"><ele>0.0</ele></rtept>
    <rtept lat="52.370968" lon="4.635623"><ele>0.0</ele></rtept>
    <rtept lat="52.371019" lon="4.635382"><ele>0.0</ele></rtept>
    <rtept lat="52.371084" lon="4.635204"><ele>0.0</ele></rtept>
    <rtept lat="52.371152" lon="4.634851"><ele>0.0</ele></rtept>
    <rtept lat="52.371188" lon="4.634423"><ele>0.0</ele></rtept>
    <rtept lat="52.371265" lon="4.634009"><ele>0.0</ele></rtept>
    <rtept lat="52.371413" lon="4.633130"><ele>0.0</ele></rtept>
    <rtept lat="52.371416" lon="4.632951"><ele>0.0</ele></rtept>
    <rtept lat="52.371342" lon="4.632910"><ele>0.0</ele></rtept>
    <rtept lat="52.371237" lon="4.632750"><ele>0.0</ele></rtept>
    <rtept lat="52.371078" lon="4.632631"><ele>0.0</ele></rtept>
    <rtept lat="52.370963" lon="4.632569"><ele>0.0</ele></rtept>
    <rtept lat="52.370526" lon="4.632355"><ele>0.0</ele></rtept>
    <rtept lat="52.370214" lon="4.632174"><ele>0.0</ele></rtept>
    <rtept lat="52.369494" lon="4.631842"><ele>0.0</ele></rtept>
    <rtept lat="52.368830" lon="4.631519"><ele>0.0</ele></rtept>
    <rtept lat="52.368377" lon="4.631261"><ele>0.0</ele></rtept>
    <rtept lat="52.368223" lon="4.631182"><ele>0.0</ele></rtept>
    <rtept lat="52.367841" lon="4.630987"><ele>0.0</ele></rtept>
    <rtept lat="52.367619" lon="4.630955"><ele>0.0</ele></rtept>
    <rtept lat="52.367491" lon="4.630972"><ele>0.0</ele></rtept>
    <rtept lat="52.367386" lon="4.631037"><ele>0.0</ele></rtept>
    <rtept lat="52.367243" lon="4.631139"><ele>0.0</ele></rtept>
    <rtept lat="52.367059" lon="4.631364"><ele>0.0</ele></rtept>
    <rtept lat="52.366891" lon="4.631797"><ele>0.0</ele></rtept>
    <rtept lat="52.366772" lon="4.631691"><ele>0.0</ele></rtept>
    <rtept lat="52.366289" lon="4.631287"><ele>0.0</ele></rtept>
    <rtept lat="52.366038" lon="4.631031"><ele>0.0</ele></rtept>
    <rtept lat="52.365829" lon="4.630771"><ele>0.0</ele></rtept>
    <rtept lat="52.365254" lon="4.629937"><ele>0.0</ele></rtept>
    <rtept lat="52.365073" lon="4.629644"><ele>0.0</ele></rtept>
    <rtept lat="52.365020" lon="4.629620"><ele>0.0</ele></rtept>
    <rtept lat="52.364983" lon="4.628739"><ele>0.0</ele></rtept>
    <rtept lat="52.364971" lon="4.628520"><ele>0.0</ele></rtept>
    <rtept lat="52.364925" lon="4.628427"><ele>0.0</ele></rtept>
    <rtept lat="52.364934" lon="4.628350"><ele>0.0</ele></rtept>
    <rtept lat="52.364952" lon="4.628085"><ele>0.0</ele></rtept>
    <rtept lat="52.364907" lon="4.627173"><ele>0.0</ele></rtept>
    <rtept lat="52.364936" lon="4.627037"><ele>0.0</ele></rtept>
    <rtept lat="52.364975" lon="4.626855"><ele>0.0</ele></rtept>
    <rtept lat="52.365012" lon="4.626679"><ele>0.0</ele></rtept>
    <rtept lat="52.364970" lon="4.626550"><ele>0.0</ele></rtept>
    <rtept lat="52.364783" lon="4.622222"><ele>0.0</ele></rtept>
    <rtept lat="52.364711" lon="4.620460"><ele>0.0</ele></rtept>
    <rtept lat="52.364675" lon="4.619495"><ele>0.0</ele></rtept>
    <rtept lat="52.364668" lon="4.619100"><ele>0.0</ele></rtept>
    <rtept lat="52.364674" lon="4.619044"><ele>0.0</ele></rtept>
    <rtept lat="52.364703" lon="4.618908"><ele>0.0</ele></rtept>
    <rtept lat="52.364725" lon="4.618803"><ele>0.0</ele></rtept>
    <rtept lat="52.364754" lon="4.618666"><ele>0.0</ele></rtept>
    <rtept lat="52.364707" lon="4.618619"><ele>0.0</ele></rtept>
    <rtept lat="52.364526" lon="4.618609"><ele>0.0</ele></rtept>
    <rtept lat="52.363771" lon="4.618307"><ele>0.0</ele></rtept>
    <rtept lat="52.363477" lon="4.618024"><ele>0.0</ele></rtept>
    <rtept lat="52.363420" lon="4.617930"><ele>0.0</ele></rtept>
    <rtept lat="52.363386" lon="4.617812"><ele>0.0</ele></rtept>
    <rtept lat="52.363338" lon="4.617722"><ele>0.0</ele></rtept>
    <rtept lat="52.363281" lon="4.617693"><ele>0.0</ele></rtept>
    <rtept lat="52.362905" lon="4.617658"><ele>0.0</ele></rtept>
    <rtept lat="52.362906" lon="4.617592"><ele>0.0</ele></rtept>
    <rtept lat="52.362900" lon="4.617489"><ele>0.0</ele></rtept>
    <rtept lat="52.362850" lon="4.617355"><ele>0.0</ele></rtept>
    <rtept lat="52.362980" lon="4.616526"><ele>0.0</ele></rtept>
    <rtept lat="52.362969" lon="4.616025"><ele>0.0</ele></rtept>
    <rtept lat="52.362920" lon="4.616000"><ele>0.0</ele></rtept>
    <rtept lat="52.362699" lon="4.615907"><ele>0.0</ele></rtept>
    <rtept lat="52.362470" lon="4.615810"><ele>0.0</ele></rtept>
    <rtept lat="52.362196" lon="4.615673"><ele>0.0</ele></rtept>
    <rtept lat="52.362030" lon="4.615590"><ele>0.0</ele></rtept>
    <rtept lat="52.361833" lon="4.615490"><ele>0.0</ele></rtept>
    <rtept lat="52.361670" lon="4.615340"><ele>0.0</ele></rtept>
    <rtept lat="52.361563" lon="4.615241"><ele>0.0</ele></rtept>
    <rtept lat="52.361349" lon="4.614922"><ele>0.0</ele></rtept>
    <rtept lat="52.361195" lon="4.614599"><ele>0.0</ele></rtept>
    <rtept lat="52.361008" lon="4.614207"><ele>0.0</ele></rtept>
    <rtept lat="52.360791" lon="4.614210"><ele>0.0</ele></rtept>
    <rtept lat="52.360604" lon="4.614154"><ele>0.0</ele></rtept>
    <rtept lat="52.360561" lon="4.614135"><ele>0.0</ele></rtept>
    <rtept lat="52.360533" lon="4.614119"><ele>0.0</ele></rtept>
    <rtept lat="52.360519" lon="4.613971"><ele>0.0</ele></rtept>
    <rtept lat="52.360561" lon="4.613617"><ele>0.0</ele></rtept>
    <rtept lat="52.360541" lon="4.613430"><ele>0.0</ele></rtept>
    <rtept lat="52.360095" lon="4.612494"><ele>0.0</ele></rtept>
    <rtept lat="52.360014" lon="4.612326"><ele>0.0</ele></rtept>
    <rtept lat="52.359772" lon="4.611822"><ele>0.0</ele></rtept>
    <rtept lat="52.359688" lon="4.611543"><ele>0.0</ele></rtept>
    <rtept lat="52.359640" lon="4.611439"><ele>0.0</ele></rtept>
    <rtept lat="52.359563" lon="4.611300"><ele>0.0</ele></rtept>
    <rtept lat="52.359431" lon="4.611211"><ele>0.0</ele></rtept>
    <rtept lat="52.359397" lon="4.611189"><ele>0.0</ele></rtept>
    <rtept lat="52.359468" lon="4.610719"><ele>0.0</ele></rtept>
    <rtept lat="52.359487" lon="4.610533"><ele>0.0</ele></rtept>
    <rtept lat="52.359551" lon="4.609719"><ele>0.0</ele></rtept>
    <rtept lat="52.359637" lon="4.608539"><ele>0.0</ele></rtept>
    <rtept lat="52.359669" lon="4.608111"><ele>0.0</ele></rtept>
    <rtept lat="52.359680" lon="4.607930"><ele>0.0</ele></rtept>
    <rtept lat="52.359697" lon="4.607730"><ele>0.0</ele></rtept>
    <rtept lat="52.359725" lon="4.607452"><ele>0.0</ele></rtept>
    <rtept lat="52.359731" lon="4.607385"><ele>0.0</ele></rtept>
    <rtept lat="52.359734" lon="4.607352"><ele>0.0</ele></rtept>
    <rtept lat="52.359831" lon="4.607088"><ele>0.0</ele></rtept>
    <rtept lat="52.359869" lon="4.606773"><ele>0.0</ele></rtept>
    <rtept lat="52.359911" lon="4.606507"><ele>0.0</ele></rtept>
    <rtept lat="52.359947" lon="4.606121"><ele>0.0</ele></rtept>
    <rtept lat="52.359967" lon="4.605715"><ele>0.0</ele></rtept>
    <rtept lat="52.359975" lon="4.605546"><ele>0.0</ele></rtept>
    <rtept lat="52.359976" lon="4.605492"><ele>0.0</ele></rtept>
    <rtept lat="52.360143" lon="4.603836"><ele>0.0</ele></rtept>
    <rtept lat="52.360170" lon="4.603704"><ele>0.0</ele></rtept>
    <rtept lat="52.360189" lon="4.603369"><ele>0.0</ele></rtept>
    <rtept lat="52.360262" lon="4.602989"><ele>0.0</ele></rtept>
    <rtept lat="52.360352" lon="4.602588"><ele>0.0</ele></rtept>
    <rtept lat="52.360538" lon="4.601723"><ele>0.0</ele></rtept>
    <rtept lat="52.360605" lon="4.601465"><ele>0.0</ele></rtept>
    <rtept lat="52.360771" lon="4.600950"><ele>0.0</ele></rtept>
    <rtept lat="52.360741" lon="4.600922"><ele>0.0</ele></rtept>
    <rtept lat="52.360912" lon="4.600430"><ele>0.0</ele></rtept>
    <rtept lat="52.361092" lon="4.600047"><ele>0.0</ele></rtept>
    <rtept lat="52.361181" lon="4.599790"><ele>0.0</ele></rtept>
    <rtept lat="52.361231" lon="4.599530"><ele>0.0</ele></rtept>
    <rtept lat="52.361242" lon="4.599177"><ele>0.0</ele></rtept>
    <rtept lat="52.361301" lon="4.599152"><ele>0.0</ele></rtept>
    <rtept lat="52.361354" lon="4.599002"><ele>0.0</ele></rtept>
    <rtept lat="52.361402" lon="4.598920"><ele>0.0</ele></rtept>
    <rtept lat="52.361397" lon="4.598829"><ele>0.0</ele></rtept>
    <rtept lat="52.361446" lon="4.598816"><ele>0.0</ele></rtept>
    <rtept lat="52.361725" lon="4.598922"><ele>0.0</ele></rtept>
    <rtept lat="52.361818" lon="4.598958"><ele>0.0</ele></rtept>
    <rtept lat="52.361836" lon="4.598424"><ele>0.0</ele></rtept>
    <rtept lat="52.362020" lon="4.594510"><ele>0.0</ele></rtept>
    <rtept lat="52.362040" lon="4.593458"><ele>0.0</ele></rtept>
    <rtept lat="52.361957" lon="4.593472"><ele>0.0</ele></rtept>
    <rtept lat="52.362028" lon="4.591853"><ele>0.0</ele></rtept>
    <rtept lat="52.362185" lon="4.590793"><ele>0.0</ele></rtept>
    <rtept lat="52.362642" lon="4.587760"><ele>0.0</ele></rtept>
    <rtept lat="52.362759" lon="4.587412"><ele>0.0</ele></rtept>
    <rtept lat="52.363311" lon="4.586063"><ele>0.0</ele></rtept>
    <rtept lat="52.364111" lon="4.584103"><ele>0.0</ele></rtept>
    <rtept lat="52.364369" lon="4.583407"><ele>0.0</ele></rtept>
    <rtept lat="52.364520" lon="4.582930"><ele>0.0</ele></rtept>
    <rtept lat="52.364660" lon="4.582380"><ele>0.0</ele></rtept>
    <rtept lat="52.364812" lon="4.581629"><ele>0.0</ele></rtept>
    <rtept lat="52.364858" lon="4.581340"><ele>0.0</ele></rtept>
    <rtept lat="52.364983" lon="4.580667"><ele>0.0</ele></rtept>
    <rtept lat="52.365297" lon="4.579224"><ele>0.0</ele></rtept>
    <rtept lat="52.365765" lon="4.576765"><ele>0.0</ele></rtept>
    <rtept lat="52.365957" lon="4.574978"><ele>0.0</ele></rtept>
    <rtept lat="52.365728" lon="4.574714"><ele>0.0</ele></rtept>
    <rtept lat="52.365611" lon="4.574648"><ele>0.0</ele></rtept>
    <rtept lat="52.365763" lon="4.573445"><ele>0.0</ele></rtept>
    <rtept lat="52.365967" lon="4.571381"><ele>0.0</ele></rtept>
    <rtept lat="52.366010" lon="4.571100"><ele>0.0</ele></rtept>
    <rtept lat="52.366008" lon="4.570924"><ele>0.0</ele></rtept>
    <rtept lat="52.366049" lon="4.570457"><ele>0.0</ele></rtept>
    <rtept lat="52.366070" lon="4.570226"><ele>0.0</ele></rtept>
    <rtept lat="52.366680" lon="4.563690"><ele>0.0</ele></rtept>
    <rtept lat="52.366736" lon="4.562889"><ele>0.0</ele></rtept>
    <rtept lat="52.366717" lon="4.562405"><ele>0.0</ele></rtept>
    <rtept lat="52.366671" lon="4.561959"><ele>0.0</ele></rtept>
    <rtept lat="52.366550" lon="4.561435"><ele>0.0</ele></rtept>
    <rtept lat="52.366401" lon="4.561028"><ele>0.0</ele></rtept>
    <rtept lat="52.365111" lon="4.558421"><ele>0.0</ele></rtept>
    <rtept lat="52.364953" lon="4.557972"><ele>0.0</ele></rtept>
    <rtept lat="52.364855" lon="4.557548"><ele>0.0</ele></rtept>
    <rtept lat="52.364810" lon="4.557049"><ele>0.0</ele></rtept>
    <rtept lat="52.364804" lon="4.556534"><ele>0.0</ele></rtept>
    <rtept lat="52.364835" lon="4.556109"><ele>0.0</ele></rtept>
    <rtept lat="52.365008" lon="4.554349"><ele>0.0</ele></rtept>
    <rtept lat="52.365035" lon="4.554184"><ele>0.0</ele></rtept>
    <rtept lat="52.365052" lon="4.554106"><ele>0.0</ele></rtept>
    <rtept lat="52.365161" lon="4.553998"><ele>0.0</ele></rtept>
    <rtept lat="52.365215" lon="4.553806"><ele>0.0</ele></rtept>
    <rtept lat="52.365199" lon="4.553615"><ele>0.0</ele></rtept>
    <rtept lat="52.365125" lon="4.553467"><ele>0.0</ele></rtept>
    <rtept lat="52.365133" lon="4.553375"><ele>0.0</ele></rtept>
    <rtept lat="52.365163" lon="4.552987"><ele>0.0</ele></rtept>
    <rtept lat="52.365165" lon="4.552540"><ele>0.0</ele></rtept>
    <rtept lat="52.365237" lon="4.551748"><ele>0.0</ele></rtept>
    <rtept lat="52.365305" lon="4.551215"><ele>0.0</ele></rtept>
    <rtept lat="52.365393" lon="4.550687"><ele>0.0</ele></rtept>
    <rtept lat="52.365533" lon="4.550096"><ele>0.0</ele></rtept>
    <rtept lat="52.365698" lon="4.549533"><ele>0.0</ele></rtept>
    <rtept lat="52.366015" lon="4.548584"><ele>0.0</ele></rtept>
    <rtept lat="52.366466" lon="4.547232"><ele>0.0</ele></rtept>
    <rtept lat="52.366574" lon="4.547057"><ele>0.0</ele></rtept>
    <rtept lat="52.366645" lon="4.546904"><ele>0.0</ele></rtept>
    <rtept lat="52.366738" lon="4.546619"><ele>0.0</ele></rtept>
    <rtept lat="52.366800" lon="4.546432"><ele>0.0</ele></rtept>
    <rtept lat="52.366823" lon="4.546350"><ele>0.0</ele></rtept>
    <rtept lat="52.366918" lon="4.546016"><ele>0.0</ele></rtept>
    <rtept lat="52.366942" lon="4.545845"><ele>0.0</ele></rtept>
    <rtept lat="52.367284" lon="4.544800"><ele>0.0</ele></rtept>
    <rtept lat="52.367367" lon="4.544656"><ele>0.0</ele></rtept>
    <rtept lat="52.367486" lon="4.544299"><ele>0.0</ele></rtept>
    <rtept lat="52.367527" lon="4.543978"><ele>0.0</ele></rtept>
    <rtept lat="52.367604" lon="4.543732"><ele>0.0</ele></rtept>
    <rtept lat="52.368125" lon="4.542155"><ele>0.0</ele></rtept>
    <rtept lat="52.368675" lon="4.540484"><ele>0.0</ele></rtept>
    <rtept lat="52.368935" lon="4.539760"><ele>0.0</ele></rtept>
    <rtept lat="52.369047" lon="4.539516"><ele>0.0</ele></rtept>
    <rtept lat="52.369064" lon="4.539485"><ele>0.0</ele></rtept>
    <rtept lat="52.369139" lon="4.539478"><ele>0.0</ele></rtept>
    <rtept lat="52.369183" lon="4.539470"><ele>0.0</ele></rtept>
    <rtept lat="52.369281" lon="4.539385"><ele>0.0</ele></rtept>
    <rtept lat="52.369330" lon="4.539373"><ele>0.0</ele></rtept>
    <rtept lat="52.369342" lon="4.539261"><ele>0.0</ele></rtept>
    <rtept lat="52.369353" lon="4.539153"><ele>0.0</ele></rtept>
    <rtept lat="52.369298" lon="4.539070"><ele>0.0</ele></rtept>
    <rtept lat="52.369275" lon="4.538953"><ele>0.0</ele></rtept>
    <rtept lat="52.369285" lon="4.538903"><ele>0.0</ele></rtept>
    <rtept lat="52.369316" lon="4.538803"><ele>0.0</ele></rtept>
    <rtept lat="52.369359" lon="4.538762"><ele>0.0</ele></rtept>
    <rtept lat="52.369464" lon="4.538563"><ele>0.0</ele></rtept>
    <rtept lat="52.369561" lon="4.538379"><ele>0.0</ele></rtept>
    <rtept lat="52.369571" lon="4.538360"><ele>0.0</ele></rtept>
    <rtept lat="52.369551" lon="4.538289"><ele>0.0</ele></rtept>
    <rtept lat="52.369529" lon="4.538224"><ele>0.0</ele></rtept>
    <rtept lat="52.369481" lon="4.538063"><ele>0.0</ele></rtept>
    <rtept lat="52.369460" lon="4.537992"><ele>0.0</ele></rtept>
    <rtept lat="52.369512" lon="4.537814"><ele>0.0</ele></rtept>
    <rtept lat="52.370071" lon="4.536139"><ele>0.0</ele></rtept>
    <rtept lat="52.370271" lon="4.535539"><ele>0.0</ele></rtept>
    <rtept lat="52.370837" lon="4.533849"><ele>0.0</ele></rtept>
    <rtept lat="52.370877" lon="4.533730"><ele>0.0</ele></rtept>
    <rtept lat="52.370941" lon="4.533451"><ele>0.0</ele></rtept>
    <rtept lat="52.371025" lon="4.533101"><ele>0.0</ele></rtept>
    <rtept lat="52.371098" lon="4.532881"><ele>0.0</ele></rtept>
    <rtept lat="52.371104" lon="4.532739"><ele>0.0</ele></rtept>
    <rtept lat="52.371144" lon="4.532434"><ele>0.0</ele></rtept>
    <rtept lat="52.371150" lon="4.532324"><ele>0.0</ele></rtept>
    <rtept lat="52.371115" lon="4.532069"><ele>0.0</ele></rtept>
    <rtept lat="52.371081" lon="4.531886"><ele>0.0</ele></rtept>
    <rtept lat="52.371019" lon="4.531135"><ele>0.0</ele></rtept>
    <rtept lat="52.370751" lon="4.529966"><ele>0.0</ele></rtept>
    <rtept lat="52.370635" lon="4.529091"><ele>0.0</ele></rtept>
    <rtept lat="52.370628" lon="4.528980"><ele>0.0</ele></rtept>
    <rtept lat="52.370630" lon="4.528340"><ele>0.0</ele></rtept>
    <rtept lat="52.370677" lon="4.527884"><ele>0.0</ele></rtept>
    <rtept lat="52.370725" lon="4.527518"><ele>0.0</ele></rtept>
    <rtept lat="52.370787" lon="4.527106"><ele>0.0</ele></rtept>
    <rtept lat="52.370870" lon="4.526739"><ele>0.0</ele></rtept>
    <rtept lat="52.371020" lon="4.526368"><ele>0.0</ele></rtept>
    <rtept lat="52.370930" lon="4.526271"><ele>0.0</ele></rtept>
    <rtept lat="52.370485" lon="4.525946"><ele>0.0</ele></rtept>
    <rtept lat="52.370366" lon="4.526319"><ele>0.0</ele></rtept>
    <rtept lat="52.370161" lon="4.526876"><ele>0.0</ele></rtept>
    <rtept lat="52.370059" lon="4.526923"><ele>0.0</ele></rtept>
    <rtept lat="52.369850" lon="4.526870"><ele>0.0</ele></rtept>
    <rtept lat="52.369810" lon="4.526830"><ele>0.0</ele></rtept>
    <rtept lat="52.369710" lon="4.526560"><ele>0.0</ele></rtept>
    <rtept lat="52.369650" lon="4.526290"><ele>0.0</ele></rtept>
    <rtept lat="52.369570" lon="4.526040"><ele>0.0</ele></rtept>
    <rtept lat="52.369280" lon="4.525395"><ele>0.0</ele></rtept>
    <rtept lat="52.369219" lon="4.525321"><ele>0.0</ele></rtept>
    <rtept lat="52.369267" lon="4.525054"><ele>0.0</ele></rtept>
    <rtept lat="52.369289" lon="4.524985"><ele>0.0</ele></rtept>
    <rtept lat="52.369531" lon="4.524050"><ele>0.0</ele></rtept>
    <rtept lat="52.369550" lon="4.523973"><ele>0.0</ele></rtept>
    <rtept lat="52.369220" lon="4.523755"><ele>0.0</ele></rtept>
    <rtept lat="52.369133" lon="4.523785"><ele>0.0</ele></rtept>
    <rtept lat="52.368606" lon="4.523443"><ele>0.0</ele></rtept>
    <rtept lat="52.368561" lon="4.523396"><ele>0.0</ele></rtept>
    <rtept lat="52.368522" lon="4.523310"><ele>0.0</ele></rtept>
    <rtept lat="52.368153" lon="4.523069"><ele>0.0</ele></rtept>
    <rtept lat="52.367890" lon="4.522991"><ele>0.0</ele></rtept>
    <rtept lat="52.367666" lon="4.522989"><ele>0.0</ele></rtept>
    <rtept lat="52.367642" lon="4.522850"><ele>0.0</ele></rtept>
    <rtept lat="52.367622" lon="4.522547"><ele>0.0</ele></rtept>
    <rtept lat="52.367652" lon="4.522226"><ele>0.0</ele></rtept>
    <rtept lat="52.367655" lon="4.522196"><ele>0.0</ele></rtept>
    <rtept lat="52.367673" lon="4.522060"><ele>0.0</ele></rtept>
    <rtept lat="52.367699" lon="4.521931"><ele>0.0</ele></rtept>
    <rtept lat="52.367739" lon="4.521746"><ele>0.0</ele></rtept>
    <rtept lat="52.367635" lon="4.521667"><ele>0.0</ele></rtept>
    <rtept lat="52.367516" lon="4.521597"><ele>0.0</ele></rtept>
    <rtept lat="52.367184" lon="4.521400"><ele>0.0</ele></rtept>
    <rtept lat="52.366588" lon="4.521004"><ele>0.0</ele></rtept>
    <rtept lat="52.366610" lon="4.520908"><ele>0.0</ele></rtept>
    <rtept lat="52.366588" lon="4.521004"><ele>0.0</ele></rtept>
    <rtept lat="52.366202" lon="4.520765"><ele>0.0</ele></rtept>
    <rtept lat="52.365935" lon="4.521838"><ele>0.0</ele></rtept>
    <rtept lat="52.366228" lon="4.522033"><ele>0.0</ele></rtept>
    <rtept lat="52.366633" lon="4.522327"><ele>0.0</ele></rtept>
    <rtept lat="52.366856" lon="4.522517"><ele>0.0</ele></rtept>
    <rtept lat="52.367217" lon="4.522874"><ele>0.0</ele></rtept>
    <rtept lat="52.367299" lon="4.522964"><ele>0.0</ele></rtept>
    <rtept lat="52.367380" lon="4.523064"><ele>0.0</ele></rtept>
    <rtept lat="52.367501" lon="4.523228"><ele>0.0</ele></rtept>
    <rtept lat="52.367520" lon="4.523271"><ele>0.0</ele></rtept>
    <rtept lat="52.367578" lon="4.523321"><ele>0.0</ele></rtept>
    <rtept lat="52.367625" lon="4.523401"><ele>0.0</ele></rtept>
    <rtept lat="52.367808" lon="4.523709"><ele>0.0</ele></rtept>
    <rtept lat="52.367962" lon="4.524014"><ele>0.0</ele></rtept>
    <rtept lat="52.368073" lon="4.524221"><ele>0.0</ele></rtept>
    <rtept lat="52.368895" lon="4.525766"><ele>0.0</ele></rtept>
    <rtept lat="52.369190" lon="4.526360"><ele>0.0</ele></rtept>
    <rtept lat="52.369290" lon="4.526689"><ele>0.0</ele></rtept>
    <rtept lat="52.369363" lon="4.527034"><ele>0.0</ele></rtept>
    <rtept lat="52.369414" lon="4.527624"><ele>0.0</ele></rtept>
    <rtept lat="52.369470" lon="4.528197"><ele>0.0</ele></rtept>
    <rtept lat="52.369598" lon="4.528726"><ele>0.0</ele></rtept>
    <rtept lat="52.369803" lon="4.529406"><ele>0.0</ele></rtept>
    <rtept lat="52.369963" lon="4.529946"><ele>0.0</ele></rtept>
    <rtept lat="52.370439" lon="4.531571"><ele>0.0</ele></rtept>
    <rtept lat="52.370587" lon="4.532033"><ele>0.0</ele></rtept>
    <rtept lat="52.370737" lon="4.532614"><ele>0.0</ele></rtept>
    <rtept lat="52.370849" lon="4.533017"><ele>0.0</ele></rtept>
    <rtept lat="52.370884" lon="4.533119"><ele>0.0</ele></rtept>
    <rtept lat="52.370830" lon="4.533201"><ele>0.0</ele></rtept>
    <rtept lat="52.370782" lon="4.533257"><ele>0.0</ele></rtept>
    <rtept lat="52.370715" lon="4.533277"><ele>0.0</ele></rtept>
    <rtept lat="52.370447" lon="4.533505"><ele>0.0</ele></rtept>
    <rtept lat="52.370164" lon="4.533834"><ele>0.0</ele></rtept>
    <rtept lat="52.369982" lon="4.534088"><ele>0.0</ele></rtept>
    <rtept lat="52.369892" lon="4.534271"><ele>0.0</ele></rtept>
    <rtept lat="52.369735" lon="4.534741"><ele>0.0</ele></rtept>
    <rtept lat="52.369450" lon="4.535584"><ele>0.0</ele></rtept>
    <rtept lat="52.369169" lon="4.536449"><ele>0.0</ele></rtept>
    <rtept lat="52.368497" lon="4.538476"><ele>0.0</ele></rtept>
    <rtept lat="52.368434" lon="4.538454"><ele>0.0</ele></rtept>
    <rtept lat="52.368415" lon="4.538517"><ele>0.0</ele></rtept>
    <rtept lat="52.368397" lon="4.538582"><ele>0.0</ele></rtept>
    <rtept lat="52.368378" lon="4.538648"><ele>0.0</ele></rtept>
    <rtept lat="52.368375" lon="4.538728"><ele>0.0</ele></rtept>
    <rtept lat="52.368366" lon="4.538799"><ele>0.0</ele></rtept>
    <rtept lat="52.368179" lon="4.539353"><ele>0.0</ele></rtept>
    <rtept lat="52.367956" lon="4.540038"><ele>0.0</ele></rtept>
    <rtept lat="52.367736" lon="4.540706"><ele>0.0</ele></rtept>
    <rtept lat="52.367503" lon="4.541397"><ele>0.0</ele></rtept>
    <rtept lat="52.367366" lon="4.541767"><ele>0.0</ele></rtept>
    <rtept lat="52.367219" lon="4.542086"><ele>0.0</ele></rtept>
    <rtept lat="52.367070" lon="4.542331"><ele>0.0</ele></rtept>
    <rtept lat="52.367033" lon="4.542392"><ele>0.0</ele></rtept>
    <rtept lat="52.366966" lon="4.542501"><ele>0.0</ele></rtept>
    <rtept lat="52.366870" lon="4.542748"><ele>0.0</ele></rtept>
    <rtept lat="52.366861" lon="4.542843"><ele>0.0</ele></rtept>
    <rtept lat="52.366874" lon="4.542999"><ele>0.0</ele></rtept>
    <rtept lat="52.367147" lon="4.543702"><ele>0.0</ele></rtept>
    <rtept lat="52.367206" lon="4.544011"><ele>0.0</ele></rtept>
    <rtept lat="52.367210" lon="4.544173"><ele>0.0</ele></rtept>
    <rtept lat="52.367194" lon="4.544495"><ele>0.0</ele></rtept>
    <rtept lat="52.367118" lon="4.544844"><ele>0.0</ele></rtept>
    <rtept lat="52.366661" lon="4.546211"><ele>0.0</ele></rtept>
    <rtept lat="52.366475" lon="4.546754"><ele>0.0</ele></rtept>
    <rtept lat="52.365619" lon="4.549288"><ele>0.0</ele></rtept>
    <rtept lat="52.365430" lon="4.549893"><ele>0.0</ele></rtept>
    <rtept lat="52.365228" lon="4.550799"><ele>0.0</ele></rtept>
    <rtept lat="52.365154" lon="4.551298"><ele>0.0</ele></rtept>
    <rtept lat="52.365083" lon="4.551894"><ele>0.0</ele></rtept>
    <rtept lat="52.365034" lon="4.552523"><ele>0.0</ele></rtept>
    <rtept lat="52.364953" lon="4.552995"><ele>0.0</ele></rtept>
    <rtept lat="52.364948" lon="4.553331"><ele>0.0</ele></rtept>
    <rtept lat="52.364932" lon="4.553417"><ele>0.0</ele></rtept>
    <rtept lat="52.364848" lon="4.553498"><ele>0.0</ele></rtept>
    <rtept lat="52.364798" lon="4.553629"><ele>0.0</ele></rtept>
    <rtept lat="52.364788" lon="4.553831"><ele>0.0</ele></rtept>
    <rtept lat="52.364852" lon="4.554024"><ele>0.0</ele></rtept>
    <rtept lat="52.364880" lon="4.554149"><ele>0.0</ele></rtept>
    <rtept lat="52.364874" lon="4.554378"><ele>0.0</ele></rtept>
    <rtept lat="52.364754" lon="4.555509"><ele>0.0</ele></rtept>
    <rtept lat="52.364676" lon="4.556528"><ele>0.0</ele></rtept>
    <rtept lat="52.364675" lon="4.556936"><ele>0.0</ele></rtept>
    <rtept lat="52.364740" lon="4.557514"><ele>0.0</ele></rtept>
    <rtept lat="52.364800" lon="4.557860"><ele>0.0</ele></rtept>
    <rtept lat="52.364904" lon="4.558225"><ele>0.0</ele></rtept>
    <rtept lat="52.365100" lon="4.558713"><ele>0.0</ele></rtept>
    <rtept lat="52.365995" lon="4.560524"><ele>0.0</ele></rtept>
    <rtept lat="52.366295" lon="4.561166"><ele>0.0</ele></rtept>
    <rtept lat="52.366487" lon="4.561798"><ele>0.0</ele></rtept>
    <rtept lat="52.366577" lon="4.562288"><ele>0.0</ele></rtept>
    <rtept lat="52.366615" lon="4.562865"><ele>0.0</ele></rtept>
    <rtept lat="52.366610" lon="4.563070"><ele>0.0</ele></rtept>
    <rtept lat="52.366558" lon="4.563668"><ele>0.0</ele></rtept>
    <rtept lat="52.366292" lon="4.566543"><ele>0.0</ele></rtept>
    <rtept lat="52.366025" lon="4.569362"><ele>0.0</ele></rtept>
    <rtept lat="52.365958" lon="4.569643"><ele>0.0</ele></rtept>
    <rtept lat="52.365889" lon="4.569958"><ele>0.0</ele></rtept>
    <rtept lat="52.365878" lon="4.570138"><ele>0.0</ele></rtept>
    <rtept lat="52.365863" lon="4.570256"><ele>0.0</ele></rtept>
    <rtept lat="52.365858" lon="4.570376"><ele>0.0</ele></rtept>
    <rtept lat="52.365797" lon="4.571355"><ele>0.0</ele></rtept>
    <rtept lat="52.365597" lon="4.573606"><ele>0.0</ele></rtept>
    <rtept lat="52.365512" lon="4.574329"><ele>0.0</ele></rtept>
    <rtept lat="52.365435" lon="4.574868"><ele>0.0</ele></rtept>
    <rtept lat="52.365430" lon="4.574931"><ele>0.0</ele></rtept>
    <rtept lat="52.365337" lon="4.575604"><ele>0.0</ele></rtept>
    <rtept lat="52.365275" lon="4.575929"><ele>0.0</ele></rtept>
    <rtept lat="52.365149" lon="4.576425"><ele>0.0</ele></rtept>
    <rtept lat="52.365044" lon="4.576828"><ele>0.0</ele></rtept>
    <rtept lat="52.364998" lon="4.577067"><ele>0.0</ele></rtept>
    <rtept lat="52.364857" lon="4.577837"><ele>0.0</ele></rtept>
    <rtept lat="52.364784" lon="4.578829"><ele>0.0</ele></rtept>
    <rtept lat="52.364724" lon="4.579099"><ele>0.0</ele></rtept>
    <rtept lat="52.364696" lon="4.579609"><ele>0.0</ele></rtept>
    <rtept lat="52.364598" lon="4.580414"><ele>0.0</ele></rtept>
    <rtept lat="52.364292" lon="4.581752"><ele>0.0</ele></rtept>
    <rtept lat="52.363986" lon="4.583139"><ele>0.0</ele></rtept>
    <rtept lat="52.363905" lon="4.583445"><ele>0.0</ele></rtept>
    <rtept lat="52.363757" lon="4.583837"><ele>0.0</ele></rtept>
    <rtept lat="52.363673" lon="4.584060"><ele>0.0</ele></rtept>
    <rtept lat="52.363489" lon="4.584469"><ele>0.0</ele></rtept>
    <rtept lat="52.363143" lon="4.585112"><ele>0.0</ele></rtept>
    <rtept lat="52.363048" lon="4.585226"><ele>0.0</ele></rtept>
    <rtept lat="52.362812" lon="4.585601"><ele>0.0</ele></rtept>
    <rtept lat="52.362776" lon="4.585660"><ele>0.0</ele></rtept>
    <rtept lat="52.362742" lon="4.585724"><ele>0.0</ele></rtept>
    <rtept lat="52.362625" lon="4.586026"><ele>0.0</ele></rtept>
    <rtept lat="52.362590" lon="4.586125"><ele>0.0</ele></rtept>
    <rtept lat="52.362357" lon="4.586556"><ele>0.0</ele></rtept>
    <rtept lat="52.362236" lon="4.586863"><ele>0.0</ele></rtept>
    <rtept lat="52.362128" lon="4.587260"><ele>0.0</ele></rtept>
    <rtept lat="52.361749" lon="4.589814"><ele>0.0</ele></rtept>
    <rtept lat="52.361650" lon="4.590223"><ele>0.0</ele></rtept>
    <rtept lat="52.361608" lon="4.590698"><ele>0.0</ele></rtept>
    <rtept lat="52.361515" lon="4.591260"><ele>0.0</ele></rtept>
    <rtept lat="52.361325" lon="4.592495"><ele>0.0</ele></rtept>
    <rtept lat="52.361172" lon="4.593141"><ele>0.0</ele></rtept>
    <rtept lat="52.361131" lon="4.593452"><ele>0.0</ele></rtept>
    <rtept lat="52.361247" lon="4.593550"><ele>0.0</ele></rtept>
    <rtept lat="52.361317" lon="4.593596"><ele>0.0</ele></rtept>
    <rtept lat="52.361530" lon="4.593570"><ele>0.0</ele></rtept>
    <rtept lat="52.361957" lon="4.593472"><ele>0.0</ele></rtept>
    <rtept lat="52.361746" lon="4.598480"><ele>0.0</ele></rtept>
    <rtept lat="52.361725" lon="4.598922"><ele>0.0</ele></rtept>
    <rtept lat="52.361818" lon="4.598958"><ele>0.0</ele></rtept>
    <rtept lat="52.362184" lon="4.599109"><ele>0.0</ele></rtept>
    <rtept lat="52.362270" lon="4.599140"><ele>0.0</ele></rtept>
    <rtept lat="52.362380" lon="4.599210"><ele>0.0</ele></rtept>
    <rtept lat="52.363240" lon="4.599520"><ele>0.0</ele></rtept>
    <rtept lat="52.363710" lon="4.599700"><ele>0.0</ele></rtept>
    <rtept lat="52.363830" lon="4.599680"><ele>0.0</ele></rtept>
    <rtept lat="52.363925" lon="4.599718"><ele>0.0</ele></rtept>
    <rtept lat="52.364309" lon="4.599857"><ele>0.0</ele></rtept>
    <rtept lat="52.364321" lon="4.600133"><ele>0.0</ele></rtept>
    <rtept lat="52.364450" lon="4.600330"><ele>0.0</ele></rtept>
    <rtept lat="52.364620" lon="4.600940"><ele>0.0</ele></rtept>
    <rtept lat="52.364730" lon="4.601240"><ele>0.0</ele></rtept>
    <rtept lat="52.364950" lon="4.601590"><ele>0.0</ele></rtept>
    <rtept lat="52.365770" lon="4.602460"><ele>0.0</ele></rtept>
    <rtept lat="52.366537" lon="4.603224"><ele>0.0</ele></rtept>
    <rtept lat="52.367030" lon="4.603608"><ele>0.0</ele></rtept>
    <rtept lat="52.367560" lon="4.603947"><ele>0.0</ele></rtept>
    <rtept lat="52.367595" lon="4.603964"><ele>0.0</ele></rtept>
    <rtept lat="52.367757" lon="4.604059"><ele>0.0</ele></rtept>
    <rtept lat="52.367980" lon="4.604155"><ele>0.0</ele></rtept>
    <rtept lat="52.368112" lon="4.604157"><ele>0.0</ele></rtept>
    <rtept lat="52.368225" lon="4.604124"><ele>0.0</ele></rtept>
    <rtept lat="52.368544" lon="4.603888"><ele>0.0</ele></rtept>
    <rtept lat="52.368721" lon="4.603831"><ele>0.0</ele></rtept>
    <rtept lat="52.368843" lon="4.603839"><ele>0.0</ele></rtept>
    <rtept lat="52.368980" lon="4.604680"><ele>0.0</ele></rtept>
    <rtept lat="52.368950" lon="4.605110"><ele>0.0</ele></rtept>
    <rtept lat="52.369251" lon="4.605192"><ele>0.0</ele></rtept>
    <rtept lat="52.369256" lon="4.605283"><ele>0.0</ele></rtept>
    <rtept lat="52.369185" lon="4.605711"><ele>0.0</ele></rtept>
    <rtept lat="52.369349" lon="4.605777"><ele>0.0</ele></rtept>
    <rtept lat="52.370210" lon="4.606027"><ele>0.0</ele></rtept>
    <rtept lat="52.370164" lon="4.606558"><ele>0.0</ele></rtept>
    <rtept lat="52.370405" lon="4.606621"><ele>0.0</ele></rtept>
    <rtept lat="52.370465" lon="4.606614"><ele>0.0</ele></rtept>
    <rtept lat="52.370444" lon="4.606919"><ele>0.0</ele></rtept>
    <rtept lat="52.371059" lon="4.607195"><ele>0.0</ele></rtept>
    <rtept lat="52.371203" lon="4.607253"><ele>0.0</ele></rtept>
    <rtept lat="52.371293" lon="4.607326"><ele>0.0</ele></rtept>
    <rtept lat="52.371532" lon="4.607594"><ele>0.0</ele></rtept>
    <rtept lat="52.371562" lon="4.607624"><ele>0.0</ele></rtept>
    <rtept lat="52.371612" lon="4.607671"><ele>0.0</ele></rtept>
    <rtept lat="52.371788" lon="4.607864"><ele>0.0</ele></rtept>
    <rtept lat="52.372069" lon="4.608155"><ele>0.0</ele></rtept>
    <rtept lat="52.372258" lon="4.608272"><ele>0.0</ele></rtept>
    <rtept lat="52.372148" lon="4.609021"><ele>0.0</ele></rtept>
    <rtept lat="52.372137" lon="4.609114"><ele>0.0</ele></rtept>
    <rtept lat="52.372147" lon="4.609208"><ele>0.0</ele></rtept>
    <rtept lat="52.372227" lon="4.609290"><ele>0.0</ele></rtept>
    <rtept lat="52.372255" lon="4.609374"><ele>0.0</ele></rtept>
    <rtept lat="52.372260" lon="4.609466"><ele>0.0</ele></rtept>
    <rtept lat="52.372254" lon="4.609552"><ele>0.0</ele></rtept>
    <rtept lat="52.372226" lon="4.609636"><ele>0.0</ele></rtept>
    <rtept lat="52.372173" lon="4.609675"><ele>0.0</ele></rtept>
    <rtept lat="52.372147" lon="4.609747"><ele>0.0</ele></rtept>
    <rtept lat="52.372117" lon="4.610102"><ele>0.0</ele></rtept>
    <rtept lat="52.372119" lon="4.610243"><ele>0.0</ele></rtept>
    <rtept lat="52.372162" lon="4.610395"><ele>0.0</ele></rtept>
    <rtept lat="52.372251" lon="4.610540"><ele>0.0</ele></rtept>
    <rtept lat="52.372074" lon="4.611698"><ele>0.0</ele></rtept>
    <rtept lat="52.372020" lon="4.612014"><ele>0.0</ele></rtept>
    <rtept lat="52.371932" lon="4.612579"><ele>0.0</ele></rtept>
    <rtept lat="52.371868" lon="4.613026"><ele>0.0</ele></rtept>
    <rtept lat="52.371848" lon="4.613163"><ele>0.0</ele></rtept>
    <rtept lat="52.371776" lon="4.613673"><ele>0.0</ele></rtept>
    <rtept lat="52.371689" lon="4.613981"><ele>0.0</ele></rtept>
    <rtept lat="52.371604" lon="4.614379"><ele>0.0</ele></rtept>
    <rtept lat="52.371528" lon="4.614439"><ele>0.0</ele></rtept>
    <rtept lat="52.371487" lon="4.614514"><ele>0.0</ele></rtept>
    <rtept lat="52.371462" lon="4.614609"><ele>0.0</ele></rtept>
    <rtept lat="52.371456" lon="4.614707"><ele>0.0</ele></rtept>
    <rtept lat="52.371469" lon="4.614805"><ele>0.0</ele></rtept>
    <rtept lat="52.371508" lon="4.614910"><ele>0.0</ele></rtept>
    <rtept lat="52.371563" lon="4.614977"><ele>0.0</ele></rtept>
    <rtept lat="52.371601" lon="4.615221"><ele>0.0</ele></rtept>
    <rtept lat="52.371468" lon="4.616402"><ele>0.0</ele></rtept>
    <rtept lat="52.371404" lon="4.617017"><ele>0.0</ele></rtept>
    <rtept lat="52.371394" lon="4.617250"><ele>0.0</ele></rtept>
    <rtept lat="52.371388" lon="4.617493"><ele>0.0</ele></rtept>
    <rtept lat="52.371358" lon="4.617849"><ele>0.0</ele></rtept>
    <rtept lat="52.371345" lon="4.618067"><ele>0.0</ele></rtept>
    <rtept lat="52.371315" lon="4.618274"><ele>0.0</ele></rtept>
    <rtept lat="52.371286" lon="4.618358"><ele>0.0</ele></rtept>
    <rtept lat="52.371244" lon="4.618418"><ele>0.0</ele></rtept>
    <rtept lat="52.371219" lon="4.618459"><ele>0.0</ele></rtept>
    <rtept lat="52.371196" lon="4.618653"><ele>0.0</ele></rtept>
    <rtept lat="52.371184" lon="4.618782"><ele>0.0</ele></rtept>
    <rtept lat="52.371139" lon="4.619219"><ele>0.0</ele></rtept>
    <rtept lat="52.371129" lon="4.619661"><ele>0.0</ele></rtept>
    <rtept lat="52.370885" lon="4.621887"><ele>0.0</ele></rtept>
    <rtept lat="52.370947" lon="4.622005"><ele>0.0</ele></rtept>
    <rtept lat="52.370980" lon="4.622108"><ele>0.0</ele></rtept>
    <rtept lat="52.371089" lon="4.622609"><ele>0.0</ele></rtept>
    <rtept lat="52.371165" lon="4.623098"><ele>0.0</ele></rtept>
    <rtept lat="52.371210" lon="4.623614"><ele>0.0</ele></rtept>
    <rtept lat="52.371214" lon="4.623862"><ele>0.0</ele></rtept>
    <rtept lat="52.371195" lon="4.623931"><ele>0.0</ele></rtept>
    <rtept lat="52.371173" lon="4.623999"><ele>0.0</ele></rtept>
    <rtept lat="52.371477" lon="4.624331"><ele>0.0</ele></rtept>
    <rtept lat="52.371561" lon="4.624467"><ele>0.0</ele></rtept>
    <rtept lat="52.371639" lon="4.624586"><ele>0.0</ele></rtept>
    <rtept lat="52.371678" lon="4.624630"><ele>0.0</ele></rtept>
    <rtept lat="52.371814" lon="4.624775"><ele>0.0</ele></rtept>
    <rtept lat="52.372062" lon="4.625134"><ele>0.0</ele></rtept>
    <rtept lat="52.372246" lon="4.625422"><ele>0.0</ele></rtept>
    <rtept lat="52.372317" lon="4.625538"><ele>0.0</ele></rtept>
    <rtept lat="52.372509" lon="4.625868"><ele>0.0</ele></rtept>
    <rtept lat="52.372644" lon="4.626124"><ele>0.0</ele></rtept>
    <rtept lat="52.373058" lon="4.627054"><ele>0.0</ele></rtept>
    <rtept lat="52.373232" lon="4.627563"><ele>0.0</ele></rtept>
    <rtept lat="52.373213" lon="4.627803"><ele>0.0</ele></rtept>
    <rtept lat="52.373261" lon="4.627820"><ele>0.0</ele></rtept>
    <rtept lat="52.373301" lon="4.627905"><ele>0.0</ele></rtept>
    <rtept lat="52.373341" lon="4.628001"><ele>0.0</ele></rtept>
    <rtept lat="52.373389" lon="4.628113"><ele>0.0</ele></rtept>
    <rtept lat="52.373463" lon="4.628151"><ele>0.0</ele></rtept>
    <rtept lat="52.373624" lon="4.628453"><ele>0.0</ele></rtept>
    <rtept lat="52.373807" lon="4.629027"><ele>0.0</ele></rtept>
    <rtept lat="52.373939" lon="4.629327"><ele>0.0</ele></rtept>
    <rtept lat="52.374087" lon="4.629584"><ele>0.0</ele></rtept>
    <rtept lat="52.374265" lon="4.629824"><ele>0.0</ele></rtept>
    <rtept lat="52.374326" lon="4.630060"><ele>0.0</ele></rtept>
    <rtept lat="52.374312" lon="4.630160"><ele>0.0</ele></rtept>
    <rtept lat="52.374306" lon="4.630206"><ele>0.0</ele></rtept>
    <rtept lat="52.374269" lon="4.630445"><ele>0.0</ele></rtept>
    <rtept lat="52.374255" lon="4.630566"><ele>0.0</ele></rtept>
    <rtept lat="52.374288" lon="4.630561"><ele>0.0</ele></rtept>
    <rtept lat="52.374506" lon="4.630641"><ele>0.0</ele></rtept>
    <rtept lat="52.375108" lon="4.630860"><ele>0.0</ele></rtept>
    <rtept lat="52.375190" lon="4.630889"><ele>0.0</ele></rtept>
    <rtept lat="52.375234" lon="4.630883"><ele>0.0</ele></rtept>
    <rtept lat="52.375338" lon="4.630801"><ele>0.0</ele></rtept>
    <rtept lat="52.375380" lon="4.630802"><ele>0.0</ele></rtept>
    <rtept lat="52.375614" lon="4.630916"><ele>0.0</ele></rtept>
    <rtept lat="52.375707" lon="4.630968"><ele>0.0</ele></rtept>
    <rtept lat="52.375889" lon="4.631022"><ele>0.0</ele></rtept>
    <rtept lat="52.375883" lon="4.631107"><ele>0.0</ele></rtept>
    <rtept lat="52.375846" lon="4.632272"><ele>0.0</ele></rtept>
    <rtept lat="52.375814" lon="4.633763"><ele>0.0</ele></rtept>
    <rtept lat="52.375774" lon="4.635077"><ele>0.0</ele></rtept>
    <rtept lat="52.375773" lon="4.635192"><ele>0.0</ele></rtept>
    <rtept lat="52.375782" lon="4.635649"><ele>0.0</ele></rtept>
    <rtept lat="52.375813" lon="4.636342"><ele>0.0</ele></rtept>
    <rtept lat="52.375886" lon="4.636864"><ele>0.0</ele></rtept>
    <rtept lat="52.375966" lon="4.637197"><ele>0.0</ele></rtept>
    <rtept lat="52.376074" lon="4.637550"><ele>0.0</ele></rtept>
    <rtept lat="52.376317" lon="4.638330"><ele>0.0</ele></rtept>
    <rtept lat="52.376522" lon="4.638976"><ele>0.0</ele></rtept>
    <rtept lat="52.376551" lon="4.639068"><ele>0.0</ele></rtept>
    <rtept lat="52.376561" lon="4.639211"><ele>0.0</ele></rtept>
    <rtept lat="52.376650" lon="4.639483"><ele>0.0</ele></rtept>
    <rtept lat="52.376686" lon="4.639592"><ele>0.0</ele></rtept>
    <rtept lat="52.376679" lon="4.639726"><ele>0.0</ele></rtept>
    <rtept lat="52.376705" lon="4.639883"><ele>0.0</ele></rtept>
    <rtept lat="52.376748" lon="4.640006"><ele>0.0</ele></rtept>
    <rtept lat="52.376800" lon="4.640108"><ele>0.0</ele></rtept>
    <rtept lat="52.376903" lon="4.640469"><ele>0.0</ele></rtept>
    <rtept lat="52.376929" lon="4.640610"><ele>0.0</ele></rtept>
    <rtept lat="52.376921" lon="4.640746"><ele>0.0</ele></rtept>
    <rtept lat="52.376885" lon="4.640861"><ele>0.0</ele></rtept>
    <rtept lat="52.376868" lon="4.640911"><ele>0.0</ele></rtept>
    <rtept lat="52.376775" lon="4.641220"><ele>0.0</ele></rtept>
    <rtept lat="52.376619" lon="4.641629"><ele>0.0</ele></rtept>
    <rtept lat="52.376608" lon="4.641650"><ele>0.0</ele></rtept>
    <rtept lat="52.376545" lon="4.641791"><ele>0.0</ele></rtept>
    <rtept lat="52.376524" lon="4.641840"><ele>0.0</ele></rtept>
    <rtept lat="52.376589" lon="4.641908"><ele>0.0</ele></rtept>
    <rtept lat="52.376654" lon="4.641984"><ele>0.0</ele></rtept>
    <rtept lat="52.376696" lon="4.642032"><ele>0.0</ele></rtept>
    <rtept lat="52.377250" lon="4.642716"><ele>0.0</ele></rtept>
    <rtept lat="52.377305" lon="4.642858"><ele>0.0</ele></rtept>
    <rtept lat="52.377605" lon="4.643211"><ele>0.0</ele></rtept>
    <rtept lat="52.377671" lon="4.643291"><ele>0.0</ele></rtept>
    <rtept lat="52.378469" lon="4.644264"><ele>0.0</ele></rtept>
    <rtept lat="52.378668" lon="4.644518"><ele>0.0</ele></rtept>
    <rtept lat="52.379073" lon="4.645010"><ele>0.0</ele></rtept>
    <rtept lat="52.379406" lon="4.645413"><ele>0.0</ele></rtept>
    <rtept lat="52.379514" lon="4.645479"><ele>0.0</ele></rtept>
    <rtept lat="52.379859" lon="4.645889"><ele>0.0</ele></rtept>
    <rtept lat="52.379913" lon="4.645916"><ele>0.0</ele></rtept>
    <rtept lat="52.379996" lon="4.646014"><ele>0.0</ele></rtept>
    <rtept lat="52.380030" lon="4.646089"><ele>0.0</ele></rtept>
    <rtept lat="52.380083" lon="4.646212"><ele>0.0</ele></rtept>
    <rtept lat="52.380098" lon="4.646273"><ele>0.0</ele></rtept>
    <rtept lat="52.380116" lon="4.646366"><ele>0.0</ele></rtept>
    <rtept lat="52.380151" lon="4.646527"><ele>0.0</ele></rtept>
    <rtept lat="52.380227" lon="4.646733"><ele>0.0</ele></rtept>
    <rtept lat="52.380357" lon="4.646948"><ele>0.0</ele></rtept>
    <rtept lat="52.380520" lon="4.647127"><ele>0.0</ele></rtept>
    <rtept lat="52.380640" lon="4.647194"><ele>0.0</ele></rtept>
    <rtept lat="52.380661" lon="4.647204"><ele>0.0</ele></rtept>
    <rtept lat="52.380732" lon="4.647268"><ele>0.0</ele></rtept>
    <rtept lat="52.380781" lon="4.647736"><ele>0.0</ele></rtept>
    <rtept lat="52.380897" lon="4.649517"><ele>0.0</ele></rtept>
    <rtept lat="52.380980" lon="4.650628"><ele>0.0</ele></rtept>
    <rtept lat="52.381040" lon="4.651485"><ele>0.0</ele></rtept>
    <rtept lat="52.381072" lon="4.651605"><ele>0.0</ele></rtept>
    <rtept lat="52.381077" lon="4.651687"><ele>0.0</ele></rtept>
    <rtept lat="52.381088" lon="4.651857"><ele>0.0</ele></rtept>
    <rtept lat="52.381094" lon="4.651953"><ele>0.0</ele></rtept>
    <rtept lat="52.381116" lon="4.652258"><ele>0.0</ele></rtept>
    <rtept lat="52.381101" lon="4.652362"><ele>0.0</ele></rtept>
    <rtept lat="52.381150" lon="4.653204"><ele>0.0</ele></rtept>
    <rtept lat="52.381190" lon="4.653990"><ele>0.0</ele></rtept>
    <rtept lat="52.381231" lon="4.654729"><ele>0.0</ele></rtept>
    <rtept lat="52.381310" lon="4.656180"><ele>0.0</ele></rtept>
    <rtept lat="52.380706" lon="4.656253"><ele>0.0</ele></rtept>
    <rtept lat="52.380732" lon="4.656719"><ele>0.0</ele></rtept>
    <rtept lat="52.380781" lon="4.657535"><ele>0.0</ele></rtept>
    <rtept lat="52.380803" lon="4.657858"><ele>0.0</ele></rtept>
    <rtept lat="52.380041" lon="4.657887"><ele>0.0</ele></rtept>
    <rtept lat="52.380029" lon="4.657510"><ele>0.0</ele></rtept>
  </rte>
</gpx>