<?xml version="1.0" encoding="UTF-8"?>
<gpx version="1.1" creator="WeeklyCyclingRoutes"
  xmlns="http://www.topografix.com/GPX/1/1"
  xmlns:xsi="http://www.w3.org/2001/XMLSchema-instance"
  xsi:schemaLocation="http://www.topografix.com/GPX/1/1 http://www.topografix.com/GPX/1/1/gpx.xsd">
  <metadata>
    <name>20km Route – August 03, 2026</name>
    <desc>Round trip from Cremerstraat, Haarlem. Actual: 20.6km</desc>
    <time>2026-08-03T09:31:58Z</time>
  </metadata>
  <rte>
    <name>20km Cycling Route – Haarlem</name>
    <rtept lat="52.380029" lon="4.657510"><ele>0.0</ele></rtept>
    <rtept lat="52.380041" lon="4.657887"><ele>0.0</ele></rtept>
    <rtept lat="52.380803" lon="4.657858"><ele>0.0</ele></rtept>
    <rtept lat="52.380868" lon="4.658723"><ele>0.0</ele></rtept>
    <rtept lat="52.380937" lon="4.659581"><ele>0.0</ele></rtept>
    <rtept lat="52.380949" lon="4.659839"><ele>0.0</ele></rtept>
    <rtept lat="52.381009" lon="4.660558"><ele>0.0</ele></rtept>
    <rtept lat="52.381028" lon="4.660835"><ele>0.0</ele></rtept>
    <rtept lat="52.381037" lon="4.661040"><ele>0.0</ele></rtept>
    <rtept lat="52.381073" lon="4.661219"><ele>0.0</ele></rtept>
    <rtept lat="52.381131" lon="4.661312"><ele>0.0</ele></rtept>
    <rtept lat="52.381231" lon="4.661355"><ele>0.0</ele></rtept>
    <rtept lat="52.381374" lon="4.661421"><ele>0.0</ele></rtept>
    <rtept lat="52.381476" lon="4.661472"><ele>0.0</ele></rtept>
    <rtept lat="52.381559" lon="4.661512"><ele>0.0</ele></rtept>
    <rtept lat="52.381630" lon="4.661848"><ele>0.0</ele></rtept>
    <rtept lat="52.381994" lon="4.666423"><ele>0.0</ele></rtept>
    <rtept lat="52.382083" lon="4.668033"><ele>0.0</ele></rtept>
    <rtept lat="52.382126" lon="4.668888"><ele>0.0</ele></rtept>
    <rtept lat="52.382081" lon="4.669001"><ele>0.0</ele></rtept>
    <rtept lat="52.381821" lon="4.669146"><ele>0.0</ele></rtept>
    <rtept lat="52.381681" lon="4.669329"><ele>0.0</ele></rtept>
    <rtept lat="52.381642" lon="4.669425"><ele>0.0</ele></rtept>
    <rtept lat="52.381600" lon="4.669560"><ele>0.0</ele></rtept>
    <rtept lat="52.381583" lon="4.669749"><ele>0.0</ele></rtept>
    <rtept lat="52.381603" lon="4.670462"><ele>0.0</ele></rtept>
    <rtept lat="52.381614" lon="4.670649"><ele>0.0</ele></rtept>
    <rtept lat="52.381628" lon="4.670879"><ele>0.0</ele></rtept>
    <rtept lat="52.381633" lon="4.670943"><ele>0.0</ele></rtept>
    <rtept lat="52.381643" lon="4.671069"><ele>0.0</ele></rtept>
    <rtept lat="52.381680" lon="4.672064"><ele>0.0</ele></rtept>
    <rtept lat="52.381694" lon="4.672099"><ele>0.0</ele></rtept>
    <rtept lat="52.381725" lon="4.672127"><ele>0.0</ele></rtept>
    <rtept lat="52.382021" lon="4.672080"><ele>0.0</ele></rtept>
    <rtept lat="52.382061" lon="4.672121"><ele>0.0</ele></rtept>
    <rtept lat="52.382102" lon="4.672635"><ele>0.0</ele></rtept>
    <rtept lat="52.382112" lon="4.672675"><ele>0.0</ele></rtept>
    <rtept lat="52.382158" lon="4.672706"><ele>0.0</ele></rtept>
    <rtept lat="52.382322" lon="4.672671"><ele>0.0</ele></rtept>
    <rtept lat="52.382359" lon="4.672730"><ele>0.0</ele></rtept>
    <rtept lat="52.382403" lon="4.673346"><ele>0.0</ele></rtept>
    <rtept lat="52.382439" lon="4.674017"><ele>0.0</ele></rtept>
    <rtept lat="52.382415" lon="4.674893"><ele>0.0</ele></rtept>
    <rtept lat="52.382414" lon="4.675667"><ele>0.0</ele></rtept>
    <rtept lat="52.382460" lon="4.676615"><ele>0.0</ele></rtept>
    <rtept lat="52.382526" lon="4.677270"><ele>0.0</ele></rtept>
    <rtept lat="52.382742" lon="4.678856"><ele>0.0</ele></rtept>
    <rtept lat="52.382873" lon="4.679976"><ele>0.0</ele></rtept>
    <rtept lat="52.382884" lon="4.680313"><ele>0.0</ele></rtept>
    <rtept lat="52.382870" lon="4.680472"><ele>0.0</ele></rtept>
    <rtept lat="52.382828" lon="4.680840"><ele>0.0</ele></rtept>
    <rtept lat="52.382791" lon="4.681123"><ele>0.0</ele></rtept>
    <rtept lat="52.382746" lon="4.681586"><ele>0.0</ele></rtept>
    <rtept lat="52.382747" lon="4.681843"><ele>0.0</ele></rtept>
    <rtept lat="52.382770" lon="4.682133"><ele>0.0</ele></rtept>
    <rtept lat="52.382810" lon="4.682410"><ele>0.0</ele></rtept>
    <rtept lat="52.382875" lon="4.682698"><ele>0.0</ele></rtept>
    <rtept lat="52.382992" lon="4.683096"><ele>0.0</ele></rtept>
    <rtept lat="52.383033" lon="4.683302"><ele>0.0</ele></rtept>
    <rtept lat="52.383222" lon="4.685672"><ele>0.0</ele></rtept>
    <rtept lat="52.383273" lon="4.686379"><ele>0.0</ele></rtept>
    <rtept lat="52.383293" lon="4.687046"><ele>0.0</ele></rtept>
    <rtept lat="52.383324" lon="4.688063"><ele>0.0</ele></rtept>
    <rtept lat="52.383362" lon="4.688525"><ele>0.0</ele></rtept>
    <rtept lat="52.383439" lon="4.688509"><ele>0.0</ele></rtept>
    <rtept lat="52.383572" lon="4.688479"><ele>0.0</ele></rtept>
    <rtept lat="52.383819" lon="4.688425"><ele>0.0</ele></rtept>
    <rtept lat="52.384124" lon="4.688398"><ele>0.0</ele></rtept>
    <rtept lat="52.384373" lon="4.688449"><ele>0.0</ele></rtept>
    <rtept lat="52.384559" lon="4.688483"><ele>0.0</ele></rtept>
    <rtept lat="52.384872" lon="4.688607"><ele>0.0</ele></rtept>
    <rtept lat="52.385818" lon="4.689128"><ele>0.0</ele></rtept>
    <rtept lat="52.386704" lon="4.689642"><ele>0.0</ele></rtept>
    <rtept lat="52.387159" lon="4.689955"><ele>0.0</ele></rtept>
    <rtept lat="52.387361" lon="4.690070"><ele>0.0</ele></rtept>
    <rtept lat="52.387878" lon="4.690005"><ele>0.0</ele></rtept>
    <rtept lat="52.388370" lon="4.689865"><ele>0.0</ele></rtept>
    <rtept lat="52.388533" lon="4.689775"><ele>0.0</ele></rtept>
    <rtept lat="52.388662" lon="4.689675"><ele>0.0</ele></rtept>
    <rtept lat="52.388794" lon="4.690032"><ele>0.0</ele></rtept>
    <rtept lat="52.388864" lon="4.690121"><ele>0.0</ele></rtept>
    <rtept lat="52.389050" lon="4.690288"><ele>0.0</ele></rtept>
    <rtept lat="52.389117" lon="4.690395"><ele>0.0</ele></rtept>
    <rtept lat="52.389500" lon="4.691227"><ele>0.0</ele></rtept>
    <rtept lat="52.389954" lon="4.692249"><ele>0.0</ele></rtept>
    <rtept lat="52.390237" lon="4.692794"><ele>0.0</ele></rtept>
    <rtept lat="52.390348" lon="4.693115"><ele>0.0</ele></rtept>
    <rtept lat="52.390509" lon="4.693483"><ele>0.0</ele></rtept>
    <rtept lat="52.391195" lon="4.695199"><ele>0.0</ele></rtept>
    <rtept lat="52.391261" lon="4.695477"><ele>0.0</ele></rtept>
    <rtept lat="52.391299" lon="4.696174"><ele>0.0</ele></rtept>
    <rtept lat="52.391320" lon="4.696306"><ele>0.0</ele></rtept>
    <rtept lat="52.391444" lon="4.696620"><ele>0.0</ele></rtept>
    <rtept lat="52.391501" lon="4.696751"><ele>0.0</ele></rtept>
    <rtept lat="52.391514" lon="4.696778"><ele>0.0</ele></rtept>
    <rtept lat="52.391728" lon="4.697200"><ele>0.0</ele></rtept>
    <rtept lat="52.391996" lon="4.697504"><ele>0.0</ele></rtept>
    <rtept lat="52.392359" lon="4.698023"><ele>0.0</ele></rtept>
    <rtept lat="52.392766" lon="4.698315"><ele>0.0</ele></rtept>
    <rtept lat="52.393320" lon="4.698578"><ele>0.0</ele></rtept>
    <rtept lat="52.393595" lon="4.698658"><ele>0.0</ele></rtept>
    <rtept lat="52.393700" lon="4.698711"><ele>0.0</ele></rtept>
    <rtept lat="52.393930" lon="4.698952"><ele>0.0</ele></rtept>
    <rtept lat="52.394120" lon="4.699301"><ele>0.0</ele></rtept>
    <rtept lat="52.394692" lon="4.700756"><ele>0.0</ele></rtept>
    <rtept lat="52.394790" lon="4.701055"><ele>0.0</ele></rtept>
    <rtept lat="52.395033" lon="4.701508"><ele>0.0</ele></rtept>
    <rtept lat="52.395139" lon="4.701781"><ele>0.0</ele></rtept>
    <rtept lat="52.395244" lon="4.701903"><ele>0.0</ele></rtept>
    <rtept lat="52.395297" lon="4.701918"><ele>0.0</ele></rtept>
    <rtept lat="52.395774" lon="4.701856"><ele>0.0</ele></rtept>
    <rtept lat="52.395901" lon="4.701805"><ele>0.0</ele></rtept>
    <rtept lat="52.399380" lon="4.697956"><ele>0.0</ele></rtept>
    <rtept lat="52.399555" lon="4.698150"><ele>0.0</ele></rtept>
    <rtept lat="52.399936" lon="4.698891"><ele>0.0</ele></rtept>
    <rtept lat="52.400048" lon="4.699020"><ele>0.0</ele></rtept>
    <rtept lat="52.400171" lon="4.699111"><ele>0.0</ele></rtept>
    <rtept lat="52.400317" lon="4.699168"><ele>0.0</ele></rtept>
    <rtept lat="52.400451" lon="4.699157"><ele>0.0</ele></rtept>
    <rtept lat="52.400735" lon="4.699050"><ele>0.0</ele></rtept>
    <rtept lat="52.400827" lon="4.698986"><ele>0.0</ele></rtept>
    <rtept lat="52.401579" lon="4.698277"><ele>0.0</ele></rtept>
    <rtept lat="52.402554" lon="4.697120"><ele>0.0</ele></rtept>
    <rtept lat="52.403483" lon="4.696002"><ele>0.0</ele></rtept>
    <rtept lat="52.403495" lon="4.695937"><ele>0.0</ele></rtept>
    <rtept lat="52.403450" lon="4.695761"><ele>0.0</ele></rtept>
    <rtept lat="52.403396" lon="4.695727"><ele>0.0</ele></rtept>
    <rtept lat="52.403398" lon="4.695636"><ele>0.0</ele></rtept>
    <rtept lat="52.403403" lon="4.695537"><ele>0.0</ele></rtept>
    <rtept lat="52.403405" lon="4.695492"><ele>0.0</ele></rtept>
    <rtept lat="52.403720" lon="4.695490"><ele>0.0</ele></rtept>
    <rtept lat="52.403869" lon="4.695577"><ele>0.0</ele></rtept>
    <rtept lat="52.403989" lon="4.695757"><ele>0.0</ele></rtept>
    <rtept lat="52.404204" lon="4.696155"><ele>0.0</ele></rtept>
    <rtept lat="52.404489" lon="4.696691"><ele>0.0</ele></rtept>
    <rtept lat="52.404934" lon="4.697680"><ele>0.0</ele></rtept>
    <rtept lat="52.405117" lon="4.698034"><ele>0.0</ele></rtept>
    <rtept lat="52.405217" lon="4.698284"><ele>0.0</ele></rtept>
    <rtept lat="52.405833" lon="4.700193"><ele>0.0</ele></rtept>
    <rtept lat="52.406529" lon="4.701400"><ele>0.0</ele></rtept>
    <rtept lat="52.406470" lon="4.701573"><ele>0.0</ele></rtept>
    <rtept lat="52.406379" lon="4.701766"><ele>0.0</ele></rtept>
    <rtept lat="52.405766" lon="4.702701"><ele>0.0</ele></rtept>
    <rtept lat="52.405693" lon="4.702859"><ele>0.0</ele></rtept>
    <rtept lat="52.405615" lon="4.703072"><ele>0.0</ele></rtept>
    <rtept lat="52.405416" lon="4.703627"><ele>0.0</ele></rtept>
    <rtept lat="52.405298" lon="4.704057"><ele>0.0</ele></rtept>
    <rtept lat="52.405283" lon="4.704130"><ele>0.0</ele></rtept>
    <rtept lat="52.405257" lon="4.704256"><ele>0.0</ele></rtept>
    <rtept lat="52.404903" lon="4.705927"><ele>0.0</ele></rtept>
    <rtept lat="52.403640" lon="4.709453"><ele>0.0</ele></rtept>
    <rtept lat="52.403431" lon="4.710104"><ele>0.0</ele></rtept>
    <rtept lat="52.403400" lon="4.710324"><ele>0.0</ele></rtept>
    <rtept lat="52.403402" lon="4.710475"><ele>0.0</ele></rtept>
    <rtept lat="52.403547" lon="4.711206"><ele>0.0</ele></rtept>
    <rtept lat="52.403562" lon="4.711434"><ele>0.0</ele></rtept>
    <rtept lat="52.403550" lon="4.711657"><ele>0.0</ele></rtept>
    <rtept lat="52.403555" lon="4.711906"><ele>0.0</ele></rtept>
    <rtept lat="52.403522" lon="4.712372"><ele>0.0</ele></rtept>
    <rtept lat="52.403538" lon="4.712537"><ele>0.0</ele></rtept>
    <rtept lat="52.404536" lon="4.714930"><ele>0.0</ele></rtept>
    <rtept lat="52.404598" lon="4.715020"><ele>0.0</ele></rtept>
    <rtept lat="52.404729" lon="4.715120"><ele>0.0</ele></rtept>
    <rtept lat="52.404974" lon="4.715228"><ele>0.0</ele></rtept>
    <rtept lat="52.405036" lon="4.715237"><ele>0.0</ele></rtept>
    <rtept lat="52.405318" lon="4.715298"><ele>0.0</ele></rtept>
    <rtept lat="52.405530" lon="4.715254"><ele>0.0</ele></rtept>
    <rtept lat="52.405707" lon="4.715199"><ele>0.0</ele></rtept>
    <rtept lat="52.405882" lon="4.715222"><ele>0.0</ele></rtept>
    <rtept lat="52.406003" lon="4.715284"><ele>0.0</ele></rtept>
    <rtept lat="52.406172" lon="4.715457"><ele>0.0</ele></rtept>
    <rtept lat="52.407461" lon="4.717243"><ele>0.0</ele></rtept>
    <rtept lat="52.407791" lon="4.717798"><ele>0.0</ele></rtept>
    <rtept lat="52.408007" lon="4.718213"><ele>0.0</ele></rtept>
    <rtept lat="52.408435" lon="4.719071"><ele>0.0</ele></rtept>
    <rtept lat="52.408556" lon="4.719259"><ele>0.0</ele></rtept>
    <rtept lat="52.408678" lon="4.719392"><ele>0.0</ele></rtept>
    <rtept lat="52.408812" lon="4.719450"><ele>0.0</ele></rtept>
    <rtept lat="52.409224" lon="4.719460"><ele>0.0</ele></rtept>
    <rtept lat="52.409386" lon="4.719497"><ele>0.0</ele></rtept>
    <rtept lat="52.409535" lon="4.719572"><ele>0.0</ele></rtept>
    <rtept lat="52.409799" lon="4.719740"><ele>0.0</ele></rtept>
    <rtept lat="52.409982" lon="4.719914"><ele>0.0</ele></rtept>
    <rtept lat="52.410224" lon="4.720065"><ele>0.0</ele></rtept>
    <rtept lat="52.410452" lon="4.720257"><ele>0.0</ele></rtept>
    <rtept lat="52.410914" lon="4.720797"><ele>0.0</ele></rtept>
    <rtept lat="52.411154" lon="4.721275"><ele>0.0</ele></rtept>
    <rtept lat="52.411455" lon="4.721709"><ele>0.0</ele></rtept>
    <rtept lat="52.411632" lon="4.721908"><ele>0.0</ele></rtept>
    <rtept lat="52.411849" lon="4.722038"><ele>0.0</ele></rtept>
    <rtept lat="52.412204" lon="4.722138"><ele>0.0</ele></rtept>
    <rtept lat="52.412320" lon="4.722217"><ele>0.0</ele></rtept>
    <rtept lat="52.412384" lon="4.722297"><ele>0.0</ele></rtept>
    <rtept lat="52.412438" lon="4.722414"><ele>0.0</ele></rtept>
    <rtept lat="52.412470" lon="4.722533"><ele>0.0</ele></rtept>
    <rtept lat="52.412582" lon="4.723083"><ele>0.0</ele></rtept>
    <rtept lat="52.412780" lon="4.723719"><ele>0.0</ele></rtept>
    <rtept lat="52.412779" lon="4.723828"><ele>0.0</ele></rtept>
    <rtept lat="52.412744" lon="4.724016"><ele>0.0</ele></rtept>
    <rtept lat="52.412663" lon="4.724100"><ele>0.0</ele></rtept>
    <rtept lat="52.412632" lon="4.724219"><ele>0.0</ele></rtept>
    <rtept lat="52.411642" lon="4.731958"><ele>0.0</ele></rtept>
    <rtept lat="52.411557" lon="4.732612"><ele>0.0</ele></rtept>
    <rtept lat="52.411551" lon="4.732655"><ele>0.0</ele></rtept>
    <rtept lat="52.411527" lon="4.732849"><ele>0.0</ele></rtept>
    <rtept lat="52.411514" lon="4.732950"><ele>0.0</ele></rtept>
    <rtept lat="52.411197" lon="4.735466"><ele>0.0</ele></rtept>
    <rtept lat="52.411179" lon="4.735529"><ele>0.0</ele></rtept>
    <rtept lat="52.411095" lon="4.735676"><ele>0.0</ele></rtept>
    <rtept lat="52.411036" lon="4.735769"><ele>0.0</ele></rtept>
    <rtept lat="52.411110" lon="4.735975"><ele>0.0</ele></rtept>
    <rtept lat="52.411133" lon="4.736126"><ele>0.0</ele></rtept>
    <rtept lat="52.411452" lon="4.739041"><ele>0.0</ele></rtept>
    <rtept lat="52.411428" lon="4.739502"><ele>0.0</ele></rtept>
    <rtept lat="52.411412" lon="4.739580"><ele>0.0</ele></rtept>
    <rtept lat="52.411353" lon="4.739711"><ele>0.0</ele></rtept>
    <rtept lat="52.411357" lon="4.739851"><ele>0.0</ele></rtept>
    <rtept lat="52.411375" lon="4.740003"><ele>0.0</ele></rtept>
    <rtept lat="52.411420" lon="4.740392"><ele>0.0</ele></rtept>
    <rtept lat="52.411435" lon="4.740514"><ele>0.0</ele></rtept>
    <rtept lat="52.411696" lon="4.740675"><ele>0.0</ele></rtept>
    <rtept lat="52.411735" lon="4.740966"><ele>0.0</ele></rtept>
    <rtept lat="52.411810" lon="4.741051"><ele>0.0</ele></rtept>
    <rtept lat="52.411852" lon="4.741055"><ele>0.0</ele></rtept>
    <rtept lat="52.411893" lon="4.741059"><ele>0.0</ele></rtept>
    <rtept lat="52.414590" lon="4.740268"><ele>0.0</ele></rtept>
    <rtept lat="52.411893" lon="4.741059"><ele>0.0</ele></rtept>
    <rtept lat="52.411852" lon="4.741055"><ele>0.0</ele></rtept>
    <rtept lat="52.411810" lon="4.741051"><ele>0.0</ele></rtept>
    <rtept lat="52.411735" lon="4.740966"><ele>0.0</ele></rtept>
    <rtept lat="52.411696" lon="4.740675"><ele>0.0</ele></rtept>
    <rtept lat="52.411653" lon="4.740321"><ele>0.0</ele></rtept>
    <rtept lat="52.411609" lon="4.739930"><ele>0.0</ele></rtept>
    <rtept lat="52.411594" lon="4.739776"><ele>0.0</ele></rtept>
    <rtept lat="52.411357" lon="4.739851"><ele>0.0</ele></rtept>
    <rtept lat="52.409575" lon="4.740408"><ele>0.0</ele></rtept>
    <rtept lat="52.409262" lon="4.740595"><ele>0.0</ele></rtept>
    <rtept lat="52.409059" lon="4.740765"><ele>0.0</ele></rtept>
    <rtept lat="52.408831" lon="4.741047"><ele>0.0</ele></rtept>
    <rtept lat="52.408608" lon="4.741413"><ele>0.0</ele></rtept>
    <rtept lat="52.408450" lon="4.741733"><ele>0.0</ele></rtept>
    <rtept lat="52.408320" lon="4.742071"><ele>0.0</ele></rtept>
    <rtept lat="52.408248" lon="4.742390"><ele>0.0</ele></rtept>
    <rtept lat="52.407999" lon="4.744079"><ele>0.0</ele></rtept>
    <rtept lat="52.407986" lon="4.744183"><ele>0.0</ele></rtept>
    <rtept lat="52.407955" lon="4.744411"><ele>0.0</ele></rtept>
    <rtept lat="52.407473" lon="4.748126"><ele>0.0</ele></rtept>
    <rtept lat="52.407417" lon="4.748112"><ele>0.0</ele></rtept>
    <rtept lat="52.407033" lon="4.748008"><ele>0.0</ele></rtept>
    <rtept lat="52.406891" lon="4.748011"><ele>0.0</ele></rtept>
    <rtept lat="52.404891" lon="4.747321"><ele>0.0</ele></rtept>
    <rtept lat="52.404668" lon="4.747281"><ele>0.0</ele></rtept>
    <rtept lat="52.404492" lon="4.747339"><ele>0.0</ele></rtept>
    <rtept lat="52.404240" lon="4.747470"><ele>0.0</ele></rtept>
    <rtept lat="52.403430" lon="4.747823"><ele>0.0</ele></rtept>
    <rtept lat="52.403252" lon="4.747865"><ele>0.0</ele></rtept>
    <rtept lat="52.402951" lon="4.747827"><ele>0.0</ele></rtept>
    <rtept lat="52.402480" lon="4.747654"><ele>0.0</ele></rtept>
    <rtept lat="52.402442" lon="4.747642"><ele>0.0</ele></rtept>
    <rtept lat="52.402194" lon="4.747554"><ele>0.0</ele></rtept>
    <rtept lat="52.399960" lon="4.746771"><ele>0.0</ele></rtept>
    <rtept lat="52.399854" lon="4.746735"><ele>0.0</ele></rtept>
    <rtept lat="52.399539" lon="4.746627"><ele>0.0</ele></rtept>
    <rtept lat="52.399524" lon="4.746621"><ele>0.0</ele></rtept>
    <rtept lat="52.399474" lon="4.746604"><ele>0.0</ele></rtept>
    <rtept lat="52.398914" lon="4.746412"><ele>0.0</ele></rtept>
    <rtept lat="52.398513" lon="4.746274"><ele>0.0</ele></rtept>
    <rtept lat="52.398240" lon="4.746179"><ele>0.0</ele></rtept>
    <rtept lat="52.397010" lon="4.745758"><ele>0.0</ele></rtept>
    <rtept lat="52.396961" lon="4.745725"><ele>0.0</ele></rtept>
    <rtept lat="52.396748" lon="4.745559"><ele>0.0</ele></rtept>
    <rtept lat="52.396515" lon="4.745321"><ele>0.0</ele></rtept>
    <rtept lat="52.396208" lon="4.745005"><ele>0.0</ele></rtept>
    <rtept lat="52.395695" lon="4.744795"><ele>0.0</ele></rtept>
    <rtept lat="52.395639" lon="4.744772"><ele>0.0</ele></rtept>
    <rtept lat="52.395580" lon="4.744787"><ele>0.0</ele></rtept>
    <rtept lat="52.395377" lon="4.744850"><ele>0.0</ele></rtept>
    <rtept lat="52.394850" lon="4.744828"><ele>0.0</ele></rtept>
    <rtept lat="52.394211" lon="4.744735"><ele>0.0</ele></rtept>
    <rtept lat="52.393611" lon="4.744672"><ele>0.0</ele></rtept>
    <rtept lat="52.393487" lon="4.744658"><ele>0.0</ele></rtept>
    <rtept lat="52.393440" lon="4.744642"><ele>0.0</ele></rtept>
    <rtept lat="52.393223" lon="4.744625"><ele>0.0</ele></rtept>
    <rtept lat="52.392929" lon="4.744727"><ele>0.0</ele></rtept>
    <rtept lat="52.391888" lon="4.745539"><ele>0.0</ele></rtept>
    <rtept lat="52.391791" lon="4.745552"><ele>0.0</ele></rtept>
    <rtept lat="52.391620" lon="4.745526"><ele>0.0</ele></rtept>
    <rtept lat="52.391169" lon="4.745288"><ele>0.0</ele></rtept>
    <rtept lat="52.390994" lon="4.745156"><ele>0.0</ele></rtept>
    <rtept lat="52.390757" lon="4.745475"><ele>0.0</ele></rtept>
    <rtept lat="52.390638" lon="4.745638"><ele>0.0</ele></rtept>
    <rtept lat="52.390447" lon="4.746038"><ele>0.0</ele></rtept>
    <rtept lat="52.390240" lon="4.746321"><ele>0.0</ele></rtept>
    <rtept lat="52.390183" lon="4.746313"><ele>0.0</ele></rtept>
    <rtept lat="52.390122" lon="4.746262"><ele>0.0</ele></rtept>
    <rtept lat="52.389958" lon="4.746154"><ele>0.0</ele></rtept>
    <rtept lat="52.389918" lon="4.746113"><ele>0.0</ele></rtept>
    <rtept lat="52.389823" lon="4.745848"><ele>0.0</ele></rtept>
    <rtept lat="52.389772" lon="4.745779"><ele>0.0</ele></rtept>
    <rtept lat="52.389718" lon="4.745751"><ele>0.0</ele></rtept>
    <rtept lat="52.389564" lon="4.745717"><ele>0.0</ele></rtept>
    <rtept lat="52.389234" lon="4.745725"><ele>0.0</ele></rtept>
    <rtept lat="52.389142" lon="4.745709"><ele>0.0</ele></rtept>
    <rtept lat="52.389116" lon="4.745658"><ele>0.0</ele></rtept>
    <rtept lat="52.389102" lon="4.745610"><ele>0.0</ele></rtept>
    <rtept lat="52.389025" lon="4.744610"><ele>0.0</ele></rtept>
    <rtept lat="52.388880" lon="4.744087"><ele>0.0</ele></rtept>
    <rtept lat="52.388692" lon="4.743760"><ele>0.0</ele></rtept>
    <rtept lat="52.388453" lon="4.743478"><ele>0.0</ele></rtept>
    <rtept lat="52.388207" lon="4.743369"><ele>0.0</ele></rtept>
    <rtept lat="52.387947" lon="4.743357"><ele>0.0</ele></rtept>
    <rtept lat="52.387719" lon="4.743362"><ele>0.0</ele></rtept>
    <rtept lat="52.387585" lon="4.743419"><ele>0.0</ele></rtept>
    <rtept lat="52.387422" lon="4.743669"><ele>0.0</ele></rtept>
    <rtept lat="52.387205" lon="4.743893"><ele>0.0</ele></rtept>
    <rtept lat="52.387003" lon="4.744062"><ele>0.0</ele></rtept>
    <rtept lat="52.386659" lon="4.744317"><ele>0.0</ele></rtept>
    <rtept lat="52.386598" lon="4.744313"><ele>0.0</ele></rtept>
    <rtept lat="52.386493" lon="4.744495"><ele>0.0</ele></rtept>
    <rtept lat="52.386337" lon="4.744446"><ele>0.0</ele></rtept>
    <rtept lat="52.386260" lon="4.744356"><ele>0.0</ele></rtept>
    <rtept lat="52.386252" lon="4.743983"><ele>0.0</ele></rtept>
    <rtept lat="52.386361" lon="4.743293"><ele>0.0</ele></rtept>
    <rtept lat="52.386360" lon="4.743213"><ele>0.0</ele></rtept>
    <rtept lat="52.386322" lon="4.743165"><ele>0.0</ele></rtept>
    <rtept lat="52.386286" lon="4.743120"><ele>0.0</ele></rtept>
    <rtept lat="52.386618" lon="4.741284"><ele>0.0</ele></rtept>
    <rtept lat="52.386655" lon="4.741013"><ele>0.0</ele></rtept>
    <rtept lat="52.386636" lon="4.740800"><ele>0.0</ele></rtept>
    <rtept lat="52.386550" lon="4.740487"><ele>0.0</ele></rtept>
    <rtept lat="52.386653" lon="4.739642"><ele>0.0</ele></rtept>
    <rtept lat="52.386667" lon="4.739400"><ele>0.0</ele></rtept>
    <rtept lat="52.386767" lon="4.739253"><ele>0.0</ele></rtept>
    <rtept lat="52.386770" lon="4.738993"><ele>0.0</ele></rtept>
    <rtept lat="52.386959" lon="4.738404"><ele>0.0</ele></rtept>
    <rtept lat="52.387074" lon="4.737006"><ele>0.0</ele></rtept>
    <rtept lat="52.387072" lon="4.736694"><ele>0.0</ele></rtept>
    <rtept lat="52.387044" lon="4.736528"><ele>0.0</ele></rtept>
    <rtept lat="52.386978" lon="4.736347"><ele>0.0</ele></rtept>
    <rtept lat="52.386867" lon="4.736211"><ele>0.0</ele></rtept>
    <rtept lat="52.386738" lon="4.736139"><ele>0.0</ele></rtept>
    <rtept lat="52.386431" lon="4.736098"><ele>0.0</ele></rtept>
    <rtept lat="52.386397" lon="4.736136"><ele>0.0</ele></rtept>
    <rtept lat="52.386371" lon="4.736265"><ele>0.0</ele></rtept>
    <rtept lat="52.386263" lon="4.736282"><ele>0.0</ele></rtept>
    <rtept lat="52.386201" lon="4.736332"><ele>0.0</ele></rtept>
    <rtept lat="52.385888" lon="4.735793"><ele>0.0</ele></rtept>
    <rtept lat="52.385848" lon="4.735609"><ele>0.0</ele></rtept>
    <rtept lat="52.385850" lon="4.735542"><ele>0.0</ele></rtept>
    <rtept lat="52.385982" lon="4.734924"><ele>0.0</ele></rtept>
    <rtept lat="52.386163" lon="4.734377"><ele>0.0</ele></rtept>
    <rtept lat="52.386173" lon="4.734304"><ele>0.0</ele></rtept>
    <rtept lat="52.386150" lon="4.734185"><ele>0.0</ele></rtept>
    <rtept lat="52.386173" lon="4.734058"><ele>0.0</ele></rtept>
    <rtept lat="52.386188" lon="4.733959"><ele>0.0</ele></rtept>
    <rtept lat="52.386227" lon="4.733787"><ele>0.0</ele></rtept>
    <rtept lat="52.386268" lon="4.733732"><ele>0.0</ele></rtept>
    <rtept lat="52.386291" lon="4.733661"><ele>0.0</ele></rtept>
    <rtept lat="52.386385" lon="4.732958"><ele>0.0</ele></rtept>
    <rtept lat="52.386455" lon="4.732206"><ele>0.0</ele></rtept>
    <rtept lat="52.386479" lon="4.731798"><ele>0.0</ele></rtept>
    <rtept lat="52.386486" lon="4.731357"><ele>0.0</ele></rtept>
    <rtept lat="52.386413" lon="4.728660"><ele>0.0</ele></rtept>
    <rtept lat="52.386078" lon="4.723860"><ele>0.0</ele></rtept>
    <rtept lat="52.385991" lon="4.722693"><ele>0.0</ele></rtept>
    <rtept lat="52.385951" lon="4.722133"><ele>0.0</ele></rtept>
    <rtept lat="52.385827" lon="4.720306"><ele>0.0</ele></rtept>
    <rtept lat="52.385731" lon="4.718945"><ele>0.0</ele></rtept>
    <rtept lat="52.385593" lon="4.717426"><ele>0.0</ele></rtept>
    <rtept lat="52.385407" lon="4.716301"><ele>0.0</ele></rtept>
    <rtept lat="52.385266" lon="4.715553"><ele>0.0</ele></rtept>
    <rtept lat="52.384059" lon="4.710360"><ele>0.0</ele></rtept>
    <rtept lat="52.383998" lon="4.710171"><ele>0.0</ele></rtept>
    <rtept lat="52.383927" lon="4.710016"><ele>0.0</ele></rtept>
    <rtept lat="52.383844" lon="4.709839"><ele>0.0</ele></rtept>
    <rtept lat="52.383740" lon="4.709674"><ele>0.0</ele></rtept>
    <rtept lat="52.383070" lon="4.708804"><ele>0.0</ele></rtept>
    <rtept lat="52.382856" lon="4.708337"><ele>0.0</ele></rtept>
    <rtept lat="52.382757" lon="4.708016"><ele>0.0</ele></rtept>
    <rtept lat="52.382668" lon="4.707451"><ele>0.0</ele></rtept>
    <rtept lat="52.382649" lon="4.707081"><ele>0.0</ele></rtept>
    <rtept lat="52.382677" lon="4.706639"><ele>0.0</ele></rtept>
    <rtept lat="52.382756" lon="4.706165"><ele>0.0</ele></rtept>
    <rtept lat="52.382830" lon="4.705912"><ele>0.0</ele></rtept>
    <rtept lat="52.383024" lon="4.705491"><ele>0.0</ele></rtept>
    <rtept lat="52.383479" lon="4.704742"><ele>0.0</ele></rtept>
    <rtept lat="52.383567" lon="4.704509"><ele>0.0</ele></rtept>
    <rtept lat="52.383682" lon="4.704091"><ele>0.0</ele></rtept>
    <rtept lat="52.383749" lon="4.703579"><ele>0.0</ele></rtept>
    <rtept lat="52.383958" lon="4.700846"><ele>0.0</ele></rtept>
    <rtept lat="52.383973" lon="4.700469"><ele>0.0</ele></rtept>
    <rtept lat="52.383946" lon="4.700324"><ele>0.0</ele></rtept>
    <rtept lat="52.383910" lon="4.700207"><ele>0.0</ele></rtept>
    <rtept lat="52.383906" lon="4.700086"><ele>0.0</ele></rtept>
    <rtept lat="52.383909" lon="4.699802"><ele>0.0</ele></rtept>
    <rtept lat="52.383930" lon="4.699663"><ele>0.0</ele></rtept>
    <rtept lat="52.383982" lon="4.699473"><ele>0.0</ele></rtept>
    <rtept lat="52.384018" lon="4.699234"><ele>0.0</ele></rtept>
    <rtept lat="52.384004" lon="4.697808"><ele>0.0</ele></rtept>
    <rtept lat="52.383978" lon="4.696881"><ele>0.0</ele></rtept>
    <rtept lat="52.383903" lon="4.695418"><ele>0.0</ele></rtept>
    <rtept lat="52.383884" lon="4.695286"><ele>0.0</ele></rtept>
    <rtept lat="52.383802" lon="4.694548"><ele>0.0</ele></rtept>
    <rtept lat="52.383607" lon="4.692281"><ele>0.0</ele></rtept>
    <rtept lat="52.383642" lon="4.691686"><ele>0.0</ele></rtept>
    <rtept lat="52.383591" lon="4.690995"><ele>0.0</ele></rtept>
    <rtept lat="52.383394" lon="4.688793"><ele>0.0</ele></rtept>
    <rtept lat="52.383457" lon="4.688756"><ele>0.0</ele></rtept>
    <rtept lat="52.383439" lon="4.688509"><ele>0.0</ele></rtept>
    <rtept lat="52.383428" lon="4.688350"><ele>0.0</ele></rtept>
    <rtept lat="52.383404" lon="4.688042"><ele>0.0</ele></rtept>
    <rtept lat="52.383354" lon="4.687037"><ele>0.0</ele></rtept>
    <rtept lat="52.383316" lon="4.686371"><ele>0.0</ele></rtept>
    <rtept lat="52.383281" lon="4.685867"><ele>0.0</ele></rtept>
    <rtept lat="52.383267" lon="4.685663"><ele>0.0</ele></rtept>
    <rtept lat="52.383107" lon="4.683503"><ele>0.0</ele></rtept>
    <rtept lat="52.383030" lon="4.683062"><ele>0.0</ele></rtept>
    <rtept lat="52.382861" lon="4.682389"><ele>0.0</ele></rtept>
    <rtept lat="52.382821" lon="4.682121"><ele>0.0</ele></rtept>
    <rtept lat="52.382800" lon="4.681590"><ele>0.0</ele></rtept>
    <rtept lat="52.382841" lon="4.681140"><ele>0.0</ele></rtept>
    <rtept lat="52.382879" lon="4.680852"><ele>0.0</ele></rtept>
    <rtept lat="52.382917" lon="4.680484"><ele>0.0</ele></rtept>
    <rtept lat="52.382870" lon="4.680472"><ele>0.0</ele></rtept>
    <rtept lat="52.382596" lon="4.680399"><ele>0.0</ele></rtept>
    <rtept lat="52.382350" lon="4.680330"><ele>0.0</ele></rtept>
    <rtept lat="52.382168" lon="4.680323"><ele>0.0</ele></rtept>
    <rtept lat="52.381960" lon="4.680370"><ele>0.0</ele></rtept>
    <rtept lat="52.381749" lon="4.680335"><ele>0.0</ele></rtept>
    <rtept lat="52.381002" lon="4.679804"><ele>0.0</ele></rtept>
    <rtept lat="52.380908" lon="4.679705"><ele>0.0</ele></rtept>
    <rtept lat="52.380583" lon="4.679251"><ele>0.0</ele></rtept>
    <rtept lat="52.380442" lon="4.679084"><ele>0.0</ele></rtept>
    <rtept lat="52.380096" lon="4.678659"><ele>0.0</ele></rtept>
    <rtept lat="52.379917" lon="4.678449"><ele>0.0</ele></rtept>
    <rtept lat="52.379431" lon="4.677736"><ele>0.0</ele></rtept>
    <rtept lat="52.379122" lon="4.677372"><ele>0.0</ele></rtept>
    <rtept lat="52.378708" lon="4.676989"><ele>0.0</ele></rtept>
    <rtept lat="52.378574" lon="4.676825"><ele>0.0</ele></rtept>
    <rtept lat="52.378356" lon="4.676576"><ele>0.0</ele></rtept>
    <rtept lat="52.378297" lon="4.676528"><ele>0.0</ele></rtept>
    <rtept lat="52.377863" lon="4.676161"><ele>0.0</ele></rtept>
    <rtept lat="52.377769" lon="4.676071"><ele>0.0</ele></rtept>
    <rtept lat="52.376845" lon="4.674951"><ele>0.0</ele></rtept>
    <rtept lat="52.376615" lon="4.674749"><ele>0.0</ele></rtept>
    <rtept lat="52.376014" lon="4.674395"><ele>0.0</ele></rtept>
    <rtept lat="52.375623" lon="4.674199"><ele>0.0</ele></rtept>
    <rtept lat="52.375246" lon="4.673710"><ele>0.0</ele></rtept>
    <rtept lat="52.375105" lon="4.673444"><ele>0.0</ele></rtept>
    <rtept lat="52.374961" lon="4.673083"><ele>0.0</ele></rtept>
    <rtept lat="52.374770" lon="4.672871"><ele>0.0</ele></rtept>
    <rtept lat="52.374787" lon="4.672813"><ele>0.0</ele></rtept>
    <rtept lat="52.374838" lon="4.672647"><ele>0.0</ele></rtept>
    <rtept lat="52.374998" lon="4.671912"><ele>0.0</ele></rtept>
    <rtept lat="52.375024" lon="4.671784"><ele>0.0</ele></rtept>
    <rtept lat="52.375117" lon="4.671357"><ele>0.0</ele></rtept>
    <rtept lat="52.375148" lon="4.671214"><ele>0.0</ele></rtept>
    <rtept lat="52.375338" lon="4.670337"><ele>0.0</ele></rtept>
    <rtept lat="52.375344" lon="4.670311"><ele>0.0</ele></rtept>
    <rtept lat="52.375277" lon="4.670186"><ele>0.0</ele></rtept>
    <rtept lat="52.375443" lon="4.669516"><ele>0.0</ele></rtept>
    <rtept lat="52.375661" lon="4.668707"><ele>0.0</ele></rtept>
    <rtept lat="52.375844" lon="4.667928"><ele>0.0</ele></rtept>
    <rtept lat="52.376022" lon="4.667169"><ele>0.0</ele></rtept>
    <rtept lat="52.376036" lon="4.667112"><ele>0.0</ele></rtept>
    <rtept lat="52.376156" lon="4.667160"><ele>0.0</ele></rtept>
    <rtept lat="52.376234" lon="4.666826"><ele>0.0</ele></rtept>
    <rtept lat="52.376319" lon="4.666451"><ele>0.0</ele></rtept>
    <rtept lat="52.377157" lon="4.666678"><ele>0.0</ele></rtept>
    <rtept lat="52.377212" lon="4.666182"><ele>0.0</ele></rtept>
    <rtept lat="52.377168" lon="4.666011"><ele>0.0</ele></rtept>
    <rtept lat="52.377220" lon="4.665698"><ele>0.0</ele></rtept>
    <rtept lat="52.377262" lon="4.665360"><ele>0.0</ele></rtept>
    <rtept lat="52.377364" lon="4.664525"><ele>0.0</ele></rtept>
    <rtept lat="52.377374" lon="4.664441"><ele>0.0</ele></rtept>
    <rtept lat="52.377407" lon="4.664166"><ele>0.0</ele></rtept>
    <rtept lat="52.377453" lon="4.663777"><ele>0.0</ele></rtept>
    <rtept lat="52.377470" lon="4.663647"><ele>0.0</ele></rtept>
    <rtept lat="52.377624" lon="4.662784"><ele>0.0</ele></rtept>
    <rtept lat="52.377686" lon="4.662808"><ele>0.0</ele></rtept>
    <rtept lat="52.377775" lon="4.662822"><ele>0.0</ele></rtept>
    <rtept lat="52.377880" lon="4.661470"><ele>0.0</ele></rtept>
    <rtept lat="52.378060" lon="4.660699"><ele>0.0</ele></rtept>
    <rtept lat="52.378040" lon="4.660632"><ele>0.0</ele></rtept>
    <rtept lat="52.378083" lon="4.660444"><ele>0.0</ele></rtept>
    <rtept lat="52.378107" lon="4.660341"><ele>0.0</ele></rtept>
    <rtept lat="52.378754" lon="4.660632"><ele>0.0</ele></rtept>
    <rtept lat="52.378835" lon="4.660666"><ele>0.0</ele></rtept>
    <rtept lat="52.378880" lon="4.660685"><ele>0.0</ele></rtept>
    <rtept lat="52.378915" lon="4.660505"><ele>0.0</ele></rtept>
    <rtept lat="52.378941" lon="4.660375"><ele>0.0</ele></rtept>
    <rtept lat="52.378971" lon="4.660226"><ele>0.0</ele></rtept>
    <rtept lat="52.378980" lon="4.659944"><ele>0.0</ele></rtept>
    <rtept lat="52.378994" lon="4.659805"><ele>0.0</ele></rtept>
    <rtept lat="52.379026" lon="4.659422"><ele>0.0</ele></rtept>
    <rtept lat="52.379447" lon="4.659520"><ele>0.0</ele></rtept>
    <rtept lat="52.379574" lon="4.657888"><ele>0.0</ele></rtept>
    <rtept lat="52.379804" lon="4.657899"><ele>0.0</ele></rtept>
    <rtept lat="52.380041" lon="4.657887"><ele>0.0</ele></rtept>
    <rtept lat="52.380029" lon="4.657510"><ele>0.0</ele></rtept>
  </rte>
</gpx>