<?xml version="1.0" encoding="UTF-8"?>
<gpx version="1.1" creator="WeeklyCyclingRoutes"
  xmlns="http://www.topografix.com/GPX/1/1"
  xmlns:xsi="http://www.w3.org/2001/XMLSchema-instance"
  xsi:schemaLocation="http://www.topografix.com/GPX/1/1 http://www.topografix.com/GPX/1/1/gpx.xsd">
  <metadata>
    <name>60km Route – August 03, 2026</name>
    <desc>Round trip from Cremerstraat, Haarlem. Actual: 60.2km</desc>
    <time>2026-08-03T09:32:06Z</time>
  </metadata>
  <rte>
    <name>60km Cycling Route – Haarlem</name>
    <rtept lat="52.380029" lon="4.657510"><ele>0.0</ele></rtept>
    <rtept lat="52.380041" lon="4.657887"><ele>0.0</ele></rtept>
    <rtept lat="52.379804" lon="4.657899"><ele>0.0</ele></rtept>
    <rtept lat="52.379574" lon="4.657888"><ele>0.0</ele></rtept>
    <rtept lat="52.379447" lon="4.659520"><ele>0.0</ele></rtept>
    <rtept lat="52.379026" lon="4.659422"><ele>0.0</ele></rtept>
    <rtept lat="52.378994" lon="4.659805"><ele>0.0</ele></rtept>
    <rtept lat="52.378980" lon="4.659944"><ele>0.0</ele></rtept>
    <rtept lat="52.378919" lon="4.660207"><ele>0.0</ele></rtept>
    <rtept lat="52.378892" lon="4.660355"><ele>0.0</ele></rtept>
    <rtept lat="52.378869" lon="4.660481"><ele>0.0</ele></rtept>
    <rtept lat="52.378835" lon="4.660666"><ele>0.0</ele></rtept>
    <rtept lat="52.378754" lon="4.660632"><ele>0.0</ele></rtept>
    <rtept lat="52.378107" lon="4.660341"><ele>0.0</ele></rtept>
    <rtept lat="52.376591" lon="4.659639"><ele>0.0</ele></rtept>
    <rtept lat="52.376416" lon="4.659550"><ele>0.0</ele></rtept>
    <rtept lat="52.376248" lon="4.659469"><ele>0.0</ele></rtept>
    <rtept lat="52.375939" lon="4.659321"><ele>0.0</ele></rtept>
    <rtept lat="52.375387" lon="4.658920"><ele>0.0</ele></rtept>
    <rtept lat="52.375299" lon="4.658822"><ele>0.0</ele></rtept>
    <rtept lat="52.375264" lon="4.658783"><ele>0.0</ele></rtept>
    <rtept lat="52.375174" lon="4.658688"><ele>0.0</ele></rtept>
    <rtept lat="52.375071" lon="4.658558"><ele>0.0</ele></rtept>
    <rtept lat="52.374903" lon="4.658355"><ele>0.0</ele></rtept>
    <rtept lat="52.374774" lon="4.658199"><ele>0.0</ele></rtept>
    <rtept lat="52.374640" lon="4.658034"><ele>0.0</ele></rtept>
    <rtept lat="52.374391" lon="4.657790"><ele>0.0</ele></rtept>
    <rtept lat="52.374222" lon="4.657609"><ele>0.0</ele></rtept>
    <rtept lat="52.372821" lon="4.656439"><ele>0.0</ele></rtept>
    <rtept lat="52.371743" lon="4.655569"><ele>0.0</ele></rtept>
    <rtept lat="52.371644" lon="4.655494"><ele>0.0</ele></rtept>
    <rtept lat="52.371432" lon="4.655322"><ele>0.0</ele></rtept>
    <rtept lat="52.370928" lon="4.654930"><ele>0.0</ele></rtept>
    <rtept lat="52.370723" lon="4.654874"><ele>0.0</ele></rtept>
    <rtept lat="52.370389" lon="4.654836"><ele>0.0</ele></rtept>
    <rtept lat="52.370283" lon="4.654833"><ele>0.0</ele></rtept>
    <rtept lat="52.370075" lon="4.654826"><ele>0.0</ele></rtept>
    <rtept lat="52.369981" lon="4.654809"><ele>0.0</ele></rtept>
    <rtept lat="52.369938" lon="4.654772"><ele>0.0</ele></rtept>
    <rtept lat="52.369824" lon="4.654648"><ele>0.0</ele></rtept>
    <rtept lat="52.368957" lon="4.654543"><ele>0.0</ele></rtept>
    <rtept lat="52.368663" lon="4.654470"><ele>0.0</ele></rtept>
    <rtept lat="52.368353" lon="4.654479"><ele>0.0</ele></rtept>
    <rtept lat="52.368337" lon="4.654479"><ele>0.0</ele></rtept>
    <rtept lat="52.368020" lon="4.654482"><ele>0.0</ele></rtept>
    <rtept lat="52.367966" lon="4.654499"><ele>0.0</ele></rtept>
    <rtept lat="52.367813" lon="4.654557"><ele>0.0</ele></rtept>
    <rtept lat="52.367800" lon="4.654688"><ele>0.0</ele></rtept>
    <rtept lat="52.367802" lon="4.655012"><ele>0.0</ele></rtept>
    <rtept lat="52.367801" lon="4.656505"><ele>0.0</ele></rtept>
    <rtept lat="52.367811" lon="4.657704"><ele>0.0</ele></rtept>
    <rtept lat="52.367821" lon="4.659432"><ele>0.0</ele></rtept>
    <rtept lat="52.367829" lon="4.660912"><ele>0.0</ele></rtept>
    <rtept lat="52.367827" lon="4.662490"><ele>0.0</ele></rtept>
    <rtept lat="52.367872" lon="4.663787"><ele>0.0</ele></rtept>
    <rtept lat="52.367879" lon="4.664269"><ele>0.0</ele></rtept>
    <rtept lat="52.367889" lon="4.666109"><ele>0.0</ele></rtept>
    <rtept lat="52.367891" lon="4.666413"><ele>0.0</ele></rtept>
    <rtept lat="52.367899" lon="4.667682"><ele>0.0</ele></rtept>
    <rtept lat="52.367915" lon="4.668930"><ele>0.0</ele></rtept>
    <rtept lat="52.367957" lon="4.669746"><ele>0.0</ele></rtept>
    <rtept lat="52.368000" lon="4.670304"><ele>0.0</ele></rtept>
    <rtept lat="52.368110" lon="4.671245"><ele>0.0</ele></rtept>
    <rtept lat="52.368143" lon="4.671666"><ele>0.0</ele></rtept>
    <rtept lat="52.368153" lon="4.671748"><ele>0.0</ele></rtept>
    <rtept lat="52.368198" lon="4.672077"><ele>0.0</ele></rtept>
    <rtept lat="52.368321" lon="4.672978"><ele>0.0</ele></rtept>
    <rtept lat="52.368331" lon="4.673051"><ele>0.0</ele></rtept>
    <rtept lat="52.368479" lon="4.673723"><ele>0.0</ele></rtept>
    <rtept lat="52.368564" lon="4.674041"><ele>0.0</ele></rtept>
    <rtept lat="52.368695" lon="4.674446"><ele>0.0</ele></rtept>
    <rtept lat="52.368866" lon="4.674893"><ele>0.0</ele></rtept>
    <rtept lat="52.368919" lon="4.674992"><ele>0.0</ele></rtept>
    <rtept lat="52.368968" lon="4.675043"><ele>0.0</ele></rtept>
    <rtept lat="52.369073" lon="4.675086"><ele>0.0</ele></rtept>
    <rtept lat="52.369141" lon="4.675195"><ele>0.0</ele></rtept>
    <rtept lat="52.369193" lon="4.675312"><ele>0.0</ele></rtept>
    <rtept lat="52.369198" lon="4.675524"><ele>0.0</ele></rtept>
    <rtept lat="52.369217" lon="4.675603"><ele>0.0</ele></rtept>
    <rtept lat="52.369413" lon="4.676046"><ele>0.0</ele></rtept>
    <rtept lat="52.369522" lon="4.676346"><ele>0.0</ele></rtept>
    <rtept lat="52.369623" lon="4.676681"><ele>0.0</ele></rtept>
    <rtept lat="52.369722" lon="4.677134"><ele>0.0</ele></rtept>
    <rtept lat="52.369795" lon="4.677610"><ele>0.0</ele></rtept>
    <rtept lat="52.370150" lon="4.680413"><ele>0.0</ele></rtept>
    <rtept lat="52.370312" lon="4.682255"><ele>0.0</ele></rtept>
    <rtept lat="52.370620" lon="4.687271"><ele>0.0</ele></rtept>
    <rtept lat="52.370666" lon="4.688167"><ele>0.0</ele></rtept>
    <rtept lat="52.370674" lon="4.688758"><ele>0.0</ele></rtept>
    <rtept lat="52.370647" lon="4.689521"><ele>0.0</ele></rtept>
    <rtept lat="52.370617" lon="4.689843"><ele>0.0</ele></rtept>
    <rtept lat="52.370504" lon="4.690579"><ele>0.0</ele></rtept>
    <rtept lat="52.370347" lon="4.691155"><ele>0.0</ele></rtept>
    <rtept lat="52.369930" lon="4.692337"><ele>0.0</ele></rtept>
    <rtept lat="52.369770" lon="4.692864"><ele>0.0</ele></rtept>
    <rtept lat="52.369631" lon="4.693449"><ele>0.0</ele></rtept>
    <rtept lat="52.369493" lon="4.694356"><ele>0.0</ele></rtept>
    <rtept lat="52.369448" lon="4.694843"><ele>0.0</ele></rtept>
    <rtept lat="52.369428" lon="4.695382"><ele>0.0</ele></rtept>
    <rtept lat="52.369467" lon="4.696764"><ele>0.0</ele></rtept>
    <rtept lat="52.369464" lon="4.697165"><ele>0.0</ele></rtept>
    <rtept lat="52.369186" lon="4.701987"><ele>0.0</ele></rtept>
    <rtept lat="52.369159" lon="4.702295"><ele>0.0</ele></rtept>
    <rtept lat="52.369084" lon="4.702738"><ele>0.0</ele></rtept>
    <rtept lat="52.368837" lon="4.703586"><ele>0.0</ele></rtept>
    <rtept lat="52.368803" lon="4.703843"><ele>0.0</ele></rtept>
    <rtept lat="52.368762" lon="4.703999"><ele>0.0</ele></rtept>
    <rtept lat="52.368682" lon="4.704088"><ele>0.0</ele></rtept>
    <rtept lat="52.368577" lon="4.704129"><ele>0.0</ele></rtept>
    <rtept lat="52.368509" lon="4.704183"><ele>0.0</ele></rtept>
    <rtept lat="52.368097" lon="4.704578"><ele>0.0</ele></rtept>
    <rtept lat="52.367990" lon="4.704749"><ele>0.0</ele></rtept>
    <rtept lat="52.367946" lon="4.704946"><ele>0.0</ele></rtept>
    <rtept lat="52.367946" lon="4.705140"><ele>0.0</ele></rtept>
    <rtept lat="52.367978" lon="4.705309"><ele>0.0</ele></rtept>
    <rtept lat="52.368098" lon="4.705687"><ele>0.0</ele></rtept>
    <rtept lat="52.368278" lon="4.706309"><ele>0.0</ele></rtept>
    <rtept lat="52.368631" lon="4.707540"><ele>0.0</ele></rtept>
    <rtept lat="52.368748" lon="4.708126"><ele>0.0</ele></rtept>
    <rtept lat="52.368816" lon="4.708698"><ele>0.0</ele></rtept>
    <rtept lat="52.368841" lon="4.708765"><ele>0.0</ele></rtept>
    <rtept lat="52.368925" lon="4.708875"><ele>0.0</ele></rtept>
    <rtept lat="52.368941" lon="4.709017"><ele>0.0</ele></rtept>
    <rtept lat="52.368954" lon="4.709130"><ele>0.0</ele></rtept>
    <rtept lat="52.368982" lon="4.709401"><ele>0.0</ele></rtept>
    <rtept lat="52.368957" lon="4.709555"><ele>0.0</ele></rtept>
    <rtept lat="52.368878" lon="4.709726"><ele>0.0</ele></rtept>
    <rtept lat="52.367873" lon="4.711631"><ele>0.0</ele></rtept>
    <rtept lat="52.367710" lon="4.711986"><ele>0.0</ele></rtept>
    <rtept lat="52.367271" lon="4.712824"><ele>0.0</ele></rtept>
    <rtept lat="52.366824" lon="4.713648"><ele>0.0</ele></rtept>
    <rtept lat="52.365645" lon="4.715724"><ele>0.0</ele></rtept>
    <rtept lat="52.365018" lon="4.716739"><ele>0.0</ele></rtept>
    <rtept lat="52.364967" lon="4.716893"><ele>0.0</ele></rtept>
    <rtept lat="52.364998" lon="4.717217"><ele>0.0</ele></rtept>
    <rtept lat="52.364971" lon="4.717322"><ele>0.0</ele></rtept>
    <rtept lat="52.364883" lon="4.717435"><ele>0.0</ele></rtept>
    <rtept lat="52.364686" lon="4.717502"><ele>0.0</ele></rtept>
    <rtept lat="52.364633" lon="4.717515"><ele>0.0</ele></rtept>
    <rtept lat="52.364615" lon="4.717493"><ele>0.0</ele></rtept>
    <rtept lat="52.364551" lon="4.717610"><ele>0.0</ele></rtept>
    <rtept lat="52.364488" lon="4.717730"><ele>0.0</ele></rtept>
    <rtept lat="52.364460" lon="4.717781"><ele>0.0</ele></rtept>
    <rtept lat="52.364443" lon="4.717813"><ele>0.0</ele></rtept>
    <rtept lat="52.364315" lon="4.718052"><ele>0.0</ele></rtept>
    <rtept lat="52.364192" lon="4.718280"><ele>0.0</ele></rtept>
    <rtept lat="52.363668" lon="4.719255"><ele>0.0</ele></rtept>
    <rtept lat="52.363468" lon="4.719626"><ele>0.0</ele></rtept>
    <rtept lat="52.363323" lon="4.719897"><ele>0.0</ele></rtept>
    <rtept lat="52.363242" lon="4.720047"><ele>0.0</ele></rtept>
    <rtept lat="52.362801" lon="4.720867"><ele>0.0</ele></rtept>
    <rtept lat="52.362569" lon="4.721299"><ele>0.0</ele></rtept>
    <rtept lat="52.362411" lon="4.721593"><ele>0.0</ele></rtept>
    <rtept lat="52.362257" lon="4.721878"><ele>0.0</ele></rtept>
    <rtept lat="52.362013" lon="4.722334"><ele>0.0</ele></rtept>
    <rtept lat="52.361575" lon="4.723148"><ele>0.0</ele></rtept>
    <rtept lat="52.361297" lon="4.723664"><ele>0.0</ele></rtept>
    <rtept lat="52.361155" lon="4.723928"><ele>0.0</ele></rtept>
    <rtept lat="52.361062" lon="4.724103"><ele>0.0</ele></rtept>
    <rtept lat="52.360954" lon="4.724303"><ele>0.0</ele></rtept>
    <rtept lat="52.360645" lon="4.724877"><ele>0.0</ele></rtept>
    <rtept lat="52.360411" lon="4.725312"><ele>0.0</ele></rtept>
    <rtept lat="52.360221" lon="4.725665"><ele>0.0</ele></rtept>
    <rtept lat="52.360061" lon="4.725964"><ele>0.0</ele></rtept>
    <rtept lat="52.359846" lon="4.726363"><ele>0.0</ele></rtept>
    <rtept lat="52.359442" lon="4.727116"><ele>0.0</ele></rtept>
    <rtept lat="52.358862" lon="4.728196"><ele>0.0</ele></rtept>
    <rtept lat="52.358559" lon="4.728853"><ele>0.0</ele></rtept>
    <rtept lat="52.358540" lon="4.728920"><ele>0.0</ele></rtept>
    <rtept lat="52.358489" lon="4.729016"><ele>0.0</ele></rtept>
    <rtept lat="52.353732" lon="4.737884"><ele>0.0</ele></rtept>
    <rtept lat="52.352621" lon="4.739924"><ele>0.0</ele></rtept>
    <rtept lat="52.347747" lon="4.749004"><ele>0.0</ele></rtept>
    <rtept lat="52.346715" lon="4.750995"><ele>0.0</ele></rtept>
    <rtept lat="52.346627" lon="4.751184"><ele>0.0</ele></rtept>
    <rtept lat="52.347455" lon="4.752412"><ele>0.0</ele></rtept>
    <rtept lat="52.348153" lon="4.753409"><ele>0.0</ele></rtept>
    <rtept lat="52.348516" lon="4.753930"><ele>0.0</ele></rtept>
    <rtept lat="52.348756" lon="4.754268"><ele>0.0</ele></rtept>
    <rtept lat="52.349202" lon="4.754911"><ele>0.0</ele></rtept>
    <rtept lat="52.349288" lon="4.755033"><ele>0.0</ele></rtept>
    <rtept lat="52.350419" lon="4.756666"><ele>0.0</ele></rtept>
    <rtept lat="52.350942" lon="4.757409"><ele>0.0</ele></rtept>
    <rtept lat="52.351310" lon="4.757880"><ele>0.0</ele></rtept>
    <rtept lat="52.351840" lon="4.758640"><ele>0.0</ele></rtept>
    <rtept lat="52.352377" lon="4.759361"><ele>0.0</ele></rtept>
    <rtept lat="52.352471" lon="4.759470"><ele>0.0</ele></rtept>
    <rtept lat="52.352569" lon="4.759487"><ele>0.0</ele></rtept>
    <rtept lat="52.352680" lon="4.759442"><ele>0.0</ele></rtept>
    <rtept lat="52.352721" lon="4.759545"><ele>0.0</ele></rtept>
    <rtept lat="52.352794" lon="4.759823"><ele>0.0</ele></rtept>
    <rtept lat="52.352759" lon="4.759974"><ele>0.0</ele></rtept>
    <rtept lat="52.352621" lon="4.760510"><ele>0.0</ele></rtept>
    <rtept lat="52.352529" lon="4.760890"><ele>0.0</ele></rtept>
    <rtept lat="52.352403" lon="4.760730"><ele>0.0</ele></rtept>
    <rtept lat="52.352117" lon="4.762051"><ele>0.0</ele></rtept>
    <rtept lat="52.352109" lon="4.762172"><ele>0.0</ele></rtept>
    <rtept lat="52.352128" lon="4.762325"><ele>0.0</ele></rtept>
    <rtept lat="52.352067" lon="4.762451"><ele>0.0</ele></rtept>
    <rtept lat="52.351988" lon="4.762706"><ele>0.0</ele></rtept>
    <rtept lat="52.351700" lon="4.764040"><ele>0.0</ele></rtept>
    <rtept lat="52.351627" lon="4.764271"><ele>0.0</ele></rtept>
    <rtept lat="52.351242" lon="4.765147"><ele>0.0</ele></rtept>
    <rtept lat="52.350854" lon="4.766066"><ele>0.0</ele></rtept>
    <rtept lat="52.350819" lon="4.766197"><ele>0.0</ele></rtept>
    <rtept lat="52.350832" lon="4.766415"><ele>0.0</ele></rtept>
    <rtept lat="52.350822" lon="4.766461"><ele>0.0</ele></rtept>
    <rtept lat="52.350540" lon="4.767170"><ele>0.0</ele></rtept>
    <rtept lat="52.350214" lon="4.766725"><ele>0.0</ele></rtept>
    <rtept lat="52.349737" lon="4.766049"><ele>0.0</ele></rtept>
    <rtept lat="52.349686" lon="4.765956"><ele>0.0</ele></rtept>
    <rtept lat="52.349667" lon="4.765842"><ele>0.0</ele></rtept>
    <rtept lat="52.349985" lon="4.766200"><ele>0.0</ele></rtept>
    <rtept lat="52.350320" lon="4.766535"><ele>0.0</ele></rtept>
    <rtept lat="52.350609" lon="4.766840"><ele>0.0</ele></rtept>
    <rtept lat="52.351599" lon="4.767869"><ele>0.0</ele></rtept>
    <rtept lat="52.351837" lon="4.768150"><ele>0.0</ele></rtept>
    <rtept lat="52.352380" lon="4.768729"><ele>0.0</ele></rtept>
    <rtept lat="52.352697" lon="4.769050"><ele>0.0</ele></rtept>
    <rtept lat="52.353159" lon="4.769654"><ele>0.0</ele></rtept>
    <rtept lat="52.353820" lon="4.770362"><ele>0.0</ele></rtept>
    <rtept lat="52.353946" lon="4.770525"><ele>0.0</ele></rtept>
    <rtept lat="52.354074" lon="4.770746"><ele>0.0</ele></rtept>
    <rtept lat="52.354168" lon="4.771018"><ele>0.0</ele></rtept>
    <rtept lat="52.354189" lon="4.771083"><ele>0.0</ele></rtept>
    <rtept lat="52.354156" lon="4.771110"><ele>0.0</ele></rtept>
    <rtept lat="52.354079" lon="4.771179"><ele>0.0</ele></rtept>
    <rtept lat="52.353966" lon="4.771330"><ele>0.0</ele></rtept>
    <rtept lat="52.353861" lon="4.771536"><ele>0.0</ele></rtept>
    <rtept lat="52.353839" lon="4.771586"><ele>0.0</ele></rtept>
    <rtept lat="52.353137" lon="4.773347"><ele>0.0</ele></rtept>
    <rtept lat="52.353074" lon="4.773503"><ele>0.0</ele></rtept>
    <rtept lat="52.352147" lon="4.775814"><ele>0.0</ele></rtept>
    <rtept lat="52.352087" lon="4.775964"><ele>0.0</ele></rtept>
    <rtept lat="52.352024" lon="4.776126"><ele>0.0</ele></rtept>
    <rtept lat="52.351874" lon="4.776442"><ele>0.0</ele></rtept>
    <rtept lat="52.351701" lon="4.776877"><ele>0.0</ele></rtept>
    <rtept lat="52.351632" lon="4.777103"><ele>0.0</ele></rtept>
    <rtept lat="52.351380" lon="4.777731"><ele>0.0</ele></rtept>
    <rtept lat="52.351318" lon="4.777947"><ele>0.0</ele></rtept>
    <rtept lat="52.351085" lon="4.778523"><ele>0.0</ele></rtept>
    <rtept lat="52.350774" lon="4.779283"><ele>0.0</ele></rtept>
    <rtept lat="52.350721" lon="4.779350"><ele>0.0</ele></rtept>
    <rtept lat="52.350235" lon="4.780569"><ele>0.0</ele></rtept>
    <rtept lat="52.350172" lon="4.780728"><ele>0.0</ele></rtept>
    <rtept lat="52.350111" lon="4.780880"><ele>0.0</ele></rtept>
    <rtept lat="52.349963" lon="4.781191"><ele>0.0</ele></rtept>
    <rtept lat="52.349784" lon="4.781663"><ele>0.0</ele></rtept>
    <rtept lat="52.349717" lon="4.781887"><ele>0.0</ele></rtept>
    <rtept lat="52.349567" lon="4.782259"><ele>0.0</ele></rtept>
    <rtept lat="52.349509" lon="4.782409"><ele>0.0</ele></rtept>
    <rtept lat="52.349445" lon="4.782569"><ele>0.0</ele></rtept>
    <rtept lat="52.349009" lon="4.783663"><ele>0.0</ele></rtept>
    <rtept lat="52.348892" lon="4.784040"><ele>0.0</ele></rtept>
    <rtept lat="52.348754" lon="4.784381"><ele>0.0</ele></rtept>
    <rtept lat="52.348735" lon="4.784413"><ele>0.0</ele></rtept>
    <rtept lat="52.348578" lon="4.784734"><ele>0.0</ele></rtept>
    <rtept lat="52.348443" lon="4.785111"><ele>0.0</ele></rtept>
    <rtept lat="52.348384" lon="4.785439"><ele>0.0</ele></rtept>
    <rtept lat="52.348371" lon="4.785700"><ele>0.0</ele></rtept>
    <rtept lat="52.348375" lon="4.785868"><ele>0.0</ele></rtept>
    <rtept lat="52.348412" lon="4.786152"><ele>0.0</ele></rtept>
    <rtept lat="52.348469" lon="4.786377"><ele>0.0</ele></rtept>
    <rtept lat="52.348529" lon="4.786547"><ele>0.0</ele></rtept>
    <rtept lat="52.348637" lon="4.786741"><ele>0.0</ele></rtept>
    <rtept lat="52.348697" lon="4.786830"><ele>0.0</ele></rtept>
    <rtept lat="52.348782" lon="4.786940"><ele>0.0</ele></rtept>
    <rtept lat="52.348864" lon="4.787031"><ele>0.0</ele></rtept>
    <rtept lat="52.348959" lon="4.787089"><ele>0.0</ele></rtept>
    <rtept lat="52.349071" lon="4.787152"><ele>0.0</ele></rtept>
    <rtept lat="52.349280" lon="4.787193"><ele>0.0</ele></rtept>
    <rtept lat="52.349346" lon="4.787233"><ele>0.0</ele></rtept>
    <rtept lat="52.349384" lon="4.787310"><ele>0.0</ele></rtept>
    <rtept lat="52.349510" lon="4.787918"><ele>0.0</ele></rtept>
    <rtept lat="52.349532" lon="4.788028"><ele>0.0</ele></rtept>
    <rtept lat="52.349555" lon="4.788146"><ele>0.0</ele></rtept>
    <rtept lat="52.349808" lon="4.789393"><ele>0.0</ele></rtept>
    <rtept lat="52.349836" lon="4.789536"><ele>0.0</ele></rtept>
    <rtept lat="52.350340" lon="4.792022"><ele>0.0</ele></rtept>
    <rtept lat="52.350385" lon="4.792400"><ele>0.0</ele></rtept>
    <rtept lat="52.350399" lon="4.792486"><ele>0.0</ele></rtept>
    <rtept lat="52.350552" lon="4.793239"><ele>0.0</ele></rtept>
    <rtept lat="52.350609" lon="4.793526"><ele>0.0</ele></rtept>
    <rtept lat="52.350642" lon="4.793685"><ele>0.0</ele></rtept>
    <rtept lat="52.350667" lon="4.793831"><ele>0.0</ele></rtept>
    <rtept lat="52.350661" lon="4.793891"><ele>0.0</ele></rtept>
    <rtept lat="52.350684" lon="4.794012"><ele>0.0</ele></rtept>
    <rtept lat="52.350715" lon="4.794166"><ele>0.0</ele></rtept>
    <rtept lat="52.350738" lon="4.794255"><ele>0.0</ele></rtept>
    <rtept lat="52.350777" lon="4.794303"><ele>0.0</ele></rtept>
    <rtept lat="52.350793" lon="4.794376"><ele>0.0</ele></rtept>
    <rtept lat="52.350971" lon="4.795361"><ele>0.0</ele></rtept>
    <rtept lat="52.351035" lon="4.795694"><ele>0.0</ele></rtept>
    <rtept lat="52.351336" lon="4.797170"><ele>0.0</ele></rtept>
    <rtept lat="52.351363" lon="4.797307"><ele>0.0</ele></rtept>
    <rtept lat="52.351630" lon="4.798643"><ele>0.0</ele></rtept>
    <rtept lat="52.351891" lon="4.799899"><ele>0.0</ele></rtept>
    <rtept lat="52.351912" lon="4.799992"><ele>0.0</ele></rtept>
    <rtept lat="52.351941" lon="4.800138"><ele>0.0</ele></rtept>
    <rtept lat="52.351959" lon="4.800205"><ele>0.0</ele></rtept>
    <rtept lat="52.351977" lon="4.800289"><ele>0.0</ele></rtept>
    <rtept lat="52.351995" lon="4.800379"><ele>0.0</ele></rtept>
    <rtept lat="52.352236" lon="4.801553"><ele>0.0</ele></rtept>
    <rtept lat="52.352264" lon="4.801723"><ele>0.0</ele></rtept>
    <rtept lat="52.352280" lon="4.801791"><ele>0.0</ele></rtept>
    <rtept lat="52.352366" lon="4.802097"><ele>0.0</ele></rtept>
    <rtept lat="52.352444" lon="4.802479"><ele>0.0</ele></rtept>
    <rtept lat="52.352496" lon="4.802761"><ele>0.0</ele></rtept>
    <rtept lat="52.352527" lon="4.802933"><ele>0.0</ele></rtept>
    <rtept lat="52.353044" lon="4.805505"><ele>0.0</ele></rtept>
    <rtept lat="52.353067" lon="4.805621"><ele>0.0</ele></rtept>
    <rtept lat="52.353442" lon="4.807477"><ele>0.0</ele></rtept>
    <rtept lat="52.353676" lon="4.808436"><ele>0.0</ele></rtept>
    <rtept lat="52.353688" lon="4.808497"><ele>0.0</ele></rtept>
    <rtept lat="52.353762" lon="4.808872"><ele>0.0</ele></rtept>
    <rtept lat="52.353830" lon="4.809204"><ele>0.0</ele></rtept>
    <rtept lat="52.353844" lon="4.809273"><ele>0.0</ele></rtept>
    <rtept lat="52.353873" lon="4.809420"><ele>0.0</ele></rtept>
    <rtept lat="52.353908" lon="4.809625"><ele>0.0</ele></rtept>
    <rtept lat="52.353927" lon="4.809741"><ele>0.0</ele></rtept>
    <rtept lat="52.353971" lon="4.809908"><ele>0.0</ele></rtept>
    <rtept lat="52.354057" lon="4.810265"><ele>0.0</ele></rtept>
    <rtept lat="52.354176" lon="4.810738"><ele>0.0</ele></rtept>
    <rtept lat="52.354197" lon="4.810831"><ele>0.0</ele></rtept>
    <rtept lat="52.354378" lon="4.811679"><ele>0.0</ele></rtept>
    <rtept lat="52.354462" lon="4.811782"><ele>0.0</ele></rtept>
    <rtept lat="52.354551" lon="4.812223"><ele>0.0</ele></rtept>
    <rtept lat="52.354646" lon="4.812663"><ele>0.0</ele></rtept>
    <rtept lat="52.354862" lon="4.813785"><ele>0.0</ele></rtept>
    <rtept lat="52.355343" lon="4.816189"><ele>0.0</ele></rtept>
    <rtept lat="52.355381" lon="4.816373"><ele>0.0</ele></rtept>
    <rtept lat="52.355741" lon="4.818141"><ele>0.0</ele></rtept>
    <rtept lat="52.355741" lon="4.818415"><ele>0.0</ele></rtept>
    <rtept lat="52.355826" lon="4.818933"><ele>0.0</ele></rtept>
    <rtept lat="52.355836" lon="4.818988"><ele>0.0</ele></rtept>
    <rtept lat="52.356051" lon="4.820166"><ele>0.0</ele></rtept>
    <rtept lat="52.356067" lon="4.820830"><ele>0.0</ele></rtept>
    <rtept lat="52.356053" lon="4.821216"><ele>0.0</ele></rtept>
    <rtept lat="52.356018" lon="4.821277"><ele>0.0</ele></rtept>
    <rtept lat="52.355994" lon="4.821364"><ele>0.0</ele></rtept>
    <rtept lat="52.355996" lon="4.821424"><ele>0.0</ele></rtept>
    <rtept lat="52.356000" lon="4.821521"><ele>0.0</ele></rtept>
    <rtept lat="52.356057" lon="4.821644"><ele>0.0</ele></rtept>
    <rtept lat="52.356072" lon="4.821758"><ele>0.0</ele></rtept>
    <rtept lat="52.356095" lon="4.822662"><ele>0.0</ele></rtept>
    <rtept lat="52.356100" lon="4.823196"><ele>0.0</ele></rtept>
    <rtept lat="52.356106" lon="4.824028"><ele>0.0</ele></rtept>
    <rtept lat="52.356112" lon="4.824370"><ele>0.0</ele></rtept>
    <rtept lat="52.356109" lon="4.824847"><ele>0.0</ele></rtept>
    <rtept lat="52.356108" lon="4.825216"><ele>0.0</ele></rtept>
    <rtept lat="52.356118" lon="4.826071"><ele>0.0</ele></rtept>
    <rtept lat="52.356124" lon="4.826610"><ele>0.0</ele></rtept>
    <rtept lat="52.356123" lon="4.826974"><ele>0.0</ele></rtept>
    <rtept lat="52.356109" lon="4.827049"><ele>0.0</ele></rtept>
    <rtept lat="52.356078" lon="4.827098"><ele>0.0</ele></rtept>
    <rtept lat="52.356081" lon="4.827196"><ele>0.0</ele></rtept>
    <rtept lat="52.356086" lon="4.827440"><ele>0.0</ele></rtept>
    <rtept lat="52.356088" lon="4.827541"><ele>0.0</ele></rtept>
    <rtept lat="52.356131" lon="4.827569"><ele>0.0</ele></rtept>
    <rtept lat="52.356146" lon="4.827638"><ele>0.0</ele></rtept>
    <rtept lat="52.356154" lon="4.827985"><ele>0.0</ele></rtept>
    <rtept lat="52.356158" lon="4.828070"><ele>0.0</ele></rtept>
    <rtept lat="52.356198" lon="4.828636"><ele>0.0</ele></rtept>
    <rtept lat="52.356203" lon="4.829248"><ele>0.0</ele></rtept>
    <rtept lat="52.356211" lon="4.829816"><ele>0.0</ele></rtept>
    <rtept lat="52.356219" lon="4.830523"><ele>0.0</ele></rtept>
    <rtept lat="52.356219" lon="4.830905"><ele>0.0</ele></rtept>
    <rtept lat="52.356220" lon="4.830968"><ele>0.0</ele></rtept>
    <rtept lat="52.356230" lon="4.831519"><ele>0.0</ele></rtept>
    <rtept lat="52.356207" lon="4.832344"><ele>0.0</ele></rtept>
    <rtept lat="52.356210" lon="4.833128"><ele>0.0</ele></rtept>
    <rtept lat="52.356213" lon="4.833302"><ele>0.0</ele></rtept>
    <rtept lat="52.356211" lon="4.833542"><ele>0.0</ele></rtept>
    <rtept lat="52.356210" lon="4.833634"><ele>0.0</ele></rtept>
    <rtept lat="52.356209" lon="4.833670"><ele>0.0</ele></rtept>
    <rtept lat="52.356189" lon="4.833793"><ele>0.0</ele></rtept>
    <rtept lat="52.356202" lon="4.834524"><ele>0.0</ele></rtept>
    <rtept lat="52.356217" lon="4.834655"><ele>0.0</ele></rtept>
    <rtept lat="52.356219" lon="4.835623"><ele>0.0</ele></rtept>
    <rtept lat="52.356220" lon="4.835707"><ele>0.0</ele></rtept>
    <rtept lat="52.356137" lon="4.835865"><ele>0.0</ele></rtept>
    <rtept lat="52.356124" lon="4.836009"><ele>0.0</ele></rtept>
    <rtept lat="52.356141" lon="4.836142"><ele>0.0</ele></rtept>
    <rtept lat="52.356221" lon="4.836279"><ele>0.0</ele></rtept>
    <rtept lat="52.356218" lon="4.836360"><ele>0.0</ele></rtept>
    <rtept lat="52.356255" lon="4.838496"><ele>0.0</ele></rtept>
    <rtept lat="52.356276" lon="4.840302"><ele>0.0</ele></rtept>
    <rtept lat="52.356267" lon="4.840406"><ele>0.0</ele></rtept>
    <rtept lat="52.356180" lon="4.840543"><ele>0.0</ele></rtept>
    <rtept lat="52.356160" lon="4.840651"><ele>0.0</ele></rtept>
    <rtept lat="52.356163" lon="4.840739"><ele>0.0</ele></rtept>
    <rtept lat="52.356187" lon="4.840844"><ele>0.0</ele></rtept>
    <rtept lat="52.356259" lon="4.840953"><ele>0.0</ele></rtept>
    <rtept lat="52.356260" lon="4.841843"><ele>0.0</ele></rtept>
    <rtept lat="52.356279" lon="4.843409"><ele>0.0</ele></rtept>
    <rtept lat="52.356285" lon="4.843939"><ele>0.0</ele></rtept>
    <rtept lat="52.356256" lon="4.844007"><ele>0.0</ele></rtept>
    <rtept lat="52.356179" lon="4.844023"><ele>0.0</ele></rtept>
    <rtept lat="52.356111" lon="4.844092"><ele>0.0</ele></rtept>
    <rtept lat="52.356085" lon="4.844168"><ele>0.0</ele></rtept>
    <rtept lat="52.356083" lon="4.844291"><ele>0.0</ele></rtept>
    <rtept lat="52.356080" lon="4.844388"><ele>0.0</ele></rtept>
    <rtept lat="52.356067" lon="4.844416"><ele>0.0</ele></rtept>
    <rtept lat="52.356030" lon="4.844440"><ele>0.0</ele></rtept>
    <rtept lat="52.355740" lon="4.844442"><ele>0.0</ele></rtept>
    <rtept lat="52.355696" lon="4.844442"><ele>0.0</ele></rtept>
    <rtept lat="52.355716" lon="4.847647"><ele>0.0</ele></rtept>
    <rtept lat="52.355696" lon="4.847764"><ele>0.0</ele></rtept>
    <rtept lat="52.355618" lon="4.847741"><ele>0.0</ele></rtept>
    <rtept lat="52.355373" lon="4.847743"><ele>0.0</ele></rtept>
    <rtept lat="52.355353" lon="4.847743"><ele>0.0</ele></rtept>
    <rtept lat="52.355259" lon="4.847746"><ele>0.0</ele></rtept>
    <rtept lat="52.355075" lon="4.847750"><ele>0.0</ele></rtept>
    <rtept lat="52.355001" lon="4.847821"><ele>0.0</ele></rtept>
    <rtept lat="52.354973" lon="4.847946"><ele>0.0</ele></rtept>
    <rtept lat="52.354974" lon="4.848280"><ele>0.0</ele></rtept>
    <rtept lat="52.354975" lon="4.848883"><ele>0.0</ele></rtept>
    <rtept lat="52.354975" lon="4.848986"><ele>0.0</ele></rtept>
    <rtept lat="52.354973" lon="4.849227"><ele>0.0</ele></rtept>
    <rtept lat="52.354949" lon="4.849337"><ele>0.0</ele></rtept>
    <rtept lat="52.354949" lon="4.849465"><ele>0.0</ele></rtept>
    <rtept lat="52.354950" lon="4.850331"><ele>0.0</ele></rtept>
    <rtept lat="52.354958" lon="4.851351"><ele>0.0</ele></rtept>
    <rtept lat="52.354958" lon="4.851413"><ele>0.0</ele></rtept>
    <rtept lat="52.354869" lon="4.851720"><ele>0.0</ele></rtept>
    <rtept lat="52.354858" lon="4.852258"><ele>0.0</ele></rtept>
    <rtept lat="52.354807" lon="4.853236"><ele>0.0</ele></rtept>
    <rtept lat="52.354799" lon="4.853313"><ele>0.0</ele></rtept>
    <rtept lat="52.354745" lon="4.853865"><ele>0.0</ele></rtept>
    <rtept lat="52.354741" lon="4.853911"><ele>0.0</ele></rtept>
    <rtept lat="52.354739" lon="4.853932"><ele>0.0</ele></rtept>
    <rtept lat="52.354709" lon="4.854271"><ele>0.0</ele></rtept>
    <rtept lat="52.354708" lon="4.854539"><ele>0.0</ele></rtept>
    <rtept lat="52.354749" lon="4.854963"><ele>0.0</ele></rtept>
    <rtept lat="52.354813" lon="4.855248"><ele>0.0</ele></rtept>
    <rtept lat="52.354848" lon="4.855358"><ele>0.0</ele></rtept>
    <rtept lat="52.354885" lon="4.855530"><ele>0.0</ele></rtept>
    <rtept lat="52.354910" lon="4.855644"><ele>0.0</ele></rtept>
    <rtept lat="52.354933" lon="4.855749"><ele>0.0</ele></rtept>
    <rtept lat="52.354950" lon="4.855817"><ele>0.0</ele></rtept>
    <rtept lat="52.354975" lon="4.855926"><ele>0.0</ele></rtept>
    <rtept lat="52.355019" lon="4.856172"><ele>0.0</ele></rtept>
    <rtept lat="52.355087" lon="4.856547"><ele>0.0</ele></rtept>
    <rtept lat="52.355144" lon="4.856869"><ele>0.0</ele></rtept>
    <rtept lat="52.355164" lon="4.856980"><ele>0.0</ele></rtept>
    <rtept lat="52.355125" lon="4.857495"><ele>0.0</ele></rtept>
    <rtept lat="52.355111" lon="4.857860"><ele>0.0</ele></rtept>
    <rtept lat="52.355112" lon="4.858225"><ele>0.0</ele></rtept>
    <rtept lat="52.355136" lon="4.858636"><ele>0.0</ele></rtept>
    <rtept lat="52.355201" lon="4.859118"><ele>0.0</ele></rtept>
    <rtept lat="52.355306" lon="4.859656"><ele>0.0</ele></rtept>
    <rtept lat="52.355514" lon="4.860370"><ele>0.0</ele></rtept>
    <rtept lat="52.355781" lon="4.861175"><ele>0.0</ele></rtept>
    <rtept lat="52.355892" lon="4.861644"><ele>0.0</ele></rtept>
    <rtept lat="52.355959" lon="4.861963"><ele>0.0</ele></rtept>
    <rtept lat="52.356075" lon="4.862843"><ele>0.0</ele></rtept>
    <rtept lat="52.356141" lon="4.863722"><ele>0.0</ele></rtept>
    <rtept lat="52.356165" lon="4.864396"><ele>0.0</ele></rtept>
    <rtept lat="52.356173" lon="4.864611"><ele>0.0</ele></rtept>
    <rtept lat="52.356178" lon="4.864776"><ele>0.0</ele></rtept>
    <rtept lat="52.356225" lon="4.865368"><ele>0.0</ele></rtept>
    <rtept lat="52.356296" lon="4.865884"><ele>0.0</ele></rtept>
    <rtept lat="52.356309" lon="4.865979"><ele>0.0</ele></rtept>
    <rtept lat="52.356361" lon="4.866225"><ele>0.0</ele></rtept>
    <rtept lat="52.356383" lon="4.866335"><ele>0.0</ele></rtept>
    <rtept lat="52.356576" lon="4.867088"><ele>0.0</ele></rtept>
    <rtept lat="52.356606" lon="4.867162"><ele>0.0</ele></rtept>
    <rtept lat="52.356831" lon="4.867889"><ele>0.0</ele></rtept>
    <rtept lat="52.357176" lon="4.868677"><ele>0.0</ele></rtept>
    <rtept lat="52.357299" lon="4.868917"><ele>0.0</ele></rtept>
    <rtept lat="52.357439" lon="4.869165"><ele>0.0</ele></rtept>
    <rtept lat="52.357480" lon="4.869388"><ele>0.0</ele></rtept>
    <rtept lat="52.357453" lon="4.869798"><ele>0.0</ele></rtept>
    <rtept lat="52.357451" lon="4.870079"><ele>0.0</ele></rtept>
    <rtept lat="52.357469" lon="4.870302"><ele>0.0</ele></rtept>
    <rtept lat="52.357524" lon="4.870586"><ele>0.0</ele></rtept>
    <rtept lat="52.357653" lon="4.870989"><ele>0.0</ele></rtept>
    <rtept lat="52.357954" lon="4.871633"><ele>0.0</ele></rtept>
    <rtept lat="52.358000" lon="4.871830"><ele>0.0</ele></rtept>
    <rtept lat="52.358141" lon="4.872797"><ele>0.0</ele></rtept>
    <rtept lat="52.358198" lon="4.873099"><ele>0.0</ele></rtept>
    <rtept lat="52.358348" lon="4.873634"><ele>0.0</ele></rtept>
    <rtept lat="52.358470" lon="4.873954"><ele>0.0</ele></rtept>
    <rtept lat="52.358757" lon="4.874366"><ele>0.0</ele></rtept>
    <rtept lat="52.358788" lon="4.874398"><ele>0.0</ele></rtept>
    <rtept lat="52.358818" lon="4.874430"><ele>0.0</ele></rtept>
    <rtept lat="52.359127" lon="4.874688"><ele>0.0</ele></rtept>
    <rtept lat="52.359233" lon="4.874744"><ele>0.0</ele></rtept>
    <rtept lat="52.359557" lon="4.874821"><ele>0.0</ele></rtept>
    <rtept lat="52.359619" lon="4.874960"><ele>0.0</ele></rtept>
    <rtept lat="52.359741" lon="4.875216"><ele>0.0</ele></rtept>
    <rtept lat="52.359856" lon="4.875386"><ele>0.0</ele></rtept>
    <rtept lat="52.359946" lon="4.875509"><ele>0.0</ele></rtept>
    <rtept lat="52.360174" lon="4.875739"><ele>0.0</ele></rtept>
    <rtept lat="52.360226" lon="4.875819"><ele>0.0</ele></rtept>
    <rtept lat="52.360291" lon="4.875991"><ele>0.0</ele></rtept>
    <rtept lat="52.360560" lon="4.877055"><ele>0.0</ele></rtept>
    <rtept lat="52.360613" lon="4.877399"><ele>0.0</ele></rtept>
    <rtept lat="52.360656" lon="4.878008"><ele>0.0</ele></rtept>
    <rtept lat="52.360715" lon="4.878577"><ele>0.0</ele></rtept>
    <rtept lat="52.360803" lon="4.879091"><ele>0.0</ele></rtept>
    <rtept lat="52.360913" lon="4.879514"><ele>0.0</ele></rtept>
    <rtept lat="52.361251" lon="4.880443"><ele>0.0</ele></rtept>
    <rtept lat="52.361552" lon="4.881457"><ele>0.0</ele></rtept>
    <rtept lat="52.361590" lon="4.881567"><ele>0.0</ele></rtept>
    <rtept lat="52.361676" lon="4.881727"><ele>0.0</ele></rtept>
    <rtept lat="52.361699" lon="4.881761"><ele>0.0</ele></rtept>
    <rtept lat="52.361739" lon="4.881810"><ele>0.0</ele></rtept>
    <rtept lat="52.361800" lon="4.881901"><ele>0.0</ele></rtept>
    <rtept lat="52.361904" lon="4.882023"><ele>0.0</ele></rtept>
    <rtept lat="52.361928" lon="4.882018"><ele>0.0</ele></rtept>
    <rtept lat="52.361943" lon="4.882044"><ele>0.0</ele></rtept>
    <rtept lat="52.362109" lon="4.882296"><ele>0.0</ele></rtept>
    <rtept lat="52.362118" lon="4.882312"><ele>0.0</ele></rtept>
    <rtept lat="52.362209" lon="4.882483"><ele>0.0</ele></rtept>
    <rtept lat="52.362265" lon="4.882660"><ele>0.0</ele></rtept>
    <rtept lat="52.362269" lon="4.882762"><ele>0.0</ele></rtept>
    <rtept lat="52.362240" lon="4.883000"><ele>0.0</ele></rtept>
    <rtept lat="52.362255" lon="4.883109"><ele>0.0</ele></rtept>
    <rtept lat="52.362405" lon="4.883354"><ele>0.0</ele></rtept>
    <rtept lat="52.362441" lon="4.883408"><ele>0.0</ele></rtept>
    <rtept lat="52.362522" lon="4.883614"><ele>0.0</ele></rtept>
    <rtept lat="52.362546" lon="4.883680"><ele>0.0</ele></rtept>
    <rtept lat="52.362450" lon="4.883848"><ele>0.0</ele></rtept>
    <rtept lat="52.362245" lon="4.884268"><ele>0.0</ele></rtept>
    <rtept lat="52.361312" lon="4.886203"><ele>0.0</ele></rtept>
    <rtept lat="52.361164" lon="4.886479"><ele>0.0</ele></rtept>
    <rtept lat="52.361103" lon="4.886577"><ele>0.0</ele></rtept>
    <rtept lat="52.361067" lon="4.886622"><ele>0.0</ele></rtept>
    <rtept lat="52.361058" lon="4.886709"><ele>0.0</ele></rtept>
    <rtept lat="52.361032" lon="4.886778"><ele>0.0</ele></rtept>
    <rtept lat="52.360987" lon="4.886919"><ele>0.0</ele></rtept>
    <rtept lat="52.360484" lon="4.888010"><ele>0.0</ele></rtept>
    <rtept lat="52.360459" lon="4.888066"><ele>0.0</ele></rtept>
    <rtept lat="52.360426" lon="4.888134"><ele>0.0</ele></rtept>
    <rtept lat="52.360409" lon="4.888168"><ele>0.0</ele></rtept>
    <rtept lat="52.360265" lon="4.888471"><ele>0.0</ele></rtept>
    <rtept lat="52.359899" lon="4.889229"><ele>0.0</ele></rtept>
    <rtept lat="52.359759" lon="4.889568"><ele>0.0</ele></rtept>
    <rtept lat="52.359625" lon="4.890088"><ele>0.0</ele></rtept>
    <rtept lat="52.359591" lon="4.890204"><ele>0.0</ele></rtept>
    <rtept lat="52.359546" lon="4.890290"><ele>0.0</ele></rtept>
    <rtept lat="52.359534" lon="4.890403"><ele>0.0</ele></rtept>
    <rtept lat="52.359535" lon="4.890548"><ele>0.0</ele></rtept>
    <rtept lat="52.359519" lon="4.890921"><ele>0.0</ele></rtept>
    <rtept lat="52.359470" lon="4.891337"><ele>0.0</ele></rtept>
    <rtept lat="52.359443" lon="4.891518"><ele>0.0</ele></rtept>
    <rtept lat="52.359401" lon="4.891713"><ele>0.0</ele></rtept>
    <rtept lat="52.359402" lon="4.891762"><ele>0.0</ele></rtept>
    <rtept lat="52.359397" lon="4.892128"><ele>0.0</ele></rtept>
    <rtept lat="52.359437" lon="4.892781"><ele>0.0</ele></rtept>
    <rtept lat="52.359438" lon="4.892944"><ele>0.0</ele></rtept>
    <rtept lat="52.359450" lon="4.893161"><ele>0.0</ele></rtept>
    <rtept lat="52.359268" lon="4.896366"><ele>0.0</ele></rtept>
    <rtept lat="52.359269" lon="4.897239"><ele>0.0</ele></rtept>
    <rtept lat="52.359271" lon="4.897317"><ele>0.0</ele></rtept>
    <rtept lat="52.359283" lon="4.897502"><ele>0.0</ele></rtept>
    <rtept lat="52.359310" lon="4.897658"><ele>0.0</ele></rtept>
    <rtept lat="52.359404" lon="4.898376"><ele>0.0</ele></rtept>
    <rtept lat="52.359437" lon="4.898626"><ele>0.0</ele></rtept>
    <rtept lat="52.359473" lon="4.898892"><ele>0.0</ele></rtept>
    <rtept lat="52.359500" lon="4.899089"><ele>0.0</ele></rtept>
    <rtept lat="52.359720" lon="4.900673"><ele>0.0</ele></rtept>
    <rtept lat="52.359782" lon="4.901084"><ele>0.0</ele></rtept>
    <rtept lat="52.359792" lon="4.901145"><ele>0.0</ele></rtept>
    <rtept lat="52.359810" lon="4.901254"><ele>0.0</ele></rtept>
    <rtept lat="52.359835" lon="4.901409"><ele>0.0</ele></rtept>
    <rtept lat="52.359926" lon="4.901919"><ele>0.0</ele></rtept>
    <rtept lat="52.360068" lon="4.902766"><ele>0.0</ele></rtept>
    <rtept lat="52.360183" lon="4.903325"><ele>0.0</ele></rtept>
    <rtept lat="52.360193" lon="4.903372"><ele>0.0</ele></rtept>
    <rtept lat="52.360207" lon="4.903444"><ele>0.0</ele></rtept>
    <rtept lat="52.360433" lon="4.904613"><ele>0.0</ele></rtept>
    <rtept lat="52.360453" lon="4.904720"><ele>0.0</ele></rtept>
    <rtept lat="52.360518" lon="4.905108"><ele>0.0</ele></rtept>
    <rtept lat="52.360526" lon="4.905210"><ele>0.0</ele></rtept>
    <rtept lat="52.360554" lon="4.905356"><ele>0.0</ele></rtept>
    <rtept lat="52.360624" lon="4.905585"><ele>0.0</ele></rtept>
    <rtept lat="52.360799" lon="4.906475"><ele>0.0</ele></rtept>
    <rtept lat="52.360823" lon="4.906600"><ele>0.0</ele></rtept>
    <rtept lat="52.360880" lon="4.906891"><ele>0.0</ele></rtept>
    <rtept lat="52.360892" lon="4.907092"><ele>0.0</ele></rtept>
    <rtept lat="52.361017" lon="4.907732"><ele>0.0</ele></rtept>
    <rtept lat="52.361020" lon="4.907815"><ele>0.0</ele></rtept>
    <rtept lat="52.360965" lon="4.907853"><ele>0.0</ele></rtept>
    <rtept lat="52.360645" lon="4.908051"><ele>0.0</ele></rtept>
    <rtept lat="52.360375" lon="4.908218"><ele>0.0</ele></rtept>
    <rtept lat="52.360351" lon="4.908231"><ele>0.0</ele></rtept>
    <rtept lat="52.360278" lon="4.908276"><ele>0.0</ele></rtept>
    <rtept lat="52.360093" lon="4.908388"><ele>0.0</ele></rtept>
    <rtept lat="52.359914" lon="4.908486"><ele>0.0</ele></rtept>
    <rtept lat="52.359933" lon="4.908632"><ele>0.0</ele></rtept>
    <rtept lat="52.359984" lon="4.908846"><ele>0.0</ele></rtept>
    <rtept lat="52.360010" lon="4.908967"><ele>0.0</ele></rtept>
    <rtept lat="52.360051" lon="4.909003"><ele>0.0</ele></rtept>
    <rtept lat="52.360118" lon="4.909292"><ele>0.0</ele></rtept>
    <rtept lat="52.360132" lon="4.909526"><ele>0.0</ele></rtept>
    <rtept lat="52.360107" lon="4.910223"><ele>0.0</ele></rtept>
    <rtept lat="52.360123" lon="4.910340"><ele>0.0</ele></rtept>
    <rtept lat="52.360135" lon="4.910422"><ele>0.0</ele></rtept>
    <rtept lat="52.360171" lon="4.910583"><ele>0.0</ele></rtept>
    <rtept lat="52.360206" lon="4.910685"><ele>0.0</ele></rtept>
    <rtept lat="52.360264" lon="4.910849"><ele>0.0</ele></rtept>
    <rtept lat="52.360386" lon="4.911097"><ele>0.0</ele></rtept>
    <rtept lat="52.360469" lon="4.911186"><ele>0.0</ele></rtept>
    <rtept lat="52.360535" lon="4.911223"><ele>0.0</ele></rtept>
    <rtept lat="52.360820" lon="4.911813"><ele>0.0</ele></rtept>
    <rtept lat="52.360918" lon="4.912049"><ele>0.0</ele></rtept>
    <rtept lat="52.360977" lon="4.912304"><ele>0.0</ele></rtept>
    <rtept lat="52.361075" lon="4.913522"><ele>0.0</ele></rtept>
    <rtept lat="52.361145" lon="4.914049"><ele>0.0</ele></rtept>
    <rtept lat="52.361370" lon="4.915040"><ele>0.0</ele></rtept>
    <rtept lat="52.361428" lon="4.915252"><ele>0.0</ele></rtept>
    <rtept lat="52.361484" lon="4.915220"><ele>0.0</ele></rtept>
    <rtept lat="52.361560" lon="4.915509"><ele>0.0</ele></rtept>
    <rtept lat="52.361723" lon="4.916073"><ele>0.0</ele></rtept>
    <rtept lat="52.361793" lon="4.916491"><ele>0.0</ele></rtept>
    <rtept lat="52.361830" lon="4.917160"><ele>0.0</ele></rtept>
    <rtept lat="52.361873" lon="4.917953"><ele>0.0</ele></rtept>
    <rtept lat="52.361912" lon="4.918276"><ele>0.0</ele></rtept>
    <rtept lat="52.361995" lon="4.918635"><ele>0.0</ele></rtept>
    <rtept lat="52.362051" lon="4.918831"><ele>0.0</ele></rtept>
    <rtept lat="52.362016" lon="4.918869"><ele>0.0</ele></rtept>
    <rtept lat="52.362054" lon="4.918966"><ele>0.0</ele></rtept>
    <rtept lat="52.362364" lon="4.919485"><ele>0.0</ele></rtept>
    <rtept lat="52.362608" lon="4.919830"><ele>0.0</ele></rtept>
    <rtept lat="52.362732" lon="4.920032"><ele>0.0</ele></rtept>
    <rtept lat="52.362800" lon="4.920197"><ele>0.0</ele></rtept>
    <rtept lat="52.362859" lon="4.920382"><ele>0.0</ele></rtept>
    <rtept lat="52.362880" lon="4.920483"><ele>0.0</ele></rtept>
    <rtept lat="52.362926" lon="4.920740"><ele>0.0</ele></rtept>
    <rtept lat="52.363010" lon="4.921685"><ele>0.0</ele></rtept>
    <rtept lat="52.363031" lon="4.922347"><ele>0.0</ele></rtept>
    <rtept lat="52.363032" lon="4.922396"><ele>0.0</ele></rtept>
    <rtept lat="52.363037" lon="4.922652"><ele>0.0</ele></rtept>
    <rtept lat="52.363038" lon="4.922675"><ele>0.0</ele></rtept>
    <rtept lat="52.363025" lon="4.923052"><ele>0.0</ele></rtept>
    <rtept lat="52.363048" lon="4.923137"><ele>0.0</ele></rtept>
    <rtept lat="52.363213" lon="4.923448"><ele>0.0</ele></rtept>
    <rtept lat="52.363255" lon="4.923502"><ele>0.0</ele></rtept>
    <rtept lat="52.363291" lon="4.923509"><ele>0.0</ele></rtept>
    <rtept lat="52.363697" lon="4.923312"><ele>0.0</ele></rtept>
    <rtept lat="52.363767" lon="4.923286"><ele>0.0</ele></rtept>
    <rtept lat="52.363849" lon="4.923301"><ele>0.0</ele></rtept>
    <rtept lat="52.363957" lon="4.923447"><ele>0.0</ele></rtept>
    <rtept lat="52.364004" lon="4.923462"><ele>0.0</ele></rtept>
    <rtept lat="52.364515" lon="4.924273"><ele>0.0</ele></rtept>
    <rtept lat="52.364991" lon="4.925126"><ele>0.0</ele></rtept>
    <rtept lat="52.365279" lon="4.925716"><ele>0.0</ele></rtept>
    <rtept lat="52.365282" lon="4.925803"><ele>0.0</ele></rtept>
    <rtept lat="52.365325" lon="4.925942"><ele>0.0</ele></rtept>
    <rtept lat="52.365666" lon="4.926590"><ele>0.0</ele></rtept>
    <rtept lat="52.365677" lon="4.926687"><ele>0.0</ele></rtept>
    <rtept lat="52.365684" lon="4.926759"><ele>0.0</ele></rtept>
    <rtept lat="52.365717" lon="4.926928"><ele>0.0</ele></rtept>
    <rtept lat="52.365745" lon="4.927047"><ele>0.0</ele></rtept>
    <rtept lat="52.365767" lon="4.927057"><ele>0.0</ele></rtept>
    <rtept lat="52.365829" lon="4.927037"><ele>0.0</ele></rtept>
    <rtept lat="52.365841" lon="4.927106"><ele>0.0</ele></rtept>
    <rtept lat="52.365916" lon="4.928762"><ele>0.0</ele></rtept>
    <rtept lat="52.365960" lon="4.930063"><ele>0.0</ele></rtept>
    <rtept lat="52.365952" lon="4.930318"><ele>0.0</ele></rtept>
    <rtept lat="52.365975" lon="4.930591"><ele>0.0</ele></rtept>
    <rtept lat="52.365986" lon="4.931137"><ele>0.0</ele></rtept>
    <rtept lat="52.365989" lon="4.931250"><ele>0.0</ele></rtept>
    <rtept lat="52.366006" lon="4.931734"><ele>0.0</ele></rtept>
    <rtept lat="52.366010" lon="4.931852"><ele>0.0</ele></rtept>
    <rtept lat="52.366014" lon="4.931967"><ele>0.0</ele></rtept>
    <rtept lat="52.366019" lon="4.932168"><ele>0.0</ele></rtept>
    <rtept lat="52.366037" lon="4.932737"><ele>0.0</ele></rtept>
    <rtept lat="52.366038" lon="4.932854"><ele>0.0</ele></rtept>
    <rtept lat="52.366042" lon="4.933010"><ele>0.0</ele></rtept>
    <rtept lat="52.366069" lon="4.933528"><ele>0.0</ele></rtept>
    <rtept lat="52.366096" lon="4.933656"><ele>0.0</ele></rtept>
    <rtept lat="52.366139" lon="4.933765"><ele>0.0</ele></rtept>
    <rtept lat="52.366081" lon="4.933852"><ele>0.0</ele></rtept>
    <rtept lat="52.366024" lon="4.933853"><ele>0.0</ele></rtept>
    <rtept lat="52.366031" lon="4.934636"><ele>0.0</ele></rtept>
    <rtept lat="52.366046" lon="4.936641"><ele>0.0</ele></rtept>
    <rtept lat="52.366053" lon="4.937297"><ele>0.0</ele></rtept>
    <rtept lat="52.366060" lon="4.938003"><ele>0.0</ele></rtept>
    <rtept lat="52.366076" lon="4.939202"><ele>0.0</ele></rtept>
    <rtept lat="52.366065" lon="4.939316"><ele>0.0</ele></rtept>
    <rtept lat="52.366051" lon="4.939353"><ele>0.0</ele></rtept>
    <rtept lat="52.366053" lon="4.939477"><ele>0.0</ele></rtept>
    <rtept lat="52.366054" lon="4.939598"><ele>0.0</ele></rtept>
    <rtept lat="52.366067" lon="4.939629"><ele>0.0</ele></rtept>
    <rtept lat="52.366076" lon="4.942135"><ele>0.0</ele></rtept>
    <rtept lat="52.366083" lon="4.942782"><ele>0.0</ele></rtept>
    <rtept lat="52.366089" lon="4.943700"><ele>0.0</ele></rtept>
    <rtept lat="52.366090" lon="4.944926"><ele>0.0</ele></rtept>
    <rtept lat="52.366094" lon="4.945902"><ele>0.0</ele></rtept>
    <rtept lat="52.366095" lon="4.945980"><ele>0.0</ele></rtept>
    <rtept lat="52.366095" lon="4.946413"><ele>0.0</ele></rtept>
    <rtept lat="52.366091" lon="4.946993"><ele>0.0</ele></rtept>
    <rtept lat="52.366049" lon="4.947252"><ele>0.0</ele></rtept>
    <rtept lat="52.365983" lon="4.947487"><ele>0.0</ele></rtept>
    <rtept lat="52.365848" lon="4.947759"><ele>0.0</ele></rtept>
    <rtept lat="52.365678" lon="4.947965"><ele>0.0</ele></rtept>
    <rtept lat="52.365598" lon="4.948047"><ele>0.0</ele></rtept>
    <rtept lat="52.365459" lon="4.948150"><ele>0.0</ele></rtept>
    <rtept lat="52.365325" lon="4.948144"><ele>0.0</ele></rtept>
    <rtept lat="52.365018" lon="4.948475"><ele>0.0</ele></rtept>
    <rtept lat="52.365102" lon="4.948649"><ele>0.0</ele></rtept>
    <rtept lat="52.365144" lon="4.948752"><ele>0.0</ele></rtept>
    <rtept lat="52.365214" lon="4.948763"><ele>0.0</ele></rtept>
    <rtept lat="52.365258" lon="4.949150"><ele>0.0</ele></rtept>
    <rtept lat="52.365320" lon="4.950793"><ele>0.0</ele></rtept>
    <rtept lat="52.365361" lon="4.951658"><ele>0.0</ele></rtept>
    <rtept lat="52.365743" lon="4.956097"><ele>0.0</ele></rtept>
    <rtept lat="52.365770" lon="4.956566"><ele>0.0</ele></rtept>
    <rtept lat="52.365906" lon="4.958095"><ele>0.0</ele></rtept>
    <rtept lat="52.366051" lon="4.959291"><ele>0.0</ele></rtept>
    <rtept lat="52.366158" lon="4.959792"><ele>0.0</ele></rtept>
    <rtept lat="52.366293" lon="4.960241"><ele>0.0</ele></rtept>
    <rtept lat="52.366487" lon="4.960721"><ele>0.0</ele></rtept>
    <rtept lat="52.366594" lon="4.960942"><ele>0.0</ele></rtept>
    <rtept lat="52.366746" lon="4.961206"><ele>0.0</ele></rtept>
    <rtept lat="52.366920" lon="4.961457"><ele>0.0</ele></rtept>
    <rtept lat="52.367166" lon="4.961751"><ele>0.0</ele></rtept>
    <rtept lat="52.367315" lon="4.961900"><ele>0.0</ele></rtept>
    <rtept lat="52.367602" lon="4.962112"><ele>0.0</ele></rtept>
    <rtept lat="52.367755" lon="4.962209"><ele>0.0</ele></rtept>
    <rtept lat="52.368078" lon="4.962341"><ele>0.0</ele></rtept>
    <rtept lat="52.368402" lon="4.962408"><ele>0.0</ele></rtept>
    <rtept lat="52.370040" lon="4.962481"><ele>0.0</ele></rtept>
    <rtept lat="52.370150" lon="4.962494"><ele>0.0</ele></rtept>
    <rtept lat="52.370318" lon="4.962567"><ele>0.0</ele></rtept>
    <rtept lat="52.370444" lon="4.962592"><ele>0.0</ele></rtept>
    <rtept lat="52.370561" lon="4.962602"><ele>0.0</ele></rtept>
    <rtept lat="52.370630" lon="4.962607"><ele>0.0</ele></rtept>
    <rtept lat="52.370756" lon="4.962608"><ele>0.0</ele></rtept>
    <rtept lat="52.371195" lon="4.962618"><ele>0.0</ele></rtept>
    <rtept lat="52.371680" lon="4.962630"><ele>0.0</ele></rtept>
    <rtept lat="52.371799" lon="4.962640"><ele>0.0</ele></rtept>
    <rtept lat="52.371822" lon="4.962673"><ele>0.0</ele></rtept>
    <rtept lat="52.371927" lon="4.962660"><ele>0.0</ele></rtept>
    <rtept lat="52.372018" lon="4.962653"><ele>0.0</ele></rtept>
    <rtept lat="52.372110" lon="4.962650"><ele>0.0</ele></rtept>
    <rtept lat="52.372289" lon="4.962656"><ele>0.0</ele></rtept>
    <rtept lat="52.372394" lon="4.962653"><ele>0.0</ele></rtept>
    <rtept lat="52.373576" lon="4.962688"><ele>0.0</ele></rtept>
    <rtept lat="52.373713" lon="4.962694"><ele>0.0</ele></rtept>
    <rtept lat="52.373824" lon="4.962696"><ele>0.0</ele></rtept>
    <rtept lat="52.373918" lon="4.962697"><ele>0.0</ele></rtept>
    <rtept lat="52.374286" lon="4.962748"><ele>0.0</ele></rtept>
    <rtept lat="52.374549" lon="4.962840"><ele>0.0</ele></rtept>
    <rtept lat="52.374715" lon="4.962923"><ele>0.0</ele></rtept>
    <rtept lat="52.374897" lon="4.963019"><ele>0.0</ele></rtept>
    <rtept lat="52.375227" lon="4.963104"><ele>0.0</ele></rtept>
    <rtept lat="52.375408" lon="4.963233"><ele>0.0</ele></rtept>
    <rtept lat="52.375747" lon="4.963523"><ele>0.0</ele></rtept>
    <rtept lat="52.376137" lon="4.963940"><ele>0.0</ele></rtept>
    <rtept lat="52.379401" lon="4.968296"><ele>0.0</ele></rtept>
    <rtept lat="52.379997" lon="4.969072"><ele>0.0</ele></rtept>
    <rtept lat="52.380199" lon="4.969307"><ele>0.0</ele></rtept>
    <rtept lat="52.380664" lon="4.969754"><ele>0.0</ele></rtept>
    <rtept lat="52.381073" lon="4.970075"><ele>0.0</ele></rtept>
    <rtept lat="52.381460" lon="4.970332"><ele>0.0</ele></rtept>
    <rtept lat="52.381751" lon="4.970485"><ele>0.0</ele></rtept>
    <rtept lat="52.381839" lon="4.970529"><ele>0.0</ele></rtept>
    <rtept lat="52.382384" lon="4.970800"><ele>0.0</ele></rtept>
    <rtept lat="52.382505" lon="4.970960"><ele>0.0</ele></rtept>
    <rtept lat="52.382549" lon="4.971262"><ele>0.0</ele></rtept>
    <rtept lat="52.382599" lon="4.971304"><ele>0.0</ele></rtept>
    <rtept lat="52.382652" lon="4.971356"><ele>0.0</ele></rtept>
    <rtept lat="52.382797" lon="4.971524"><ele>0.0</ele></rtept>
    <rtept lat="52.382884" lon="4.971894"><ele>0.0</ele></rtept>
    <rtept lat="52.382992" lon="4.972425"><ele>0.0</ele></rtept>
    <rtept lat="52.383036" lon="4.972647"><ele>0.0</ele></rtept>
    <rtept lat="52.383264" lon="4.973728"><ele>0.0</ele></rtept>
    <rtept lat="52.383288" lon="4.974081"><ele>0.0</ele></rtept>
    <rtept lat="52.383310" lon="4.974350"><ele>0.0</ele></rtept>
    <rtept lat="52.383628" lon="4.975854"><ele>0.0</ele></rtept>
    <rtept lat="52.383657" lon="4.975850"><ele>0.0</ele></rtept>
    <rtept lat="52.384034" lon="4.975900"><ele>0.0</ele></rtept>
    <rtept lat="52.384173" lon="4.975867"><ele>0.0</ele></rtept>
    <rtept lat="52.385305" lon="4.975406"><ele>0.0</ele></rtept>
    <rtept lat="52.385543" lon="4.975346"><ele>0.0</ele></rtept>
    <rtept lat="52.386043" lon="4.975403"><ele>0.0</ele></rtept>
    <rtept lat="52.386276" lon="4.975406"><ele>0.0</ele></rtept>
    <rtept lat="52.386479" lon="4.975376"><ele>0.0</ele></rtept>
    <rtept lat="52.386579" lon="4.975309"><ele>0.0</ele></rtept>
    <rtept lat="52.386886" lon="4.974878"><ele>0.0</ele></rtept>
    <rtept lat="52.387266" lon="4.974485"><ele>0.0</ele></rtept>
    <rtept lat="52.387614" lon="4.974245"><ele>0.0</ele></rtept>
    <rtept lat="52.387888" lon="4.974096"><ele>0.0</ele></rtept>
    <rtept lat="52.387921" lon="4.973973"><ele>0.0</ele></rtept>
    <rtept lat="52.387896" lon="4.973817"><ele>0.0</ele></rtept>
    <rtept lat="52.387948" lon="4.973731"><ele>0.0</ele></rtept>
    <rtept lat="52.388036" lon="4.973684"><ele>0.0</ele></rtept>
    <rtept lat="52.388041" lon="4.973682"><ele>0.0</ele></rtept>
    <rtept lat="52.388259" lon="4.973526"><ele>0.0</ele></rtept>
    <rtept lat="52.388293" lon="4.973497"><ele>0.0</ele></rtept>
    <rtept lat="52.388535" lon="4.973292"><ele>0.0</ele></rtept>
    <rtept lat="52.388893" lon="4.972899"><ele>0.0</ele></rtept>
    <rtept lat="52.389801" lon="4.972227"><ele>0.0</ele></rtept>
    <rtept lat="52.392082" lon="4.970564"><ele>0.0</ele></rtept>
    <rtept lat="52.395279" lon="4.968206"><ele>0.0</ele></rtept>
    <rtept lat="52.395365" lon="4.968144"><ele>0.0</ele></rtept>
    <rtept lat="52.395495" lon="4.968065"><ele>0.0</ele></rtept>
    <rtept lat="52.396542" lon="4.967263"><ele>0.0</ele></rtept>
    <rtept lat="52.396652" lon="4.967176"><ele>0.0</ele></rtept>
    <rtept lat="52.396702" lon="4.967133"><ele>0.0</ele></rtept>
    <rtept lat="52.396801" lon="4.967041"><ele>0.0</ele></rtept>
    <rtept lat="52.397431" lon="4.966459"><ele>0.0</ele></rtept>
    <rtept lat="52.398437" lon="4.965403"><ele>0.0</ele></rtept>
    <rtept lat="52.398906" lon="4.964842"><ele>0.0</ele></rtept>
    <rtept lat="52.399619" lon="4.963941"><ele>0.0</ele></rtept>
    <rtept lat="52.400200" lon="4.963125"><ele>0.0</ele></rtept>
    <rtept lat="52.400824" lon="4.962165"><ele>0.0</ele></rtept>
    <rtept lat="52.401221" lon="4.961511"><ele>0.0</ele></rtept>
    <rtept lat="52.401897" lon="4.960270"><ele>0.0</ele></rtept>
    <rtept lat="52.402328" lon="4.959402"><ele>0.0</ele></rtept>
    <rtept lat="52.402409" lon="4.959344"><ele>0.0</ele></rtept>
    <rtept lat="52.402481" lon="4.959375"><ele>0.0</ele></rtept>
    <rtept lat="52.402823" lon="4.959642"><ele>0.0</ele></rtept>
    <rtept lat="52.402851" lon="4.959549"><ele>0.0</ele></rtept>
    <rtept lat="52.402905" lon="4.959351"><ele>0.0</ele></rtept>
    <rtept lat="52.402935" lon="4.959256"><ele>0.0</ele></rtept>
    <rtept lat="52.403194" lon="4.959456"><ele>0.0</ele></rtept>
    <rtept lat="52.403282" lon="4.959483"><ele>0.0</ele></rtept>
    <rtept lat="52.403412" lon="4.959468"><ele>0.0</ele></rtept>
    <rtept lat="52.404412" lon="4.959161"><ele>0.0</ele></rtept>
    <rtept lat="52.405247" lon="4.958831"><ele>0.0</ele></rtept>
    <rtept lat="52.405607" lon="4.958666"><ele>0.0</ele></rtept>
    <rtept lat="52.405758" lon="4.958519"><ele>0.0</ele></rtept>
    <rtept lat="52.405863" lon="4.958336"><ele>0.0</ele></rtept>
    <rtept lat="52.405951" lon="4.958078"><ele>0.0</ele></rtept>
    <rtept lat="52.406292" lon="4.957285"><ele>0.0</ele></rtept>
    <rtept lat="52.406383" lon="4.956980"><ele>0.0</ele></rtept>
    <rtept lat="52.406695" lon="4.955700"><ele>0.0</ele></rtept>
    <rtept lat="52.406935" lon="4.954582"><ele>0.0</ele></rtept>
    <rtept lat="52.407301" lon="4.953046"><ele>0.0</ele></rtept>
    <rtept lat="52.407448" lon="4.952532"><ele>0.0</ele></rtept>
    <rtept lat="52.407646" lon="4.951628"><ele>0.0</ele></rtept>
    <rtept lat="52.406721" lon="4.950653"><ele>0.0</ele></rtept>
    <rtept lat="52.406672" lon="4.950602"><ele>0.0</ele></rtept>
    <rtept lat="52.406100" lon="4.950008"><ele>0.0</ele></rtept>
    <rtept lat="52.405391" lon="4.949220"><ele>0.0</ele></rtept>
    <rtept lat="52.404716" lon="4.949440"><ele>0.0</ele></rtept>
    <rtept lat="52.404677" lon="4.949442"><ele>0.0</ele></rtept>
    <rtept lat="52.404626" lon="4.949402"><ele>0.0</ele></rtept>
    <rtept lat="52.404508" lon="4.949284"><ele>0.0</ele></rtept>
    <rtept lat="52.404317" lon="4.949088"><ele>0.0</ele></rtept>
    <rtept lat="52.404002" lon="4.948737"><ele>0.0</ele></rtept>
    <rtept lat="52.403889" lon="4.948616"><ele>0.0</ele></rtept>
    <rtept lat="52.403604" lon="4.948306"><ele>0.0</ele></rtept>
    <rtept lat="52.403555" lon="4.948270"><ele>0.0</ele></rtept>
    <rtept lat="52.403513" lon="4.948268"><ele>0.0</ele></rtept>
    <rtept lat="52.403447" lon="4.948336"><ele>0.0</ele></rtept>
    <rtept lat="52.403319" lon="4.948394"><ele>0.0</ele></rtept>
    <rtept lat="52.403211" lon="4.948384"><ele>0.0</ele></rtept>
    <rtept lat="52.403147" lon="4.948330"><ele>0.0</ele></rtept>
    <rtept lat="52.403100" lon="4.948289"><ele>0.0</ele></rtept>
    <rtept lat="52.403014" lon="4.948141"><ele>0.0</ele></rtept>
    <rtept lat="52.402990" lon="4.948032"><ele>0.0</ele></rtept>
    <rtept lat="52.402973" lon="4.947759"><ele>0.0</ele></rtept>
    <rtept lat="52.402942" lon="4.947629"><ele>0.0</ele></rtept>
    <rtept lat="52.402767" lon="4.947380"><ele>0.0</ele></rtept>
    <rtept lat="52.402645" lon="4.947306"><ele>0.0</ele></rtept>
    <rtept lat="52.402503" lon="4.947277"><ele>0.0</ele></rtept>
    <rtept lat="52.402483" lon="4.947373"><ele>0.0</ele></rtept>
    <rtept lat="52.402441" lon="4.947404"><ele>0.0</ele></rtept>
    <rtept lat="52.402047" lon="4.947352"><ele>0.0</ele></rtept>
    <rtept lat="52.401895" lon="4.947384"><ele>0.0</ele></rtept>
    <rtept lat="52.401382" lon="4.946857"><ele>0.0</ele></rtept>
    <rtept lat="52.401241" lon="4.947204"><ele>0.0</ele></rtept>
    <rtept lat="52.401094" lon="4.947564"><ele>0.0</ele></rtept>
    <rtept lat="52.400912" lon="4.948015"><ele>0.0</ele></rtept>
    <rtept lat="52.400784" lon="4.948333"><ele>0.0</ele></rtept>
    <rtept lat="52.400695" lon="4.948373"><ele>0.0</ele></rtept>
    <rtept lat="52.400565" lon="4.948433"><ele>0.0</ele></rtept>
    <rtept lat="52.400513" lon="4.948556"><ele>0.0</ele></rtept>
    <rtept lat="52.400332" lon="4.948991"><ele>0.0</ele></rtept>
    <rtept lat="52.400227" lon="4.949262"><ele>0.0</ele></rtept>
    <rtept lat="52.400167" lon="4.949405"><ele>0.0</ele></rtept>
    <rtept lat="52.400130" lon="4.949509"><ele>0.0</ele></rtept>
    <rtept lat="52.399729" lon="4.950731"><ele>0.0</ele></rtept>
    <rtept lat="52.399490" lon="4.951517"><ele>0.0</ele></rtept>
    <rtept lat="52.399432" lon="4.951722"><ele>0.0</ele></rtept>
    <rtept lat="52.399366" lon="4.951944"><ele>0.0</ele></rtept>
    <rtept lat="52.399262" lon="4.952296"><ele>0.0</ele></rtept>
    <rtept lat="52.399121" lon="4.952769"><ele>0.0</ele></rtept>
    <rtept lat="52.399088" lon="4.952954"><ele>0.0</ele></rtept>
    <rtept lat="52.398966" lon="4.953361"><ele>0.0</ele></rtept>
    <rtept lat="52.398870" lon="4.953649"><ele>0.0</ele></rtept>
    <rtept lat="52.398752" lon="4.954060"><ele>0.0</ele></rtept>
    <rtept lat="52.398698" lon="4.954235"><ele>0.0</ele></rtept>
    <rtept lat="52.398449" lon="4.955087"><ele>0.0</ele></rtept>
    <rtept lat="52.398412" lon="4.955213"><ele>0.0</ele></rtept>
    <rtept lat="52.398211" lon="4.955898"><ele>0.0</ele></rtept>
    <rtept lat="52.397928" lon="4.956807"><ele>0.0</ele></rtept>
    <rtept lat="52.397888" lon="4.956861"><ele>0.0</ele></rtept>
    <rtept lat="52.397825" lon="4.956902"><ele>0.0</ele></rtept>
    <rtept lat="52.397608" lon="4.957060"><ele>0.0</ele></rtept>
    <rtept lat="52.397363" lon="4.957252"><ele>0.0</ele></rtept>
    <rtept lat="52.396807" lon="4.957660"><ele>0.0</ele></rtept>
    <rtept lat="52.396744" lon="4.957702"><ele>0.0</ele></rtept>
    <rtept lat="52.396637" lon="4.957785"><ele>0.0</ele></rtept>
    <rtept lat="52.396587" lon="4.957825"><ele>0.0</ele></rtept>
    <rtept lat="52.396251" lon="4.958067"><ele>0.0</ele></rtept>
    <rtept lat="52.395816" lon="4.958377"><ele>0.0</ele></rtept>
    <rtept lat="52.395687" lon="4.958468"><ele>0.0</ele></rtept>
    <rtept lat="52.395518" lon="4.958588"><ele>0.0</ele></rtept>
    <rtept lat="52.394843" lon="4.959081"><ele>0.0</ele></rtept>
    <rtept lat="52.394707" lon="4.959209"><ele>0.0</ele></rtept>
    <rtept lat="52.394006" lon="4.959696"><ele>0.0</ele></rtept>
    <rtept lat="52.393917" lon="4.959760"><ele>0.0</ele></rtept>
    <rtept lat="52.393027" lon="4.960407"><ele>0.0</ele></rtept>
    <rtept lat="52.392892" lon="4.960517"><ele>0.0</ele></rtept>
    <rtept lat="52.392676" lon="4.960689"><ele>0.0</ele></rtept>
    <rtept lat="52.392055" lon="4.961131"><ele>0.0</ele></rtept>
    <rtept lat="52.391857" lon="4.961278"><ele>0.0</ele></rtept>
    <rtept lat="52.390834" lon="4.962039"><ele>0.0</ele></rtept>
    <rtept lat="52.390116" lon="4.962560"><ele>0.0</ele></rtept>
    <rtept lat="52.390068" lon="4.962597"><ele>0.0</ele></rtept>
    <rtept lat="52.389866" lon="4.962750"><ele>0.0</ele></rtept>
    <rtept lat="52.389831" lon="4.962777"><ele>0.0</ele></rtept>
    <rtept lat="52.389514" lon="4.963018"><ele>0.0</ele></rtept>
    <rtept lat="52.389430" lon="4.963082"><ele>0.0</ele></rtept>
    <rtept lat="52.389645" lon="4.963991"><ele>0.0</ele></rtept>
    <rtept lat="52.389754" lon="4.964453"><ele>0.0</ele></rtept>
    <rtept lat="52.389826" lon="4.964790"><ele>0.0</ele></rtept>
    <rtept lat="52.389827" lon="4.964851"><ele>0.0</ele></rtept>
    <rtept lat="52.389793" lon="4.964889"><ele>0.0</ele></rtept>
    <rtept lat="52.389656" lon="4.964962"><ele>0.0</ele></rtept>
    <rtept lat="52.389449" lon="4.965102"><ele>0.0</ele></rtept>
    <rtept lat="52.388918" lon="4.965452"><ele>0.0</ele></rtept>
    <rtept lat="52.388764" lon="4.965411"><ele>0.0</ele></rtept>
    <rtept lat="52.388592" lon="4.965987"><ele>0.0</ele></rtept>
    <rtept lat="52.388375" lon="4.966507"><ele>0.0</ele></rtept>
    <rtept lat="52.388277" lon="4.966693"><ele>0.0</ele></rtept>
    <rtept lat="52.388031" lon="4.967081"><ele>0.0</ele></rtept>
    <rtept lat="52.387735" lon="4.967509"><ele>0.0</ele></rtept>
    <rtept lat="52.387660" lon="4.967574"><ele>0.0</ele></rtept>
    <rtept lat="52.387377" lon="4.967832"><ele>0.0</ele></rtept>
    <rtept lat="52.387051" lon="4.968151"><ele>0.0</ele></rtept>
    <rtept lat="52.386998" lon="4.968204"><ele>0.0</ele></rtept>
    <rtept lat="52.386870" lon="4.968310"><ele>0.0</ele></rtept>
    <rtept lat="52.386845" lon="4.968332"><ele>0.0</ele></rtept>
    <rtept lat="52.386785" lon="4.968391"><ele>0.0</ele></rtept>
    <rtept lat="52.386726" lon="4.968515"><ele>0.0</ele></rtept>
    <rtept lat="52.386692" lon="4.968553"><ele>0.0</ele></rtept>
    <rtept lat="52.386146" lon="4.969023"><ele>0.0</ele></rtept>
    <rtept lat="52.385650" lon="4.969461"><ele>0.0</ele></rtept>
    <rtept lat="52.385159" lon="4.969854"><ele>0.0</ele></rtept>
    <rtept lat="52.384869" lon="4.970039"><ele>0.0</ele></rtept>
    <rtept lat="52.384455" lon="4.970248"><ele>0.0</ele></rtept>
    <rtept lat="52.384155" lon="4.970364"><ele>0.0</ele></rtept>
    <rtept lat="52.383770" lon="4.970453"><ele>0.0</ele></rtept>
    <rtept lat="52.383311" lon="4.970403"><ele>0.0</ele></rtept>
    <rtept lat="52.382784" lon="4.970395"><ele>0.0</ele></rtept>
    <rtept lat="52.382668" lon="4.970354"><ele>0.0</ele></rtept>
    <rtept lat="52.382576" lon="4.970263"><ele>0.0</ele></rtept>
    <rtept lat="52.382489" lon="4.970259"><ele>0.0</ele></rtept>
    <rtept lat="52.382435" lon="4.970297"><ele>0.0</ele></rtept>
    <rtept lat="52.382387" lon="4.970273"><ele>0.0</ele></rtept>
    <rtept lat="52.382341" lon="4.970226"><ele>0.0</ele></rtept>
    <rtept lat="52.382089" lon="4.970201"><ele>0.0</ele></rtept>
    <rtept lat="52.381579" lon="4.970179"><ele>0.0</ele></rtept>
    <rtept lat="52.381113" lon="4.969943"><ele>0.0</ele></rtept>
    <rtept lat="52.380616" lon="4.969522"><ele>0.0</ele></rtept>
    <rtept lat="52.380307" lon="4.969227"><ele>0.0</ele></rtept>
    <rtept lat="52.380044" lon="4.968924"><ele>0.0</ele></rtept>
    <rtept lat="52.379465" lon="4.968168"><ele>0.0</ele></rtept>
    <rtept lat="52.378660" lon="4.967082"><ele>0.0</ele></rtept>
    <rtept lat="52.377854" lon="4.965995"><ele>0.0</ele></rtept>
    <rtept lat="52.376619" lon="4.964346"><ele>0.0</ele></rtept>
    <rtept lat="52.376194" lon="4.963811"><ele>0.0</ele></rtept>
    <rtept lat="52.375693" lon="4.963298"><ele>0.0</ele></rtept>
    <rtept lat="52.375265" lon="4.962958"><ele>0.0</ele></rtept>
    <rtept lat="52.375089" lon="4.962699"><ele>0.0</ele></rtept>
    <rtept lat="52.374957" lon="4.962601"><ele>0.0</ele></rtept>
    <rtept lat="52.374859" lon="4.962549"><ele>0.0</ele></rtept>
    <rtept lat="52.374776" lon="4.962503"><ele>0.0</ele></rtept>
    <rtept lat="52.374641" lon="4.962428"><ele>0.0</ele></rtept>
    <rtept lat="52.374427" lon="4.962318"><ele>0.0</ele></rtept>
    <rtept lat="52.374072" lon="4.962210"><ele>0.0</ele></rtept>
    <rtept lat="52.373963" lon="4.962198"><ele>0.0</ele></rtept>
    <rtept lat="52.373930" lon="4.962201"><ele>0.0</ele></rtept>
    <rtept lat="52.373815" lon="4.962193"><ele>0.0</ele></rtept>
    <rtept lat="52.373732" lon="4.962186"><ele>0.0</ele></rtept>
    <rtept lat="52.373605" lon="4.962187"><ele>0.0</ele></rtept>
    <rtept lat="52.373578" lon="4.962185"><ele>0.0</ele></rtept>
    <rtept lat="52.373367" lon="4.962163"><ele>0.0</ele></rtept>
    <rtept lat="52.372617" lon="4.962112"><ele>0.0</ele></rtept>
    <rtept lat="52.372485" lon="4.962076"><ele>0.0</ele></rtept>
    <rtept lat="52.372388" lon="4.962074"><ele>0.0</ele></rtept>
    <rtept lat="52.372237" lon="4.962081"><ele>0.0</ele></rtept>
    <rtept lat="52.372211" lon="4.962083"><ele>0.0</ele></rtept>
    <rtept lat="52.372099" lon="4.962092"><ele>0.0</ele></rtept>
    <rtept lat="52.372050" lon="4.962096"><ele>0.0</ele></rtept>
    <rtept lat="52.371938" lon="4.962105"><ele>0.0</ele></rtept>
    <rtept lat="52.371797" lon="4.962111"><ele>0.0</ele></rtept>
    <rtept lat="52.371338" lon="4.962119"><ele>0.0</ele></rtept>
    <rtept lat="52.370768" lon="4.962127"><ele>0.0</ele></rtept>
    <rtept lat="52.370632" lon="4.962137"><ele>0.0</ele></rtept>
    <rtept lat="52.370562" lon="4.962138"><ele>0.0</ele></rtept>
    <rtept lat="52.370449" lon="4.962142"><ele>0.0</ele></rtept>
    <rtept lat="52.370186" lon="4.962253"><ele>0.0</ele></rtept>
    <rtept lat="52.370040" lon="4.962276"><ele>0.0</ele></rtept>
    <rtept lat="52.369398" lon="4.962281"><ele>0.0</ele></rtept>
    <rtept lat="52.368407" lon="4.962250"><ele>0.0</ele></rtept>
    <rtept lat="52.368147" lon="4.962199"><ele>0.0</ele></rtept>
    <rtept lat="52.367802" lon="4.962067"><ele>0.0</ele></rtept>
    <rtept lat="52.367467" lon="4.961846"><ele>0.0</ele></rtept>
    <rtept lat="52.367338" lon="4.961738"><ele>0.0</ele></rtept>
    <rtept lat="52.366969" lon="4.961330"><ele>0.0</ele></rtept>
    <rtept lat="52.366821" lon="4.961113"><ele>0.0</ele></rtept>
    <rtept lat="52.366688" lon="4.960897"><ele>0.0</ele></rtept>
    <rtept lat="52.366524" lon="4.960548"><ele>0.0</ele></rtept>
    <rtept lat="52.366385" lon="4.960197"><ele>0.0</ele></rtept>
    <rtept lat="52.366224" lon="4.959658"><ele>0.0</ele></rtept>
    <rtept lat="52.366169" lon="4.959403"><ele>0.0</ele></rtept>
    <rtept lat="52.366114" lon="4.959093"><ele>0.0</ele></rtept>
    <rtept lat="52.366036" lon="4.958248"><ele>0.0</ele></rtept>
    <rtept lat="52.366018" lon="4.958044"><ele>0.0</ele></rtept>
    <rtept lat="52.365879" lon="4.956488"><ele>0.0</ele></rtept>
    <rtept lat="52.365470" lon="4.951971"><ele>0.0</ele></rtept>
    <rtept lat="52.365410" lon="4.950785"><ele>0.0</ele></rtept>
    <rtept lat="52.365409" lon="4.949987"><ele>0.0</ele></rtept>
    <rtept lat="52.365508" lon="4.948805"><ele>0.0</ele></rtept>
    <rtept lat="52.365474" lon="4.948567"><ele>0.0</ele></rtept>
    <rtept lat="52.365675" lon="4.948279"><ele>0.0</ele></rtept>
    <rtept lat="52.365758" lon="4.948200"><ele>0.0</ele></rtept>
    <rtept lat="52.365844" lon="4.948137"><ele>0.0</ele></rtept>
    <rtept lat="52.365936" lon="4.948129"><ele>0.0</ele></rtept>
    <rtept lat="52.365977" lon="4.948092"><ele>0.0</ele></rtept>
    <rtept lat="52.366160" lon="4.947807"><ele>0.0</ele></rtept>
    <rtept lat="52.366218" lon="4.947687"><ele>0.0</ele></rtept>
    <rtept lat="52.366252" lon="4.947568"><ele>0.0</ele></rtept>
    <rtept lat="52.366273" lon="4.946981"><ele>0.0</ele></rtept>
    <rtept lat="52.366274" lon="4.946508"><ele>0.0</ele></rtept>
    <rtept lat="52.366288" lon="4.946381"><ele>0.0</ele></rtept>
    <rtept lat="52.366292" lon="4.946221"><ele>0.0</ele></rtept>
    <rtept lat="52.366296" lon="4.946109"><ele>0.0</ele></rtept>
    <rtept lat="52.366288" lon="4.945971"><ele>0.0</ele></rtept>
    <rtept lat="52.366264" lon="4.945898"><ele>0.0</ele></rtept>
    <rtept lat="52.366252" lon="4.945808"><ele>0.0</ele></rtept>
    <rtept lat="52.366248" lon="4.944926"><ele>0.0</ele></rtept>
    <rtept lat="52.366234" lon="4.942128"><ele>0.0</ele></rtept>
    <rtept lat="52.366220" lon="4.939628"><ele>0.0</ele></rtept>
    <rtept lat="52.366230" lon="4.939594"><ele>0.0</ele></rtept>
    <rtept lat="52.366450" lon="4.939556"><ele>0.0</ele></rtept>
    <rtept lat="52.366836" lon="4.939556"><ele>0.0</ele></rtept>
    <rtept lat="52.366922" lon="4.939558"><ele>0.0</ele></rtept>
    <rtept lat="52.367162" lon="4.939555"><ele>0.0</ele></rtept>
    <rtept lat="52.367429" lon="4.939560"><ele>0.0</ele></rtept>
    <rtept lat="52.367444" lon="4.939568"><ele>0.0</ele></rtept>
    <rtept lat="52.367481" lon="4.939596"><ele>0.0</ele></rtept>
    <rtept lat="52.367999" lon="4.939577"><ele>0.0</ele></rtept>
    <rtept lat="52.368567" lon="4.939555"><ele>0.0</ele></rtept>
    <rtept lat="52.368630" lon="4.939554"><ele>0.0</ele></rtept>
    <rtept lat="52.368620" lon="4.938857"><ele>0.0</ele></rtept>
    <rtept lat="52.368635" lon="4.938767"><ele>0.0</ele></rtept>
    <rtept lat="52.368682" lon="4.938733"><ele>0.0</ele></rtept>
    <rtept lat="52.368782" lon="4.938719"><ele>0.0</ele></rtept>
    <rtept lat="52.369257" lon="4.938706"><ele>0.0</ele></rtept>
    <rtept lat="52.369607" lon="4.938684"><ele>0.0</ele></rtept>
    <rtept lat="52.369765" lon="4.938635"><ele>0.0</ele></rtept>
    <rtept lat="52.369920" lon="4.938618"><ele>0.0</ele></rtept>
    <rtept lat="52.370038" lon="4.938623"><ele>0.0</ele></rtept>
    <rtept lat="52.370195" lon="4.938667"><ele>0.0</ele></rtept>
    <rtept lat="52.370289" lon="4.938685"><ele>0.0</ele></rtept>
    <rtept lat="52.370394" lon="4.938692"><ele>0.0</ele></rtept>
    <rtept lat="52.371063" lon="4.938705"><ele>0.0</ele></rtept>
    <rtept lat="52.371140" lon="4.938706"><ele>0.0</ele></rtept>
    <rtept lat="52.371233" lon="4.938697"><ele>0.0</ele></rtept>
    <rtept lat="52.371230" lon="4.938598"><ele>0.0</ele></rtept>
    <rtept lat="52.371229" lon="4.938390"><ele>0.0</ele></rtept>
    <rtept lat="52.371222" lon="4.938272"><ele>0.0</ele></rtept>
    <rtept lat="52.371205" lon="4.937287"><ele>0.0</ele></rtept>
    <rtept lat="52.371200" lon="4.935977"><ele>0.0</ele></rtept>
    <rtept lat="52.371181" lon="4.934522"><ele>0.0</ele></rtept>
    <rtept lat="52.371185" lon="4.934433"><ele>0.0</ele></rtept>
    <rtept lat="52.371247" lon="4.934427"><ele>0.0</ele></rtept>
    <rtept lat="52.371663" lon="4.934369"><ele>0.0</ele></rtept>
    <rtept lat="52.372102" lon="4.934211"><ele>0.0</ele></rtept>
    <rtept lat="52.372401" lon="4.934029"><ele>0.0</ele></rtept>
    <rtept lat="52.372636" lon="4.933843"><ele>0.0</ele></rtept>
    <rtept lat="52.372747" lon="4.933713"><ele>0.0</ele></rtept>
    <rtept lat="52.372782" lon="4.933678"><ele>0.0</ele></rtept>
    <rtept lat="52.373080" lon="4.933368"><ele>0.0</ele></rtept>
    <rtept lat="52.373229" lon="4.933199"><ele>0.0</ele></rtept>
    <rtept lat="52.373441" lon="4.932904"><ele>0.0</ele></rtept>
    <rtept lat="52.373683" lon="4.932534"><ele>0.0</ele></rtept>
    <rtept lat="52.373956" lon="4.932042"><ele>0.0</ele></rtept>
    <rtept lat="52.374123" lon="4.931684"><ele>0.0</ele></rtept>
    <rtept lat="52.374383" lon="4.931102"><ele>0.0</ele></rtept>
    <rtept lat="52.374690" lon="4.930345"><ele>0.0</ele></rtept>
    <rtept lat="52.374805" lon="4.930043"><ele>0.0</ele></rtept>
    <rtept lat="52.374959" lon="4.929743"><ele>0.0</ele></rtept>
    <rtept lat="52.375113" lon="4.929254"><ele>0.0</ele></rtept>
    <rtept lat="52.375157" lon="4.929125"><ele>0.0</ele></rtept>
    <rtept lat="52.375170" lon="4.929088"><ele>0.0</ele></rtept>
    <rtept lat="52.375190" lon="4.929022"><ele>0.0</ele></rtept>
    <rtept lat="52.375206" lon="4.928971"><ele>0.0</ele></rtept>
    <rtept lat="52.375363" lon="4.928326"><ele>0.0</ele></rtept>
    <rtept lat="52.375410" lon="4.928098"><ele>0.0</ele></rtept>
    <rtept lat="52.375640" lon="4.926795"><ele>0.0</ele></rtept>
    <rtept lat="52.375824" lon="4.925696"><ele>0.0</ele></rtept>
    <rtept lat="52.375963" lon="4.924796"><ele>0.0</ele></rtept>
    <rtept lat="52.376047" lon="4.924260"><ele>0.0</ele></rtept>
    <rtept lat="52.376159" lon="4.923500"><ele>0.0</ele></rtept>
    <rtept lat="52.376218" lon="4.923105"><ele>0.0</ele></rtept>
    <rtept lat="52.376367" lon="4.922096"><ele>0.0</ele></rtept>
    <rtept lat="52.376382" lon="4.921998"><ele>0.0</ele></rtept>
    <rtept lat="52.376405" lon="4.921834"><ele>0.0</ele></rtept>
    <rtept lat="52.376427" lon="4.921685"><ele>0.0</ele></rtept>
    <rtept lat="52.376447" lon="4.921532"><ele>0.0</ele></rtept>
    <rtept lat="52.376460" lon="4.921458"><ele>0.0</ele></rtept>
    <rtept lat="52.376517" lon="4.921040"><ele>0.0</ele></rtept>
    <rtept lat="52.376628" lon="4.920241"><ele>0.0</ele></rtept>
    <rtept lat="52.376674" lon="4.919907"><ele>0.0</ele></rtept>
    <rtept lat="52.376753" lon="4.919353"><ele>0.0</ele></rtept>
    <rtept lat="52.376787" lon="4.919111"><ele>0.0</ele></rtept>
    <rtept lat="52.376876" lon="4.918486"><ele>0.0</ele></rtept>
    <rtept lat="52.377152" lon="4.916361"><ele>0.0</ele></rtept>
    <rtept lat="52.377338" lon="4.914610"><ele>0.0</ele></rtept>
    <rtept lat="52.377371" lon="4.914208"><ele>0.0</ele></rtept>
    <rtept lat="52.377437" lon="4.913295"><ele>0.0</ele></rtept>
    <rtept lat="52.377468" lon="4.912840"><ele>0.0</ele></rtept>
    <rtept lat="52.377577" lon="4.911240"><ele>0.0</ele></rtept>
    <rtept lat="52.377608" lon="4.910885"><ele>0.0</ele></rtept>
    <rtept lat="52.377700" lon="4.910200"><ele>0.0</ele></rtept>
    <rtept lat="52.377889" lon="4.908781"><ele>0.0</ele></rtept>
    <rtept lat="52.378139" lon="4.906904"><ele>0.0</ele></rtept>
    <rtept lat="52.378194" lon="4.906505"><ele>0.0</ele></rtept>
    <rtept lat="52.378213" lon="4.906371"><ele>0.0</ele></rtept>
    <rtept lat="52.378259" lon="4.906040"><ele>0.0</ele></rtept>
    <rtept lat="52.378273" lon="4.905942"><ele>0.0</ele></rtept>
    <rtept lat="52.378332" lon="4.905785"><ele>0.0</ele></rtept>
    <rtept lat="52.378386" lon="4.905640"><ele>0.0</ele></rtept>
    <rtept lat="52.378411" lon="4.905508"><ele>0.0</ele></rtept>
    <rtept lat="52.378437" lon="4.905378"><ele>0.0</ele></rtept>
    <rtept lat="52.378455" lon="4.905286"><ele>0.0</ele></rtept>
    <rtept lat="52.378490" lon="4.905105"><ele>0.0</ele></rtept>
    <rtept lat="52.378572" lon="4.904651"><ele>0.0</ele></rtept>
    <rtept lat="52.378698" lon="4.904302"><ele>0.0</ele></rtept>
    <rtept lat="52.378706" lon="4.904280"><ele>0.0</ele></rtept>
    <rtept lat="52.379085" lon="4.903233"><ele>0.0</ele></rtept>
    <rtept lat="52.379414" lon="4.902326"><ele>0.0</ele></rtept>
    <rtept lat="52.379972" lon="4.900806"><ele>0.0</ele></rtept>
    <rtept lat="52.380138" lon="4.900348"><ele>0.0</ele></rtept>
    <rtept lat="52.380251" lon="4.900031"><ele>0.0</ele></rtept>
    <rtept lat="52.380360" lon="4.899738"><ele>0.0</ele></rtept>
    <rtept lat="52.380452" lon="4.899487"><ele>0.0</ele></rtept>
    <rtept lat="52.380492" lon="4.899370"><ele>0.0</ele></rtept>
    <rtept lat="52.380528" lon="4.899276"><ele>0.0</ele></rtept>
    <rtept lat="52.380578" lon="4.899134"><ele>0.0</ele></rtept>
    <rtept lat="52.380648" lon="4.898935"><ele>0.0</ele></rtept>
    <rtept lat="52.380694" lon="4.898811"><ele>0.0</ele></rtept>
    <rtept lat="52.381290" lon="4.897182"><ele>0.0</ele></rtept>
    <rtept lat="52.381426" lon="4.896808"><ele>0.0</ele></rtept>
    <rtept lat="52.381471" lon="4.896738"><ele>0.0</ele></rtept>
    <rtept lat="52.382738" lon="4.894885"><ele>0.0</ele></rtept>
    <rtept lat="52.382891" lon="4.894535"><ele>0.0</ele></rtept>
    <rtept lat="52.382949" lon="4.894289"><ele>0.0</ele></rtept>
    <rtept lat="52.382970" lon="4.894115"><ele>0.0</ele></rtept>
    <rtept lat="52.382968" lon="4.893629"><ele>0.0</ele></rtept>
    <rtept lat="52.382992" lon="4.893450"><ele>0.0</ele></rtept>
    <rtept lat="52.382954" lon="4.893373"><ele>0.0</ele></rtept>
    <rtept lat="52.382848" lon="4.893126"><ele>0.0</ele></rtept>
    <rtept lat="52.382836" lon="4.893061"><ele>0.0</ele></rtept>
    <rtept lat="52.382803" lon="4.892760"><ele>0.0</ele></rtept>
    <rtept lat="52.382764" lon="4.891881"><ele>0.0</ele></rtept>
    <rtept lat="52.382704" lon="4.891292"><ele>0.0</ele></rtept>
    <rtept lat="52.382643" lon="4.890890"><ele>0.0</ele></rtept>
    <rtept lat="52.382554" lon="4.890688"><ele>0.0</ele></rtept>
    <rtept lat="52.382070" lon="4.890159"><ele>0.0</ele></rtept>
    <rtept lat="52.381983" lon="4.890126"><ele>0.0</ele></rtept>
    <rtept lat="52.381899" lon="4.889980"><ele>0.0</ele></rtept>
    <rtept lat="52.381369" lon="4.889516"><ele>0.0</ele></rtept>
    <rtept lat="52.381431" lon="4.889409"><ele>0.0</ele></rtept>
    <rtept lat="52.381532" lon="4.889229"><ele>0.0</ele></rtept>
    <rtept lat="52.381580" lon="4.889137"><ele>0.0</ele></rtept>
    <rtept lat="52.382074" lon="4.888303"><ele>0.0</ele></rtept>
    <rtept lat="52.382481" lon="4.887540"><ele>0.0</ele></rtept>
    <rtept lat="52.382784" lon="4.886982"><ele>0.0</ele></rtept>
    <rtept lat="52.382973" lon="4.886653"><ele>0.0</ele></rtept>
    <rtept lat="52.383313" lon="4.886019"><ele>0.0</ele></rtept>
    <rtept lat="52.383836" lon="4.885096"><ele>0.0</ele></rtept>
    <rtept lat="52.384355" lon="4.884205"><ele>0.0</ele></rtept>
    <rtept lat="52.384374" lon="4.884147"><ele>0.0</ele></rtept>
    <rtept lat="52.384370" lon="4.884100"><ele>0.0</ele></rtept>
    <rtept lat="52.384317" lon="4.883820"><ele>0.0</ele></rtept>
    <rtept lat="52.384332" lon="4.883765"><ele>0.0</ele></rtept>
    <rtept lat="52.384555" lon="4.883361"><ele>0.0</ele></rtept>
    <rtept lat="52.384560" lon="4.883349"><ele>0.0</ele></rtept>
    <rtept lat="52.384575" lon="4.883285"><ele>0.0</ele></rtept>
    <rtept lat="52.384629" lon="4.883059"><ele>0.0</ele></rtept>
    <rtept lat="52.384646" lon="4.882988"><ele>0.0</ele></rtept>
    <rtept lat="52.384787" lon="4.882411"><ele>0.0</ele></rtept>
    <rtept lat="52.384839" lon="4.882196"><ele>0.0</ele></rtept>
    <rtept lat="52.384885" lon="4.882015"><ele>0.0</ele></rtept>
    <rtept lat="52.384900" lon="4.881930"><ele>0.0</ele></rtept>
    <rtept lat="52.384903" lon="4.881753"><ele>0.0</ele></rtept>
    <rtept lat="52.384973" lon="4.881741"><ele>0.0</ele></rtept>
    <rtept lat="52.385038" lon="4.881734"><ele>0.0</ele></rtept>
    <rtept lat="52.385113" lon="4.881728"><ele>0.0</ele></rtept>
    <rtept lat="52.385143" lon="4.881602"><ele>0.0</ele></rtept>
    <rtept lat="52.385208" lon="4.881327"><ele>0.0</ele></rtept>
    <rtept lat="52.385256" lon="4.881125"><ele>0.0</ele></rtept>
    <rtept lat="52.385251" lon="4.881051"><ele>0.0</ele></rtept>
    <rtept lat="52.385248" lon="4.880907"><ele>0.0</ele></rtept>
    <rtept lat="52.385283" lon="4.880705"><ele>0.0</ele></rtept>
    <rtept lat="52.385348" lon="4.880423"><ele>0.0</ele></rtept>
    <rtept lat="52.385539" lon="4.879645"><ele>0.0</ele></rtept>
    <rtept lat="52.385566" lon="4.879344"><ele>0.0</ele></rtept>
    <rtept lat="52.385533" lon="4.876711"><ele>0.0</ele></rtept>
    <rtept lat="52.385512" lon="4.874884"><ele>0.0</ele></rtept>
    <rtept lat="52.385418" lon="4.869666"><ele>0.0</ele></rtept>
    <rtept lat="52.385417" lon="4.869526"><ele>0.0</ele></rtept>
    <rtept lat="52.385424" lon="4.869440"><ele>0.0</ele></rtept>
    <rtept lat="52.385401" lon="4.869323"><ele>0.0</ele></rtept>
    <rtept lat="52.385329" lon="4.869311"><ele>0.0</ele></rtept>
    <rtept lat="52.385219" lon="4.869313"><ele>0.0</ele></rtept>
    <rtept lat="52.385223" lon="4.869231"><ele>0.0</ele></rtept>
    <rtept lat="52.385228" lon="4.868051"><ele>0.0</ele></rtept>
    <rtept lat="52.385220" lon="4.867584"><ele>0.0</ele></rtept>
    <rtept lat="52.385219" lon="4.867181"><ele>0.0</ele></rtept>
    <rtept lat="52.385196" lon="4.866968"><ele>0.0</ele></rtept>
    <rtept lat="52.385171" lon="4.865668"><ele>0.0</ele></rtept>
    <rtept lat="52.385169" lon="4.865537"><ele>0.0</ele></rtept>
    <rtept lat="52.385170" lon="4.865279"><ele>0.0</ele></rtept>
    <rtept lat="52.385136" lon="4.863161"><ele>0.0</ele></rtept>
    <rtept lat="52.385135" lon="4.863043"><ele>0.0</ele></rtept>
    <rtept lat="52.385133" lon="4.862901"><ele>0.0</ele></rtept>
    <rtept lat="52.385133" lon="4.862851"><ele>0.0</ele></rtept>
    <rtept lat="52.385125" lon="4.862142"><ele>0.0</ele></rtept>
    <rtept lat="52.385111" lon="4.861020"><ele>0.0</ele></rtept>
    <rtept lat="52.385085" lon="4.859621"><ele>0.0</ele></rtept>
    <rtept lat="52.385074" lon="4.859064"><ele>0.0</ele></rtept>
    <rtept lat="52.385030" lon="4.858551"><ele>0.0</ele></rtept>
    <rtept lat="52.385050" lon="4.857568"><ele>0.0</ele></rtept>
    <rtept lat="52.385036" lon="4.856796"><ele>0.0</ele></rtept>
    <rtept lat="52.384999" lon="4.856251"><ele>0.0</ele></rtept>
    <rtept lat="52.384954" lon="4.856020"><ele>0.0</ele></rtept>
    <rtept lat="52.384930" lon="4.855747"><ele>0.0</ele></rtept>
    <rtept lat="52.384928" lon="4.855677"><ele>0.0</ele></rtept>
    <rtept lat="52.385017" lon="4.855623"><ele>0.0</ele></rtept>
    <rtept lat="52.385124" lon="4.855558"><ele>0.0</ele></rtept>
    <rtept lat="52.385185" lon="4.855520"><ele>0.0</ele></rtept>
    <rtept lat="52.385255" lon="4.855480"><ele>0.0</ele></rtept>
    <rtept lat="52.385331" lon="4.855475"><ele>0.0</ele></rtept>
    <rtept lat="52.385398" lon="4.855365"><ele>0.0</ele></rtept>
    <rtept lat="52.385427" lon="4.855362"><ele>0.0</ele></rtept>
    <rtept lat="52.385737" lon="4.855350"><ele>0.0</ele></rtept>
    <rtept lat="52.385815" lon="4.855347"><ele>0.0</ele></rtept>
    <rtept lat="52.385853" lon="4.854752"><ele>0.0</ele></rtept>
    <rtept lat="52.385896" lon="4.854063"><ele>0.0</ele></rtept>
    <rtept lat="52.385974" lon="4.853065"><ele>0.0</ele></rtept>
    <rtept lat="52.386137" lon="4.851252"><ele>0.0</ele></rtept>
    <rtept lat="52.386333" lon="4.849300"><ele>0.0</ele></rtept>
    <rtept lat="52.386383" lon="4.848392"><ele>0.0</ele></rtept>
    <rtept lat="52.386376" lon="4.847935"><ele>0.0</ele></rtept>
    <rtept lat="52.386359" lon="4.847768"><ele>0.0</ele></rtept>
    <rtept lat="52.386275" lon="4.847450"><ele>0.0</ele></rtept>
    <rtept lat="52.386141" lon="4.847102"><ele>0.0</ele></rtept>
    <rtept lat="52.386108" lon="4.846972"><ele>0.0</ele></rtept>
    <rtept lat="52.386080" lon="4.846759"><ele>0.0</ele></rtept>
    <rtept lat="52.386081" lon="4.846529"><ele>0.0</ele></rtept>
    <rtept lat="52.386175" lon="4.845796"><ele>0.0</ele></rtept>
    <rtept lat="52.386219" lon="4.845422"><ele>0.0</ele></rtept>
    <rtept lat="52.386235" lon="4.845293"><ele>0.0</ele></rtept>
    <rtept lat="52.386251" lon="4.845098"><ele>0.0</ele></rtept>
    <rtept lat="52.386246" lon="4.844776"><ele>0.0</ele></rtept>
    <rtept lat="52.386186" lon="4.844264"><ele>0.0</ele></rtept>
    <rtept lat="52.386189" lon="4.842670"><ele>0.0</ele></rtept>
    <rtept lat="52.386190" lon="4.842557"><ele>0.0</ele></rtept>
    <rtept lat="52.386188" lon="4.842420"><ele>0.0</ele></rtept>
    <rtept lat="52.386187" lon="4.842330"><ele>0.0</ele></rtept>
    <rtept lat="52.386187" lon="4.841314"><ele>0.0</ele></rtept>
    <rtept lat="52.386183" lon="4.840607"><ele>0.0</ele></rtept>
    <rtept lat="52.386182" lon="4.839978"><ele>0.0</ele></rtept>
    <rtept lat="52.386180" lon="4.839904"><ele>0.0</ele></rtept>
    <rtept lat="52.386166" lon="4.839284"><ele>0.0</ele></rtept>
    <rtept lat="52.386165" lon="4.839178"><ele>0.0</ele></rtept>
    <rtept lat="52.386163" lon="4.838041"><ele>0.0</ele></rtept>
    <rtept lat="52.386163" lon="4.837949"><ele>0.0</ele></rtept>
    <rtept lat="52.386162" lon="4.837898"><ele>0.0</ele></rtept>
    <rtept lat="52.386161" lon="4.837821"><ele>0.0</ele></rtept>
    <rtept lat="52.386161" lon="4.837761"><ele>0.0</ele></rtept>
    <rtept lat="52.386159" lon="4.837606"><ele>0.0</ele></rtept>
    <rtept lat="52.386151" lon="4.836563"><ele>0.0</ele></rtept>
    <rtept lat="52.386145" lon="4.835697"><ele>0.0</ele></rtept>
    <rtept lat="52.386145" lon="4.835623"><ele>0.0</ele></rtept>
    <rtept lat="52.386145" lon="4.835487"><ele>0.0</ele></rtept>
    <rtept lat="52.386148" lon="4.835136"><ele>0.0</ele></rtept>
    <rtept lat="52.386142" lon="4.834614"><ele>0.0</ele></rtept>
    <rtept lat="52.386136" lon="4.834117"><ele>0.0</ele></rtept>
    <rtept lat="52.386135" lon="4.834029"><ele>0.0</ele></rtept>
    <rtept lat="52.386112" lon="4.834029"><ele>0.0</ele></rtept>
    <rtept lat="52.385940" lon="4.834030"><ele>0.0</ele></rtept>
    <rtept lat="52.385274" lon="4.834048"><ele>0.0</ele></rtept>
    <rtept lat="52.385105" lon="4.834050"><ele>0.0</ele></rtept>
    <rtept lat="52.385104" lon="4.834143"><ele>0.0</ele></rtept>
    <rtept lat="52.385104" lon="4.834260"><ele>0.0</ele></rtept>
    <rtept lat="52.385092" lon="4.834299"><ele>0.0</ele></rtept>
    <rtept lat="52.385076" lon="4.834304"><ele>0.0</ele></rtept>
    <rtept lat="52.384838" lon="4.834317"><ele>0.0</ele></rtept>
    <rtept lat="52.384803" lon="4.834320"><ele>0.0</ele></rtept>
    <rtept lat="52.384682" lon="4.834325"><ele>0.0</ele></rtept>
    <rtept lat="52.384594" lon="4.834334"><ele>0.0</ele></rtept>
    <rtept lat="52.384594" lon="4.834290"><ele>0.0</ele></rtept>
    <rtept lat="52.384595" lon="4.834148"><ele>0.0</ele></rtept>
    <rtept lat="52.384610" lon="4.833777"><ele>0.0</ele></rtept>
    <rtept lat="52.384524" lon="4.827498"><ele>0.0</ele></rtept>
    <rtept lat="52.384496" lon="4.827206"><ele>0.0</ele></rtept>
    <rtept lat="52.384514" lon="4.826952"><ele>0.0</ele></rtept>
    <rtept lat="52.384440" lon="4.821527"><ele>0.0</ele></rtept>
    <rtept lat="52.384251" lon="4.819121"><ele>0.0</ele></rtept>
    <rtept lat="52.384247" lon="4.818849"><ele>0.0</ele></rtept>
    <rtept lat="52.384242" lon="4.818360"><ele>0.0</ele></rtept>
    <rtept lat="52.384242" lon="4.817748"><ele>0.0</ele></rtept>
    <rtept lat="52.384364" lon="4.815796"><ele>0.0</ele></rtept>
    <rtept lat="52.384384" lon="4.815244"><ele>0.0</ele></rtept>
    <rtept lat="52.384350" lon="4.811877"><ele>0.0</ele></rtept>
    <rtept lat="52.384298" lon="4.808605"><ele>0.0</ele></rtept>
    <rtept lat="52.384252" lon="4.805571"><ele>0.0</ele></rtept>
    <rtept lat="52.384162" lon="4.803978"><ele>0.0</ele></rtept>
    <rtept lat="52.384159" lon="4.803432"><ele>0.0</ele></rtept>
    <rtept lat="52.384157" lon="4.803150"><ele>0.0</ele></rtept>
    <rtept lat="52.384155" lon="4.803023"><ele>0.0</ele></rtept>
    <rtept lat="52.384152" lon="4.802767"><ele>0.0</ele></rtept>
    <rtept lat="52.384117" lon="4.799200"><ele>0.0</ele></rtept>
    <rtept lat="52.384182" lon="4.797791"><ele>0.0</ele></rtept>
    <rtept lat="52.384140" lon="4.793775"><ele>0.0</ele></rtept>
    <rtept lat="52.384122" lon="4.793733"><ele>0.0</ele></rtept>
    <rtept lat="52.384139" lon="4.793427"><ele>0.0</ele></rtept>
    <rtept lat="52.384066" lon="4.787833"><ele>0.0</ele></rtept>
    <rtept lat="52.384051" lon="4.784883"><ele>0.0</ele></rtept>
    <rtept lat="52.383879" lon="4.770285"><ele>0.0</ele></rtept>
    <rtept lat="52.383738" lon="4.759321"><ele>0.0</ele></rtept>
    <rtept lat="52.383674" lon="4.759187"><ele>0.0</ele></rtept>
    <rtept lat="52.383667" lon="4.759023"><ele>0.0</ele></rtept>
    <rtept lat="52.383668" lon="4.758851"><ele>0.0</ele></rtept>
    <rtept lat="52.383692" lon="4.758745"><ele>0.0</ele></rtept>
    <rtept lat="52.383694" lon="4.758466"><ele>0.0</ele></rtept>
    <rtept lat="52.383713" lon="4.758268"><ele>0.0</ele></rtept>
    <rtept lat="52.383689" lon="4.756299"><ele>0.0</ele></rtept>
    <rtept lat="52.383731" lon="4.754927"><ele>0.0</ele></rtept>
    <rtept lat="52.383735" lon="4.754787"><ele>0.0</ele></rtept>
    <rtept lat="52.383740" lon="4.754622"><ele>0.0</ele></rtept>
    <rtept lat="52.383743" lon="4.754539"><ele>0.0</ele></rtept>
    <rtept lat="52.383746" lon="4.754460"><ele>0.0</ele></rtept>
    <rtept lat="52.383752" lon="4.754300"><ele>0.0</ele></rtept>
    <rtept lat="52.383802" lon="4.753551"><ele>0.0</ele></rtept>
    <rtept lat="52.383827" lon="4.752945"><ele>0.0</ele></rtept>
    <rtept lat="52.383837" lon="4.752562"><ele>0.0</ele></rtept>
    <rtept lat="52.383864" lon="4.752287"><ele>0.0</ele></rtept>
    <rtept lat="52.383960" lon="4.751698"><ele>0.0</ele></rtept>
    <rtept lat="52.384225" lon="4.750407"><ele>0.0</ele></rtept>
    <rtept lat="52.384339" lon="4.749844"><ele>0.0</ele></rtept>
    <rtept lat="52.384433" lon="4.749522"><ele>0.0</ele></rtept>
    <rtept lat="52.384490" lon="4.749405"><ele>0.0</ele></rtept>
    <rtept lat="52.384996" lon="4.748590"><ele>0.0</ele></rtept>
    <rtept lat="52.385288" lon="4.748128"><ele>0.0</ele></rtept>
    <rtept lat="52.385399" lon="4.747873"><ele>0.0</ele></rtept>
    <rtept lat="52.385477" lon="4.747519"><ele>0.0</ele></rtept>
    <rtept lat="52.385457" lon="4.747221"><ele>0.0</ele></rtept>
    <rtept lat="52.385500" lon="4.746822"><ele>0.0</ele></rtept>
    <rtept lat="52.385516" lon="4.746693"><ele>0.0</ele></rtept>
    <rtept lat="52.385546" lon="4.746442"><ele>0.0</ele></rtept>
    <rtept lat="52.385593" lon="4.746021"><ele>0.0</ele></rtept>
    <rtept lat="52.385611" lon="4.745929"><ele>0.0</ele></rtept>
    <rtept lat="52.385621" lon="4.745827"><ele>0.0</ele></rtept>
    <rtept lat="52.385634" lon="4.745722"><ele>0.0</ele></rtept>
    <rtept lat="52.385666" lon="4.745497"><ele>0.0</ele></rtept>
    <rtept lat="52.385763" lon="4.744666"><ele>0.0</ele></rtept>
    <rtept lat="52.385814" lon="4.744137"><ele>0.0</ele></rtept>
    <rtept lat="52.385937" lon="4.743013"><ele>0.0</ele></rtept>
    <rtept lat="52.385972" lon="4.742702"><ele>0.0</ele></rtept>
    <rtept lat="52.386152" lon="4.740968"><ele>0.0</ele></rtept>
    <rtept lat="52.386186" lon="4.740366"><ele>0.0</ele></rtept>
    <rtept lat="52.386204" lon="4.738830"><ele>0.0</ele></rtept>
    <rtept lat="52.386209" lon="4.736996"><ele>0.0</ele></rtept>
    <rtept lat="52.386201" lon="4.736332"><ele>0.0</ele></rtept>
    <rtept lat="52.385888" lon="4.735793"><ele>0.0</ele></rtept>
    <rtept lat="52.385848" lon="4.735609"><ele>0.0</ele></rtept>
    <rtept lat="52.385850" lon="4.735542"><ele>0.0</ele></rtept>
    <rtept lat="52.385982" lon="4.734924"><ele>0.0</ele></rtept>
    <rtept lat="52.386163" lon="4.734377"><ele>0.0</ele></rtept>
    <rtept lat="52.386173" lon="4.734304"><ele>0.0</ele></rtept>
    <rtept lat="52.386150" lon="4.734185"><ele>0.0</ele></rtept>
    <rtept lat="52.386173" lon="4.734058"><ele>0.0</ele></rtept>
    <rtept lat="52.386188" lon="4.733959"><ele>0.0</ele></rtept>
    <rtept lat="52.386227" lon="4.733787"><ele>0.0</ele></rtept>
    <rtept lat="52.386268" lon="4.733732"><ele>0.0</ele></rtept>
    <rtept lat="52.386291" lon="4.733661"><ele>0.0</ele></rtept>
    <rtept lat="52.386385" lon="4.732958"><ele>0.0</ele></rtept>
    <rtept lat="52.386455" lon="4.732206"><ele>0.0</ele></rtept>
    <rtept lat="52.386479" lon="4.731798"><ele>0.0</ele></rtept>
    <rtept lat="52.386486" lon="4.731357"><ele>0.0</ele></rtept>
    <rtept lat="52.386413" lon="4.728660"><ele>0.0</ele></rtept>
    <rtept lat="52.386078" lon="4.723860"><ele>0.0</ele></rtept>
    <rtept lat="52.385991" lon="4.722693"><ele>0.0</ele></rtept>
    <rtept lat="52.385951" lon="4.722133"><ele>0.0</ele></rtept>
    <rtept lat="52.385827" lon="4.720306"><ele>0.0</ele></rtept>
    <rtept lat="52.385731" lon="4.718945"><ele>0.0</ele></rtept>
    <rtept lat="52.385593" lon="4.717426"><ele>0.0</ele></rtept>
    <rtept lat="52.385407" lon="4.716301"><ele>0.0</ele></rtept>
    <rtept lat="52.385266" lon="4.715553"><ele>0.0</ele></rtept>
    <rtept lat="52.384059" lon="4.710360"><ele>0.0</ele></rtept>
    <rtept lat="52.383998" lon="4.710171"><ele>0.0</ele></rtept>
    <rtept lat="52.383927" lon="4.710016"><ele>0.0</ele></rtept>
    <rtept lat="52.383844" lon="4.709839"><ele>0.0</ele></rtept>
    <rtept lat="52.383740" lon="4.709674"><ele>0.0</ele></rtept>
    <rtept lat="52.383070" lon="4.708804"><ele>0.0</ele></rtept>
    <rtept lat="52.382856" lon="4.708337"><ele>0.0</ele></rtept>
    <rtept lat="52.382757" lon="4.708016"><ele>0.0</ele></rtept>
    <rtept lat="52.382668" lon="4.707451"><ele>0.0</ele></rtept>
    <rtept lat="52.382649" lon="4.707081"><ele>0.0</ele></rtept>
    <rtept lat="52.382677" lon="4.706639"><ele>0.0</ele></rtept>
    <rtept lat="52.382756" lon="4.706165"><ele>0.0</ele></rtept>
    <rtept lat="52.382830" lon="4.705912"><ele>0.0</ele></rtept>
    <rtept lat="52.383024" lon="4.705491"><ele>0.0</ele></rtept>
    <rtept lat="52.383479" lon="4.704742"><ele>0.0</ele></rtept>
    <rtept lat="52.383567" lon="4.704509"><ele>0.0</ele></rtept>
    <rtept lat="52.383682" lon="4.704091"><ele>0.0</ele></rtept>
    <rtept lat="52.383749" lon="4.703579"><ele>0.0</ele></rtept>
    <rtept lat="52.383958" lon="4.700846"><ele>0.0</ele></rtept>
    <rtept lat="52.383973" lon="4.700469"><ele>0.0</ele></rtept>
    <rtept lat="52.383946" lon="4.700324"><ele>0.0</ele></rtept>
    <rtept lat="52.383910" lon="4.700207"><ele>0.0</ele></rtept>
    <rtept lat="52.383906" lon="4.700086"><ele>0.0</ele></rtept>
    <rtept lat="52.383909" lon="4.699802"><ele>0.0</ele></rtept>
    <rtept lat="52.383930" lon="4.699663"><ele>0.0</ele></rtept>
    <rtept lat="52.383982" lon="4.699473"><ele>0.0</ele></rtept>
    <rtept lat="52.384018" lon="4.699234"><ele>0.0</ele></rtept>
    <rtept lat="52.384004" lon="4.697808"><ele>0.0</ele></rtept>
    <rtept lat="52.383978" lon="4.696881"><ele>0.0</ele></rtept>
    <rtept lat="52.383903" lon="4.695418"><ele>0.0</ele></rtept>
    <rtept lat="52.383884" lon="4.695286"><ele>0.0</ele></rtept>
    <rtept lat="52.383802" lon="4.694548"><ele>0.0</ele></rtept>
    <rtept lat="52.383607" lon="4.692281"><ele>0.0</ele></rtept>
    <rtept lat="52.383642" lon="4.691686"><ele>0.0</ele></rtept>
    <rtept lat="52.383591" lon="4.690995"><ele>0.0</ele></rtept>
    <rtept lat="52.383394" lon="4.688793"><ele>0.0</ele></rtept>
    <rtept lat="52.383362" lon="4.688525"><ele>0.0</ele></rtept>
    <rtept lat="52.383324" lon="4.688063"><ele>0.0</ele></rtept>
    <rtept lat="52.383293" lon="4.687046"><ele>0.0</ele></rtept>
    <rtept lat="52.383273" lon="4.686379"><ele>0.0</ele></rtept>
    <rtept lat="52.383222" lon="4.685672"><ele>0.0</ele></rtept>
    <rtept lat="52.383033" lon="4.683302"><ele>0.0</ele></rtept>
    <rtept lat="52.382992" lon="4.683096"><ele>0.0</ele></rtept>
    <rtept lat="52.382875" lon="4.682698"><ele>0.0</ele></rtept>
    <rtept lat="52.382810" lon="4.682410"><ele>0.0</ele></rtept>
    <rtept lat="52.382770" lon="4.682133"><ele>0.0</ele></rtept>
    <rtept lat="52.382747" lon="4.681843"><ele>0.0</ele></rtept>
    <rtept lat="52.382746" lon="4.681586"><ele>0.0</ele></rtept>
    <rtept lat="52.382791" lon="4.681123"><ele>0.0</ele></rtept>
    <rtept lat="52.382828" lon="4.680840"><ele>0.0</ele></rtept>
    <rtept lat="52.382870" lon="4.680472"><ele>0.0</ele></rtept>
    <rtept lat="52.382884" lon="4.680313"><ele>0.0</ele></rtept>
    <rtept lat="52.382873" lon="4.679976"><ele>0.0</ele></rtept>
    <rtept lat="52.382742" lon="4.678856"><ele>0.0</ele></rtept>
    <rtept lat="52.382526" lon="4.677270"><ele>0.0</ele></rtept>
    <rtept lat="52.382460" lon="4.676615"><ele>0.0</ele></rtept>
    <rtept lat="52.382414" lon="4.675667"><ele>0.0</ele></rtept>
    <rtept lat="52.382415" lon="4.674893"><ele>0.0</ele></rtept>
    <rtept lat="52.382439" lon="4.674017"><ele>0.0</ele></rtept>
    <rtept lat="52.382403" lon="4.673346"><ele>0.0</ele></rtept>
    <rtept lat="52.382359" lon="4.672730"><ele>0.0</ele></rtept>
    <rtept lat="52.382322" lon="4.672671"><ele>0.0</ele></rtept>
    <rtept lat="52.382158" lon="4.672706"><ele>0.0</ele></rtept>
    <rtept lat="52.382112" lon="4.672675"><ele>0.0</ele></rtept>
    <rtept lat="52.382102" lon="4.672635"><ele>0.0</ele></rtept>
    <rtept lat="52.382061" lon="4.672121"><ele>0.0</ele></rtept>
    <rtept lat="52.382021" lon="4.672080"><ele>0.0</ele></rtept>
    <rtept lat="52.381725" lon="4.672127"><ele>0.0</ele></rtept>
    <rtept lat="52.381694" lon="4.672099"><ele>0.0</ele></rtept>
    <rtept lat="52.381680" lon="4.672064"><ele>0.0</ele></rtept>
    <rtept lat="52.381643" lon="4.671069"><ele>0.0</ele></rtept>
    <rtept lat="52.381633" lon="4.670943"><ele>0.0</ele></rtept>
    <rtept lat="52.381628" lon="4.670879"><ele>0.0</ele></rtept>
    <rtept lat="52.381614" lon="4.670649"><ele>0.0</ele></rtept>
    <rtept lat="52.381603" lon="4.670462"><ele>0.0</ele></rtept>
    <rtept lat="52.381583" lon="4.669749"><ele>0.0</ele></rtept>
    <rtept lat="52.381600" lon="4.669560"><ele>0.0</ele></rtept>
    <rtept lat="52.381642" lon="4.669425"><ele>0.0</ele></rtept>
    <rtept lat="52.381681" lon="4.669329"><ele>0.0</ele></rtept>
    <rtept lat="52.381821" lon="4.669146"><ele>0.0</ele></rtept>
    <rtept lat="52.382081" lon="4.669001"><ele>0.0</ele></rtept>
    <rtept lat="52.382126" lon="4.668888"><ele>0.0</ele></rtept>
    <rtept lat="52.382083" lon="4.668033"><ele>0.0</ele></rtept>
    <rtept lat="52.381994" lon="4.666423"><ele>0.0</ele></rtept>
    <rtept lat="52.381630" lon="4.661848"><ele>0.0</ele></rtept>
    <rtept lat="52.381559" lon="4.661512"><ele>0.0</ele></rtept>
    <rtept lat="52.381566" lon="4.661153"><ele>0.0</ele></rtept>
    <rtept lat="52.381544" lon="4.660816"><ele>0.0</ele></rtept>
    <rtept lat="52.381618" lon="4.660654"><ele>0.0</ele></rtept>
    <rtept lat="52.381596" lon="4.660113"><ele>0.0</ele></rtept>
    <rtept lat="52.381555" lon="4.659568"><ele>0.0</ele></rtept>
    <rtept lat="52.381481" lon="4.659422"><ele>0.0</ele></rtept>
    <rtept lat="52.381367" lon="4.657453"><ele>0.0</ele></rtept>
    <rtept lat="52.381063" lon="4.657492"><ele>0.0</ele></rtept>
    <rtept lat="52.380781" lon="4.657535"><ele>0.0</ele></rtept>
    <rtept lat="52.380732" lon="4.656719"><ele>0.0</ele></rtept>
    <rtept lat="52.380627" lon="4.656754"><ele>0.0</ele></rtept>
    <rtept lat="52.380261" lon="4.656972"><ele>0.0</ele></rtept>
    <rtept lat="52.379960" lon="4.657149"><ele>0.0</ele></rtept>
    <rtept lat="52.380029" lon="4.657505"><ele>0.0</ele></rtept>
    <rtept lat="52.380029" lon="4.657510"><ele>0.0</ele></rtept>
  </rte>
</gpx>