<?xml version="1.0" encoding="UTF-8"?>
<gpx version="1.1" creator="WeeklyCyclingRoutes"
  xmlns="http://www.topografix.com/GPX/1/1"
  xmlns:xsi="http://www.w3.org/2001/XMLSchema-instance"
  xsi:schemaLocation="http://www.topografix.com/GPX/1/1 http://www.topografix.com/GPX/1/1/gpx.xsd">
  <metadata>
    <name>30km Route – August 03, 2026</name>
    <desc>Round trip from Cremerstraat, Haarlem. Actual: 28.2km</desc>
    <time>2026-08-03T09:32:00Z</time>
  </metadata>
  <rte>
    <name>30km Cycling Route – Haarlem</name>
    <rtept lat="52.380029" lon="4.657510"><ele>0.0</ele></rtept>
    <rtept lat="52.380029" lon="4.657505"><ele>0.0</ele></rtept>
    <rtept lat="52.379960" lon="4.657149"><ele>0.0</ele></rtept>
    <rtept lat="52.379890" lon="4.656860"><ele>0.0</ele></rtept>
    <rtept lat="52.379811" lon="4.656611"><ele>0.0</ele></rtept>
    <rtept lat="52.379484" lon="4.656332"><ele>0.0</ele></rtept>
    <rtept lat="52.379720" lon="4.655630"><ele>0.0</ele></rtept>
    <rtept lat="52.379947" lon="4.654788"><ele>0.0</ele></rtept>
    <rtept lat="52.379963" lon="4.654729"><ele>0.0</ele></rtept>
    <rtept lat="52.380132" lon="4.654088"><ele>0.0</ele></rtept>
    <rtept lat="52.380326" lon="4.653373"><ele>0.0</ele></rtept>
    <rtept lat="52.380708" lon="4.651959"><ele>0.0</ele></rtept>
    <rtept lat="52.380759" lon="4.651852"><ele>0.0</ele></rtept>
    <rtept lat="52.380830" lon="4.651897"><ele>0.0</ele></rtept>
    <rtept lat="52.380924" lon="4.651884"><ele>0.0</ele></rtept>
    <rtept lat="52.381029" lon="4.651870"><ele>0.0</ele></rtept>
    <rtept lat="52.381088" lon="4.651857"><ele>0.0</ele></rtept>
    <rtept lat="52.381077" lon="4.651687"><ele>0.0</ele></rtept>
    <rtept lat="52.381072" lon="4.651605"><ele>0.0</ele></rtept>
    <rtept lat="52.381040" lon="4.651485"><ele>0.0</ele></rtept>
    <rtept lat="52.380980" lon="4.650628"><ele>0.0</ele></rtept>
    <rtept lat="52.380897" lon="4.649517"><ele>0.0</ele></rtept>
    <rtept lat="52.380781" lon="4.647736"><ele>0.0</ele></rtept>
    <rtept lat="52.380732" lon="4.647268"><ele>0.0</ele></rtept>
    <rtept lat="52.380885" lon="4.647293"><ele>0.0</ele></rtept>
    <rtept lat="52.380975" lon="4.647286"><ele>0.0</ele></rtept>
    <rtept lat="52.381073" lon="4.647283"><ele>0.0</ele></rtept>
    <rtept lat="52.381191" lon="4.647236"><ele>0.0</ele></rtept>
    <rtept lat="52.381648" lon="4.647325"><ele>0.0</ele></rtept>
    <rtept lat="52.382126" lon="4.647505"><ele>0.0</ele></rtept>
    <rtept lat="52.382158" lon="4.647518"><ele>0.0</ele></rtept>
    <rtept lat="52.382181" lon="4.647363"><ele>0.0</ele></rtept>
    <rtept lat="52.382326" lon="4.647447"><ele>0.0</ele></rtept>
    <rtept lat="52.382360" lon="4.647467"><ele>0.0</ele></rtept>
    <rtept lat="52.382449" lon="4.647294"><ele>0.0</ele></rtept>
    <rtept lat="52.382498" lon="4.647094"><ele>0.0</ele></rtept>
    <rtept lat="52.382723" lon="4.647272"><ele>0.0</ele></rtept>
    <rtept lat="52.383049" lon="4.647439"><ele>0.0</ele></rtept>
    <rtept lat="52.383442" lon="4.647703"><ele>0.0</ele></rtept>
    <rtept lat="52.383750" lon="4.647968"><ele>0.0</ele></rtept>
    <rtept lat="52.384156" lon="4.648473"><ele>0.0</ele></rtept>
    <rtept lat="52.384473" lon="4.648823"><ele>0.0</ele></rtept>
    <rtept lat="52.384623" lon="4.648978"><ele>0.0</ele></rtept>
    <rtept lat="52.384654" lon="4.649014"><ele>0.0</ele></rtept>
    <rtept lat="52.384761" lon="4.649147"><ele>0.0</ele></rtept>
    <rtept lat="52.384840" lon="4.649252"><ele>0.0</ele></rtept>
    <rtept lat="52.384903" lon="4.649342"><ele>0.0</ele></rtept>
    <rtept lat="52.384940" lon="4.649273"><ele>0.0</ele></rtept>
    <rtept lat="52.385085" lon="4.648984"><ele>0.0</ele></rtept>
    <rtept lat="52.385200" lon="4.648803"><ele>0.0</ele></rtept>
    <rtept lat="52.385300" lon="4.648709"><ele>0.0</ele></rtept>
    <rtept lat="52.385337" lon="4.648675"><ele>0.0</ele></rtept>
    <rtept lat="52.385387" lon="4.648528"><ele>0.0</ele></rtept>
    <rtept lat="52.385463" lon="4.648340"><ele>0.0</ele></rtept>
    <rtept lat="52.385698" lon="4.648001"><ele>0.0</ele></rtept>
    <rtept lat="52.385824" lon="4.647824"><ele>0.0</ele></rtept>
    <rtept lat="52.386373" lon="4.647128"><ele>0.0</ele></rtept>
    <rtept lat="52.386386" lon="4.647111"><ele>0.0</ele></rtept>
    <rtept lat="52.386421" lon="4.647189"><ele>0.0</ele></rtept>
    <rtept lat="52.386641" lon="4.647632"><ele>0.0</ele></rtept>
    <rtept lat="52.386960" lon="4.648144"><ele>0.0</ele></rtept>
    <rtept lat="52.387118" lon="4.648377"><ele>0.0</ele></rtept>
    <rtept lat="52.387257" lon="4.648547"><ele>0.0</ele></rtept>
    <rtept lat="52.387570" lon="4.648848"><ele>0.0</ele></rtept>
    <rtept lat="52.387847" lon="4.649048"><ele>0.0</ele></rtept>
    <rtept lat="52.388007" lon="4.649133"><ele>0.0</ele></rtept>
    <rtept lat="52.388293" lon="4.649240"><ele>0.0</ele></rtept>
    <rtept lat="52.388468" lon="4.649278"><ele>0.0</ele></rtept>
    <rtept lat="52.390154" lon="4.649506"><ele>0.0</ele></rtept>
    <rtept lat="52.390670" lon="4.649587"><ele>0.0</ele></rtept>
    <rtept lat="52.391285" lon="4.649721"><ele>0.0</ele></rtept>
    <rtept lat="52.391456" lon="4.649759"><ele>0.0</ele></rtept>
    <rtept lat="52.391545" lon="4.649786"><ele>0.0</ele></rtept>
    <rtept lat="52.392731" lon="4.650096"><ele>0.0</ele></rtept>
    <rtept lat="52.393658" lon="4.650295"><ele>0.0</ele></rtept>
    <rtept lat="52.394587" lon="4.650491"><ele>0.0</ele></rtept>
    <rtept lat="52.395198" lon="4.650630"><ele>0.0</ele></rtept>
    <rtept lat="52.395257" lon="4.650642"><ele>0.0</ele></rtept>
    <rtept lat="52.395309" lon="4.650647"><ele>0.0</ele></rtept>
    <rtept lat="52.395386" lon="4.650652"><ele>0.0</ele></rtept>
    <rtept lat="52.396356" lon="4.650785"><ele>0.0</ele></rtept>
    <rtept lat="52.397860" lon="4.651122"><ele>0.0</ele></rtept>
    <rtept lat="52.398414" lon="4.651322"><ele>0.0</ele></rtept>
    <rtept lat="52.399137" lon="4.651697"><ele>0.0</ele></rtept>
    <rtept lat="52.399422" lon="4.651851"><ele>0.0</ele></rtept>
    <rtept lat="52.399937" lon="4.652131"><ele>0.0</ele></rtept>
    <rtept lat="52.400046" lon="4.652223"><ele>0.0</ele></rtept>
    <rtept lat="52.400431" lon="4.652427"><ele>0.0</ele></rtept>
    <rtept lat="52.400857" lon="4.652615"><ele>0.0</ele></rtept>
    <rtept lat="52.400974" lon="4.652642"><ele>0.0</ele></rtept>
    <rtept lat="52.401446" lon="4.652906"><ele>0.0</ele></rtept>
    <rtept lat="52.401739" lon="4.653116"><ele>0.0</ele></rtept>
    <rtept lat="52.401821" lon="4.653182"><ele>0.0</ele></rtept>
    <rtept lat="52.402146" lon="4.653487"><ele>0.0</ele></rtept>
    <rtept lat="52.402267" lon="4.653627"><ele>0.0</ele></rtept>
    <rtept lat="52.402492" lon="4.653918"><ele>0.0</ele></rtept>
    <rtept lat="52.402834" lon="4.654412"><ele>0.0</ele></rtept>
    <rtept lat="52.403320" lon="4.655116"><ele>0.0</ele></rtept>
    <rtept lat="52.403407" lon="4.655219"><ele>0.0</ele></rtept>
    <rtept lat="52.403835" lon="4.655459"><ele>0.0</ele></rtept>
    <rtept lat="52.403911" lon="4.655553"><ele>0.0</ele></rtept>
    <rtept lat="52.403997" lon="4.655769"><ele>0.0</ele></rtept>
    <rtept lat="52.404073" lon="4.655699"><ele>0.0</ele></rtept>
    <rtept lat="52.404134" lon="4.655648"><ele>0.0</ele></rtept>
    <rtept lat="52.404354" lon="4.655498"><ele>0.0</ele></rtept>
    <rtept lat="52.404423" lon="4.655517"><ele>0.0</ele></rtept>
    <rtept lat="52.404665" lon="4.655604"><ele>0.0</ele></rtept>
    <rtept lat="52.405448" lon="4.656055"><ele>0.0</ele></rtept>
    <rtept lat="52.405481" lon="4.656080"><ele>0.0</ele></rtept>
    <rtept lat="52.405600" lon="4.656144"><ele>0.0</ele></rtept>
    <rtept lat="52.405769" lon="4.656241"><ele>0.0</ele></rtept>
    <rtept lat="52.405934" lon="4.656338"><ele>0.0</ele></rtept>
    <rtept lat="52.405954" lon="4.656236"><ele>0.0</ele></rtept>
    <rtept lat="52.406171" lon="4.655488"><ele>0.0</ele></rtept>
    <rtept lat="52.406361" lon="4.655046"><ele>0.0</ele></rtept>
    <rtept lat="52.406519" lon="4.654773"><ele>0.0</ele></rtept>
    <rtept lat="52.406673" lon="4.654571"><ele>0.0</ele></rtept>
    <rtept lat="52.406971" lon="4.654277"><ele>0.0</ele></rtept>
    <rtept lat="52.407079" lon="4.654173"><ele>0.0</ele></rtept>
    <rtept lat="52.408137" lon="4.653156"><ele>0.0</ele></rtept>
    <rtept lat="52.409203" lon="4.652127"><ele>0.0</ele></rtept>
    <rtept lat="52.409430" lon="4.651924"><ele>0.0</ele></rtept>
    <rtept lat="52.409482" lon="4.651912"><ele>0.0</ele></rtept>
    <rtept lat="52.409711" lon="4.651711"><ele>0.0</ele></rtept>
    <rtept lat="52.409777" lon="4.651633"><ele>0.0</ele></rtept>
    <rtept lat="52.409926" lon="4.651378"><ele>0.0</ele></rtept>
    <rtept lat="52.410078" lon="4.651288"><ele>0.0</ele></rtept>
    <rtept lat="52.410157" lon="4.651243"><ele>0.0</ele></rtept>
    <rtept lat="52.410165" lon="4.651243"><ele>0.0</ele></rtept>
    <rtept lat="52.410540" lon="4.651310"><ele>0.0</ele></rtept>
    <rtept lat="52.410919" lon="4.651331"><ele>0.0</ele></rtept>
    <rtept lat="52.411617" lon="4.651264"><ele>0.0</ele></rtept>
    <rtept lat="52.411690" lon="4.651247"><ele>0.0</ele></rtept>
    <rtept lat="52.412801" lon="4.650988"><ele>0.0</ele></rtept>
    <rtept lat="52.412950" lon="4.650942"><ele>0.0</ele></rtept>
    <rtept lat="52.413067" lon="4.650892"><ele>0.0</ele></rtept>
    <rtept lat="52.413116" lon="4.650870"><ele>0.0</ele></rtept>
    <rtept lat="52.413923" lon="4.650516"><ele>0.0</ele></rtept>
    <rtept lat="52.414364" lon="4.650355"><ele>0.0</ele></rtept>
    <rtept lat="52.414740" lon="4.650224"><ele>0.0</ele></rtept>
    <rtept lat="52.415538" lon="4.649896"><ele>0.0</ele></rtept>
    <rtept lat="52.416410" lon="4.649573"><ele>0.0</ele></rtept>
    <rtept lat="52.416520" lon="4.649591"><ele>0.0</ele></rtept>
    <rtept lat="52.416612" lon="4.649547"><ele>0.0</ele></rtept>
    <rtept lat="52.416663" lon="4.649522"><ele>0.0</ele></rtept>
    <rtept lat="52.416723" lon="4.649437"><ele>0.0</ele></rtept>
    <rtept lat="52.416788" lon="4.649388"><ele>0.0</ele></rtept>
    <rtept lat="52.417659" lon="4.649044"><ele>0.0</ele></rtept>
    <rtept lat="52.419209" lon="4.648435"><ele>0.0</ele></rtept>
    <rtept lat="52.419260" lon="4.648461"><ele>0.0</ele></rtept>
    <rtept lat="52.419318" lon="4.648457"><ele>0.0</ele></rtept>
    <rtept lat="52.419429" lon="4.648365"><ele>0.0</ele></rtept>
    <rtept lat="52.419464" lon="4.648320"><ele>0.0</ele></rtept>
    <rtept lat="52.419502" lon="4.648306"><ele>0.0</ele></rtept>
    <rtept lat="52.420067" lon="4.648079"><ele>0.0</ele></rtept>
    <rtept lat="52.420543" lon="4.647891"><ele>0.0</ele></rtept>
    <rtept lat="52.420638" lon="4.647841"><ele>0.0</ele></rtept>
    <rtept lat="52.421437" lon="4.647803"><ele>0.0</ele></rtept>
    <rtept lat="52.421431" lon="4.647505"><ele>0.0</ele></rtept>
    <rtept lat="52.421429" lon="4.647394"><ele>0.0</ele></rtept>
    <rtept lat="52.421816" lon="4.647376"><ele>0.0</ele></rtept>
    <rtept lat="52.421960" lon="4.647273"><ele>0.0</ele></rtept>
    <rtept lat="52.422430" lon="4.647002"><ele>0.0</ele></rtept>
    <rtept lat="52.422817" lon="4.646808"><ele>0.0</ele></rtept>
    <rtept lat="52.423291" lon="4.646619"><ele>0.0</ele></rtept>
    <rtept lat="52.423357" lon="4.646593"><ele>0.0</ele></rtept>
    <rtept lat="52.424437" lon="4.646162"><ele>0.0</ele></rtept>
    <rtept lat="52.424526" lon="4.646133"><ele>0.0</ele></rtept>
    <rtept lat="52.424602" lon="4.646186"><ele>0.0</ele></rtept>
    <rtept lat="52.424668" lon="4.646181"><ele>0.0</ele></rtept>
    <rtept lat="52.424874" lon="4.646052"><ele>0.0</ele></rtept>
    <rtept lat="52.425614" lon="4.644367"><ele>0.0</ele></rtept>
    <rtept lat="52.425943" lon="4.644605"><ele>0.0</ele></rtept>
    <rtept lat="52.426104" lon="4.644657"><ele>0.0</ele></rtept>
    <rtept lat="52.426423" lon="4.644837"><ele>0.0</ele></rtept>
    <rtept lat="52.426677" lon="4.644950"><ele>0.0</ele></rtept>
    <rtept lat="52.427081" lon="4.645090"><ele>0.0</ele></rtept>
    <rtept lat="52.427553" lon="4.645220"><ele>0.0</ele></rtept>
    <rtept lat="52.428154" lon="4.645338"><ele>0.0</ele></rtept>
    <rtept lat="52.428213" lon="4.645350"><ele>0.0</ele></rtept>
    <rtept lat="52.428627" lon="4.645425"><ele>0.0</ele></rtept>
    <rtept lat="52.430025" lon="4.645816"><ele>0.0</ele></rtept>
    <rtept lat="52.430150" lon="4.645811"><ele>0.0</ele></rtept>
    <rtept lat="52.430245" lon="4.645755"><ele>0.0</ele></rtept>
    <rtept lat="52.430460" lon="4.645545"><ele>0.0</ele></rtept>
    <rtept lat="52.430504" lon="4.645526"><ele>0.0</ele></rtept>
    <rtept lat="52.431483" lon="4.645111"><ele>0.0</ele></rtept>
    <rtept lat="52.431564" lon="4.645139"><ele>0.0</ele></rtept>
    <rtept lat="52.431756" lon="4.645086"><ele>0.0</ele></rtept>
    <rtept lat="52.431858" lon="4.645045"><ele>0.0</ele></rtept>
    <rtept lat="52.431945" lon="4.645034"><ele>0.0</ele></rtept>
    <rtept lat="52.432149" lon="4.645069"><ele>0.0</ele></rtept>
    <rtept lat="52.432205" lon="4.645050"><ele>0.0</ele></rtept>
    <rtept lat="52.432296" lon="4.644969"><ele>0.0</ele></rtept>
    <rtept lat="52.432390" lon="4.644870"><ele>0.0</ele></rtept>
    <rtept lat="52.432451" lon="4.644835"><ele>0.0</ele></rtept>
    <rtept lat="52.433400" lon="4.644602"><ele>0.0</ele></rtept>
    <rtept lat="52.433490" lon="4.644570"><ele>0.0</ele></rtept>
    <rtept lat="52.433677" lon="4.644494"><ele>0.0</ele></rtept>
    <rtept lat="52.433732" lon="4.644473"><ele>0.0</ele></rtept>
    <rtept lat="52.434444" lon="4.644222"><ele>0.0</ele></rtept>
    <rtept lat="52.435208" lon="4.643930"><ele>0.0</ele></rtept>
    <rtept lat="52.436042" lon="4.643632"><ele>0.0</ele></rtept>
    <rtept lat="52.436541" lon="4.643449"><ele>0.0</ele></rtept>
    <rtept lat="52.436629" lon="4.643416"><ele>0.0</ele></rtept>
    <rtept lat="52.436743" lon="4.643375"><ele>0.0</ele></rtept>
    <rtept lat="52.437830" lon="4.642983"><ele>0.0</ele></rtept>
    <rtept lat="52.437936" lon="4.642950"><ele>0.0</ele></rtept>
    <rtept lat="52.438406" lon="4.642806"><ele>0.0</ele></rtept>
    <rtept lat="52.438534" lon="4.642933"><ele>0.0</ele></rtept>
    <rtept lat="52.438606" lon="4.642930"><ele>0.0</ele></rtept>
    <rtept lat="52.438697" lon="4.642855"><ele>0.0</ele></rtept>
    <rtept lat="52.438747" lon="4.642742"><ele>0.0</ele></rtept>
    <rtept lat="52.438812" lon="4.642661"><ele>0.0</ele></rtept>
    <rtept lat="52.438935" lon="4.642587"><ele>0.0</ele></rtept>
    <rtept lat="52.440639" lon="4.641549"><ele>0.0</ele></rtept>
    <rtept lat="52.440777" lon="4.641474"><ele>0.0</ele></rtept>
    <rtept lat="52.440895" lon="4.641397"><ele>0.0</ele></rtept>
    <rtept lat="52.441301" lon="4.641150"><ele>0.0</ele></rtept>
    <rtept lat="52.441588" lon="4.640972"><ele>0.0</ele></rtept>
    <rtept lat="52.443186" lon="4.639999"><ele>0.0</ele></rtept>
    <rtept lat="52.443480" lon="4.639830"><ele>0.0</ele></rtept>
    <rtept lat="52.443941" lon="4.639586"><ele>0.0</ele></rtept>
    <rtept lat="52.444413" lon="4.639414"><ele>0.0</ele></rtept>
    <rtept lat="52.444733" lon="4.639339"><ele>0.0</ele></rtept>
    <rtept lat="52.444952" lon="4.639288"><ele>0.0</ele></rtept>
    <rtept lat="52.445370" lon="4.639195"><ele>0.0</ele></rtept>
    <rtept lat="52.445426" lon="4.639206"><ele>0.0</ele></rtept>
    <rtept lat="52.445501" lon="4.639316"><ele>0.0</ele></rtept>
    <rtept lat="52.445549" lon="4.639344"><ele>0.0</ele></rtept>
    <rtept lat="52.445649" lon="4.639333"><ele>0.0</ele></rtept>
    <rtept lat="52.445695" lon="4.639296"><ele>0.0</ele></rtept>
    <rtept lat="52.445747" lon="4.639211"><ele>0.0</ele></rtept>
    <rtept lat="52.445776" lon="4.639100"><ele>0.0</ele></rtept>
    <rtept lat="52.447038" lon="4.638804"><ele>0.0</ele></rtept>
    <rtept lat="52.447736" lon="4.638650"><ele>0.0</ele></rtept>
    <rtept lat="52.448021" lon="4.638593"><ele>0.0</ele></rtept>
    <rtept lat="52.448583" lon="4.638599"><ele>0.0</ele></rtept>
    <rtept lat="52.448817" lon="4.638575"><ele>0.0</ele></rtept>
    <rtept lat="52.449037" lon="4.638465"><ele>0.0</ele></rtept>
    <rtept lat="52.449090" lon="4.638495"><ele>0.0</ele></rtept>
    <rtept lat="52.449200" lon="4.638475"><ele>0.0</ele></rtept>
    <rtept lat="52.449284" lon="4.638359"><ele>0.0</ele></rtept>
    <rtept lat="52.449308" lon="4.638276"><ele>0.0</ele></rtept>
    <rtept lat="52.449305" lon="4.638081"><ele>0.0</ele></rtept>
    <rtept lat="52.449360" lon="4.637883"><ele>0.0</ele></rtept>
    <rtept lat="52.450007" lon="4.636606"><ele>0.0</ele></rtept>
    <rtept lat="52.450875" lon="4.634886"><ele>0.0</ele></rtept>
    <rtept lat="52.450934" lon="4.634768"><ele>0.0</ele></rtept>
    <rtept lat="52.450981" lon="4.634669"><ele>0.0</ele></rtept>
    <rtept lat="52.451084" lon="4.634460"><ele>0.0</ele></rtept>
    <rtept lat="52.451167" lon="4.634228"><ele>0.0</ele></rtept>
    <rtept lat="52.451206" lon="4.633888"><ele>0.0</ele></rtept>
    <rtept lat="52.451244" lon="4.633743"><ele>0.0</ele></rtept>
    <rtept lat="52.451315" lon="4.633631"><ele>0.0</ele></rtept>
    <rtept lat="52.451344" lon="4.633509"><ele>0.0</ele></rtept>
    <rtept lat="52.451347" lon="4.633405"><ele>0.0</ele></rtept>
    <rtept lat="52.451334" lon="4.633315"><ele>0.0</ele></rtept>
    <rtept lat="52.451265" lon="4.633175"><ele>0.0</ele></rtept>
    <rtept lat="52.451225" lon="4.633137"><ele>0.0</ele></rtept>
    <rtept lat="52.451172" lon="4.632960"><ele>0.0</ele></rtept>
    <rtept lat="52.451168" lon="4.632815"><ele>0.0</ele></rtept>
    <rtept lat="52.451166" lon="4.632578"><ele>0.0</ele></rtept>
    <rtept lat="52.451166" lon="4.632544"><ele>0.0</ele></rtept>
    <rtept lat="52.451159" lon="4.632039"><ele>0.0</ele></rtept>
    <rtept lat="52.451178" lon="4.631914"><ele>0.0</ele></rtept>
    <rtept lat="52.451230" lon="4.631761"><ele>0.0</ele></rtept>
    <rtept lat="52.451625" lon="4.630912"><ele>0.0</ele></rtept>
    <rtept lat="52.451727" lon="4.630687"><ele>0.0</ele></rtept>
    <rtept lat="52.451864" lon="4.630452"><ele>0.0</ele></rtept>
    <rtept lat="52.452201" lon="4.630004"><ele>0.0</ele></rtept>
    <rtept lat="52.452343" lon="4.629825"><ele>0.0</ele></rtept>
    <rtept lat="52.452530" lon="4.629524"><ele>0.0</ele></rtept>
    <rtept lat="52.452747" lon="4.629005"><ele>0.0</ele></rtept>
    <rtept lat="52.452757" lon="4.628973"><ele>0.0</ele></rtept>
    <rtept lat="52.452799" lon="4.628813"><ele>0.0</ele></rtept>
    <rtept lat="52.452824" lon="4.628712"><ele>0.0</ele></rtept>
    <rtept lat="52.452860" lon="4.628571"><ele>0.0</ele></rtept>
    <rtept lat="52.452929" lon="4.628054"><ele>0.0</ele></rtept>
    <rtept lat="52.452970" lon="4.627749"><ele>0.0</ele></rtept>
    <rtept lat="52.453395" lon="4.625850"><ele>0.0</ele></rtept>
    <rtept lat="52.453744" lon="4.624257"><ele>0.0</ele></rtept>
    <rtept lat="52.453819" lon="4.623917"><ele>0.0</ele></rtept>
    <rtept lat="52.453989" lon="4.623153"><ele>0.0</ele></rtept>
    <rtept lat="52.454049" lon="4.622873"><ele>0.0</ele></rtept>
    <rtept lat="52.454159" lon="4.622653"><ele>0.0</ele></rtept>
    <rtept lat="52.454230" lon="4.622329"><ele>0.0</ele></rtept>
    <rtept lat="52.454266" lon="4.622163"><ele>0.0</ele></rtept>
    <rtept lat="52.454311" lon="4.621958"><ele>0.0</ele></rtept>
    <rtept lat="52.454318" lon="4.621660"><ele>0.0</ele></rtept>
    <rtept lat="52.454806" lon="4.619442"><ele>0.0</ele></rtept>
    <rtept lat="52.454982" lon="4.618891"><ele>0.0</ele></rtept>
    <rtept lat="52.455089" lon="4.618550"><ele>0.0</ele></rtept>
    <rtept lat="52.455127" lon="4.618268"><ele>0.0</ele></rtept>
    <rtept lat="52.455151" lon="4.618082"><ele>0.0</ele></rtept>
    <rtept lat="52.455168" lon="4.617962"><ele>0.0</ele></rtept>
    <rtept lat="52.455187" lon="4.617789"><ele>0.0</ele></rtept>
    <rtept lat="52.455157" lon="4.617211"><ele>0.0</ele></rtept>
    <rtept lat="52.455022" lon="4.616170"><ele>0.0</ele></rtept>
    <rtept lat="52.454932" lon="4.615742"><ele>0.0</ele></rtept>
    <rtept lat="52.454768" lon="4.615235"><ele>0.0</ele></rtept>
    <rtept lat="52.454161" lon="4.613929"><ele>0.0</ele></rtept>
    <rtept lat="52.454134" lon="4.613773"><ele>0.0</ele></rtept>
    <rtept lat="52.454080" lon="4.613216"><ele>0.0</ele></rtept>
    <rtept lat="52.453922" lon="4.612483"><ele>0.0</ele></rtept>
    <rtept lat="52.453862" lon="4.612090"><ele>0.0</ele></rtept>
    <rtept lat="52.453838" lon="4.611971"><ele>0.0</ele></rtept>
    <rtept lat="52.453606" lon="4.611234"><ele>0.0</ele></rtept>
    <rtept lat="52.453470" lon="4.610555"><ele>0.0</ele></rtept>
    <rtept lat="52.453458" lon="4.610488"><ele>0.0</ele></rtept>
    <rtept lat="52.453295" lon="4.609512"><ele>0.0</ele></rtept>
    <rtept lat="52.453181" lon="4.609187"><ele>0.0</ele></rtept>
    <rtept lat="52.453437" lon="4.608961"><ele>0.0</ele></rtept>
    <rtept lat="52.453489" lon="4.608922"><ele>0.0</ele></rtept>
    <rtept lat="52.453844" lon="4.608753"><ele>0.0</ele></rtept>
    <rtept lat="52.453977" lon="4.608654"><ele>0.0</ele></rtept>
    <rtept lat="52.454057" lon="4.608585"><ele>0.0</ele></rtept>
    <rtept lat="52.454943" lon="4.607814"><ele>0.0</ele></rtept>
    <rtept lat="52.455427" lon="4.607396"><ele>0.0</ele></rtept>
    <rtept lat="52.456366" lon="4.606571"><ele>0.0</ele></rtept>
    <rtept lat="52.456498" lon="4.606457"><ele>0.0</ele></rtept>
    <rtept lat="52.456768" lon="4.606226"><ele>0.0</ele></rtept>
    <rtept lat="52.456823" lon="4.606315"><ele>0.0</ele></rtept>
    <rtept lat="52.456894" lon="4.606369"><ele>0.0</ele></rtept>
    <rtept lat="52.456950" lon="4.606375"><ele>0.0</ele></rtept>
    <rtept lat="52.457003" lon="4.606368"><ele>0.0</ele></rtept>
    <rtept lat="52.457070" lon="4.606314"><ele>0.0</ele></rtept>
    <rtept lat="52.457112" lon="4.606255"><ele>0.0</ele></rtept>
    <rtept lat="52.457152" lon="4.606146"><ele>0.0</ele></rtept>
    <rtept lat="52.457161" lon="4.606053"><ele>0.0</ele></rtept>
    <rtept lat="52.457159" lon="4.605933"><ele>0.0</ele></rtept>
    <rtept lat="52.457092" lon="4.605758"><ele>0.0</ele></rtept>
    <rtept lat="52.456997" lon="4.605681"><ele>0.0</ele></rtept>
    <rtept lat="52.456940" lon="4.605667"><ele>0.0</ele></rtept>
    <rtept lat="52.456889" lon="4.605591"><ele>0.0</ele></rtept>
    <rtept lat="52.456548" lon="4.604569"><ele>0.0</ele></rtept>
    <rtept lat="52.456447" lon="4.604187"><ele>0.0</ele></rtept>
    <rtept lat="52.455937" lon="4.602596"><ele>0.0</ele></rtept>
    <rtept lat="52.455785" lon="4.602133"><ele>0.0</ele></rtept>
    <rtept lat="52.455740" lon="4.601879"><ele>0.0</ele></rtept>
    <rtept lat="52.455700" lon="4.601777"><ele>0.0</ele></rtept>
    <rtept lat="52.455620" lon="4.601617"><ele>0.0</ele></rtept>
    <rtept lat="52.455432" lon="4.601309"><ele>0.0</ele></rtept>
    <rtept lat="52.455214" lon="4.601093"><ele>0.0</ele></rtept>
    <rtept lat="52.454310" lon="4.600179"><ele>0.0</ele></rtept>
    <rtept lat="52.454225" lon="4.600091"><ele>0.0</ele></rtept>
    <rtept lat="52.454112" lon="4.599974"><ele>0.0</ele></rtept>
    <rtept lat="52.452832" lon="4.598679"><ele>0.0</ele></rtept>
    <rtept lat="52.452738" lon="4.598565"><ele>0.0</ele></rtept>
    <rtept lat="52.452346" lon="4.598153"><ele>0.0</ele></rtept>
    <rtept lat="52.452354" lon="4.598046"><ele>0.0</ele></rtept>
    <rtept lat="52.452592" lon="4.597412"><ele>0.0</ele></rtept>
    <rtept lat="52.452609" lon="4.597366"><ele>0.0</ele></rtept>
    <rtept lat="52.452881" lon="4.596646"><ele>0.0</ele></rtept>
    <rtept lat="52.453145" lon="4.595949"><ele>0.0</ele></rtept>
    <rtept lat="52.453174" lon="4.595870"><ele>0.0</ele></rtept>
    <rtept lat="52.453153" lon="4.595852"><ele>0.0</ele></rtept>
    <rtept lat="52.453109" lon="4.595863"><ele>0.0</ele></rtept>
    <rtept lat="52.453057" lon="4.595807"><ele>0.0</ele></rtept>
    <rtept lat="52.452620" lon="4.595360"><ele>0.0</ele></rtept>
    <rtept lat="52.452418" lon="4.595161"><ele>0.0</ele></rtept>
    <rtept lat="52.452558" lon="4.594790"><ele>0.0</ele></rtept>
    <rtept lat="52.452698" lon="4.594419"><ele>0.0</ele></rtept>
    <rtept lat="52.452436" lon="4.594151"><ele>0.0</ele></rtept>
    <rtept lat="52.452572" lon="4.593796"><ele>0.0</ele></rtept>
    <rtept lat="52.452764" lon="4.593284"><ele>0.0</ele></rtept>
    <rtept lat="52.453470" lon="4.593976"><ele>0.0</ele></rtept>
    <rtept lat="52.453487" lon="4.594026"><ele>0.0</ele></rtept>
    <rtept lat="52.453612" lon="4.594148"><ele>0.0</ele></rtept>
    <rtept lat="52.453621" lon="4.594295"><ele>0.0</ele></rtept>
    <rtept lat="52.453057" lon="4.595807"><ele>0.0</ele></rtept>
    <rtept lat="52.452915" lon="4.596176"><ele>0.0</ele></rtept>
    <rtept lat="52.452797" lon="4.596493"><ele>0.0</ele></rtept>
    <rtept lat="52.452773" lon="4.596560"><ele>0.0</ele></rtept>
    <rtept lat="52.452499" lon="4.597286"><ele>0.0</ele></rtept>
    <rtept lat="52.452249" lon="4.597951"><ele>0.0</ele></rtept>
    <rtept lat="52.452194" lon="4.597999"><ele>0.0</ele></rtept>
    <rtept lat="52.452157" lon="4.598100"><ele>0.0</ele></rtept>
    <rtept lat="52.452118" lon="4.598202"><ele>0.0</ele></rtept>
    <rtept lat="52.452092" lon="4.598275"><ele>0.0</ele></rtept>
    <rtept lat="52.452127" lon="4.598314"><ele>0.0</ele></rtept>
    <rtept lat="52.452242" lon="4.598432"><ele>0.0</ele></rtept>
    <rtept lat="52.452434" lon="4.598679"><ele>0.0</ele></rtept>
    <rtept lat="52.452624" lon="4.598844"><ele>0.0</ele></rtept>
    <rtept lat="52.452331" lon="4.599635"><ele>0.0</ele></rtept>
    <rtept lat="52.452335" lon="4.599768"><ele>0.0</ele></rtept>
    <rtept lat="52.452469" lon="4.600173"><ele>0.0</ele></rtept>
    <rtept lat="52.452578" lon="4.600504"><ele>0.0</ele></rtept>
    <rtept lat="52.453058" lon="4.601938"><ele>0.0</ele></rtept>
    <rtept lat="52.453284" lon="4.602631"><ele>0.0</ele></rtept>
    <rtept lat="52.453308" lon="4.602707"><ele>0.0</ele></rtept>
    <rtept lat="52.452811" lon="4.603148"><ele>0.0</ele></rtept>
    <rtept lat="52.452546" lon="4.603364"><ele>0.0</ele></rtept>
    <rtept lat="52.452313" lon="4.603574"><ele>0.0</ele></rtept>
    <rtept lat="52.452874" lon="4.605270"><ele>0.0</ele></rtept>
    <rtept lat="52.453123" lon="4.606037"><ele>0.0</ele></rtept>
    <rtept lat="52.453379" lon="4.606857"><ele>0.0</ele></rtept>
    <rtept lat="52.453506" lon="4.607249"><ele>0.0</ele></rtept>
    <rtept lat="52.453638" lon="4.607650"><ele>0.0</ele></rtept>
    <rtept lat="52.453788" lon="4.608096"><ele>0.0</ele></rtept>
    <rtept lat="52.453905" lon="4.608448"><ele>0.0</ele></rtept>
    <rtept lat="52.453655" lon="4.608643"><ele>0.0</ele></rtept>
    <rtept lat="52.453428" lon="4.608736"><ele>0.0</ele></rtept>
    <rtept lat="52.453386" lon="4.608753"><ele>0.0</ele></rtept>
    <rtept lat="52.453217" lon="4.608836"><ele>0.0</ele></rtept>
    <rtept lat="52.453090" lon="4.608927"><ele>0.0</ele></rtept>
    <rtept lat="52.453037" lon="4.608770"><ele>0.0</ele></rtept>
    <rtept lat="52.452906" lon="4.608948"><ele>0.0</ele></rtept>
    <rtept lat="52.452844" lon="4.609027"><ele>0.0</ele></rtept>
    <rtept lat="52.452718" lon="4.609205"><ele>0.0</ele></rtept>
    <rtept lat="52.453091" lon="4.609894"><ele>0.0</ele></rtept>
    <rtept lat="52.453209" lon="4.610259"><ele>0.0</ele></rtept>
    <rtept lat="52.453304" lon="4.610630"><ele>0.0</ele></rtept>
    <rtept lat="52.453408" lon="4.610994"><ele>0.0</ele></rtept>
    <rtept lat="52.453438" lon="4.611152"><ele>0.0</ele></rtept>
    <rtept lat="52.453515" lon="4.611949"><ele>0.0</ele></rtept>
    <rtept lat="52.453535" lon="4.612550"><ele>0.0</ele></rtept>
    <rtept lat="52.453618" lon="4.613018"><ele>0.0</ele></rtept>
    <rtept lat="52.453689" lon="4.613296"><ele>0.0</ele></rtept>
    <rtept lat="52.453854" lon="4.613788"><ele>0.0</ele></rtept>
    <rtept lat="52.454433" lon="4.614896"><ele>0.0</ele></rtept>
    <rtept lat="52.454632" lon="4.615368"><ele>0.0</ele></rtept>
    <rtept lat="52.454872" lon="4.616042"><ele>0.0</ele></rtept>
    <rtept lat="52.454955" lon="4.616526"><ele>0.0</ele></rtept>
    <rtept lat="52.454994" lon="4.616878"><ele>0.0</ele></rtept>
    <rtept lat="52.455005" lon="4.617125"><ele>0.0</ele></rtept>
    <rtept lat="52.455010" lon="4.617401"><ele>0.0</ele></rtept>
    <rtept lat="52.454995" lon="4.617741"><ele>0.0</ele></rtept>
    <rtept lat="52.454943" lon="4.618189"><ele>0.0</ele></rtept>
    <rtept lat="52.454868" lon="4.618596"><ele>0.0</ele></rtept>
    <rtept lat="52.454285" lon="4.621266"><ele>0.0</ele></rtept>
    <rtept lat="52.454180" lon="4.621505"><ele>0.0</ele></rtept>
    <rtept lat="52.454023" lon="4.622036"><ele>0.0</ele></rtept>
    <rtept lat="52.453988" lon="4.622183"><ele>0.0</ele></rtept>
    <rtept lat="52.453889" lon="4.622666"><ele>0.0</ele></rtept>
    <rtept lat="52.453883" lon="4.623123"><ele>0.0</ele></rtept>
    <rtept lat="52.453641" lon="4.624202"><ele>0.0</ele></rtept>
    <rtept lat="52.453364" lon="4.625469"><ele>0.0</ele></rtept>
    <rtept lat="52.453277" lon="4.625776"><ele>0.0</ele></rtept>
    <rtept lat="52.453225" lon="4.626094"><ele>0.0</ele></rtept>
    <rtept lat="52.452801" lon="4.627965"><ele>0.0</ele></rtept>
    <rtept lat="52.452734" lon="4.628196"><ele>0.0</ele></rtept>
    <rtept lat="52.452650" lon="4.628397"><ele>0.0</ele></rtept>
    <rtept lat="52.452640" lon="4.628428"><ele>0.0</ele></rtept>
    <rtept lat="52.452540" lon="4.628825"><ele>0.0</ele></rtept>
    <rtept lat="52.452535" lon="4.628856"><ele>0.0</ele></rtept>
    <rtept lat="52.452448" lon="4.629374"><ele>0.0</ele></rtept>
    <rtept lat="52.452418" lon="4.629481"><ele>0.0</ele></rtept>
    <rtept lat="52.452302" lon="4.629695"><ele>0.0</ele></rtept>
    <rtept lat="52.452156" lon="4.629889"><ele>0.0</ele></rtept>
    <rtept lat="52.451702" lon="4.630537"><ele>0.0</ele></rtept>
    <rtept lat="52.451564" lon="4.630838"><ele>0.0</ele></rtept>
    <rtept lat="52.451480" lon="4.631026"><ele>0.0</ele></rtept>
    <rtept lat="52.451101" lon="4.631840"><ele>0.0</ele></rtept>
    <rtept lat="52.451041" lon="4.632108"><ele>0.0</ele></rtept>
    <rtept lat="52.451015" lon="4.632254"><ele>0.0</ele></rtept>
    <rtept lat="52.451010" lon="4.632546"><ele>0.0</ele></rtept>
    <rtept lat="52.451011" lon="4.632587"><ele>0.0</ele></rtept>
    <rtept lat="52.451013" lon="4.632785"><ele>0.0</ele></rtept>
    <rtept lat="52.451016" lon="4.632952"><ele>0.0</ele></rtept>
    <rtept lat="52.451021" lon="4.633185"><ele>0.0</ele></rtept>
    <rtept lat="52.450982" lon="4.633290"><ele>0.0</ele></rtept>
    <rtept lat="52.450960" lon="4.633408"><ele>0.0</ele></rtept>
    <rtept lat="52.450963" lon="4.633538"><ele>0.0</ele></rtept>
    <rtept lat="52.450984" lon="4.633643"><ele>0.0</ele></rtept>
    <rtept lat="52.450975" lon="4.633801"><ele>0.0</ele></rtept>
    <rtept lat="52.450931" lon="4.634235"><ele>0.0</ele></rtept>
    <rtept lat="52.450853" lon="4.634497"><ele>0.0</ele></rtept>
    <rtept lat="52.450799" lon="4.634614"><ele>0.0</ele></rtept>
    <rtept lat="52.450747" lon="4.634717"><ele>0.0</ele></rtept>
    <rtept lat="52.449887" lon="4.636412"><ele>0.0</ele></rtept>
    <rtept lat="52.449271" lon="4.637613"><ele>0.0</ele></rtept>
    <rtept lat="52.449140" lon="4.637875"><ele>0.0</ele></rtept>
    <rtept lat="52.449084" lon="4.637882"><ele>0.0</ele></rtept>
    <rtept lat="52.448987" lon="4.637971"><ele>0.0</ele></rtept>
    <rtept lat="52.448950" lon="4.638064"><ele>0.0</ele></rtept>
    <rtept lat="52.448935" lon="4.638174"><ele>0.0</ele></rtept>
    <rtept lat="52.448791" lon="4.638317"><ele>0.0</ele></rtept>
    <rtept lat="52.448581" lon="4.638386"><ele>0.0</ele></rtept>
    <rtept lat="52.448005" lon="4.638388"><ele>0.0</ele></rtept>
    <rtept lat="52.447725" lon="4.638432"><ele>0.0</ele></rtept>
    <rtept lat="52.447030" lon="4.638589"><ele>0.0</ele></rtept>
    <rtept lat="52.446691" lon="4.638666"><ele>0.0</ele></rtept>
    <rtept lat="52.445750" lon="4.638865"><ele>0.0</ele></rtept>
    <rtept lat="52.445659" lon="4.638741"><ele>0.0</ele></rtept>
    <rtept lat="52.445570" lon="4.638719"><ele>0.0</ele></rtept>
    <rtept lat="52.445486" lon="4.638766"><ele>0.0</ele></rtept>
    <rtept lat="52.445419" lon="4.638883"><ele>0.0</ele></rtept>
    <rtept lat="52.445344" lon="4.638936"><ele>0.0</ele></rtept>
    <rtept lat="52.445014" lon="4.639020"><ele>0.0</ele></rtept>
    <rtept lat="52.444781" lon="4.639078"><ele>0.0</ele></rtept>
    <rtept lat="52.444745" lon="4.639088"><ele>0.0</ele></rtept>
    <rtept lat="52.444713" lon="4.639103"><ele>0.0</ele></rtept>
    <rtept lat="52.444283" lon="4.639218"><ele>0.0</ele></rtept>
    <rtept lat="52.443879" lon="4.639377"><ele>0.0</ele></rtept>
    <rtept lat="52.443400" lon="4.639618"><ele>0.0</ele></rtept>
    <rtept lat="52.443090" lon="4.639804"><ele>0.0</ele></rtept>
    <rtept lat="52.441537" lon="4.640744"><ele>0.0</ele></rtept>
    <rtept lat="52.441250" lon="4.640918"><ele>0.0</ele></rtept>
    <rtept lat="52.441091" lon="4.640974"><ele>0.0</ele></rtept>
    <rtept lat="52.440829" lon="4.641092"><ele>0.0</ele></rtept>
    <rtept lat="52.440563" lon="4.641244"><ele>0.0</ele></rtept>
    <rtept lat="52.440242" lon="4.641514"><ele>0.0</ele></rtept>
    <rtept lat="52.438881" lon="4.642341"><ele>0.0</ele></rtept>
    <rtept lat="52.438722" lon="4.642410"><ele>0.0</ele></rtept>
    <rtept lat="52.438619" lon="4.642298"><ele>0.0</ele></rtept>
    <rtept lat="52.438521" lon="4.642294"><ele>0.0</ele></rtept>
    <rtept lat="52.438448" lon="4.642356"><ele>0.0</ele></rtept>
    <rtept lat="52.438372" lon="4.642538"><ele>0.0</ele></rtept>
    <rtept lat="52.437798" lon="4.642749"><ele>0.0</ele></rtept>
    <rtept lat="52.436720" lon="4.643143"><ele>0.0</ele></rtept>
    <rtept lat="52.436611" lon="4.643181"><ele>0.0</ele></rtept>
    <rtept lat="52.436511" lon="4.643217"><ele>0.0</ele></rtept>
    <rtept lat="52.435984" lon="4.643407"><ele>0.0</ele></rtept>
    <rtept lat="52.435174" lon="4.643706"><ele>0.0</ele></rtept>
    <rtept lat="52.434466" lon="4.643968"><ele>0.0</ele></rtept>
    <rtept lat="52.433908" lon="4.644160"><ele>0.0</ele></rtept>
    <rtept lat="52.433833" lon="4.644165"><ele>0.0</ele></rtept>
    <rtept lat="52.433669" lon="4.644224"><ele>0.0</ele></rtept>
    <rtept lat="52.433496" lon="4.644340"><ele>0.0</ele></rtept>
    <rtept lat="52.433374" lon="4.644390"><ele>0.0</ele></rtept>
    <rtept lat="52.432497" lon="4.644604"><ele>0.0</ele></rtept>
    <rtept lat="52.432410" lon="4.644657"><ele>0.0</ele></rtept>
    <rtept lat="52.432224" lon="4.644839"><ele>0.0</ele></rtept>
    <rtept lat="52.432138" lon="4.644885"><ele>0.0</ele></rtept>
    <rtept lat="52.431988" lon="4.644889"><ele>0.0</ele></rtept>
    <rtept lat="52.431894" lon="4.644857"><ele>0.0</ele></rtept>
    <rtept lat="52.431832" lon="4.644869"><ele>0.0</ele></rtept>
    <rtept lat="52.431807" lon="4.644699"><ele>0.0</ele></rtept>
    <rtept lat="52.431796" lon="4.644627"><ele>0.0</ele></rtept>
    <rtept lat="52.431762" lon="4.644572"><ele>0.0</ele></rtept>
    <rtept lat="52.431703" lon="4.644556"><ele>0.0</ele></rtept>
    <rtept lat="52.431181" lon="4.644218"><ele>0.0</ele></rtept>
    <rtept lat="52.431016" lon="4.644175"><ele>0.0</ele></rtept>
    <rtept lat="52.430745" lon="4.644154"><ele>0.0</ele></rtept>
    <rtept lat="52.430250" lon="4.644131"><ele>0.0</ele></rtept>
    <rtept lat="52.430131" lon="4.644130"><ele>0.0</ele></rtept>
    <rtept lat="52.429696" lon="4.644101"><ele>0.0</ele></rtept>
    <rtept lat="52.428885" lon="4.644093"><ele>0.0</ele></rtept>
    <rtept lat="52.428502" lon="4.644024"><ele>0.0</ele></rtept>
    <rtept lat="52.428360" lon="4.643994"><ele>0.0</ele></rtept>
    <rtept lat="52.428301" lon="4.644230"><ele>0.0</ele></rtept>
    <rtept lat="52.428184" lon="4.644698"><ele>0.0</ele></rtept>
    <rtept lat="52.428191" lon="4.644757"><ele>0.0</ele></rtept>
    <rtept lat="52.428237" lon="4.644879"><ele>0.0</ele></rtept>
    <rtept lat="52.428237" lon="4.644983"><ele>0.0</ele></rtept>
    <rtept lat="52.428218" lon="4.645057"><ele>0.0</ele></rtept>
    <rtept lat="52.428181" lon="4.645217"><ele>0.0</ele></rtept>
    <rtept lat="52.428154" lon="4.645338"><ele>0.0</ele></rtept>
    <rtept lat="52.428213" lon="4.645350"><ele>0.0</ele></rtept>
    <rtept lat="52.428200" lon="4.645448"><ele>0.0</ele></rtept>
    <rtept lat="52.428087" lon="4.645970"><ele>0.0</ele></rtept>
    <rtept lat="52.427968" lon="4.646426"><ele>0.0</ele></rtept>
    <rtept lat="52.427614" lon="4.647867"><ele>0.0</ele></rtept>
    <rtept lat="52.427344" lon="4.649016"><ele>0.0</ele></rtept>
    <rtept lat="52.427325" lon="4.649079"><ele>0.0</ele></rtept>
    <rtept lat="52.427262" lon="4.649319"><ele>0.0</ele></rtept>
    <rtept lat="52.427206" lon="4.649562"><ele>0.0</ele></rtept>
    <rtept lat="52.427089" lon="4.650066"><ele>0.0</ele></rtept>
    <rtept lat="52.426916" lon="4.650752"><ele>0.0</ele></rtept>
    <rtept lat="52.425963" lon="4.654706"><ele>0.0</ele></rtept>
    <rtept lat="52.425733" lon="4.655709"><ele>0.0</ele></rtept>
    <rtept lat="52.425262" lon="4.658191"><ele>0.0</ele></rtept>
    <rtept lat="52.424992" lon="4.659881"><ele>0.0</ele></rtept>
    <rtept lat="52.424692" lon="4.662015"><ele>0.0</ele></rtept>
    <rtept lat="52.424604" lon="4.662338"><ele>0.0</ele></rtept>
    <rtept lat="52.424581" lon="4.662737"><ele>0.0</ele></rtept>
    <rtept lat="52.424485" lon="4.663259"><ele>0.0</ele></rtept>
    <rtept lat="52.424383" lon="4.663676"><ele>0.0</ele></rtept>
    <rtept lat="52.424190" lon="4.664108"><ele>0.0</ele></rtept>
    <rtept lat="52.423776" lon="4.665343"><ele>0.0</ele></rtept>
    <rtept lat="52.423405" lon="4.666094"><ele>0.0</ele></rtept>
    <rtept lat="52.423015" lon="4.666810"><ele>0.0</ele></rtept>
    <rtept lat="52.422195" lon="4.668242"><ele>0.0</ele></rtept>
    <rtept lat="52.420741" lon="4.670708"><ele>0.0</ele></rtept>
    <rtept lat="52.420219" lon="4.671674"><ele>0.0</ele></rtept>
    <rtept lat="52.419271" lon="4.673360"><ele>0.0</ele></rtept>
    <rtept lat="52.419128" lon="4.673562"><ele>0.0</ele></rtept>
    <rtept lat="52.418798" lon="4.673848"><ele>0.0</ele></rtept>
    <rtept lat="52.418198" lon="4.674246"><ele>0.0</ele></rtept>
    <rtept lat="52.416843" lon="4.675255"><ele>0.0</ele></rtept>
    <rtept lat="52.416650" lon="4.675522"><ele>0.0</ele></rtept>
    <rtept lat="52.416551" lon="4.675759"><ele>0.0</ele></rtept>
    <rtept lat="52.416550" lon="4.675808"><ele>0.0</ele></rtept>
    <rtept lat="52.416573" lon="4.675847"><ele>0.0</ele></rtept>
    <rtept lat="52.416459" lon="4.676006"><ele>0.0</ele></rtept>
    <rtept lat="52.416266" lon="4.676228"><ele>0.0</ele></rtept>
    <rtept lat="52.416063" lon="4.676305"><ele>0.0</ele></rtept>
    <rtept lat="52.415938" lon="4.676349"><ele>0.0</ele></rtept>
    <rtept lat="52.415898" lon="4.676372"><ele>0.0</ele></rtept>
    <rtept lat="52.415836" lon="4.676410"><ele>0.0</ele></rtept>
    <rtept lat="52.415733" lon="4.676491"><ele>0.0</ele></rtept>
    <rtept lat="52.415300" lon="4.676853"><ele>0.0</ele></rtept>
    <rtept lat="52.415183" lon="4.676943"><ele>0.0</ele></rtept>
    <rtept lat="52.415059" lon="4.677050"><ele>0.0</ele></rtept>
    <rtept lat="52.414864" lon="4.677224"><ele>0.0</ele></rtept>
    <rtept lat="52.414797" lon="4.677277"><ele>0.0</ele></rtept>
    <rtept lat="52.414551" lon="4.677518"><ele>0.0</ele></rtept>
    <rtept lat="52.414463" lon="4.677611"><ele>0.0</ele></rtept>
    <rtept lat="52.414450" lon="4.677628"><ele>0.0</ele></rtept>
    <rtept lat="52.414386" lon="4.677715"><ele>0.0</ele></rtept>
    <rtept lat="52.414365" lon="4.677747"><ele>0.0</ele></rtept>
    <rtept lat="52.414304" lon="4.677840"><ele>0.0</ele></rtept>
    <rtept lat="52.414292" lon="4.677857"><ele>0.0</ele></rtept>
    <rtept lat="52.414121" lon="4.678047"><ele>0.0</ele></rtept>
    <rtept lat="52.414021" lon="4.678154"><ele>0.0</ele></rtept>
    <rtept lat="52.413889" lon="4.678300"><ele>0.0</ele></rtept>
    <rtept lat="52.413730" lon="4.678525"><ele>0.0</ele></rtept>
    <rtept lat="52.413559" lon="4.678863"><ele>0.0</ele></rtept>
    <rtept lat="52.413493" lon="4.679053"><ele>0.0</ele></rtept>
    <rtept lat="52.413385" lon="4.679499"><ele>0.0</ele></rtept>
    <rtept lat="52.413378" lon="4.679698"><ele>0.0</ele></rtept>
    <rtept lat="52.413416" lon="4.679952"><ele>0.0</ele></rtept>
    <rtept lat="52.413525" lon="4.680468"><ele>0.0</ele></rtept>
    <rtept lat="52.413563" lon="4.680731"><ele>0.0</ele></rtept>
    <rtept lat="52.413564" lon="4.680838"><ele>0.0</ele></rtept>
    <rtept lat="52.413515" lon="4.681158"><ele>0.0</ele></rtept>
    <rtept lat="52.413472" lon="4.681360"><ele>0.0</ele></rtept>
    <rtept lat="52.413412" lon="4.681613"><ele>0.0</ele></rtept>
    <rtept lat="52.413395" lon="4.681687"><ele>0.0</ele></rtept>
    <rtept lat="52.413354" lon="4.681780"><ele>0.0</ele></rtept>
    <rtept lat="52.413233" lon="4.682033"><ele>0.0</ele></rtept>
    <rtept lat="52.413189" lon="4.682132"><ele>0.0</ele></rtept>
    <rtept lat="52.413168" lon="4.682253"><ele>0.0</ele></rtept>
    <rtept lat="52.413190" lon="4.682451"><ele>0.0</ele></rtept>
    <rtept lat="52.413052" lon="4.682537"><ele>0.0</ele></rtept>
    <rtept lat="52.412975" lon="4.682621"><ele>0.0</ele></rtept>
    <rtept lat="52.412488" lon="4.683434"><ele>0.0</ele></rtept>
    <rtept lat="52.412450" lon="4.683575"><ele>0.0</ele></rtept>
    <rtept lat="52.412200" lon="4.684376"><ele>0.0</ele></rtept>
    <rtept lat="52.412069" lon="4.684785"><ele>0.0</ele></rtept>
    <rtept lat="52.411642" lon="4.686082"><ele>0.0</ele></rtept>
    <rtept lat="52.411601" lon="4.686099"><ele>0.0</ele></rtept>
    <rtept lat="52.411340" lon="4.686525"><ele>0.0</ele></rtept>
    <rtept lat="52.411314" lon="4.686496"><ele>0.0</ele></rtept>
    <rtept lat="52.411284" lon="4.686466"><ele>0.0</ele></rtept>
    <rtept lat="52.411176" lon="4.686310"><ele>0.0</ele></rtept>
    <rtept lat="52.411027" lon="4.686034"><ele>0.0</ele></rtept>
    <rtept lat="52.410450" lon="4.684631"><ele>0.0</ele></rtept>
    <rtept lat="52.410324" lon="4.684359"><ele>0.0</ele></rtept>
    <rtept lat="52.410201" lon="4.684197"><ele>0.0</ele></rtept>
    <rtept lat="52.409594" lon="4.683551"><ele>0.0</ele></rtept>
    <rtept lat="52.409690" lon="4.683340"><ele>0.0</ele></rtept>
    <rtept lat="52.409462" lon="4.682834"><ele>0.0</ele></rtept>
    <rtept lat="52.409341" lon="4.682684"><ele>0.0</ele></rtept>
    <rtept lat="52.408513" lon="4.681933"><ele>0.0</ele></rtept>
    <rtept lat="52.408182" lon="4.681784"><ele>0.0</ele></rtept>
    <rtept lat="52.407746" lon="4.681620"><ele>0.0</ele></rtept>
    <rtept lat="52.407639" lon="4.681598"><ele>0.0</ele></rtept>
    <rtept lat="52.407552" lon="4.681609"><ele>0.0</ele></rtept>
    <rtept lat="52.407201" lon="4.681787"><ele>0.0</ele></rtept>
    <rtept lat="52.407120" lon="4.681849"><ele>0.0</ele></rtept>
    <rtept lat="52.407038" lon="4.681875"><ele>0.0</ele></rtept>
    <rtept lat="52.406857" lon="4.681908"><ele>0.0</ele></rtept>
    <rtept lat="52.406639" lon="4.681901"><ele>0.0</ele></rtept>
    <rtept lat="52.406579" lon="4.681890"><ele>0.0</ele></rtept>
    <rtept lat="52.406439" lon="4.681862"><ele>0.0</ele></rtept>
    <rtept lat="52.405900" lon="4.681952"><ele>0.0</ele></rtept>
    <rtept lat="52.405771" lon="4.681926"><ele>0.0</ele></rtept>
    <rtept lat="52.405714" lon="4.681895"><ele>0.0</ele></rtept>
    <rtept lat="52.404854" lon="4.681148"><ele>0.0</ele></rtept>
    <rtept lat="52.404019" lon="4.680945"><ele>0.0</ele></rtept>
    <rtept lat="52.403535" lon="4.680825"><ele>0.0</ele></rtept>
    <rtept lat="52.403335" lon="4.680806"><ele>0.0</ele></rtept>
    <rtept lat="52.403241" lon="4.680825"><ele>0.0</ele></rtept>
    <rtept lat="52.403179" lon="4.680879"><ele>0.0</ele></rtept>
    <rtept lat="52.403060" lon="4.681133"><ele>0.0</ele></rtept>
    <rtept lat="52.402779" lon="4.681801"><ele>0.0</ele></rtept>
    <rtept lat="52.402725" lon="4.681885"><ele>0.0</ele></rtept>
    <rtept lat="52.402621" lon="4.681882"><ele>0.0</ele></rtept>
    <rtept lat="52.402438" lon="4.681694"><ele>0.0</ele></rtept>
    <rtept lat="52.401152" lon="4.680114"><ele>0.0</ele></rtept>
    <rtept lat="52.399804" lon="4.682774"><ele>0.0</ele></rtept>
    <rtept lat="52.398723" lon="4.681347"><ele>0.0</ele></rtept>
    <rtept lat="52.398291" lon="4.680735"><ele>0.0</ele></rtept>
    <rtept lat="52.398193" lon="4.680613"><ele>0.0</ele></rtept>
    <rtept lat="52.397965" lon="4.680327"><ele>0.0</ele></rtept>
    <rtept lat="52.397625" lon="4.679838"><ele>0.0</ele></rtept>
    <rtept lat="52.397327" lon="4.679457"><ele>0.0</ele></rtept>
    <rtept lat="52.397248" lon="4.679358"><ele>0.0</ele></rtept>
    <rtept lat="52.397181" lon="4.679199"><ele>0.0</ele></rtept>
    <rtept lat="52.397159" lon="4.678848"><ele>0.0</ele></rtept>
    <rtept lat="52.396324" lon="4.678903"><ele>0.0</ele></rtept>
    <rtept lat="52.395268" lon="4.678721"><ele>0.0</ele></rtept>
    <rtept lat="52.394744" lon="4.678685"><ele>0.0</ele></rtept>
    <rtept lat="52.394634" lon="4.678637"><ele>0.0</ele></rtept>
    <rtept lat="52.394431" lon="4.678409"><ele>0.0</ele></rtept>
    <rtept lat="52.394332" lon="4.678301"><ele>0.0</ele></rtept>
    <rtept lat="52.394125" lon="4.678130"><ele>0.0</ele></rtept>
    <rtept lat="52.393895" lon="4.678086"><ele>0.0</ele></rtept>
    <rtept lat="52.393600" lon="4.678098"><ele>0.0</ele></rtept>
    <rtept lat="52.393291" lon="4.678147"><ele>0.0</ele></rtept>
    <rtept lat="52.392941" lon="4.678318"><ele>0.0</ele></rtept>
    <rtept lat="52.392766" lon="4.677488"><ele>0.0</ele></rtept>
    <rtept lat="52.392676" lon="4.677233"><ele>0.0</ele></rtept>
    <rtept lat="52.392625" lon="4.677130"><ele>0.0</ele></rtept>
    <rtept lat="52.392530" lon="4.676983"><ele>0.0</ele></rtept>
    <rtept lat="52.392106" lon="4.676509"><ele>0.0</ele></rtept>
    <rtept lat="52.391943" lon="4.676382"><ele>0.0</ele></rtept>
    <rtept lat="52.391804" lon="4.676358"><ele>0.0</ele></rtept>
    <rtept lat="52.391326" lon="4.676499"><ele>0.0</ele></rtept>
    <rtept lat="52.391234" lon="4.676448"><ele>0.0</ele></rtept>
    <rtept lat="52.391181" lon="4.676329"><ele>0.0</ele></rtept>
    <rtept lat="52.391149" lon="4.676179"><ele>0.0</ele></rtept>
    <rtept lat="52.391171" lon="4.675549"><ele>0.0</ele></rtept>
    <rtept lat="52.391167" lon="4.675308"><ele>0.0</ele></rtept>
    <rtept lat="52.391132" lon="4.675031"><ele>0.0</ele></rtept>
    <rtept lat="52.391087" lon="4.674812"><ele>0.0</ele></rtept>
    <rtept lat="52.391016" lon="4.674587"><ele>0.0</ele></rtept>
    <rtept lat="52.390904" lon="4.674331"><ele>0.0</ele></rtept>
    <rtept lat="52.390813" lon="4.674139"><ele>0.0</ele></rtept>
    <rtept lat="52.390679" lon="4.673846"><ele>0.0</ele></rtept>
    <rtept lat="52.390494" lon="4.673535"><ele>0.0</ele></rtept>
    <rtept lat="52.390477" lon="4.673505"><ele>0.0</ele></rtept>
    <rtept lat="52.390208" lon="4.672710"><ele>0.0</ele></rtept>
    <rtept lat="52.390179" lon="4.672627"><ele>0.0</ele></rtept>
    <rtept lat="52.390024" lon="4.672147"><ele>0.0</ele></rtept>
    <rtept lat="52.389394" lon="4.670578"><ele>0.0</ele></rtept>
    <rtept lat="52.389212" lon="4.670118"><ele>0.0</ele></rtept>
    <rtept lat="52.389070" lon="4.669500"><ele>0.0</ele></rtept>
    <rtept lat="52.388136" lon="4.670070"><ele>0.0</ele></rtept>
    <rtept lat="52.388018" lon="4.670162"><ele>0.0</ele></rtept>
    <rtept lat="52.387825" lon="4.670311"><ele>0.0</ele></rtept>
    <rtept lat="52.387750" lon="4.670243"><ele>0.0</ele></rtept>
    <rtept lat="52.387711" lon="4.670241"><ele>0.0</ele></rtept>
    <rtept lat="52.387602" lon="4.670157"><ele>0.0</ele></rtept>
    <rtept lat="52.387506" lon="4.670158"><ele>0.0</ele></rtept>
    <rtept lat="52.387391" lon="4.670155"><ele>0.0</ele></rtept>
    <rtept lat="52.387307" lon="4.670151"><ele>0.0</ele></rtept>
    <rtept lat="52.387305" lon="4.670301"><ele>0.0</ele></rtept>
    <rtept lat="52.387281" lon="4.670480"><ele>0.0</ele></rtept>
    <rtept lat="52.387220" lon="4.670702"><ele>0.0</ele></rtept>
    <rtept lat="52.387140" lon="4.670849"><ele>0.0</ele></rtept>
    <rtept lat="52.387066" lon="4.670953"><ele>0.0</ele></rtept>
    <rtept lat="52.386950" lon="4.671068"><ele>0.0</ele></rtept>
    <rtept lat="52.386083" lon="4.671660"><ele>0.0</ele></rtept>
    <rtept lat="52.385877" lon="4.671773"><ele>0.0</ele></rtept>
    <rtept lat="52.385757" lon="4.671849"><ele>0.0</ele></rtept>
    <rtept lat="52.385670" lon="4.671909"><ele>0.0</ele></rtept>
    <rtept lat="52.385622" lon="4.671942"><ele>0.0</ele></rtept>
    <rtept lat="52.385449" lon="4.672156"><ele>0.0</ele></rtept>
    <rtept lat="52.385167" lon="4.672384"><ele>0.0</ele></rtept>
    <rtept lat="52.384451" lon="4.672836"><ele>0.0</ele></rtept>
    <rtept lat="52.383680" lon="4.673215"><ele>0.0</ele></rtept>
    <rtept lat="52.383290" lon="4.673323"><ele>0.0</ele></rtept>
    <rtept lat="52.382822" lon="4.673441"><ele>0.0</ele></rtept>
    <rtept lat="52.382577" lon="4.673476"><ele>0.0</ele></rtept>
    <rtept lat="52.382496" lon="4.673472"><ele>0.0</ele></rtept>
    <rtept lat="52.382280" lon="4.673401"><ele>0.0</ele></rtept>
    <rtept lat="52.382163" lon="4.673337"><ele>0.0</ele></rtept>
    <rtept lat="52.382043" lon="4.673157"><ele>0.0</ele></rtept>
    <rtept lat="52.381985" lon="4.672930"><ele>0.0</ele></rtept>
    <rtept lat="52.381969" lon="4.672783"><ele>0.0</ele></rtept>
    <rtept lat="52.381914" lon="4.671966"><ele>0.0</ele></rtept>
    <rtept lat="52.381862" lon="4.670918"><ele>0.0</ele></rtept>
    <rtept lat="52.381859" lon="4.670863"><ele>0.0</ele></rtept>
    <rtept lat="52.381803" lon="4.670848"><ele>0.0</ele></rtept>
    <rtept lat="52.381708" lon="4.670881"><ele>0.0</ele></rtept>
    <rtept lat="52.381628" lon="4.670879"><ele>0.0</ele></rtept>
    <rtept lat="52.381614" lon="4.670649"><ele>0.0</ele></rtept>
    <rtept lat="52.381603" lon="4.670462"><ele>0.0</ele></rtept>
    <rtept lat="52.381583" lon="4.669749"><ele>0.0</ele></rtept>
    <rtept lat="52.381600" lon="4.669560"><ele>0.0</ele></rtept>
    <rtept lat="52.381642" lon="4.669425"><ele>0.0</ele></rtept>
    <rtept lat="52.381681" lon="4.669329"><ele>0.0</ele></rtept>
    <rtept lat="52.381821" lon="4.669146"><ele>0.0</ele></rtept>
    <rtept lat="52.382081" lon="4.669001"><ele>0.0</ele></rtept>
    <rtept lat="52.382126" lon="4.668888"><ele>0.0</ele></rtept>
    <rtept lat="52.382083" lon="4.668033"><ele>0.0</ele></rtept>
    <rtept lat="52.381994" lon="4.666423"><ele>0.0</ele></rtept>
    <rtept lat="52.381630" lon="4.661848"><ele>0.0</ele></rtept>
    <rtept lat="52.381559" lon="4.661512"><ele>0.0</ele></rtept>
    <rtept lat="52.381476" lon="4.661472"><ele>0.0</ele></rtept>
    <rtept lat="52.381374" lon="4.661421"><ele>0.0</ele></rtept>
    <rtept lat="52.381231" lon="4.661355"><ele>0.0</ele></rtept>
    <rtept lat="52.381194" lon="4.661256"><ele>0.0</ele></rtept>
    <rtept lat="52.381028" lon="4.660835"><ele>0.0</ele></rtept>
    <rtept lat="52.381009" lon="4.660558"><ele>0.0</ele></rtept>
    <rtept lat="52.380949" lon="4.659839"><ele>0.0</ele></rtept>
    <rtept lat="52.380937" lon="4.659581"><ele>0.0</ele></rtept>
    <rtept lat="52.380868" lon="4.658723"><ele>0.0</ele></rtept>
    <rtept lat="52.380803" lon="4.657858"><ele>0.0</ele></rtept>
    <rtept lat="52.380041" lon="4.657887"><ele>0.0</ele></rtept>
    <rtept lat="52.380029" lon="4.657510"><ele>0.0</ele></rtept>
  </rte>
</gpx>