<?xml version="1.0" encoding="UTF-8"?>
<gpx version="1.1" creator="WeeklyCyclingRoutes"
  xmlns="http://www.topografix.com/GPX/1/1"
  xmlns:xsi="http://www.w3.org/2001/XMLSchema-instance"
  xsi:schemaLocation="http://www.topografix.com/GPX/1/1 http://www.topografix.com/GPX/1/1/gpx.xsd">
  <metadata>
    <name>40km Route – September 14, 2026</name>
    <desc>Round trip from Cremerstraat, Haarlem. Actual: 37.1km</desc>
    <time>2026-09-14T11:29:31Z</time>
  </metadata>
  <rte>
    <name>40km Cycling Route – Haarlem</name>
    <rtept lat="52.380029" lon="4.657510"><ele>0.0</ele></rtept>
    <rtept lat="52.380041" lon="4.657887"><ele>0.0</ele></rtept>
    <rtept lat="52.379804" lon="4.657899"><ele>0.0</ele></rtept>
    <rtept lat="52.379791" lon="4.658682"><ele>0.0</ele></rtept>
    <rtept lat="52.380868" lon="4.658723"><ele>0.0</ele></rtept>
    <rtept lat="52.380937" lon="4.659581"><ele>0.0</ele></rtept>
    <rtept lat="52.381454" lon="4.659467"><ele>0.0</ele></rtept>
    <rtept lat="52.381481" lon="4.659422"><ele>0.0</ele></rtept>
    <rtept lat="52.381555" lon="4.659568"><ele>0.0</ele></rtept>
    <rtept lat="52.381596" lon="4.660113"><ele>0.0</ele></rtept>
    <rtept lat="52.381618" lon="4.660654"><ele>0.0</ele></rtept>
    <rtept lat="52.381544" lon="4.660816"><ele>0.0</ele></rtept>
    <rtept lat="52.381566" lon="4.661153"><ele>0.0</ele></rtept>
    <rtept lat="52.381559" lon="4.661512"><ele>0.0</ele></rtept>
    <rtept lat="52.381630" lon="4.661848"><ele>0.0</ele></rtept>
    <rtept lat="52.381994" lon="4.666423"><ele>0.0</ele></rtept>
    <rtept lat="52.382083" lon="4.668033"><ele>0.0</ele></rtept>
    <rtept lat="52.382126" lon="4.668888"><ele>0.0</ele></rtept>
    <rtept lat="52.382081" lon="4.669001"><ele>0.0</ele></rtept>
    <rtept lat="52.381821" lon="4.669146"><ele>0.0</ele></rtept>
    <rtept lat="52.381681" lon="4.669329"><ele>0.0</ele></rtept>
    <rtept lat="52.381642" lon="4.669425"><ele>0.0</ele></rtept>
    <rtept lat="52.381600" lon="4.669560"><ele>0.0</ele></rtept>
    <rtept lat="52.381583" lon="4.669749"><ele>0.0</ele></rtept>
    <rtept lat="52.381603" lon="4.670462"><ele>0.0</ele></rtept>
    <rtept lat="52.381614" lon="4.670649"><ele>0.0</ele></rtept>
    <rtept lat="52.381628" lon="4.670879"><ele>0.0</ele></rtept>
    <rtept lat="52.381633" lon="4.670943"><ele>0.0</ele></rtept>
    <rtept lat="52.381643" lon="4.671069"><ele>0.0</ele></rtept>
    <rtept lat="52.381680" lon="4.672064"><ele>0.0</ele></rtept>
    <rtept lat="52.381694" lon="4.672099"><ele>0.0</ele></rtept>
    <rtept lat="52.381725" lon="4.672127"><ele>0.0</ele></rtept>
    <rtept lat="52.382021" lon="4.672080"><ele>0.0</ele></rtept>
    <rtept lat="52.382061" lon="4.672121"><ele>0.0</ele></rtept>
    <rtept lat="52.382102" lon="4.672635"><ele>0.0</ele></rtept>
    <rtept lat="52.382112" lon="4.672675"><ele>0.0</ele></rtept>
    <rtept lat="52.382158" lon="4.672706"><ele>0.0</ele></rtept>
    <rtept lat="52.382322" lon="4.672671"><ele>0.0</ele></rtept>
    <rtept lat="52.382359" lon="4.672730"><ele>0.0</ele></rtept>
    <rtept lat="52.382403" lon="4.673346"><ele>0.0</ele></rtept>
    <rtept lat="52.382439" lon="4.674017"><ele>0.0</ele></rtept>
    <rtept lat="52.382415" lon="4.674893"><ele>0.0</ele></rtept>
    <rtept lat="52.382414" lon="4.675667"><ele>0.0</ele></rtept>
    <rtept lat="52.382460" lon="4.676615"><ele>0.0</ele></rtept>
    <rtept lat="52.382526" lon="4.677270"><ele>0.0</ele></rtept>
    <rtept lat="52.382742" lon="4.678856"><ele>0.0</ele></rtept>
    <rtept lat="52.382873" lon="4.679976"><ele>0.0</ele></rtept>
    <rtept lat="52.382884" lon="4.680313"><ele>0.0</ele></rtept>
    <rtept lat="52.382870" lon="4.680472"><ele>0.0</ele></rtept>
    <rtept lat="52.382828" lon="4.680840"><ele>0.0</ele></rtept>
    <rtept lat="52.382791" lon="4.681123"><ele>0.0</ele></rtept>
    <rtept lat="52.382746" lon="4.681586"><ele>0.0</ele></rtept>
    <rtept lat="52.382747" lon="4.681843"><ele>0.0</ele></rtept>
    <rtept lat="52.382770" lon="4.682133"><ele>0.0</ele></rtept>
    <rtept lat="52.382810" lon="4.682410"><ele>0.0</ele></rtept>
    <rtept lat="52.382875" lon="4.682698"><ele>0.0</ele></rtept>
    <rtept lat="52.382992" lon="4.683096"><ele>0.0</ele></rtept>
    <rtept lat="52.383033" lon="4.683302"><ele>0.0</ele></rtept>
    <rtept lat="52.383222" lon="4.685672"><ele>0.0</ele></rtept>
    <rtept lat="52.383273" lon="4.686379"><ele>0.0</ele></rtept>
    <rtept lat="52.383293" lon="4.687046"><ele>0.0</ele></rtept>
    <rtept lat="52.383324" lon="4.688063"><ele>0.0</ele></rtept>
    <rtept lat="52.383362" lon="4.688525"><ele>0.0</ele></rtept>
    <rtept lat="52.383394" lon="4.688793"><ele>0.0</ele></rtept>
    <rtept lat="52.383591" lon="4.690995"><ele>0.0</ele></rtept>
    <rtept lat="52.383642" lon="4.691686"><ele>0.0</ele></rtept>
    <rtept lat="52.383607" lon="4.692281"><ele>0.0</ele></rtept>
    <rtept lat="52.383802" lon="4.694548"><ele>0.0</ele></rtept>
    <rtept lat="52.383884" lon="4.695286"><ele>0.0</ele></rtept>
    <rtept lat="52.383903" lon="4.695418"><ele>0.0</ele></rtept>
    <rtept lat="52.383978" lon="4.696881"><ele>0.0</ele></rtept>
    <rtept lat="52.384004" lon="4.697808"><ele>0.0</ele></rtept>
    <rtept lat="52.384018" lon="4.699234"><ele>0.0</ele></rtept>
    <rtept lat="52.383982" lon="4.699473"><ele>0.0</ele></rtept>
    <rtept lat="52.383930" lon="4.699663"><ele>0.0</ele></rtept>
    <rtept lat="52.383909" lon="4.699802"><ele>0.0</ele></rtept>
    <rtept lat="52.383906" lon="4.700086"><ele>0.0</ele></rtept>
    <rtept lat="52.383910" lon="4.700207"><ele>0.0</ele></rtept>
    <rtept lat="52.383946" lon="4.700324"><ele>0.0</ele></rtept>
    <rtept lat="52.383973" lon="4.700469"><ele>0.0</ele></rtept>
    <rtept lat="52.383958" lon="4.700846"><ele>0.0</ele></rtept>
    <rtept lat="52.383749" lon="4.703579"><ele>0.0</ele></rtept>
    <rtept lat="52.383682" lon="4.704091"><ele>0.0</ele></rtept>
    <rtept lat="52.383567" lon="4.704509"><ele>0.0</ele></rtept>
    <rtept lat="52.383479" lon="4.704742"><ele>0.0</ele></rtept>
    <rtept lat="52.383024" lon="4.705491"><ele>0.0</ele></rtept>
    <rtept lat="52.382830" lon="4.705912"><ele>0.0</ele></rtept>
    <rtept lat="52.382756" lon="4.706165"><ele>0.0</ele></rtept>
    <rtept lat="52.382677" lon="4.706639"><ele>0.0</ele></rtept>
    <rtept lat="52.382649" lon="4.707081"><ele>0.0</ele></rtept>
    <rtept lat="52.382668" lon="4.707451"><ele>0.0</ele></rtept>
    <rtept lat="52.382757" lon="4.708016"><ele>0.0</ele></rtept>
    <rtept lat="52.382856" lon="4.708337"><ele>0.0</ele></rtept>
    <rtept lat="52.383070" lon="4.708804"><ele>0.0</ele></rtept>
    <rtept lat="52.383740" lon="4.709674"><ele>0.0</ele></rtept>
    <rtept lat="52.383844" lon="4.709839"><ele>0.0</ele></rtept>
    <rtept lat="52.383927" lon="4.710016"><ele>0.0</ele></rtept>
    <rtept lat="52.383998" lon="4.710171"><ele>0.0</ele></rtept>
    <rtept lat="52.384059" lon="4.710360"><ele>0.0</ele></rtept>
    <rtept lat="52.385266" lon="4.715553"><ele>0.0</ele></rtept>
    <rtept lat="52.385407" lon="4.716301"><ele>0.0</ele></rtept>
    <rtept lat="52.385593" lon="4.717426"><ele>0.0</ele></rtept>
    <rtept lat="52.385731" lon="4.718945"><ele>0.0</ele></rtept>
    <rtept lat="52.385827" lon="4.720306"><ele>0.0</ele></rtept>
    <rtept lat="52.385951" lon="4.722133"><ele>0.0</ele></rtept>
    <rtept lat="52.385991" lon="4.722693"><ele>0.0</ele></rtept>
    <rtept lat="52.386078" lon="4.723860"><ele>0.0</ele></rtept>
    <rtept lat="52.386413" lon="4.728660"><ele>0.0</ele></rtept>
    <rtept lat="52.386486" lon="4.731357"><ele>0.0</ele></rtept>
    <rtept lat="52.386479" lon="4.731798"><ele>0.0</ele></rtept>
    <rtept lat="52.386455" lon="4.732206"><ele>0.0</ele></rtept>
    <rtept lat="52.386385" lon="4.732958"><ele>0.0</ele></rtept>
    <rtept lat="52.386291" lon="4.733661"><ele>0.0</ele></rtept>
    <rtept lat="52.386268" lon="4.733732"><ele>0.0</ele></rtept>
    <rtept lat="52.386227" lon="4.733787"><ele>0.0</ele></rtept>
    <rtept lat="52.386188" lon="4.733959"><ele>0.0</ele></rtept>
    <rtept lat="52.386173" lon="4.734058"><ele>0.0</ele></rtept>
    <rtept lat="52.386150" lon="4.734185"><ele>0.0</ele></rtept>
    <rtept lat="52.386173" lon="4.734304"><ele>0.0</ele></rtept>
    <rtept lat="52.386163" lon="4.734377"><ele>0.0</ele></rtept>
    <rtept lat="52.385982" lon="4.734924"><ele>0.0</ele></rtept>
    <rtept lat="52.385850" lon="4.735542"><ele>0.0</ele></rtept>
    <rtept lat="52.385848" lon="4.735609"><ele>0.0</ele></rtept>
    <rtept lat="52.385888" lon="4.735793"><ele>0.0</ele></rtept>
    <rtept lat="52.386201" lon="4.736332"><ele>0.0</ele></rtept>
    <rtept lat="52.386209" lon="4.736996"><ele>0.0</ele></rtept>
    <rtept lat="52.386204" lon="4.738830"><ele>0.0</ele></rtept>
    <rtept lat="52.386186" lon="4.740366"><ele>0.0</ele></rtept>
    <rtept lat="52.386152" lon="4.740968"><ele>0.0</ele></rtept>
    <rtept lat="52.385972" lon="4.742702"><ele>0.0</ele></rtept>
    <rtept lat="52.385937" lon="4.743013"><ele>0.0</ele></rtept>
    <rtept lat="52.385814" lon="4.744137"><ele>0.0</ele></rtept>
    <rtept lat="52.385763" lon="4.744666"><ele>0.0</ele></rtept>
    <rtept lat="52.385666" lon="4.745497"><ele>0.0</ele></rtept>
    <rtept lat="52.385634" lon="4.745722"><ele>0.0</ele></rtept>
    <rtept lat="52.385621" lon="4.745827"><ele>0.0</ele></rtept>
    <rtept lat="52.385611" lon="4.745929"><ele>0.0</ele></rtept>
    <rtept lat="52.385593" lon="4.746021"><ele>0.0</ele></rtept>
    <rtept lat="52.385546" lon="4.746442"><ele>0.0</ele></rtept>
    <rtept lat="52.385516" lon="4.746693"><ele>0.0</ele></rtept>
    <rtept lat="52.385500" lon="4.746822"><ele>0.0</ele></rtept>
    <rtept lat="52.385457" lon="4.747221"><ele>0.0</ele></rtept>
    <rtept lat="52.385477" lon="4.747519"><ele>0.0</ele></rtept>
    <rtept lat="52.385399" lon="4.747873"><ele>0.0</ele></rtept>
    <rtept lat="52.385288" lon="4.748128"><ele>0.0</ele></rtept>
    <rtept lat="52.384996" lon="4.748590"><ele>0.0</ele></rtept>
    <rtept lat="52.384490" lon="4.749405"><ele>0.0</ele></rtept>
    <rtept lat="52.384433" lon="4.749522"><ele>0.0</ele></rtept>
    <rtept lat="52.384339" lon="4.749844"><ele>0.0</ele></rtept>
    <rtept lat="52.384225" lon="4.750407"><ele>0.0</ele></rtept>
    <rtept lat="52.383960" lon="4.751698"><ele>0.0</ele></rtept>
    <rtept lat="52.383864" lon="4.752287"><ele>0.0</ele></rtept>
    <rtept lat="52.383837" lon="4.752562"><ele>0.0</ele></rtept>
    <rtept lat="52.383827" lon="4.752945"><ele>0.0</ele></rtept>
    <rtept lat="52.383802" lon="4.753551"><ele>0.0</ele></rtept>
    <rtept lat="52.383752" lon="4.754300"><ele>0.0</ele></rtept>
    <rtept lat="52.383746" lon="4.754460"><ele>0.0</ele></rtept>
    <rtept lat="52.383743" lon="4.754539"><ele>0.0</ele></rtept>
    <rtept lat="52.383740" lon="4.754622"><ele>0.0</ele></rtept>
    <rtept lat="52.383735" lon="4.754787"><ele>0.0</ele></rtept>
    <rtept lat="52.383731" lon="4.754927"><ele>0.0</ele></rtept>
    <rtept lat="52.383689" lon="4.756299"><ele>0.0</ele></rtept>
    <rtept lat="52.383713" lon="4.758268"><ele>0.0</ele></rtept>
    <rtept lat="52.383694" lon="4.758466"><ele>0.0</ele></rtept>
    <rtept lat="52.383692" lon="4.758745"><ele>0.0</ele></rtept>
    <rtept lat="52.383668" lon="4.758851"><ele>0.0</ele></rtept>
    <rtept lat="52.383667" lon="4.759023"><ele>0.0</ele></rtept>
    <rtept lat="52.383674" lon="4.759187"><ele>0.0</ele></rtept>
    <rtept lat="52.383738" lon="4.759321"><ele>0.0</ele></rtept>
    <rtept lat="52.383879" lon="4.770285"><ele>0.0</ele></rtept>
    <rtept lat="52.384051" lon="4.784883"><ele>0.0</ele></rtept>
    <rtept lat="52.384066" lon="4.787833"><ele>0.0</ele></rtept>
    <rtept lat="52.384139" lon="4.793427"><ele>0.0</ele></rtept>
    <rtept lat="52.384122" lon="4.793733"><ele>0.0</ele></rtept>
    <rtept lat="52.384140" lon="4.793775"><ele>0.0</ele></rtept>
    <rtept lat="52.384182" lon="4.797791"><ele>0.0</ele></rtept>
    <rtept lat="52.384117" lon="4.799200"><ele>0.0</ele></rtept>
    <rtept lat="52.384152" lon="4.802767"><ele>0.0</ele></rtept>
    <rtept lat="52.384155" lon="4.803023"><ele>0.0</ele></rtept>
    <rtept lat="52.384157" lon="4.803150"><ele>0.0</ele></rtept>
    <rtept lat="52.384159" lon="4.803432"><ele>0.0</ele></rtept>
    <rtept lat="52.384162" lon="4.803978"><ele>0.0</ele></rtept>
    <rtept lat="52.384252" lon="4.805571"><ele>0.0</ele></rtept>
    <rtept lat="52.384298" lon="4.808605"><ele>0.0</ele></rtept>
    <rtept lat="52.384350" lon="4.811877"><ele>0.0</ele></rtept>
    <rtept lat="52.384384" lon="4.815244"><ele>0.0</ele></rtept>
    <rtept lat="52.384364" lon="4.815796"><ele>0.0</ele></rtept>
    <rtept lat="52.384242" lon="4.817748"><ele>0.0</ele></rtept>
    <rtept lat="52.384242" lon="4.818360"><ele>0.0</ele></rtept>
    <rtept lat="52.384247" lon="4.818849"><ele>0.0</ele></rtept>
    <rtept lat="52.384251" lon="4.819121"><ele>0.0</ele></rtept>
    <rtept lat="52.384440" lon="4.821527"><ele>0.0</ele></rtept>
    <rtept lat="52.384514" lon="4.826952"><ele>0.0</ele></rtept>
    <rtept lat="52.384496" lon="4.827206"><ele>0.0</ele></rtept>
    <rtept lat="52.384524" lon="4.827498"><ele>0.0</ele></rtept>
    <rtept lat="52.384610" lon="4.833777"><ele>0.0</ele></rtept>
    <rtept lat="52.384595" lon="4.834148"><ele>0.0</ele></rtept>
    <rtept lat="52.384594" lon="4.834290"><ele>0.0</ele></rtept>
    <rtept lat="52.384594" lon="4.834334"><ele>0.0</ele></rtept>
    <rtept lat="52.384608" lon="4.835046"><ele>0.0</ele></rtept>
    <rtept lat="52.384637" lon="4.835568"><ele>0.0</ele></rtept>
    <rtept lat="52.384669" lon="4.837525"><ele>0.0</ele></rtept>
    <rtept lat="52.384684" lon="4.838380"><ele>0.0</ele></rtept>
    <rtept lat="52.384625" lon="4.838721"><ele>0.0</ele></rtept>
    <rtept lat="52.384637" lon="4.839584"><ele>0.0</ele></rtept>
    <rtept lat="52.384698" lon="4.839884"><ele>0.0</ele></rtept>
    <rtept lat="52.384698" lon="4.839957"><ele>0.0</ele></rtept>
    <rtept lat="52.384700" lon="4.840003"><ele>0.0</ele></rtept>
    <rtept lat="52.384699" lon="4.840068"><ele>0.0</ele></rtept>
    <rtept lat="52.384706" lon="4.840612"><ele>0.0</ele></rtept>
    <rtept lat="52.384738" lon="4.842556"><ele>0.0</ele></rtept>
    <rtept lat="52.384732" lon="4.842949"><ele>0.0</ele></rtept>
    <rtept lat="52.384749" lon="4.843555"><ele>0.0</ele></rtept>
    <rtept lat="52.384735" lon="4.843654"><ele>0.0</ele></rtept>
    <rtept lat="52.384726" lon="4.843750"><ele>0.0</ele></rtept>
    <rtept lat="52.384752" lon="4.845328"><ele>0.0</ele></rtept>
    <rtept lat="52.384758" lon="4.845472"><ele>0.0</ele></rtept>
    <rtept lat="52.384790" lon="4.845593"><ele>0.0</ele></rtept>
    <rtept lat="52.384797" lon="4.846206"><ele>0.0</ele></rtept>
    <rtept lat="52.384794" lon="4.846729"><ele>0.0</ele></rtept>
    <rtept lat="52.384767" lon="4.847116"><ele>0.0</ele></rtept>
    <rtept lat="52.384760" lon="4.847210"><ele>0.0</ele></rtept>
    <rtept lat="52.384695" lon="4.847240"><ele>0.0</ele></rtept>
    <rtept lat="52.384602" lon="4.847284"><ele>0.0</ele></rtept>
    <rtept lat="52.384509" lon="4.847293"><ele>0.0</ele></rtept>
    <rtept lat="52.384299" lon="4.847323"><ele>0.0</ele></rtept>
    <rtept lat="52.384198" lon="4.847399"><ele>0.0</ele></rtept>
    <rtept lat="52.382611" lon="4.850983"><ele>0.0</ele></rtept>
    <rtept lat="52.382507" lon="4.851196"><ele>0.0</ele></rtept>
    <rtept lat="52.382469" lon="4.851284"><ele>0.0</ele></rtept>
    <rtept lat="52.382454" lon="4.851363"><ele>0.0</ele></rtept>
    <rtept lat="52.381959" lon="4.852254"><ele>0.0</ele></rtept>
    <rtept lat="52.380752" lon="4.854338"><ele>0.0</ele></rtept>
    <rtept lat="52.380715" lon="4.854398"><ele>0.0</ele></rtept>
    <rtept lat="52.380688" lon="4.854444"><ele>0.0</ele></rtept>
    <rtept lat="52.380612" lon="4.854574"><ele>0.0</ele></rtept>
    <rtept lat="52.380579" lon="4.854630"><ele>0.0</ele></rtept>
    <rtept lat="52.380547" lon="4.854700"><ele>0.0</ele></rtept>
    <rtept lat="52.380387" lon="4.854969"><ele>0.0</ele></rtept>
    <rtept lat="52.380148" lon="4.855363"><ele>0.0</ele></rtept>
    <rtept lat="52.379791" lon="4.855841"><ele>0.0</ele></rtept>
    <rtept lat="52.379491" lon="4.856214"><ele>0.0</ele></rtept>
    <rtept lat="52.379060" lon="4.856640"><ele>0.0</ele></rtept>
    <rtept lat="52.378905" lon="4.856789"><ele>0.0</ele></rtept>
    <rtept lat="52.378468" lon="4.857114"><ele>0.0</ele></rtept>
    <rtept lat="52.378031" lon="4.857345"><ele>0.0</ele></rtept>
    <rtept lat="52.377736" lon="4.857478"><ele>0.0</ele></rtept>
    <rtept lat="52.377166" lon="4.857669"><ele>0.0</ele></rtept>
    <rtept lat="52.377113" lon="4.857682"><ele>0.0</ele></rtept>
    <rtept lat="52.377060" lon="4.857694"><ele>0.0</ele></rtept>
    <rtept lat="52.374781" lon="4.858416"><ele>0.0</ele></rtept>
    <rtept lat="52.374740" lon="4.858383"><ele>0.0</ele></rtept>
    <rtept lat="52.374579" lon="4.858428"><ele>0.0</ele></rtept>
    <rtept lat="52.374582" lon="4.858490"><ele>0.0</ele></rtept>
    <rtept lat="52.374534" lon="4.858498"><ele>0.0</ele></rtept>
    <rtept lat="52.373793" lon="4.858707"><ele>0.0</ele></rtept>
    <rtept lat="52.372337" lon="4.859170"><ele>0.0</ele></rtept>
    <rtept lat="52.372207" lon="4.859203"><ele>0.0</ele></rtept>
    <rtept lat="52.371554" lon="4.859405"><ele>0.0</ele></rtept>
    <rtept lat="52.371504" lon="4.858973"><ele>0.0</ele></rtept>
    <rtept lat="52.371488" lon="4.858824"><ele>0.0</ele></rtept>
    <rtept lat="52.371435" lon="4.858803"><ele>0.0</ele></rtept>
    <rtept lat="52.370779" lon="4.858919"><ele>0.0</ele></rtept>
    <rtept lat="52.370123" lon="4.859063"><ele>0.0</ele></rtept>
    <rtept lat="52.369616" lon="4.859174"><ele>0.0</ele></rtept>
    <rtept lat="52.369300" lon="4.859134"><ele>0.0</ele></rtept>
    <rtept lat="52.369048" lon="4.859016"><ele>0.0</ele></rtept>
    <rtept lat="52.368834" lon="4.858925"><ele>0.0</ele></rtept>
    <rtept lat="52.368635" lon="4.858897"><ele>0.0</ele></rtept>
    <rtept lat="52.368559" lon="4.858907"><ele>0.0</ele></rtept>
    <rtept lat="52.368505" lon="4.858914"><ele>0.0</ele></rtept>
    <rtept lat="52.366722" lon="4.859108"><ele>0.0</ele></rtept>
    <rtept lat="52.366661" lon="4.859096"><ele>0.0</ele></rtept>
    <rtept lat="52.366498" lon="4.859147"><ele>0.0</ele></rtept>
    <rtept lat="52.366045" lon="4.859227"><ele>0.0</ele></rtept>
    <rtept lat="52.364981" lon="4.859411"><ele>0.0</ele></rtept>
    <rtept lat="52.364922" lon="4.859416"><ele>0.0</ele></rtept>
    <rtept lat="52.364854" lon="4.859413"><ele>0.0</ele></rtept>
    <rtept lat="52.364760" lon="4.859415"><ele>0.0</ele></rtept>
    <rtept lat="52.364687" lon="4.859417"><ele>0.0</ele></rtept>
    <rtept lat="52.364677" lon="4.859463"><ele>0.0</ele></rtept>
    <rtept lat="52.364620" lon="4.859743"><ele>0.0</ele></rtept>
    <rtept lat="52.364650" lon="4.859899"><ele>0.0</ele></rtept>
    <rtept lat="52.364626" lon="4.859971"><ele>0.0</ele></rtept>
    <rtept lat="52.364575" lon="4.860126"><ele>0.0</ele></rtept>
    <rtept lat="52.364517" lon="4.860308"><ele>0.0</ele></rtept>
    <rtept lat="52.364413" lon="4.860654"><ele>0.0</ele></rtept>
    <rtept lat="52.364394" lon="4.860868"><ele>0.0</ele></rtept>
    <rtept lat="52.364437" lon="4.861130"><ele>0.0</ele></rtept>
    <rtept lat="52.364729" lon="4.862365"><ele>0.0</ele></rtept>
    <rtept lat="52.364704" lon="4.862451"><ele>0.0</ele></rtept>
    <rtept lat="52.364719" lon="4.862632"><ele>0.0</ele></rtept>
    <rtept lat="52.364234" lon="4.862934"><ele>0.0</ele></rtept>
    <rtept lat="52.363709" lon="4.863266"><ele>0.0</ele></rtept>
    <rtept lat="52.363212" lon="4.863605"><ele>0.0</ele></rtept>
    <rtept lat="52.363230" lon="4.863690"><ele>0.0</ele></rtept>
    <rtept lat="52.363249" lon="4.863771"><ele>0.0</ele></rtept>
    <rtept lat="52.363666" lon="4.865537"><ele>0.0</ele></rtept>
    <rtept lat="52.363662" lon="4.865632"><ele>0.0</ele></rtept>
    <rtept lat="52.363867" lon="4.866471"><ele>0.0</ele></rtept>
    <rtept lat="52.363929" lon="4.866598"><ele>0.0</ele></rtept>
    <rtept lat="52.363887" lon="4.866635"><ele>0.0</ele></rtept>
    <rtept lat="52.363661" lon="4.866805"><ele>0.0</ele></rtept>
    <rtept lat="52.363624" lon="4.866830"><ele>0.0</ele></rtept>
    <rtept lat="52.363188" lon="4.867120"><ele>0.0</ele></rtept>
    <rtept lat="52.363239" lon="4.867306"><ele>0.0</ele></rtept>
    <rtept lat="52.363308" lon="4.867362"><ele>0.0</ele></rtept>
    <rtept lat="52.363398" lon="4.867429"><ele>0.0</ele></rtept>
    <rtept lat="52.363413" lon="4.867461"><ele>0.0</ele></rtept>
    <rtept lat="52.363541" lon="4.867983"><ele>0.0</ele></rtept>
    <rtept lat="52.363585" lon="4.868030"><ele>0.0</ele></rtept>
    <rtept lat="52.363541" lon="4.868142"><ele>0.0</ele></rtept>
    <rtept lat="52.363425" lon="4.868229"><ele>0.0</ele></rtept>
    <rtept lat="52.363283" lon="4.868336"><ele>0.0</ele></rtept>
    <rtept lat="52.363129" lon="4.868437"><ele>0.0</ele></rtept>
    <rtept lat="52.362970" lon="4.868550"><ele>0.0</ele></rtept>
    <rtept lat="52.362685" lon="4.868747"><ele>0.0</ele></rtept>
    <rtept lat="52.362586" lon="4.868817"><ele>0.0</ele></rtept>
    <rtept lat="52.362546" lon="4.868878"><ele>0.0</ele></rtept>
    <rtept lat="52.362458" lon="4.868943"><ele>0.0</ele></rtept>
    <rtept lat="52.362416" lon="4.868950"><ele>0.0</ele></rtept>
    <rtept lat="52.362383" lon="4.868913"><ele>0.0</ele></rtept>
    <rtept lat="52.362202" lon="4.868179"><ele>0.0</ele></rtept>
    <rtept lat="52.362130" lon="4.867839"><ele>0.0</ele></rtept>
    <rtept lat="52.361682" lon="4.868161"><ele>0.0</ele></rtept>
    <rtept lat="52.361498" lon="4.867472"><ele>0.0</ele></rtept>
    <rtept lat="52.360989" lon="4.865223"><ele>0.0</ele></rtept>
    <rtept lat="52.360971" lon="4.865131"><ele>0.0</ele></rtept>
    <rtept lat="52.360395" lon="4.865498"><ele>0.0</ele></rtept>
    <rtept lat="52.360377" lon="4.865417"><ele>0.0</ele></rtept>
    <rtept lat="52.360364" lon="4.865368"><ele>0.0</ele></rtept>
    <rtept lat="52.360341" lon="4.865276"><ele>0.0</ele></rtept>
    <rtept lat="52.359950" lon="4.863613"><ele>0.0</ele></rtept>
    <rtept lat="52.359575" lon="4.862012"><ele>0.0</ele></rtept>
    <rtept lat="52.359536" lon="4.861823"><ele>0.0</ele></rtept>
    <rtept lat="52.359521" lon="4.861779"><ele>0.0</ele></rtept>
    <rtept lat="52.359109" lon="4.860224"><ele>0.0</ele></rtept>
    <rtept lat="52.359082" lon="4.860118"><ele>0.0</ele></rtept>
    <rtept lat="52.359063" lon="4.860050"><ele>0.0</ele></rtept>
    <rtept lat="52.359051" lon="4.860004"><ele>0.0</ele></rtept>
    <rtept lat="52.359014" lon="4.859856"><ele>0.0</ele></rtept>
    <rtept lat="52.358981" lon="4.859717"><ele>0.0</ele></rtept>
    <rtept lat="52.358700" lon="4.858734"><ele>0.0</ele></rtept>
    <rtept lat="52.358327" lon="4.857228"><ele>0.0</ele></rtept>
    <rtept lat="52.358281" lon="4.857042"><ele>0.0</ele></rtept>
    <rtept lat="52.358219" lon="4.856793"><ele>0.0</ele></rtept>
    <rtept lat="52.357908" lon="4.855581"><ele>0.0</ele></rtept>
    <rtept lat="52.357886" lon="4.855506"><ele>0.0</ele></rtept>
    <rtept lat="52.357870" lon="4.855388"><ele>0.0</ele></rtept>
    <rtept lat="52.357863" lon="4.855240"><ele>0.0</ele></rtept>
    <rtept lat="52.357809" lon="4.855183"><ele>0.0</ele></rtept>
    <rtept lat="52.357871" lon="4.854970"><ele>0.0</ele></rtept>
    <rtept lat="52.357929" lon="4.854781"><ele>0.0</ele></rtept>
    <rtept lat="52.357994" lon="4.854583"><ele>0.0</ele></rtept>
    <rtept lat="52.358023" lon="4.854489"><ele>0.0</ele></rtept>
    <rtept lat="52.358209" lon="4.853900"><ele>0.0</ele></rtept>
    <rtept lat="52.358228" lon="4.853854"><ele>0.0</ele></rtept>
    <rtept lat="52.358288" lon="4.853905"><ele>0.0</ele></rtept>
    <rtept lat="52.358309" lon="4.853867"><ele>0.0</ele></rtept>
    <rtept lat="52.358332" lon="4.853826"><ele>0.0</ele></rtept>
    <rtept lat="52.358342" lon="4.853808"><ele>0.0</ele></rtept>
    <rtept lat="52.358375" lon="4.853775"><ele>0.0</ele></rtept>
    <rtept lat="52.358579" lon="4.853684"><ele>0.0</ele></rtept>
    <rtept lat="52.358716" lon="4.853623"><ele>0.0</ele></rtept>
    <rtept lat="52.358724" lon="4.853562"><ele>0.0</ele></rtept>
    <rtept lat="52.358780" lon="4.853201"><ele>0.0</ele></rtept>
    <rtept lat="52.358770" lon="4.852954"><ele>0.0</ele></rtept>
    <rtept lat="52.358744" lon="4.852791"><ele>0.0</ele></rtept>
    <rtept lat="52.358651" lon="4.852672"><ele>0.0</ele></rtept>
    <rtept lat="52.358716" lon="4.852559"><ele>0.0</ele></rtept>
    <rtept lat="52.358713" lon="4.852237"><ele>0.0</ele></rtept>
    <rtept lat="52.358768" lon="4.852087"><ele>0.0</ele></rtept>
    <rtept lat="52.358811" lon="4.852030"><ele>0.0</ele></rtept>
    <rtept lat="52.358894" lon="4.852049"><ele>0.0</ele></rtept>
    <rtept lat="52.359391" lon="4.852049"><ele>0.0</ele></rtept>
    <rtept lat="52.359387" lon="4.851125"><ele>0.0</ele></rtept>
    <rtept lat="52.359382" lon="4.850558"><ele>0.0</ele></rtept>
    <rtept lat="52.359403" lon="4.850526"><ele>0.0</ele></rtept>
    <rtept lat="52.359778" lon="4.850510"><ele>0.0</ele></rtept>
    <rtept lat="52.359780" lon="4.850100"><ele>0.0</ele></rtept>
    <rtept lat="52.359778" lon="4.849572"><ele>0.0</ele></rtept>
    <rtept lat="52.359733" lon="4.849497"><ele>0.0</ele></rtept>
    <rtept lat="52.359729" lon="4.849101"><ele>0.0</ele></rtept>
    <rtept lat="52.359725" lon="4.848657"><ele>0.0</ele></rtept>
    <rtept lat="52.359723" lon="4.848496"><ele>0.0</ele></rtept>
    <rtept lat="52.359760" lon="4.848074"><ele>0.0</ele></rtept>
    <rtept lat="52.359755" lon="4.847997"><ele>0.0</ele></rtept>
    <rtept lat="52.360137" lon="4.847791"><ele>0.0</ele></rtept>
    <rtept lat="52.360372" lon="4.847697"><ele>0.0</ele></rtept>
    <rtept lat="52.360480" lon="4.847662"><ele>0.0</ele></rtept>
    <rtept lat="52.360510" lon="4.847159"><ele>0.0</ele></rtept>
    <rtept lat="52.360537" lon="4.846739"><ele>0.0</ele></rtept>
    <rtept lat="52.360545" lon="4.846623"><ele>0.0</ele></rtept>
    <rtept lat="52.360573" lon="4.846221"><ele>0.0</ele></rtept>
    <rtept lat="52.360582" lon="4.845792"><ele>0.0</ele></rtept>
    <rtept lat="52.360564" lon="4.845380"><ele>0.0</ele></rtept>
    <rtept lat="52.360492" lon="4.845209"><ele>0.0</ele></rtept>
    <rtept lat="52.360448" lon="4.845087"><ele>0.0</ele></rtept>
    <rtept lat="52.360318" lon="4.844438"><ele>0.0</ele></rtept>
    <rtept lat="52.360245" lon="4.843985"><ele>0.0</ele></rtept>
    <rtept lat="52.360223" lon="4.843144"><ele>0.0</ele></rtept>
    <rtept lat="52.360086" lon="4.843139"><ele>0.0</ele></rtept>
    <rtept lat="52.359429" lon="4.843172"><ele>0.0</ele></rtept>
    <rtept lat="52.359395" lon="4.841774"><ele>0.0</ele></rtept>
    <rtept lat="52.359407" lon="4.840854"><ele>0.0</ele></rtept>
    <rtept lat="52.359390" lon="4.840750"><ele>0.0</ele></rtept>
    <rtept lat="52.359434" lon="4.840670"><ele>0.0</ele></rtept>
    <rtept lat="52.359442" lon="4.840603"><ele>0.0</ele></rtept>
    <rtept lat="52.359429" lon="4.840527"><ele>0.0</ele></rtept>
    <rtept lat="52.359393" lon="4.840462"><ele>0.0</ele></rtept>
    <rtept lat="52.359417" lon="4.840383"><ele>0.0</ele></rtept>
    <rtept lat="52.359400" lon="4.839858"><ele>0.0</ele></rtept>
    <rtept lat="52.359397" lon="4.838778"><ele>0.0</ele></rtept>
    <rtept lat="52.359381" lon="4.838261"><ele>0.0</ele></rtept>
    <rtept lat="52.359377" lon="4.838135"><ele>0.0</ele></rtept>
    <rtept lat="52.359370" lon="4.837461"><ele>0.0</ele></rtept>
    <rtept lat="52.359369" lon="4.836786"><ele>0.0</ele></rtept>
    <rtept lat="52.359369" lon="4.836666"><ele>0.0</ele></rtept>
    <rtept lat="52.359366" lon="4.836545"><ele>0.0</ele></rtept>
    <rtept lat="52.359362" lon="4.836207"><ele>0.0</ele></rtept>
    <rtept lat="52.359356" lon="4.835789"><ele>0.0</ele></rtept>
    <rtept lat="52.359356" lon="4.835559"><ele>0.0</ele></rtept>
    <rtept lat="52.359338" lon="4.834956"><ele>0.0</ele></rtept>
    <rtept lat="52.359281" lon="4.834837"><ele>0.0</ele></rtept>
    <rtept lat="52.359280" lon="4.834785"><ele>0.0</ele></rtept>
    <rtept lat="52.359278" lon="4.834535"><ele>0.0</ele></rtept>
    <rtept lat="52.359278" lon="4.834507"><ele>0.0</ele></rtept>
    <rtept lat="52.359276" lon="4.834390"><ele>0.0</ele></rtept>
    <rtept lat="52.359269" lon="4.833817"><ele>0.0</ele></rtept>
    <rtept lat="52.359266" lon="4.833650"><ele>0.0</ele></rtept>
    <rtept lat="52.359265" lon="4.833587"><ele>0.0</ele></rtept>
    <rtept lat="52.359266" lon="4.833519"><ele>0.0</ele></rtept>
    <rtept lat="52.359261" lon="4.833113"><ele>0.0</ele></rtept>
    <rtept lat="52.359261" lon="4.833030"><ele>0.0</ele></rtept>
    <rtept lat="52.359260" lon="4.832925"><ele>0.0</ele></rtept>
    <rtept lat="52.359257" lon="4.832772"><ele>0.0</ele></rtept>
    <rtept lat="52.359249" lon="4.832062"><ele>0.0</ele></rtept>
    <rtept lat="52.359247" lon="4.832019"><ele>0.0</ele></rtept>
    <rtept lat="52.359242" lon="4.831493"><ele>0.0</ele></rtept>
    <rtept lat="52.359240" lon="4.831346"><ele>0.0</ele></rtept>
    <rtept lat="52.359235" lon="4.830895"><ele>0.0</ele></rtept>
    <rtept lat="52.359228" lon="4.830353"><ele>0.0</ele></rtept>
    <rtept lat="52.359222" lon="4.829775"><ele>0.0</ele></rtept>
    <rtept lat="52.359212" lon="4.829051"><ele>0.0</ele></rtept>
    <rtept lat="52.359208" lon="4.828707"><ele>0.0</ele></rtept>
    <rtept lat="52.359206" lon="4.828550"><ele>0.0</ele></rtept>
    <rtept lat="52.359204" lon="4.828390"><ele>0.0</ele></rtept>
    <rtept lat="52.359198" lon="4.827478"><ele>0.0</ele></rtept>
    <rtept lat="52.359199" lon="4.827382"><ele>0.0</ele></rtept>
    <rtept lat="52.359199" lon="4.827270"><ele>0.0</ele></rtept>
    <rtept lat="52.359199" lon="4.827142"><ele>0.0</ele></rtept>
    <rtept lat="52.359200" lon="4.827027"><ele>0.0</ele></rtept>
    <rtept lat="52.359199" lon="4.826929"><ele>0.0</ele></rtept>
    <rtept lat="52.359194" lon="4.826159"><ele>0.0</ele></rtept>
    <rtept lat="52.359190" lon="4.825770"><ele>0.0</ele></rtept>
    <rtept lat="52.359189" lon="4.825478"><ele>0.0</ele></rtept>
    <rtept lat="52.359181" lon="4.824987"><ele>0.0</ele></rtept>
    <rtept lat="52.359179" lon="4.824625"><ele>0.0</ele></rtept>
    <rtept lat="52.359173" lon="4.824059"><ele>0.0</ele></rtept>
    <rtept lat="52.359172" lon="4.823780"><ele>0.0</ele></rtept>
    <rtept lat="52.359168" lon="4.823490"><ele>0.0</ele></rtept>
    <rtept lat="52.359162" lon="4.823059"><ele>0.0</ele></rtept>
    <rtept lat="52.359162" lon="4.822934"><ele>0.0</ele></rtept>
    <rtept lat="52.359159" lon="4.822564"><ele>0.0</ele></rtept>
    <rtept lat="52.359157" lon="4.822418"><ele>0.0</ele></rtept>
    <rtept lat="52.359151" lon="4.821940"><ele>0.0</ele></rtept>
    <rtept lat="52.359141" lon="4.821366"><ele>0.0</ele></rtept>
    <rtept lat="52.359124" lon="4.821009"><ele>0.0</ele></rtept>
    <rtept lat="52.359271" lon="4.820809"><ele>0.0</ele></rtept>
    <rtept lat="52.359289" lon="4.820760"><ele>0.0</ele></rtept>
    <rtept lat="52.359282" lon="4.819665"><ele>0.0</ele></rtept>
    <rtept lat="52.359290" lon="4.819530"><ele>0.0</ele></rtept>
    <rtept lat="52.359378" lon="4.819102"><ele>0.0</ele></rtept>
    <rtept lat="52.359389" lon="4.819049"><ele>0.0</ele></rtept>
    <rtept lat="52.359499" lon="4.818494"><ele>0.0</ele></rtept>
    <rtept lat="52.359524" lon="4.818225"><ele>0.0</ele></rtept>
    <rtept lat="52.359527" lon="4.817946"><ele>0.0</ele></rtept>
    <rtept lat="52.359413" lon="4.817948"><ele>0.0</ele></rtept>
    <rtept lat="52.359243" lon="4.817911"><ele>0.0</ele></rtept>
    <rtept lat="52.359087" lon="4.817833"><ele>0.0</ele></rtept>
    <rtept lat="52.358909" lon="4.817702"><ele>0.0</ele></rtept>
    <rtept lat="52.358661" lon="4.817378"><ele>0.0</ele></rtept>
    <rtept lat="52.358648" lon="4.817360"><ele>0.0</ele></rtept>
    <rtept lat="52.358336" lon="4.816942"><ele>0.0</ele></rtept>
    <rtept lat="52.358239" lon="4.816730"><ele>0.0</ele></rtept>
    <rtept lat="52.358201" lon="4.816599"><ele>0.0</ele></rtept>
    <rtept lat="52.357858" lon="4.814928"><ele>0.0</ele></rtept>
    <rtept lat="52.357845" lon="4.814856"><ele>0.0</ele></rtept>
    <rtept lat="52.357806" lon="4.814671"><ele>0.0</ele></rtept>
    <rtept lat="52.357406" lon="4.812676"><ele>0.0</ele></rtept>
    <rtept lat="52.357288" lon="4.812014"><ele>0.0</ele></rtept>
    <rtept lat="52.357206" lon="4.811382"><ele>0.0</ele></rtept>
    <rtept lat="52.357165" lon="4.811190"><ele>0.0</ele></rtept>
    <rtept lat="52.357018" lon="4.810825"><ele>0.0</ele></rtept>
    <rtept lat="52.356799" lon="4.810155"><ele>0.0</ele></rtept>
    <rtept lat="52.356696" lon="4.809677"><ele>0.0</ele></rtept>
    <rtept lat="52.356667" lon="4.809536"><ele>0.0</ele></rtept>
    <rtept lat="52.356648" lon="4.809446"><ele>0.0</ele></rtept>
    <rtept lat="52.356965" lon="4.809277"><ele>0.0</ele></rtept>
    <rtept lat="52.357082" lon="4.809170"><ele>0.0</ele></rtept>
    <rtept lat="52.358317" lon="4.808511"><ele>0.0</ele></rtept>
    <rtept lat="52.358566" lon="4.808373"><ele>0.0</ele></rtept>
    <rtept lat="52.358614" lon="4.808347"><ele>0.0</ele></rtept>
    <rtept lat="52.359444" lon="4.807905"><ele>0.0</ele></rtept>
    <rtept lat="52.360456" lon="4.807358"><ele>0.0</ele></rtept>
    <rtept lat="52.360498" lon="4.807336"><ele>0.0</ele></rtept>
    <rtept lat="52.360634" lon="4.807261"><ele>0.0</ele></rtept>
    <rtept lat="52.360717" lon="4.807217"><ele>0.0</ele></rtept>
    <rtept lat="52.360765" lon="4.807192"><ele>0.0</ele></rtept>
    <rtept lat="52.360867" lon="4.807137"><ele>0.0</ele></rtept>
    <rtept lat="52.361105" lon="4.807009"><ele>0.0</ele></rtept>
    <rtept lat="52.361249" lon="4.806935"><ele>0.0</ele></rtept>
    <rtept lat="52.362009" lon="4.806542"><ele>0.0</ele></rtept>
    <rtept lat="52.362725" lon="4.806196"><ele>0.0</ele></rtept>
    <rtept lat="52.363099" lon="4.805998"><ele>0.0</ele></rtept>
    <rtept lat="52.363143" lon="4.805975"><ele>0.0</ele></rtept>
    <rtept lat="52.363292" lon="4.805894"><ele>0.0</ele></rtept>
    <rtept lat="52.363269" lon="4.805770"><ele>0.0</ele></rtept>
    <rtept lat="52.363246" lon="4.805619"><ele>0.0</ele></rtept>
    <rtept lat="52.363226" lon="4.805472"><ele>0.0</ele></rtept>
    <rtept lat="52.363206" lon="4.805344"><ele>0.0</ele></rtept>
    <rtept lat="52.363191" lon="4.805266"><ele>0.0</ele></rtept>
    <rtept lat="52.363003" lon="4.804303"><ele>0.0</ele></rtept>
    <rtept lat="52.362761" lon="4.803114"><ele>0.0</ele></rtept>
    <rtept lat="52.362679" lon="4.802723"><ele>0.0</ele></rtept>
    <rtept lat="52.362637" lon="4.802639"><ele>0.0</ele></rtept>
    <rtept lat="52.362546" lon="4.802161"><ele>0.0</ele></rtept>
    <rtept lat="52.362545" lon="4.802021"><ele>0.0</ele></rtept>
    <rtept lat="52.362511" lon="4.801847"><ele>0.0</ele></rtept>
    <rtept lat="52.362467" lon="4.801636"><ele>0.0</ele></rtept>
    <rtept lat="52.362416" lon="4.801513"><ele>0.0</ele></rtept>
    <rtept lat="52.362151" lon="4.800211"><ele>0.0</ele></rtept>
    <rtept lat="52.362154" lon="4.800098"><ele>0.0</ele></rtept>
    <rtept lat="52.362087" lon="4.799891"><ele>0.0</ele></rtept>
    <rtept lat="52.361942" lon="4.799169"><ele>0.0</ele></rtept>
    <rtept lat="52.361843" lon="4.798668"><ele>0.0</ele></rtept>
    <rtept lat="52.361796" lon="4.798339"><ele>0.0</ele></rtept>
    <rtept lat="52.361726" lon="4.797991"><ele>0.0</ele></rtept>
    <rtept lat="52.361671" lon="4.797737"><ele>0.0</ele></rtept>
    <rtept lat="52.361609" lon="4.797538"><ele>0.0</ele></rtept>
    <rtept lat="52.361542" lon="4.797225"><ele>0.0</ele></rtept>
    <rtept lat="52.361414" lon="4.796633"><ele>0.0</ele></rtept>
    <rtept lat="52.361393" lon="4.796510"><ele>0.0</ele></rtept>
    <rtept lat="52.361130" lon="4.795195"><ele>0.0</ele></rtept>
    <rtept lat="52.361084" lon="4.794971"><ele>0.0</ele></rtept>
    <rtept lat="52.361053" lon="4.794807"><ele>0.0</ele></rtept>
    <rtept lat="52.361040" lon="4.794743"><ele>0.0</ele></rtept>
    <rtept lat="52.360688" lon="4.792994"><ele>0.0</ele></rtept>
    <rtept lat="52.360274" lon="4.790911"><ele>0.0</ele></rtept>
    <rtept lat="52.360229" lon="4.790685"><ele>0.0</ele></rtept>
    <rtept lat="52.359982" lon="4.789447"><ele>0.0</ele></rtept>
    <rtept lat="52.359970" lon="4.789386"><ele>0.0</ele></rtept>
    <rtept lat="52.360022" lon="4.789334"><ele>0.0</ele></rtept>
    <rtept lat="52.360055" lon="4.789260"><ele>0.0</ele></rtept>
    <rtept lat="52.360076" lon="4.789182"><ele>0.0</ele></rtept>
    <rtept lat="52.360072" lon="4.789092"><ele>0.0</ele></rtept>
    <rtept lat="52.360030" lon="4.788886"><ele>0.0</ele></rtept>
    <rtept lat="52.360001" lon="4.788849"><ele>0.0</ele></rtept>
    <rtept lat="52.359953" lon="4.788823"><ele>0.0</ele></rtept>
    <rtept lat="52.359931" lon="4.788691"><ele>0.0</ele></rtept>
    <rtept lat="52.359843" lon="4.788234"><ele>0.0</ele></rtept>
    <rtept lat="52.359633" lon="4.787103"><ele>0.0</ele></rtept>
    <rtept lat="52.359489" lon="4.786392"><ele>0.0</ele></rtept>
    <rtept lat="52.359101" lon="4.784551"><ele>0.0</ele></rtept>
    <rtept lat="52.359034" lon="4.784244"><ele>0.0</ele></rtept>
    <rtept lat="52.358815" lon="4.783184"><ele>0.0</ele></rtept>
    <rtept lat="52.358776" lon="4.782840"><ele>0.0</ele></rtept>
    <rtept lat="52.358781" lon="4.782653"><ele>0.0</ele></rtept>
    <rtept lat="52.358801" lon="4.782553"><ele>0.0</ele></rtept>
    <rtept lat="52.359088" lon="4.781802"><ele>0.0</ele></rtept>
    <rtept lat="52.359253" lon="4.781434"><ele>0.0</ele></rtept>
    <rtept lat="52.359416" lon="4.780978"><ele>0.0</ele></rtept>
    <rtept lat="52.359467" lon="4.780856"><ele>0.0</ele></rtept>
    <rtept lat="52.359546" lon="4.780835"><ele>0.0</ele></rtept>
    <rtept lat="52.359612" lon="4.780780"><ele>0.0</ele></rtept>
    <rtept lat="52.359660" lon="4.780666"><ele>0.0</ele></rtept>
    <rtept lat="52.359672" lon="4.780560"><ele>0.0</ele></rtept>
    <rtept lat="52.359638" lon="4.780378"><ele>0.0</ele></rtept>
    <rtept lat="52.359615" lon="4.780330"><ele>0.0</ele></rtept>
    <rtept lat="52.359556" lon="4.780259"><ele>0.0</ele></rtept>
    <rtept lat="52.359520" lon="4.780238"><ele>0.0</ele></rtept>
    <rtept lat="52.359471" lon="4.780228"><ele>0.0</ele></rtept>
    <rtept lat="52.359375" lon="4.780269"><ele>0.0</ele></rtept>
    <rtept lat="52.359296" lon="4.780219"><ele>0.0</ele></rtept>
    <rtept lat="52.357994" lon="4.778826"><ele>0.0</ele></rtept>
    <rtept lat="52.357659" lon="4.778413"><ele>0.0</ele></rtept>
    <rtept lat="52.357501" lon="4.778168"><ele>0.0</ele></rtept>
    <rtept lat="52.357357" lon="4.777893"><ele>0.0</ele></rtept>
    <rtept lat="52.357314" lon="4.777701"><ele>0.0</ele></rtept>
    <rtept lat="52.357304" lon="4.777495"><ele>0.0</ele></rtept>
    <rtept lat="52.357306" lon="4.777469"><ele>0.0</ele></rtept>
    <rtept lat="52.357371" lon="4.777114"><ele>0.0</ele></rtept>
    <rtept lat="52.357494" lon="4.776595"><ele>0.0</ele></rtept>
    <rtept lat="52.357490" lon="4.776198"><ele>0.0</ele></rtept>
    <rtept lat="52.357406" lon="4.775887"><ele>0.0</ele></rtept>
    <rtept lat="52.357343" lon="4.775766"><ele>0.0</ele></rtept>
    <rtept lat="52.357244" lon="4.775639"><ele>0.0</ele></rtept>
    <rtept lat="52.357085" lon="4.775504"><ele>0.0</ele></rtept>
    <rtept lat="52.356564" lon="4.774940"><ele>0.0</ele></rtept>
    <rtept lat="52.355760" lon="4.773980"><ele>0.0</ele></rtept>
    <rtept lat="52.355706" lon="4.773893"><ele>0.0</ele></rtept>
    <rtept lat="52.355456" lon="4.773568"><ele>0.0</ele></rtept>
    <rtept lat="52.355264" lon="4.773202"><ele>0.0</ele></rtept>
    <rtept lat="52.355148" lon="4.772914"><ele>0.0</ele></rtept>
    <rtept lat="52.355060" lon="4.772669"><ele>0.0</ele></rtept>
    <rtept lat="52.354930" lon="4.772208"><ele>0.0</ele></rtept>
    <rtept lat="52.354825" lon="4.771537"><ele>0.0</ele></rtept>
    <rtept lat="52.354814" lon="4.771467"><ele>0.0</ele></rtept>
    <rtept lat="52.354808" lon="4.771431"><ele>0.0</ele></rtept>
    <rtept lat="52.354727" lon="4.771135"><ele>0.0</ele></rtept>
    <rtept lat="52.354686" lon="4.770987"><ele>0.0</ele></rtept>
    <rtept lat="52.354578" lon="4.770646"><ele>0.0</ele></rtept>
    <rtept lat="52.354189" lon="4.771083"><ele>0.0</ele></rtept>
    <rtept lat="52.354168" lon="4.771018"><ele>0.0</ele></rtept>
    <rtept lat="52.354074" lon="4.770746"><ele>0.0</ele></rtept>
    <rtept lat="52.353946" lon="4.770525"><ele>0.0</ele></rtept>
    <rtept lat="52.353820" lon="4.770362"><ele>0.0</ele></rtept>
    <rtept lat="52.353159" lon="4.769654"><ele>0.0</ele></rtept>
    <rtept lat="52.352697" lon="4.769050"><ele>0.0</ele></rtept>
    <rtept lat="52.352380" lon="4.768729"><ele>0.0</ele></rtept>
    <rtept lat="52.351837" lon="4.768150"><ele>0.0</ele></rtept>
    <rtept lat="52.351599" lon="4.767869"><ele>0.0</ele></rtept>
    <rtept lat="52.350609" lon="4.766840"><ele>0.0</ele></rtept>
    <rtept lat="52.350320" lon="4.766535"><ele>0.0</ele></rtept>
    <rtept lat="52.349985" lon="4.766200"><ele>0.0</ele></rtept>
    <rtept lat="52.349667" lon="4.765842"><ele>0.0</ele></rtept>
    <rtept lat="52.349686" lon="4.765956"><ele>0.0</ele></rtept>
    <rtept lat="52.349737" lon="4.766049"><ele>0.0</ele></rtept>
    <rtept lat="52.350214" lon="4.766725"><ele>0.0</ele></rtept>
    <rtept lat="52.350540" lon="4.767170"><ele>0.0</ele></rtept>
    <rtept lat="52.350822" lon="4.766461"><ele>0.0</ele></rtept>
    <rtept lat="52.350832" lon="4.766415"><ele>0.0</ele></rtept>
    <rtept lat="52.350819" lon="4.766197"><ele>0.0</ele></rtept>
    <rtept lat="52.350854" lon="4.766066"><ele>0.0</ele></rtept>
    <rtept lat="52.351242" lon="4.765147"><ele>0.0</ele></rtept>
    <rtept lat="52.351627" lon="4.764271"><ele>0.0</ele></rtept>
    <rtept lat="52.351700" lon="4.764040"><ele>0.0</ele></rtept>
    <rtept lat="52.351988" lon="4.762706"><ele>0.0</ele></rtept>
    <rtept lat="52.352067" lon="4.762451"><ele>0.0</ele></rtept>
    <rtept lat="52.352128" lon="4.762325"><ele>0.0</ele></rtept>
    <rtept lat="52.352109" lon="4.762172"><ele>0.0</ele></rtept>
    <rtept lat="52.352117" lon="4.762051"><ele>0.0</ele></rtept>
    <rtept lat="52.352403" lon="4.760730"><ele>0.0</ele></rtept>
    <rtept lat="52.352529" lon="4.760890"><ele>0.0</ele></rtept>
    <rtept lat="52.352621" lon="4.760510"><ele>0.0</ele></rtept>
    <rtept lat="52.352759" lon="4.759974"><ele>0.0</ele></rtept>
    <rtept lat="52.352794" lon="4.759823"><ele>0.0</ele></rtept>
    <rtept lat="52.352721" lon="4.759545"><ele>0.0</ele></rtept>
    <rtept lat="52.352680" lon="4.759442"><ele>0.0</ele></rtept>
    <rtept lat="52.352569" lon="4.759487"><ele>0.0</ele></rtept>
    <rtept lat="52.352471" lon="4.759470"><ele>0.0</ele></rtept>
    <rtept lat="52.352377" lon="4.759361"><ele>0.0</ele></rtept>
    <rtept lat="52.351840" lon="4.758640"><ele>0.0</ele></rtept>
    <rtept lat="52.351310" lon="4.757880"><ele>0.0</ele></rtept>
    <rtept lat="52.350942" lon="4.757409"><ele>0.0</ele></rtept>
    <rtept lat="52.350419" lon="4.756666"><ele>0.0</ele></rtept>
    <rtept lat="52.349288" lon="4.755033"><ele>0.0</ele></rtept>
    <rtept lat="52.349202" lon="4.754911"><ele>0.0</ele></rtept>
    <rtept lat="52.348756" lon="4.754268"><ele>0.0</ele></rtept>
    <rtept lat="52.348516" lon="4.753930"><ele>0.0</ele></rtept>
    <rtept lat="52.348153" lon="4.753409"><ele>0.0</ele></rtept>
    <rtept lat="52.347455" lon="4.752412"><ele>0.0</ele></rtept>
    <rtept lat="52.346627" lon="4.751184"><ele>0.0</ele></rtept>
    <rtept lat="52.346715" lon="4.750995"><ele>0.0</ele></rtept>
    <rtept lat="52.347747" lon="4.749004"><ele>0.0</ele></rtept>
    <rtept lat="52.352621" lon="4.739924"><ele>0.0</ele></rtept>
    <rtept lat="52.353732" lon="4.737884"><ele>0.0</ele></rtept>
    <rtept lat="52.358489" lon="4.729016"><ele>0.0</ele></rtept>
    <rtept lat="52.358540" lon="4.728920"><ele>0.0</ele></rtept>
    <rtept lat="52.358559" lon="4.728853"><ele>0.0</ele></rtept>
    <rtept lat="52.358862" lon="4.728196"><ele>0.0</ele></rtept>
    <rtept lat="52.359442" lon="4.727116"><ele>0.0</ele></rtept>
    <rtept lat="52.359846" lon="4.726363"><ele>0.0</ele></rtept>
    <rtept lat="52.360061" lon="4.725964"><ele>0.0</ele></rtept>
    <rtept lat="52.360221" lon="4.725665"><ele>0.0</ele></rtept>
    <rtept lat="52.360411" lon="4.725312"><ele>0.0</ele></rtept>
    <rtept lat="52.360645" lon="4.724877"><ele>0.0</ele></rtept>
    <rtept lat="52.360954" lon="4.724303"><ele>0.0</ele></rtept>
    <rtept lat="52.361062" lon="4.724103"><ele>0.0</ele></rtept>
    <rtept lat="52.361155" lon="4.723928"><ele>0.0</ele></rtept>
    <rtept lat="52.361297" lon="4.723664"><ele>0.0</ele></rtept>
    <rtept lat="52.361575" lon="4.723148"><ele>0.0</ele></rtept>
    <rtept lat="52.362013" lon="4.722334"><ele>0.0</ele></rtept>
    <rtept lat="52.362257" lon="4.721878"><ele>0.0</ele></rtept>
    <rtept lat="52.362411" lon="4.721593"><ele>0.0</ele></rtept>
    <rtept lat="52.362569" lon="4.721299"><ele>0.0</ele></rtept>
    <rtept lat="52.362801" lon="4.720867"><ele>0.0</ele></rtept>
    <rtept lat="52.363242" lon="4.720047"><ele>0.0</ele></rtept>
    <rtept lat="52.363323" lon="4.719897"><ele>0.0</ele></rtept>
    <rtept lat="52.363468" lon="4.719626"><ele>0.0</ele></rtept>
    <rtept lat="52.363668" lon="4.719255"><ele>0.0</ele></rtept>
    <rtept lat="52.364192" lon="4.718280"><ele>0.0</ele></rtept>
    <rtept lat="52.364315" lon="4.718052"><ele>0.0</ele></rtept>
    <rtept lat="52.364443" lon="4.717813"><ele>0.0</ele></rtept>
    <rtept lat="52.364478" lon="4.717800"><ele>0.0</ele></rtept>
    <rtept lat="52.364511" lon="4.717768"><ele>0.0</ele></rtept>
    <rtept lat="52.364571" lon="4.717655"><ele>0.0</ele></rtept>
    <rtept lat="52.364686" lon="4.717502"><ele>0.0</ele></rtept>
    <rtept lat="52.364883" lon="4.717435"><ele>0.0</ele></rtept>
    <rtept lat="52.364971" lon="4.717322"><ele>0.0</ele></rtept>
    <rtept lat="52.364998" lon="4.717217"><ele>0.0</ele></rtept>
    <rtept lat="52.364967" lon="4.716893"><ele>0.0</ele></rtept>
    <rtept lat="52.365018" lon="4.716739"><ele>0.0</ele></rtept>
    <rtept lat="52.365645" lon="4.715724"><ele>0.0</ele></rtept>
    <rtept lat="52.366824" lon="4.713648"><ele>0.0</ele></rtept>
    <rtept lat="52.367271" lon="4.712824"><ele>0.0</ele></rtept>
    <rtept lat="52.367710" lon="4.711986"><ele>0.0</ele></rtept>
    <rtept lat="52.367873" lon="4.711631"><ele>0.0</ele></rtept>
    <rtept lat="52.368878" lon="4.709726"><ele>0.0</ele></rtept>
    <rtept lat="52.368957" lon="4.709555"><ele>0.0</ele></rtept>
    <rtept lat="52.368982" lon="4.709401"><ele>0.0</ele></rtept>
    <rtept lat="52.368954" lon="4.709130"><ele>0.0</ele></rtept>
    <rtept lat="52.368941" lon="4.709017"><ele>0.0</ele></rtept>
    <rtept lat="52.368925" lon="4.708875"><ele>0.0</ele></rtept>
    <rtept lat="52.368841" lon="4.708765"><ele>0.0</ele></rtept>
    <rtept lat="52.368816" lon="4.708698"><ele>0.0</ele></rtept>
    <rtept lat="52.368748" lon="4.708126"><ele>0.0</ele></rtept>
    <rtept lat="52.368631" lon="4.707540"><ele>0.0</ele></rtept>
    <rtept lat="52.368278" lon="4.706309"><ele>0.0</ele></rtept>
    <rtept lat="52.368098" lon="4.705687"><ele>0.0</ele></rtept>
    <rtept lat="52.367978" lon="4.705309"><ele>0.0</ele></rtept>
    <rtept lat="52.367946" lon="4.705140"><ele>0.0</ele></rtept>
    <rtept lat="52.367946" lon="4.704946"><ele>0.0</ele></rtept>
    <rtept lat="52.367990" lon="4.704749"><ele>0.0</ele></rtept>
    <rtept lat="52.368097" lon="4.704578"><ele>0.0</ele></rtept>
    <rtept lat="52.368509" lon="4.704183"><ele>0.0</ele></rtept>
    <rtept lat="52.368577" lon="4.704129"><ele>0.0</ele></rtept>
    <rtept lat="52.368682" lon="4.704088"><ele>0.0</ele></rtept>
    <rtept lat="52.368762" lon="4.703999"><ele>0.0</ele></rtept>
    <rtept lat="52.368803" lon="4.703843"><ele>0.0</ele></rtept>
    <rtept lat="52.368837" lon="4.703586"><ele>0.0</ele></rtept>
    <rtept lat="52.369084" lon="4.702738"><ele>0.0</ele></rtept>
    <rtept lat="52.369159" lon="4.702295"><ele>0.0</ele></rtept>
    <rtept lat="52.369186" lon="4.701987"><ele>0.0</ele></rtept>
    <rtept lat="52.369464" lon="4.697165"><ele>0.0</ele></rtept>
    <rtept lat="52.369467" lon="4.696764"><ele>0.0</ele></rtept>
    <rtept lat="52.369428" lon="4.695382"><ele>0.0</ele></rtept>
    <rtept lat="52.369448" lon="4.694843"><ele>0.0</ele></rtept>
    <rtept lat="52.369493" lon="4.694356"><ele>0.0</ele></rtept>
    <rtept lat="52.369631" lon="4.693449"><ele>0.0</ele></rtept>
    <rtept lat="52.369770" lon="4.692864"><ele>0.0</ele></rtept>
    <rtept lat="52.369930" lon="4.692337"><ele>0.0</ele></rtept>
    <rtept lat="52.370347" lon="4.691155"><ele>0.0</ele></rtept>
    <rtept lat="52.370504" lon="4.690579"><ele>0.0</ele></rtept>
    <rtept lat="52.370617" lon="4.689843"><ele>0.0</ele></rtept>
    <rtept lat="52.370647" lon="4.689521"><ele>0.0</ele></rtept>
    <rtept lat="52.370674" lon="4.688758"><ele>0.0</ele></rtept>
    <rtept lat="52.370666" lon="4.688167"><ele>0.0</ele></rtept>
    <rtept lat="52.370620" lon="4.687271"><ele>0.0</ele></rtept>
    <rtept lat="52.370312" lon="4.682255"><ele>0.0</ele></rtept>
    <rtept lat="52.370150" lon="4.680413"><ele>0.0</ele></rtept>
    <rtept lat="52.369795" lon="4.677610"><ele>0.0</ele></rtept>
    <rtept lat="52.369722" lon="4.677134"><ele>0.0</ele></rtept>
    <rtept lat="52.369623" lon="4.676681"><ele>0.0</ele></rtept>
    <rtept lat="52.369522" lon="4.676346"><ele>0.0</ele></rtept>
    <rtept lat="52.369413" lon="4.676046"><ele>0.0</ele></rtept>
    <rtept lat="52.369217" lon="4.675603"><ele>0.0</ele></rtept>
    <rtept lat="52.369198" lon="4.675524"><ele>0.0</ele></rtept>
    <rtept lat="52.369193" lon="4.675312"><ele>0.0</ele></rtept>
    <rtept lat="52.369141" lon="4.675195"><ele>0.0</ele></rtept>
    <rtept lat="52.369073" lon="4.675086"><ele>0.0</ele></rtept>
    <rtept lat="52.368968" lon="4.675043"><ele>0.0</ele></rtept>
    <rtept lat="52.368919" lon="4.674992"><ele>0.0</ele></rtept>
    <rtept lat="52.368866" lon="4.674893"><ele>0.0</ele></rtept>
    <rtept lat="52.368695" lon="4.674446"><ele>0.0</ele></rtept>
    <rtept lat="52.368564" lon="4.674041"><ele>0.0</ele></rtept>
    <rtept lat="52.368479" lon="4.673723"><ele>0.0</ele></rtept>
    <rtept lat="52.368331" lon="4.673051"><ele>0.0</ele></rtept>
    <rtept lat="52.368321" lon="4.672978"><ele>0.0</ele></rtept>
    <rtept lat="52.368198" lon="4.672077"><ele>0.0</ele></rtept>
    <rtept lat="52.368153" lon="4.671748"><ele>0.0</ele></rtept>
    <rtept lat="52.368143" lon="4.671666"><ele>0.0</ele></rtept>
    <rtept lat="52.368110" lon="4.671245"><ele>0.0</ele></rtept>
    <rtept lat="52.368000" lon="4.670304"><ele>0.0</ele></rtept>
    <rtept lat="52.367957" lon="4.669746"><ele>0.0</ele></rtept>
    <rtept lat="52.367915" lon="4.668930"><ele>0.0</ele></rtept>
    <rtept lat="52.367899" lon="4.667682"><ele>0.0</ele></rtept>
    <rtept lat="52.367891" lon="4.666413"><ele>0.0</ele></rtept>
    <rtept lat="52.367889" lon="4.666109"><ele>0.0</ele></rtept>
    <rtept lat="52.367879" lon="4.664269"><ele>0.0</ele></rtept>
    <rtept lat="52.367872" lon="4.663787"><ele>0.0</ele></rtept>
    <rtept lat="52.367827" lon="4.662490"><ele>0.0</ele></rtept>
    <rtept lat="52.367829" lon="4.660912"><ele>0.0</ele></rtept>
    <rtept lat="52.367821" lon="4.659432"><ele>0.0</ele></rtept>
    <rtept lat="52.367811" lon="4.657704"><ele>0.0</ele></rtept>
    <rtept lat="52.367801" lon="4.656505"><ele>0.0</ele></rtept>
    <rtept lat="52.367802" lon="4.655012"><ele>0.0</ele></rtept>
    <rtept lat="52.367800" lon="4.654688"><ele>0.0</ele></rtept>
    <rtept lat="52.367813" lon="4.654557"><ele>0.0</ele></rtept>
    <rtept lat="52.367966" lon="4.654499"><ele>0.0</ele></rtept>
    <rtept lat="52.368020" lon="4.654482"><ele>0.0</ele></rtept>
    <rtept lat="52.368337" lon="4.654479"><ele>0.0</ele></rtept>
    <rtept lat="52.368353" lon="4.654479"><ele>0.0</ele></rtept>
    <rtept lat="52.368663" lon="4.654470"><ele>0.0</ele></rtept>
    <rtept lat="52.368957" lon="4.654543"><ele>0.0</ele></rtept>
    <rtept lat="52.369824" lon="4.654648"><ele>0.0</ele></rtept>
    <rtept lat="52.369938" lon="4.654772"><ele>0.0</ele></rtept>
    <rtept lat="52.369981" lon="4.654809"><ele>0.0</ele></rtept>
    <rtept lat="52.370075" lon="4.654826"><ele>0.0</ele></rtept>
    <rtept lat="52.370283" lon="4.654833"><ele>0.0</ele></rtept>
    <rtept lat="52.370389" lon="4.654836"><ele>0.0</ele></rtept>
    <rtept lat="52.370723" lon="4.654874"><ele>0.0</ele></rtept>
    <rtept lat="52.370928" lon="4.654930"><ele>0.0</ele></rtept>
    <rtept lat="52.371432" lon="4.655322"><ele>0.0</ele></rtept>
    <rtept lat="52.371644" lon="4.655494"><ele>0.0</ele></rtept>
    <rtept lat="52.371743" lon="4.655569"><ele>0.0</ele></rtept>
    <rtept lat="52.372821" lon="4.656439"><ele>0.0</ele></rtept>
    <rtept lat="52.374222" lon="4.657609"><ele>0.0</ele></rtept>
    <rtept lat="52.374391" lon="4.657790"><ele>0.0</ele></rtept>
    <rtept lat="52.374640" lon="4.658034"><ele>0.0</ele></rtept>
    <rtept lat="52.374774" lon="4.658199"><ele>0.0</ele></rtept>
    <rtept lat="52.374903" lon="4.658355"><ele>0.0</ele></rtept>
    <rtept lat="52.375071" lon="4.658558"><ele>0.0</ele></rtept>
    <rtept lat="52.375174" lon="4.658688"><ele>0.0</ele></rtept>
    <rtept lat="52.375264" lon="4.658783"><ele>0.0</ele></rtept>
    <rtept lat="52.375299" lon="4.658822"><ele>0.0</ele></rtept>
    <rtept lat="52.375387" lon="4.658920"><ele>0.0</ele></rtept>
    <rtept lat="52.375939" lon="4.659321"><ele>0.0</ele></rtept>
    <rtept lat="52.376248" lon="4.659469"><ele>0.0</ele></rtept>
    <rtept lat="52.376416" lon="4.659550"><ele>0.0</ele></rtept>
    <rtept lat="52.376591" lon="4.659639"><ele>0.0</ele></rtept>
    <rtept lat="52.378107" lon="4.660341"><ele>0.0</ele></rtept>
    <rtept lat="52.378754" lon="4.660632"><ele>0.0</ele></rtept>
    <rtept lat="52.378835" lon="4.660666"><ele>0.0</ele></rtept>
    <rtept lat="52.378880" lon="4.660685"><ele>0.0</ele></rtept>
    <rtept lat="52.378915" lon="4.660505"><ele>0.0</ele></rtept>
    <rtept lat="52.378941" lon="4.660375"><ele>0.0</ele></rtept>
    <rtept lat="52.378971" lon="4.660226"><ele>0.0</ele></rtept>
    <rtept lat="52.378980" lon="4.659944"><ele>0.0</ele></rtept>
    <rtept lat="52.378994" lon="4.659805"><ele>0.0</ele></rtept>
    <rtept lat="52.379026" lon="4.659422"><ele>0.0</ele></rtept>
    <rtept lat="52.379192" lon="4.657600"><ele>0.0</ele></rtept>
    <rtept lat="52.379265" lon="4.656910"><ele>0.0</ele></rtept>
    <rtept lat="52.379322" lon="4.656758"><ele>0.0</ele></rtept>
    <rtept lat="52.379484" lon="4.656332"><ele>0.0</ele></rtept>
    <rtept lat="52.379811" lon="4.656611"><ele>0.0</ele></rtept>
    <rtept lat="52.379890" lon="4.656860"><ele>0.0</ele></rtept>
    <rtept lat="52.379960" lon="4.657149"><ele>0.0</ele></rtept>
    <rtept lat="52.380029" lon="4.657505"><ele>0.0</ele></rtept>
    <rtept lat="52.380029" lon="4.657510"><ele>0.0</ele></rtept>
  </rte>
</gpx>