<?xml version="1.0" encoding="UTF-8"?>
<gpx version="1.1" creator="WeeklyCyclingRoutes"
  xmlns="http://www.topografix.com/GPX/1/1"
  xmlns:xsi="http://www.w3.org/2001/XMLSchema-instance"
  xsi:schemaLocation="http://www.topografix.com/GPX/1/1 http://www.topografix.com/GPX/1/1/gpx.xsd">
  <metadata>
    <name>70km Route – September 14, 2026</name>
    <desc>Round trip from Cremerstraat, Haarlem. Actual: 67.1km</desc>
    <time>2026-09-14T11:29:44Z</time>
  </metadata>
  <rte>
    <name>70km Cycling Route – Haarlem</name>
    <rtept lat="52.380029" lon="4.657510"><ele>0.0</ele></rtept>
    <rtept lat="52.380041" lon="4.657887"><ele>0.0</ele></rtept>
    <rtept lat="52.379804" lon="4.657899"><ele>0.0</ele></rtept>
    <rtept lat="52.379574" lon="4.657888"><ele>0.0</ele></rtept>
    <rtept lat="52.379447" lon="4.659520"><ele>0.0</ele></rtept>
    <rtept lat="52.379026" lon="4.659422"><ele>0.0</ele></rtept>
    <rtept lat="52.378994" lon="4.659805"><ele>0.0</ele></rtept>
    <rtept lat="52.378910" lon="4.659942"><ele>0.0</ele></rtept>
    <rtept lat="52.378862" lon="4.660131"><ele>0.0</ele></rtept>
    <rtept lat="52.378832" lon="4.660186"><ele>0.0</ele></rtept>
    <rtept lat="52.378807" lon="4.660327"><ele>0.0</ele></rtept>
    <rtept lat="52.378788" lon="4.660440"><ele>0.0</ele></rtept>
    <rtept lat="52.378754" lon="4.660632"><ele>0.0</ele></rtept>
    <rtept lat="52.378107" lon="4.660341"><ele>0.0</ele></rtept>
    <rtept lat="52.376591" lon="4.659639"><ele>0.0</ele></rtept>
    <rtept lat="52.376416" lon="4.659550"><ele>0.0</ele></rtept>
    <rtept lat="52.376248" lon="4.659469"><ele>0.0</ele></rtept>
    <rtept lat="52.375939" lon="4.659321"><ele>0.0</ele></rtept>
    <rtept lat="52.375387" lon="4.658920"><ele>0.0</ele></rtept>
    <rtept lat="52.375299" lon="4.658822"><ele>0.0</ele></rtept>
    <rtept lat="52.375264" lon="4.658783"><ele>0.0</ele></rtept>
    <rtept lat="52.375174" lon="4.658688"><ele>0.0</ele></rtept>
    <rtept lat="52.375071" lon="4.658558"><ele>0.0</ele></rtept>
    <rtept lat="52.374903" lon="4.658355"><ele>0.0</ele></rtept>
    <rtept lat="52.374774" lon="4.658199"><ele>0.0</ele></rtept>
    <rtept lat="52.374640" lon="4.658034"><ele>0.0</ele></rtept>
    <rtept lat="52.374391" lon="4.657790"><ele>0.0</ele></rtept>
    <rtept lat="52.374222" lon="4.657609"><ele>0.0</ele></rtept>
    <rtept lat="52.372821" lon="4.656439"><ele>0.0</ele></rtept>
    <rtept lat="52.371743" lon="4.655569"><ele>0.0</ele></rtept>
    <rtept lat="52.371644" lon="4.655494"><ele>0.0</ele></rtept>
    <rtept lat="52.371432" lon="4.655322"><ele>0.0</ele></rtept>
    <rtept lat="52.370928" lon="4.654930"><ele>0.0</ele></rtept>
    <rtept lat="52.370723" lon="4.654874"><ele>0.0</ele></rtept>
    <rtept lat="52.370389" lon="4.654836"><ele>0.0</ele></rtept>
    <rtept lat="52.370283" lon="4.654833"><ele>0.0</ele></rtept>
    <rtept lat="52.370075" lon="4.654826"><ele>0.0</ele></rtept>
    <rtept lat="52.369981" lon="4.654809"><ele>0.0</ele></rtept>
    <rtept lat="52.369938" lon="4.654772"><ele>0.0</ele></rtept>
    <rtept lat="52.369824" lon="4.654648"><ele>0.0</ele></rtept>
    <rtept lat="52.368957" lon="4.654543"><ele>0.0</ele></rtept>
    <rtept lat="52.368663" lon="4.654470"><ele>0.0</ele></rtept>
    <rtept lat="52.368353" lon="4.654479"><ele>0.0</ele></rtept>
    <rtept lat="52.368337" lon="4.654479"><ele>0.0</ele></rtept>
    <rtept lat="52.368020" lon="4.654482"><ele>0.0</ele></rtept>
    <rtept lat="52.367966" lon="4.654499"><ele>0.0</ele></rtept>
    <rtept lat="52.367813" lon="4.654557"><ele>0.0</ele></rtept>
    <rtept lat="52.367800" lon="4.654688"><ele>0.0</ele></rtept>
    <rtept lat="52.367802" lon="4.655012"><ele>0.0</ele></rtept>
    <rtept lat="52.367801" lon="4.656505"><ele>0.0</ele></rtept>
    <rtept lat="52.367811" lon="4.657704"><ele>0.0</ele></rtept>
    <rtept lat="52.367821" lon="4.659432"><ele>0.0</ele></rtept>
    <rtept lat="52.367829" lon="4.660912"><ele>0.0</ele></rtept>
    <rtept lat="52.367827" lon="4.662490"><ele>0.0</ele></rtept>
    <rtept lat="52.367872" lon="4.663787"><ele>0.0</ele></rtept>
    <rtept lat="52.367879" lon="4.664269"><ele>0.0</ele></rtept>
    <rtept lat="52.367889" lon="4.666109"><ele>0.0</ele></rtept>
    <rtept lat="52.367838" lon="4.666112"><ele>0.0</ele></rtept>
    <rtept lat="52.367782" lon="4.666114"><ele>0.0</ele></rtept>
    <rtept lat="52.367674" lon="4.666133"><ele>0.0</ele></rtept>
    <rtept lat="52.367549" lon="4.666157"><ele>0.0</ele></rtept>
    <rtept lat="52.366772" lon="4.666360"><ele>0.0</ele></rtept>
    <rtept lat="52.366728" lon="4.666376"><ele>0.0</ele></rtept>
    <rtept lat="52.366226" lon="4.666499"><ele>0.0</ele></rtept>
    <rtept lat="52.364616" lon="4.666862"><ele>0.0</ele></rtept>
    <rtept lat="52.364555" lon="4.666877"><ele>0.0</ele></rtept>
    <rtept lat="52.364252" lon="4.666958"><ele>0.0</ele></rtept>
    <rtept lat="52.362877" lon="4.667285"><ele>0.0</ele></rtept>
    <rtept lat="52.362158" lon="4.667456"><ele>0.0</ele></rtept>
    <rtept lat="52.362034" lon="4.667495"><ele>0.0</ele></rtept>
    <rtept lat="52.361115" lon="4.667716"><ele>0.0</ele></rtept>
    <rtept lat="52.360741" lon="4.667804"><ele>0.0</ele></rtept>
    <rtept lat="52.360693" lon="4.668029"><ele>0.0</ele></rtept>
    <rtept lat="52.360581" lon="4.668367"><ele>0.0</ele></rtept>
    <rtept lat="52.360467" lon="4.668618"><ele>0.0</ele></rtept>
    <rtept lat="52.360332" lon="4.668884"><ele>0.0</ele></rtept>
    <rtept lat="52.360291" lon="4.668924"><ele>0.0</ele></rtept>
    <rtept lat="52.360156" lon="4.669100"><ele>0.0</ele></rtept>
    <rtept lat="52.359958" lon="4.669296"><ele>0.0</ele></rtept>
    <rtept lat="52.359637" lon="4.669464"><ele>0.0</ele></rtept>
    <rtept lat="52.359469" lon="4.669519"><ele>0.0</ele></rtept>
    <rtept lat="52.359365" lon="4.669522"><ele>0.0</ele></rtept>
    <rtept lat="52.358102" lon="4.669544"><ele>0.0</ele></rtept>
    <rtept lat="52.357541" lon="4.669577"><ele>0.0</ele></rtept>
    <rtept lat="52.356571" lon="4.669792"><ele>0.0</ele></rtept>
    <rtept lat="52.356332" lon="4.669868"><ele>0.0</ele></rtept>
    <rtept lat="52.355799" lon="4.670115"><ele>0.0</ele></rtept>
    <rtept lat="52.355744" lon="4.670136"><ele>0.0</ele></rtept>
    <rtept lat="52.355673" lon="4.670170"><ele>0.0</ele></rtept>
    <rtept lat="52.355736" lon="4.670631"><ele>0.0</ele></rtept>
    <rtept lat="52.355992" lon="4.672205"><ele>0.0</ele></rtept>
    <rtept lat="52.356103" lon="4.673000"><ele>0.0</ele></rtept>
    <rtept lat="52.356060" lon="4.673244"><ele>0.0</ele></rtept>
    <rtept lat="52.355980" lon="4.673417"><ele>0.0</ele></rtept>
    <rtept lat="52.355766" lon="4.673762"><ele>0.0</ele></rtept>
    <rtept lat="52.354878" lon="4.674952"><ele>0.0</ele></rtept>
    <rtept lat="52.354134" lon="4.675928"><ele>0.0</ele></rtept>
    <rtept lat="52.354027" lon="4.676138"><ele>0.0</ele></rtept>
    <rtept lat="52.354006" lon="4.676245"><ele>0.0</ele></rtept>
    <rtept lat="52.353924" lon="4.676809"><ele>0.0</ele></rtept>
    <rtept lat="52.353909" lon="4.676910"><ele>0.0</ele></rtept>
    <rtept lat="52.353525" lon="4.676767"><ele>0.0</ele></rtept>
    <rtept lat="52.352686" lon="4.676218"><ele>0.0</ele></rtept>
    <rtept lat="52.352414" lon="4.676000"><ele>0.0</ele></rtept>
    <rtept lat="52.351765" lon="4.675341"><ele>0.0</ele></rtept>
    <rtept lat="52.351536" lon="4.675076"><ele>0.0</ele></rtept>
    <rtept lat="52.351073" lon="4.674468"><ele>0.0</ele></rtept>
    <rtept lat="52.350937" lon="4.674255"><ele>0.0</ele></rtept>
    <rtept lat="52.350570" lon="4.673550"><ele>0.0</ele></rtept>
    <rtept lat="52.349416" lon="4.670958"><ele>0.0</ele></rtept>
    <rtept lat="52.349319" lon="4.671047"><ele>0.0</ele></rtept>
    <rtept lat="52.348940" lon="4.671303"><ele>0.0</ele></rtept>
    <rtept lat="52.348565" lon="4.671474"><ele>0.0</ele></rtept>
    <rtept lat="52.348137" lon="4.671580"><ele>0.0</ele></rtept>
    <rtept lat="52.347251" lon="4.671674"><ele>0.0</ele></rtept>
    <rtept lat="52.347037" lon="4.671690"><ele>0.0</ele></rtept>
    <rtept lat="52.346890" lon="4.671700"><ele>0.0</ele></rtept>
    <rtept lat="52.346472" lon="4.671729"><ele>0.0</ele></rtept>
    <rtept lat="52.346320" lon="4.671657"><ele>0.0</ele></rtept>
    <rtept lat="52.346288" lon="4.671669"><ele>0.0</ele></rtept>
    <rtept lat="52.346274" lon="4.671698"><ele>0.0</ele></rtept>
    <rtept lat="52.346253" lon="4.671740"><ele>0.0</ele></rtept>
    <rtept lat="52.346236" lon="4.671775"><ele>0.0</ele></rtept>
    <rtept lat="52.346208" lon="4.671801"><ele>0.0</ele></rtept>
    <rtept lat="52.346099" lon="4.671824"><ele>0.0</ele></rtept>
    <rtept lat="52.346064" lon="4.671865"><ele>0.0</ele></rtept>
    <rtept lat="52.346041" lon="4.671887"><ele>0.0</ele></rtept>
    <rtept lat="52.345250" lon="4.672126"><ele>0.0</ele></rtept>
    <rtept lat="52.345076" lon="4.672242"><ele>0.0</ele></rtept>
    <rtept lat="52.344572" lon="4.672383"><ele>0.0</ele></rtept>
    <rtept lat="52.344355" lon="4.672373"><ele>0.0</ele></rtept>
    <rtept lat="52.343553" lon="4.672596"><ele>0.0</ele></rtept>
    <rtept lat="52.343522" lon="4.672605"><ele>0.0</ele></rtept>
    <rtept lat="52.343406" lon="4.672650"><ele>0.0</ele></rtept>
    <rtept lat="52.343232" lon="4.672765"><ele>0.0</ele></rtept>
    <rtept lat="52.342456" lon="4.672992"><ele>0.0</ele></rtept>
    <rtept lat="52.342132" lon="4.673000"><ele>0.0</ele></rtept>
    <rtept lat="52.341895" lon="4.673064"><ele>0.0</ele></rtept>
    <rtept lat="52.339506" lon="4.673740"><ele>0.0</ele></rtept>
    <rtept lat="52.339330" lon="4.673743"><ele>0.0</ele></rtept>
    <rtept lat="52.338432" lon="4.673864"><ele>0.0</ele></rtept>
    <rtept lat="52.338064" lon="4.673973"><ele>0.0</ele></rtept>
    <rtept lat="52.337773" lon="4.674005"><ele>0.0</ele></rtept>
    <rtept lat="52.336415" lon="4.674412"><ele>0.0</ele></rtept>
    <rtept lat="52.336239" lon="4.674488"><ele>0.0</ele></rtept>
    <rtept lat="52.335163" lon="4.674789"><ele>0.0</ele></rtept>
    <rtept lat="52.334916" lon="4.674863"><ele>0.0</ele></rtept>
    <rtept lat="52.334850" lon="4.674881"><ele>0.0</ele></rtept>
    <rtept lat="52.334561" lon="4.674958"><ele>0.0</ele></rtept>
    <rtept lat="52.334141" lon="4.675025"><ele>0.0</ele></rtept>
    <rtept lat="52.333495" lon="4.675123"><ele>0.0</ele></rtept>
    <rtept lat="52.333059" lon="4.675149"><ele>0.0</ele></rtept>
    <rtept lat="52.329442" lon="4.676183"><ele>0.0</ele></rtept>
    <rtept lat="52.329411" lon="4.676192"><ele>0.0</ele></rtept>
    <rtept lat="52.324001" lon="4.677735"><ele>0.0</ele></rtept>
    <rtept lat="52.323922" lon="4.677682"><ele>0.0</ele></rtept>
    <rtept lat="52.323778" lon="4.677457"><ele>0.0</ele></rtept>
    <rtept lat="52.323647" lon="4.677378"><ele>0.0</ele></rtept>
    <rtept lat="52.323527" lon="4.677397"><ele>0.0</ele></rtept>
    <rtept lat="52.323453" lon="4.677527"><ele>0.0</ele></rtept>
    <rtept lat="52.323383" lon="4.677735"><ele>0.0</ele></rtept>
    <rtept lat="52.323270" lon="4.678009"><ele>0.0</ele></rtept>
    <rtept lat="52.323221" lon="4.678099"><ele>0.0</ele></rtept>
    <rtept lat="52.323179" lon="4.678185"><ele>0.0</ele></rtept>
    <rtept lat="52.323069" lon="4.678349"><ele>0.0</ele></rtept>
    <rtept lat="52.322978" lon="4.678431"><ele>0.0</ele></rtept>
    <rtept lat="52.318071" lon="4.680272"><ele>0.0</ele></rtept>
    <rtept lat="52.317106" lon="4.680641"><ele>0.0</ele></rtept>
    <rtept lat="52.317032" lon="4.680676"><ele>0.0</ele></rtept>
    <rtept lat="52.316816" lon="4.680786"><ele>0.0</ele></rtept>
    <rtept lat="52.316541" lon="4.680892"><ele>0.0</ele></rtept>
    <rtept lat="52.316281" lon="4.680986"><ele>0.0</ele></rtept>
    <rtept lat="52.316009" lon="4.681085"><ele>0.0</ele></rtept>
    <rtept lat="52.315765" lon="4.681138"><ele>0.0</ele></rtept>
    <rtept lat="52.315717" lon="4.681151"><ele>0.0</ele></rtept>
    <rtept lat="52.314498" lon="4.681614"><ele>0.0</ele></rtept>
    <rtept lat="52.314416" lon="4.681646"><ele>0.0</ele></rtept>
    <rtept lat="52.314367" lon="4.681654"><ele>0.0</ele></rtept>
    <rtept lat="52.314092" lon="4.681384"><ele>0.0</ele></rtept>
    <rtept lat="52.314020" lon="4.681404"><ele>0.0</ele></rtept>
    <rtept lat="52.313964" lon="4.681423"><ele>0.0</ele></rtept>
    <rtept lat="52.312199" lon="4.682078"><ele>0.0</ele></rtept>
    <rtept lat="52.312158" lon="4.682050"><ele>0.0</ele></rtept>
    <rtept lat="52.311961" lon="4.682044"><ele>0.0</ele></rtept>
    <rtept lat="52.311942" lon="4.681964"><ele>0.0</ele></rtept>
    <rtept lat="52.311901" lon="4.681944"><ele>0.0</ele></rtept>
    <rtept lat="52.311501" lon="4.682140"><ele>0.0</ele></rtept>
    <rtept lat="52.311281" lon="4.682226"><ele>0.0</ele></rtept>
    <rtept lat="52.311221" lon="4.682210"><ele>0.0</ele></rtept>
    <rtept lat="52.311101" lon="4.682063"><ele>0.0</ele></rtept>
    <rtept lat="52.311073" lon="4.682099"><ele>0.0</ele></rtept>
    <rtept lat="52.310267" lon="4.682425"><ele>0.0</ele></rtept>
    <rtept lat="52.310195" lon="4.682554"><ele>0.0</ele></rtept>
    <rtept lat="52.310165" lon="4.682607"><ele>0.0</ele></rtept>
    <rtept lat="52.310104" lon="4.682643"><ele>0.0</ele></rtept>
    <rtept lat="52.310029" lon="4.682669"><ele>0.0</ele></rtept>
    <rtept lat="52.309972" lon="4.682735"><ele>0.0</ele></rtept>
    <rtept lat="52.309914" lon="4.682801"><ele>0.0</ele></rtept>
    <rtept lat="52.309896" lon="4.682829"><ele>0.0</ele></rtept>
    <rtept lat="52.309805" lon="4.682955"><ele>0.0</ele></rtept>
    <rtept lat="52.307083" lon="4.683992"><ele>0.0</ele></rtept>
    <rtept lat="52.307013" lon="4.684035"><ele>0.0</ele></rtept>
    <rtept lat="52.306957" lon="4.684078"><ele>0.0</ele></rtept>
    <rtept lat="52.306886" lon="4.684134"><ele>0.0</ele></rtept>
    <rtept lat="52.306818" lon="4.684145"><ele>0.0</ele></rtept>
    <rtept lat="52.306759" lon="4.684125"><ele>0.0</ele></rtept>
    <rtept lat="52.306701" lon="4.684116"><ele>0.0</ele></rtept>
    <rtept lat="52.304362" lon="4.685013"><ele>0.0</ele></rtept>
    <rtept lat="52.303243" lon="4.685068"><ele>0.0</ele></rtept>
    <rtept lat="52.303071" lon="4.685109"><ele>0.0</ele></rtept>
    <rtept lat="52.302771" lon="4.685520"><ele>0.0</ele></rtept>
    <rtept lat="52.302540" lon="4.685804"><ele>0.0</ele></rtept>
    <rtept lat="52.302423" lon="4.685960"><ele>0.0</ele></rtept>
    <rtept lat="52.302372" lon="4.686068"><ele>0.0</ele></rtept>
    <rtept lat="52.302331" lon="4.686119"><ele>0.0</ele></rtept>
    <rtept lat="52.302256" lon="4.686265"><ele>0.0</ele></rtept>
    <rtept lat="52.302219" lon="4.686402"><ele>0.0</ele></rtept>
    <rtept lat="52.302041" lon="4.686756"><ele>0.0</ele></rtept>
    <rtept lat="52.301971" lon="4.686838"><ele>0.0</ele></rtept>
    <rtept lat="52.301874" lon="4.687020"><ele>0.0</ele></rtept>
    <rtept lat="52.301477" lon="4.686454"><ele>0.0</ele></rtept>
    <rtept lat="52.301411" lon="4.686587"><ele>0.0</ele></rtept>
    <rtept lat="52.301330" lon="4.686744"><ele>0.0</ele></rtept>
    <rtept lat="52.301293" lon="4.686820"><ele>0.0</ele></rtept>
    <rtept lat="52.301258" lon="4.686885"><ele>0.0</ele></rtept>
    <rtept lat="52.301226" lon="4.686947"><ele>0.0</ele></rtept>
    <rtept lat="52.301193" lon="4.687015"><ele>0.0</ele></rtept>
    <rtept lat="52.301133" lon="4.687138"><ele>0.0</ele></rtept>
    <rtept lat="52.301131" lon="4.687142"><ele>0.0</ele></rtept>
    <rtept lat="52.301099" lon="4.687205"><ele>0.0</ele></rtept>
    <rtept lat="52.300396" lon="4.688473"><ele>0.0</ele></rtept>
    <rtept lat="52.299756" lon="4.689222"><ele>0.0</ele></rtept>
    <rtept lat="52.299440" lon="4.689733"><ele>0.0</ele></rtept>
    <rtept lat="52.299361" lon="4.689818"><ele>0.0</ele></rtept>
    <rtept lat="52.299165" lon="4.689902"><ele>0.0</ele></rtept>
    <rtept lat="52.299064" lon="4.689992"><ele>0.0</ele></rtept>
    <rtept lat="52.298248" lon="4.690911"><ele>0.0</ele></rtept>
    <rtept lat="52.297939" lon="4.691299"><ele>0.0</ele></rtept>
    <rtept lat="52.297919" lon="4.691329"><ele>0.0</ele></rtept>
    <rtept lat="52.297868" lon="4.691422"><ele>0.0</ele></rtept>
    <rtept lat="52.297711" lon="4.691189"><ele>0.0</ele></rtept>
    <rtept lat="52.297463" lon="4.690810"><ele>0.0</ele></rtept>
    <rtept lat="52.297441" lon="4.690851"><ele>0.0</ele></rtept>
    <rtept lat="52.297400" lon="4.690929"><ele>0.0</ele></rtept>
    <rtept lat="52.297348" lon="4.691000"><ele>0.0</ele></rtept>
    <rtept lat="52.297173" lon="4.691003"><ele>0.0</ele></rtept>
    <rtept lat="52.296882" lon="4.691457"><ele>0.0</ele></rtept>
    <rtept lat="52.296353" lon="4.692078"><ele>0.0</ele></rtept>
    <rtept lat="52.295576" lon="4.692934"><ele>0.0</ele></rtept>
    <rtept lat="52.295390" lon="4.693139"><ele>0.0</ele></rtept>
    <rtept lat="52.294822" lon="4.693808"><ele>0.0</ele></rtept>
    <rtept lat="52.294293" lon="4.694405"><ele>0.0</ele></rtept>
    <rtept lat="52.293865" lon="4.694892"><ele>0.0</ele></rtept>
    <rtept lat="52.293624" lon="4.695212"><ele>0.0</ele></rtept>
    <rtept lat="52.293605" lon="4.695252"><ele>0.0</ele></rtept>
    <rtept lat="52.293602" lon="4.695606"><ele>0.0</ele></rtept>
    <rtept lat="52.293432" lon="4.695684"><ele>0.0</ele></rtept>
    <rtept lat="52.293143" lon="4.695992"><ele>0.0</ele></rtept>
    <rtept lat="52.293025" lon="4.696131"><ele>0.0</ele></rtept>
    <rtept lat="52.292732" lon="4.696472"><ele>0.0</ele></rtept>
    <rtept lat="52.292631" lon="4.696606"><ele>0.0</ele></rtept>
    <rtept lat="52.292614" lon="4.696670"><ele>0.0</ele></rtept>
    <rtept lat="52.292613" lon="4.696804"><ele>0.0</ele></rtept>
    <rtept lat="52.292642" lon="4.696911"><ele>0.0</ele></rtept>
    <rtept lat="52.292674" lon="4.696982"><ele>0.0</ele></rtept>
    <rtept lat="52.292979" lon="4.697717"><ele>0.0</ele></rtept>
    <rtept lat="52.293002" lon="4.697972"><ele>0.0</ele></rtept>
    <rtept lat="52.292795" lon="4.698310"><ele>0.0</ele></rtept>
    <rtept lat="52.292718" lon="4.698456"><ele>0.0</ele></rtept>
    <rtept lat="52.292632" lon="4.698598"><ele>0.0</ele></rtept>
    <rtept lat="52.292476" lon="4.698873"><ele>0.0</ele></rtept>
    <rtept lat="52.292427" lon="4.698955"><ele>0.0</ele></rtept>
    <rtept lat="52.292327" lon="4.699132"><ele>0.0</ele></rtept>
    <rtept lat="52.292215" lon="4.699307"><ele>0.0</ele></rtept>
    <rtept lat="52.291991" lon="4.699724"><ele>0.0</ele></rtept>
    <rtept lat="52.291837" lon="4.700004"><ele>0.0</ele></rtept>
    <rtept lat="52.291787" lon="4.700180"><ele>0.0</ele></rtept>
    <rtept lat="52.291680" lon="4.700136"><ele>0.0</ele></rtept>
    <rtept lat="52.291571" lon="4.700103"><ele>0.0</ele></rtept>
    <rtept lat="52.291473" lon="4.700086"><ele>0.0</ele></rtept>
    <rtept lat="52.291419" lon="4.700110"><ele>0.0</ele></rtept>
    <rtept lat="52.291178" lon="4.700557"><ele>0.0</ele></rtept>
    <rtept lat="52.291132" lon="4.700646"><ele>0.0</ele></rtept>
    <rtept lat="52.290954" lon="4.700388"><ele>0.0</ele></rtept>
    <rtept lat="52.290726" lon="4.700063"><ele>0.0</ele></rtept>
    <rtept lat="52.290506" lon="4.699745"><ele>0.0</ele></rtept>
    <rtept lat="52.290476" lon="4.699712"><ele>0.0</ele></rtept>
    <rtept lat="52.286669" lon="4.703980"><ele>0.0</ele></rtept>
    <rtept lat="52.286129" lon="4.704584"><ele>0.0</ele></rtept>
    <rtept lat="52.286082" lon="4.704686"><ele>0.0</ele></rtept>
    <rtept lat="52.285961" lon="4.704908"><ele>0.0</ele></rtept>
    <rtept lat="52.285291" lon="4.706187"><ele>0.0</ele></rtept>
    <rtept lat="52.285079" lon="4.706529"><ele>0.0</ele></rtept>
    <rtept lat="52.284752" lon="4.707171"><ele>0.0</ele></rtept>
    <rtept lat="52.283687" lon="4.709146"><ele>0.0</ele></rtept>
    <rtept lat="52.280982" lon="4.714133"><ele>0.0</ele></rtept>
    <rtept lat="52.280808" lon="4.714449"><ele>0.0</ele></rtept>
    <rtept lat="52.280730" lon="4.714599"><ele>0.0</ele></rtept>
    <rtept lat="52.280735" lon="4.714676"><ele>0.0</ele></rtept>
    <rtept lat="52.280850" lon="4.714832"><ele>0.0</ele></rtept>
    <rtept lat="52.280950" lon="4.714861"><ele>0.0</ele></rtept>
    <rtept lat="52.281013" lon="4.714832"><ele>0.0</ele></rtept>
    <rtept lat="52.281057" lon="4.714782"><ele>0.0</ele></rtept>
    <rtept lat="52.281262" lon="4.714396"><ele>0.0</ele></rtept>
    <rtept lat="52.281387" lon="4.714150"><ele>0.0</ele></rtept>
    <rtept lat="52.281275" lon="4.713971"><ele>0.0</ele></rtept>
    <rtept lat="52.281228" lon="4.713950"><ele>0.0</ele></rtept>
    <rtept lat="52.279989" lon="4.716243"><ele>0.0</ele></rtept>
    <rtept lat="52.279531" lon="4.717096"><ele>0.0</ele></rtept>
    <rtept lat="52.279538" lon="4.717156"><ele>0.0</ele></rtept>
    <rtept lat="52.279646" lon="4.717310"><ele>0.0</ele></rtept>
    <rtept lat="52.279680" lon="4.717329"><ele>0.0</ele></rtept>
    <rtept lat="52.279803" lon="4.717098"><ele>0.0</ele></rtept>
    <rtept lat="52.280011" lon="4.716705"><ele>0.0</ele></rtept>
    <rtept lat="52.280025" lon="4.716603"><ele>0.0</ele></rtept>
    <rtept lat="52.280019" lon="4.716504"><ele>0.0</ele></rtept>
    <rtept lat="52.279995" lon="4.716419"><ele>0.0</ele></rtept>
    <rtept lat="52.279953" lon="4.716344"><ele>0.0</ele></rtept>
    <rtept lat="52.279871" lon="4.716238"><ele>0.0</ele></rtept>
    <rtept lat="52.279839" lon="4.716236"><ele>0.0</ele></rtept>
    <rtept lat="52.279747" lon="4.716401"><ele>0.0</ele></rtept>
    <rtept lat="52.279735" lon="4.716423"><ele>0.0</ele></rtept>
    <rtept lat="52.279171" lon="4.717497"><ele>0.0</ele></rtept>
    <rtept lat="52.278718" lon="4.718316"><ele>0.0</ele></rtept>
    <rtept lat="52.277281" lon="4.720979"><ele>0.0</ele></rtept>
    <rtept lat="52.274257" lon="4.726584"><ele>0.0</ele></rtept>
    <rtept lat="52.274196" lon="4.726701"><ele>0.0</ele></rtept>
    <rtept lat="52.274151" lon="4.726789"><ele>0.0</ele></rtept>
    <rtept lat="52.274113" lon="4.726852"><ele>0.0</ele></rtept>
    <rtept lat="52.273499" lon="4.727987"><ele>0.0</ele></rtept>
    <rtept lat="52.273450" lon="4.728009"><ele>0.0</ele></rtept>
    <rtept lat="52.273304" lon="4.727825"><ele>0.0</ele></rtept>
    <rtept lat="52.273280" lon="4.727816"><ele>0.0</ele></rtept>
    <rtept lat="52.270553" lon="4.732874"><ele>0.0</ele></rtept>
    <rtept lat="52.270492" lon="4.733023"><ele>0.0</ele></rtept>
    <rtept lat="52.270458" lon="4.733053"><ele>0.0</ele></rtept>
    <rtept lat="52.270432" lon="4.733041"><ele>0.0</ele></rtept>
    <rtept lat="52.270174" lon="4.732894"><ele>0.0</ele></rtept>
    <rtept lat="52.270073" lon="4.732871"><ele>0.0</ele></rtept>
    <rtept lat="52.270048" lon="4.732866"><ele>0.0</ele></rtept>
    <rtept lat="52.269133" lon="4.732712"><ele>0.0</ele></rtept>
    <rtept lat="52.268057" lon="4.732623"><ele>0.0</ele></rtept>
    <rtept lat="52.267954" lon="4.732637"><ele>0.0</ele></rtept>
    <rtept lat="52.267873" lon="4.732703"><ele>0.0</ele></rtept>
    <rtept lat="52.267817" lon="4.732790"><ele>0.0</ele></rtept>
    <rtept lat="52.267002" lon="4.734307"><ele>0.0</ele></rtept>
    <rtept lat="52.266914" lon="4.734395"><ele>0.0</ele></rtept>
    <rtept lat="52.266511" lon="4.732930"><ele>0.0</ele></rtept>
    <rtept lat="52.266280" lon="4.732059"><ele>0.0</ele></rtept>
    <rtept lat="52.265968" lon="4.730913"><ele>0.0</ele></rtept>
    <rtept lat="52.265773" lon="4.730298"><ele>0.0</ele></rtept>
    <rtept lat="52.265455" lon="4.729416"><ele>0.0</ele></rtept>
    <rtept lat="52.265236" lon="4.728933"><ele>0.0</ele></rtept>
    <rtept lat="52.264989" lon="4.728444"><ele>0.0</ele></rtept>
    <rtept lat="52.264711" lon="4.727950"><ele>0.0</ele></rtept>
    <rtept lat="52.264427" lon="4.727445"><ele>0.0</ele></rtept>
    <rtept lat="52.264174" lon="4.726919"><ele>0.0</ele></rtept>
    <rtept lat="52.263944" lon="4.726296"><ele>0.0</ele></rtept>
    <rtept lat="52.263727" lon="4.725744"><ele>0.0</ele></rtept>
    <rtept lat="52.263495" lon="4.725259"><ele>0.0</ele></rtept>
    <rtept lat="52.263334" lon="4.724987"><ele>0.0</ele></rtept>
    <rtept lat="52.263028" lon="4.724601"><ele>0.0</ele></rtept>
    <rtept lat="52.262674" lon="4.724294"><ele>0.0</ele></rtept>
    <rtept lat="52.261742" lon="4.723567"><ele>0.0</ele></rtept>
    <rtept lat="52.261446" lon="4.723295"><ele>0.0</ele></rtept>
    <rtept lat="52.260648" lon="4.722370"><ele>0.0</ele></rtept>
    <rtept lat="52.259322" lon="4.720689"><ele>0.0</ele></rtept>
    <rtept lat="52.259308" lon="4.720602"><ele>0.0</ele></rtept>
    <rtept lat="52.259232" lon="4.720559"><ele>0.0</ele></rtept>
    <rtept lat="52.259149" lon="4.720469"><ele>0.0</ele></rtept>
    <rtept lat="52.258921" lon="4.720085"><ele>0.0</ele></rtept>
    <rtept lat="52.257695" lon="4.717406"><ele>0.0</ele></rtept>
    <rtept lat="52.257658" lon="4.717326"><ele>0.0</ele></rtept>
    <rtept lat="52.257629" lon="4.717270"><ele>0.0</ele></rtept>
    <rtept lat="52.257618" lon="4.717247"><ele>0.0</ele></rtept>
    <rtept lat="52.256999" lon="4.715848"><ele>0.0</ele></rtept>
    <rtept lat="52.256965" lon="4.715751"><ele>0.0</ele></rtept>
    <rtept lat="52.256929" lon="4.715501"><ele>0.0</ele></rtept>
    <rtept lat="52.256881" lon="4.715494"><ele>0.0</ele></rtept>
    <rtept lat="52.256833" lon="4.715453"><ele>0.0</ele></rtept>
    <rtept lat="52.256001" lon="4.713393"><ele>0.0</ele></rtept>
    <rtept lat="52.255645" lon="4.712760"><ele>0.0</ele></rtept>
    <rtept lat="52.255320" lon="4.712369"><ele>0.0</ele></rtept>
    <rtept lat="52.254943" lon="4.711999"><ele>0.0</ele></rtept>
    <rtept lat="52.253879" lon="4.710957"><ele>0.0</ele></rtept>
    <rtept lat="52.253045" lon="4.710132"><ele>0.0</ele></rtept>
    <rtept lat="52.249748" lon="4.706909"><ele>0.0</ele></rtept>
    <rtept lat="52.249702" lon="4.706864"><ele>0.0</ele></rtept>
    <rtept lat="52.249659" lon="4.706822"><ele>0.0</ele></rtept>
    <rtept lat="52.248918" lon="4.706106"><ele>0.0</ele></rtept>
    <rtept lat="52.248802" lon="4.706000"><ele>0.0</ele></rtept>
    <rtept lat="52.248725" lon="4.705931"><ele>0.0</ele></rtept>
    <rtept lat="52.248434" lon="4.705691"><ele>0.0</ele></rtept>
    <rtept lat="52.248129" lon="4.705507"><ele>0.0</ele></rtept>
    <rtept lat="52.247470" lon="4.705141"><ele>0.0</ele></rtept>
    <rtept lat="52.247229" lon="4.704955"><ele>0.0</ele></rtept>
    <rtept lat="52.247034" lon="4.704771"><ele>0.0</ele></rtept>
    <rtept lat="52.246844" lon="4.704542"><ele>0.0</ele></rtept>
    <rtept lat="52.246584" lon="4.704180"><ele>0.0</ele></rtept>
    <rtept lat="52.245262" lon="4.702231"><ele>0.0</ele></rtept>
    <rtept lat="52.244824" lon="4.701588"><ele>0.0</ele></rtept>
    <rtept lat="52.244706" lon="4.701397"><ele>0.0</ele></rtept>
    <rtept lat="52.244547" lon="4.701071"><ele>0.0</ele></rtept>
    <rtept lat="52.244492" lon="4.700921"><ele>0.0</ele></rtept>
    <rtept lat="52.244404" lon="4.700584"><ele>0.0</ele></rtept>
    <rtept lat="52.244275" lon="4.699817"><ele>0.0</ele></rtept>
    <rtept lat="52.243515" lon="4.694935"><ele>0.0</ele></rtept>
    <rtept lat="52.243310" lon="4.693767"><ele>0.0</ele></rtept>
    <rtept lat="52.243064" lon="4.692530"><ele>0.0</ele></rtept>
    <rtept lat="52.242825" lon="4.691645"><ele>0.0</ele></rtept>
    <rtept lat="52.242582" lon="4.690885"><ele>0.0</ele></rtept>
    <rtept lat="52.242271" lon="4.690009"><ele>0.0</ele></rtept>
    <rtept lat="52.241384" lon="4.687689"><ele>0.0</ele></rtept>
    <rtept lat="52.241036" lon="4.686789"><ele>0.0</ele></rtept>
    <rtept lat="52.240874" lon="4.686251"><ele>0.0</ele></rtept>
    <rtept lat="52.240690" lon="4.685576"><ele>0.0</ele></rtept>
    <rtept lat="52.240111" lon="4.683218"><ele>0.0</ele></rtept>
    <rtept lat="52.239770" lon="4.681838"><ele>0.0</ele></rtept>
    <rtept lat="52.239655" lon="4.681457"><ele>0.0</ele></rtept>
    <rtept lat="52.239519" lon="4.681073"><ele>0.0</ele></rtept>
    <rtept lat="52.239354" lon="4.680765"><ele>0.0</ele></rtept>
    <rtept lat="52.239163" lon="4.680447"><ele>0.0</ele></rtept>
    <rtept lat="52.239029" lon="4.680272"><ele>0.0</ele></rtept>
    <rtept lat="52.238587" lon="4.679864"><ele>0.0</ele></rtept>
    <rtept lat="52.236136" lon="4.678131"><ele>0.0</ele></rtept>
    <rtept lat="52.235821" lon="4.677929"><ele>0.0</ele></rtept>
    <rtept lat="52.235579" lon="4.677734"><ele>0.0</ele></rtept>
    <rtept lat="52.235277" lon="4.677448"><ele>0.0</ele></rtept>
    <rtept lat="52.235068" lon="4.677226"><ele>0.0</ele></rtept>
    <rtept lat="52.234617" lon="4.676628"><ele>0.0</ele></rtept>
    <rtept lat="52.234247" lon="4.676049"><ele>0.0</ele></rtept>
    <rtept lat="52.233080" lon="4.673811"><ele>0.0</ele></rtept>
    <rtept lat="52.232331" lon="4.672358"><ele>0.0</ele></rtept>
    <rtept lat="52.231892" lon="4.671501"><ele>0.0</ele></rtept>
    <rtept lat="52.231830" lon="4.671348"><ele>0.0</ele></rtept>
    <rtept lat="52.231804" lon="4.671229"><ele>0.0</ele></rtept>
    <rtept lat="52.231796" lon="4.671063"><ele>0.0</ele></rtept>
    <rtept lat="52.231668" lon="4.671018"><ele>0.0</ele></rtept>
    <rtept lat="52.231609" lon="4.670945"><ele>0.0</ele></rtept>
    <rtept lat="52.230991" lon="4.669753"><ele>0.0</ele></rtept>
    <rtept lat="52.230727" lon="4.669263"><ele>0.0</ele></rtept>
    <rtept lat="52.230678" lon="4.669170"><ele>0.0</ele></rtept>
    <rtept lat="52.230257" lon="4.668504"><ele>0.0</ele></rtept>
    <rtept lat="52.230369" lon="4.668307"><ele>0.0</ele></rtept>
    <rtept lat="52.230465" lon="4.668294"><ele>0.0</ele></rtept>
    <rtept lat="52.230538" lon="4.668372"><ele>0.0</ele></rtept>
    <rtept lat="52.230862" lon="4.668847"><ele>0.0</ele></rtept>
    <rtept lat="52.230885" lon="4.668982"><ele>0.0</ele></rtept>
    <rtept lat="52.230867" lon="4.669128"><ele>0.0</ele></rtept>
    <rtept lat="52.230828" lon="4.669207"><ele>0.0</ele></rtept>
    <rtept lat="52.230486" lon="4.669735"><ele>0.0</ele></rtept>
    <rtept lat="52.229677" lon="4.670885"><ele>0.0</ele></rtept>
    <rtept lat="52.228428" lon="4.672804"><ele>0.0</ele></rtept>
    <rtept lat="52.228019" lon="4.673363"><ele>0.0</ele></rtept>
    <rtept lat="52.227352" lon="4.674148"><ele>0.0</ele></rtept>
    <rtept lat="52.226949" lon="4.674583"><ele>0.0</ele></rtept>
    <rtept lat="52.225489" lon="4.675966"><ele>0.0</ele></rtept>
    <rtept lat="52.225427" lon="4.675993"><ele>0.0</ele></rtept>
    <rtept lat="52.225401" lon="4.675948"><ele>0.0</ele></rtept>
    <rtept lat="52.225280" lon="4.675842"><ele>0.0</ele></rtept>
    <rtept lat="52.225209" lon="4.675417"><ele>0.0</ele></rtept>
    <rtept lat="52.225135" lon="4.675260"><ele>0.0</ele></rtept>
    <rtept lat="52.225068" lon="4.675199"><ele>0.0</ele></rtept>
    <rtept lat="52.225010" lon="4.675012"><ele>0.0</ele></rtept>
    <rtept lat="52.224962" lon="4.674928"><ele>0.0</ele></rtept>
    <rtept lat="52.224902" lon="4.674904"><ele>0.0</ele></rtept>
    <rtept lat="52.224721" lon="4.674957"><ele>0.0</ele></rtept>
    <rtept lat="52.224651" lon="4.674972"><ele>0.0</ele></rtept>
    <rtept lat="52.224600" lon="4.674982"><ele>0.0</ele></rtept>
    <rtept lat="52.224495" lon="4.674967"><ele>0.0</ele></rtept>
    <rtept lat="52.224414" lon="4.674936"><ele>0.0</ele></rtept>
    <rtept lat="52.224218" lon="4.674896"><ele>0.0</ele></rtept>
    <rtept lat="52.223935" lon="4.674967"><ele>0.0</ele></rtept>
    <rtept lat="52.223390" lon="4.675150"><ele>0.0</ele></rtept>
    <rtept lat="52.222904" lon="4.675300"><ele>0.0</ele></rtept>
    <rtept lat="52.222740" lon="4.675348"><ele>0.0</ele></rtept>
    <rtept lat="52.222587" lon="4.675399"><ele>0.0</ele></rtept>
    <rtept lat="52.222386" lon="4.675302"><ele>0.0</ele></rtept>
    <rtept lat="52.222300" lon="4.675161"><ele>0.0</ele></rtept>
    <rtept lat="52.222248" lon="4.674894"><ele>0.0</ele></rtept>
    <rtept lat="52.222192" lon="4.674427"><ele>0.0</ele></rtept>
    <rtept lat="52.222092" lon="4.673591"><ele>0.0</ele></rtept>
    <rtept lat="52.222027" lon="4.672933"><ele>0.0</ele></rtept>
    <rtept lat="52.222117" lon="4.672013"><ele>0.0</ele></rtept>
    <rtept lat="52.221550" lon="4.671828"><ele>0.0</ele></rtept>
    <rtept lat="52.221285" lon="4.671742"><ele>0.0</ele></rtept>
    <rtept lat="52.221073" lon="4.671690"><ele>0.0</ele></rtept>
    <rtept lat="52.220867" lon="4.671665"><ele>0.0</ele></rtept>
    <rtept lat="52.220718" lon="4.671630"><ele>0.0</ele></rtept>
    <rtept lat="52.220638" lon="4.671611"><ele>0.0</ele></rtept>
    <rtept lat="52.220604" lon="4.671601"><ele>0.0</ele></rtept>
    <rtept lat="52.220381" lon="4.671526"><ele>0.0</ele></rtept>
    <rtept lat="52.219964" lon="4.671385"><ele>0.0</ele></rtept>
    <rtept lat="52.219344" lon="4.671215"><ele>0.0</ele></rtept>
    <rtept lat="52.219253" lon="4.671189"><ele>0.0</ele></rtept>
    <rtept lat="52.218641" lon="4.671003"><ele>0.0</ele></rtept>
    <rtept lat="52.217803" lon="4.670744"><ele>0.0</ele></rtept>
    <rtept lat="52.215828" lon="4.670181"><ele>0.0</ele></rtept>
    <rtept lat="52.215438" lon="4.670069"><ele>0.0</ele></rtept>
    <rtept lat="52.214876" lon="4.669960"><ele>0.0</ele></rtept>
    <rtept lat="52.214160" lon="4.669863"><ele>0.0</ele></rtept>
    <rtept lat="52.213937" lon="4.669832"><ele>0.0</ele></rtept>
    <rtept lat="52.213314" lon="4.669688"><ele>0.0</ele></rtept>
    <rtept lat="52.212375" lon="4.669435"><ele>0.0</ele></rtept>
    <rtept lat="52.212197" lon="4.669401"><ele>0.0</ele></rtept>
    <rtept lat="52.211611" lon="4.669284"><ele>0.0</ele></rtept>
    <rtept lat="52.210886" lon="4.669071"><ele>0.0</ele></rtept>
    <rtept lat="52.210469" lon="4.668951"><ele>0.0</ele></rtept>
    <rtept lat="52.209726" lon="4.668756"><ele>0.0</ele></rtept>
    <rtept lat="52.208884" lon="4.668551"><ele>0.0</ele></rtept>
    <rtept lat="52.208394" lon="4.668472"><ele>0.0</ele></rtept>
    <rtept lat="52.207569" lon="4.668550"><ele>0.0</ele></rtept>
    <rtept lat="52.206892" lon="4.668619"><ele>0.0</ele></rtept>
    <rtept lat="52.205893" lon="4.668813"><ele>0.0</ele></rtept>
    <rtept lat="52.205055" lon="4.669008"><ele>0.0</ele></rtept>
    <rtept lat="52.204362" lon="4.669186"><ele>0.0</ele></rtept>
    <rtept lat="52.204278" lon="4.669209"><ele>0.0</ele></rtept>
    <rtept lat="52.203573" lon="4.669420"><ele>0.0</ele></rtept>
    <rtept lat="52.203178" lon="4.669516"><ele>0.0</ele></rtept>
    <rtept lat="52.202872" lon="4.669560"><ele>0.0</ele></rtept>
    <rtept lat="52.202422" lon="4.669673"><ele>0.0</ele></rtept>
    <rtept lat="52.201920" lon="4.669820"><ele>0.0</ele></rtept>
    <rtept lat="52.201553" lon="4.669930"><ele>0.0</ele></rtept>
    <rtept lat="52.200651" lon="4.670133"><ele>0.0</ele></rtept>
    <rtept lat="52.200495" lon="4.670174"><ele>0.0</ele></rtept>
    <rtept lat="52.199983" lon="4.670312"><ele>0.0</ele></rtept>
    <rtept lat="52.199308" lon="4.670493"><ele>0.0</ele></rtept>
    <rtept lat="52.199184" lon="4.670526"><ele>0.0</ele></rtept>
    <rtept lat="52.198894" lon="4.670602"><ele>0.0</ele></rtept>
    <rtept lat="52.198133" lon="4.670802"><ele>0.0</ele></rtept>
    <rtept lat="52.197643" lon="4.670931"><ele>0.0</ele></rtept>
    <rtept lat="52.197347" lon="4.671021"><ele>0.0</ele></rtept>
    <rtept lat="52.197120" lon="4.671095"><ele>0.0</ele></rtept>
    <rtept lat="52.196681" lon="4.671224"><ele>0.0</ele></rtept>
    <rtept lat="52.195400" lon="4.671544"><ele>0.0</ele></rtept>
    <rtept lat="52.195366" lon="4.671551"><ele>0.0</ele></rtept>
    <rtept lat="52.195026" lon="4.671662"><ele>0.0</ele></rtept>
    <rtept lat="52.194300" lon="4.671900"><ele>0.0</ele></rtept>
    <rtept lat="52.193200" lon="4.672400"><ele>0.0</ele></rtept>
    <rtept lat="52.193087" lon="4.672457"><ele>0.0</ele></rtept>
    <rtept lat="52.192846" lon="4.672576"><ele>0.0</ele></rtept>
    <rtept lat="52.192591" lon="4.672708"><ele>0.0</ele></rtept>
    <rtept lat="52.192355" lon="4.672830"><ele>0.0</ele></rtept>
    <rtept lat="52.191430" lon="4.673285"><ele>0.0</ele></rtept>
    <rtept lat="52.191224" lon="4.673395"><ele>0.0</ele></rtept>
    <rtept lat="52.191034" lon="4.673478"><ele>0.0</ele></rtept>
    <rtept lat="52.190716" lon="4.673638"><ele>0.0</ele></rtept>
    <rtept lat="52.190397" lon="4.673810"><ele>0.0</ele></rtept>
    <rtept lat="52.190342" lon="4.673855"><ele>0.0</ele></rtept>
    <rtept lat="52.190285" lon="4.673902"><ele>0.0</ele></rtept>
    <rtept lat="52.190251" lon="4.673931"><ele>0.0</ele></rtept>
    <rtept lat="52.190207" lon="4.673959"><ele>0.0</ele></rtept>
    <rtept lat="52.190145" lon="4.673997"><ele>0.0</ele></rtept>
    <rtept lat="52.190092" lon="4.674030"><ele>0.0</ele></rtept>
    <rtept lat="52.189897" lon="4.674122"><ele>0.0</ele></rtept>
    <rtept lat="52.189707" lon="4.674137"><ele>0.0</ele></rtept>
    <rtept lat="52.189637" lon="4.673335"><ele>0.0</ele></rtept>
    <rtept lat="52.189350" lon="4.671305"><ele>0.0</ele></rtept>
    <rtept lat="52.189319" lon="4.670884"><ele>0.0</ele></rtept>
    <rtept lat="52.189308" lon="4.670736"><ele>0.0</ele></rtept>
    <rtept lat="52.189307" lon="4.669743"><ele>0.0</ele></rtept>
    <rtept lat="52.188975" lon="4.667700"><ele>0.0</ele></rtept>
    <rtept lat="52.188866" lon="4.667394"><ele>0.0</ele></rtept>
    <rtept lat="52.188261" lon="4.665762"><ele>0.0</ele></rtept>
    <rtept lat="52.188118" lon="4.665414"><ele>0.0</ele></rtept>
    <rtept lat="52.187932" lon="4.665072"><ele>0.0</ele></rtept>
    <rtept lat="52.186964" lon="4.663769"><ele>0.0</ele></rtept>
    <rtept lat="52.186852" lon="4.663535"><ele>0.0</ele></rtept>
    <rtept lat="52.186256" lon="4.661374"><ele>0.0</ele></rtept>
    <rtept lat="52.185909" lon="4.660165"><ele>0.0</ele></rtept>
    <rtept lat="52.185584" lon="4.659606"><ele>0.0</ele></rtept>
    <rtept lat="52.184169" lon="4.657414"><ele>0.0</ele></rtept>
    <rtept lat="52.183923" lon="4.656949"><ele>0.0</ele></rtept>
    <rtept lat="52.183703" lon="4.656470"><ele>0.0</ele></rtept>
    <rtept lat="52.183281" lon="4.655416"><ele>0.0</ele></rtept>
    <rtept lat="52.183113" lon="4.654849"><ele>0.0</ele></rtept>
    <rtept lat="52.183011" lon="4.654328"><ele>0.0</ele></rtept>
    <rtept lat="52.182968" lon="4.653747"><ele>0.0</ele></rtept>
    <rtept lat="52.182982" lon="4.653088"><ele>0.0</ele></rtept>
    <rtept lat="52.183073" lon="4.651393"><ele>0.0</ele></rtept>
    <rtept lat="52.182724" lon="4.649585"><ele>0.0</ele></rtept>
    <rtept lat="52.182320" lon="4.647675"><ele>0.0</ele></rtept>
    <rtept lat="52.182031" lon="4.646381"><ele>0.0</ele></rtept>
    <rtept lat="52.181744" lon="4.644952"><ele>0.0</ele></rtept>
    <rtept lat="52.180534" lon="4.638434"><ele>0.0</ele></rtept>
    <rtept lat="52.179945" lon="4.635307"><ele>0.0</ele></rtept>
    <rtept lat="52.179913" lon="4.635138"><ele>0.0</ele></rtept>
    <rtept lat="52.179819" lon="4.634614"><ele>0.0</ele></rtept>
    <rtept lat="52.179679" lon="4.634061"><ele>0.0</ele></rtept>
    <rtept lat="52.179565" lon="4.634146"><ele>0.0</ele></rtept>
    <rtept lat="52.179226" lon="4.634396"><ele>0.0</ele></rtept>
    <rtept lat="52.178917" lon="4.634553"><ele>0.0</ele></rtept>
    <rtept lat="52.178616" lon="4.634662"><ele>0.0</ele></rtept>
    <rtept lat="52.178398" lon="4.634721"><ele>0.0</ele></rtept>
    <rtept lat="52.177800" lon="4.634900"><ele>0.0</ele></rtept>
    <rtept lat="52.177489" lon="4.635061"><ele>0.0</ele></rtept>
    <rtept lat="52.177305" lon="4.635176"><ele>0.0</ele></rtept>
    <rtept lat="52.176923" lon="4.635518"><ele>0.0</ele></rtept>
    <rtept lat="52.176460" lon="4.635962"><ele>0.0</ele></rtept>
    <rtept lat="52.175899" lon="4.636518"><ele>0.0</ele></rtept>
    <rtept lat="52.175867" lon="4.636549"><ele>0.0</ele></rtept>
    <rtept lat="52.175454" lon="4.636948"><ele>0.0</ele></rtept>
    <rtept lat="52.175305" lon="4.637041"><ele>0.0</ele></rtept>
    <rtept lat="52.175015" lon="4.637154"><ele>0.0</ele></rtept>
    <rtept lat="52.174890" lon="4.637193"><ele>0.0</ele></rtept>
    <rtept lat="52.173912" lon="4.637508"><ele>0.0</ele></rtept>
    <rtept lat="52.173683" lon="4.637578"><ele>0.0</ele></rtept>
    <rtept lat="52.173431" lon="4.637652"><ele>0.0</ele></rtept>
    <rtept lat="52.172983" lon="4.637800"><ele>0.0</ele></rtept>
    <rtept lat="52.172648" lon="4.637933"><ele>0.0</ele></rtept>
    <rtept lat="52.172496" lon="4.637996"><ele>0.0</ele></rtept>
    <rtept lat="52.172365" lon="4.638050"><ele>0.0</ele></rtept>
    <rtept lat="52.172225" lon="4.638112"><ele>0.0</ele></rtept>
    <rtept lat="52.172078" lon="4.638175"><ele>0.0</ele></rtept>
    <rtept lat="52.171977" lon="4.638221"><ele>0.0</ele></rtept>
    <rtept lat="52.171778" lon="4.638304"><ele>0.0</ele></rtept>
    <rtept lat="52.171710" lon="4.638318"><ele>0.0</ele></rtept>
    <rtept lat="52.170892" lon="4.638665"><ele>0.0</ele></rtept>
    <rtept lat="52.170202" lon="4.638976"><ele>0.0</ele></rtept>
    <rtept lat="52.170147" lon="4.639001"><ele>0.0</ele></rtept>
    <rtept lat="52.169062" lon="4.639481"><ele>0.0</ele></rtept>
    <rtept lat="52.168848" lon="4.639582"><ele>0.0</ele></rtept>
    <rtept lat="52.168180" lon="4.639896"><ele>0.0</ele></rtept>
    <rtept lat="52.168146" lon="4.639912"><ele>0.0</ele></rtept>
    <rtept lat="52.167422" lon="4.640275"><ele>0.0</ele></rtept>
    <rtept lat="52.167485" lon="4.641149"><ele>0.0</ele></rtept>
    <rtept lat="52.167494" lon="4.641346"><ele>0.0</ele></rtept>
    <rtept lat="52.167519" lon="4.641758"><ele>0.0</ele></rtept>
    <rtept lat="52.167620" lon="4.642572"><ele>0.0</ele></rtept>
    <rtept lat="52.167651" lon="4.642840"><ele>0.0</ele></rtept>
    <rtept lat="52.167679" lon="4.643420"><ele>0.0</ele></rtept>
    <rtept lat="52.167678" lon="4.643718"><ele>0.0</ele></rtept>
    <rtept lat="52.168059" lon="4.662024"><ele>0.0</ele></rtept>
    <rtept lat="52.168135" lon="4.665225"><ele>0.0</ele></rtept>
    <rtept lat="52.168188" lon="4.665804"><ele>0.0</ele></rtept>
    <rtept lat="52.168205" lon="4.665996"><ele>0.0</ele></rtept>
    <rtept lat="52.168202" lon="4.666232"><ele>0.0</ele></rtept>
    <rtept lat="52.168175" lon="4.666537"><ele>0.0</ele></rtept>
    <rtept lat="52.168288" lon="4.666571"><ele>0.0</ele></rtept>
    <rtept lat="52.168221" lon="4.667447"><ele>0.0</ele></rtept>
    <rtept lat="52.168210" lon="4.667586"><ele>0.0</ele></rtept>
    <rtept lat="52.168163" lon="4.668121"><ele>0.0</ele></rtept>
    <rtept lat="52.168156" lon="4.668208"><ele>0.0</ele></rtept>
    <rtept lat="52.168103" lon="4.668866"><ele>0.0</ele></rtept>
    <rtept lat="52.168089" lon="4.669060"><ele>0.0</ele></rtept>
    <rtept lat="52.168166" lon="4.673242"><ele>0.0</ele></rtept>
    <rtept lat="52.168179" lon="4.673782"><ele>0.0</ele></rtept>
    <rtept lat="52.168204" lon="4.674905"><ele>0.0</ele></rtept>
    <rtept lat="52.168244" lon="4.676192"><ele>0.0</ele></rtept>
    <rtept lat="52.168269" lon="4.677329"><ele>0.0</ele></rtept>
    <rtept lat="52.168346" lon="4.681233"><ele>0.0</ele></rtept>
    <rtept lat="52.168353" lon="4.681448"><ele>0.0</ele></rtept>
    <rtept lat="52.168364" lon="4.681624"><ele>0.0</ele></rtept>
    <rtept lat="52.168424" lon="4.682525"><ele>0.0</ele></rtept>
    <rtept lat="52.168498" lon="4.685915"><ele>0.0</ele></rtept>
    <rtept lat="52.168574" lon="4.686334"><ele>0.0</ele></rtept>
    <rtept lat="52.168641" lon="4.686550"><ele>0.0</ele></rtept>
    <rtept lat="52.168839" lon="4.686861"><ele>0.0</ele></rtept>
    <rtept lat="52.170394" lon="4.688134"><ele>0.0</ele></rtept>
    <rtept lat="52.170683" lon="4.688306"><ele>0.0</ele></rtept>
    <rtept lat="52.172347" lon="4.688907"><ele>0.0</ele></rtept>
    <rtept lat="52.173179" lon="4.689244"><ele>0.0</ele></rtept>
    <rtept lat="52.175065" lon="4.689934"><ele>0.0</ele></rtept>
    <rtept lat="52.175370" lon="4.690137"><ele>0.0</ele></rtept>
    <rtept lat="52.175411" lon="4.690306"><ele>0.0</ele></rtept>
    <rtept lat="52.175430" lon="4.690413"><ele>0.0</ele></rtept>
    <rtept lat="52.175500" lon="4.690649"><ele>0.0</ele></rtept>
    <rtept lat="52.175534" lon="4.690600"><ele>0.0</ele></rtept>
    <rtept lat="52.175741" lon="4.690305"><ele>0.0</ele></rtept>
    <rtept lat="52.175830" lon="4.690276"><ele>0.0</ele></rtept>
    <rtept lat="52.177779" lon="4.691065"><ele>0.0</ele></rtept>
    <rtept lat="52.178555" lon="4.691399"><ele>0.0</ele></rtept>
    <rtept lat="52.178745" lon="4.691522"><ele>0.0</ele></rtept>
    <rtept lat="52.183400" lon="4.695255"><ele>0.0</ele></rtept>
    <rtept lat="52.183838" lon="4.695607"><ele>0.0</ele></rtept>
    <rtept lat="52.185082" lon="4.696647"><ele>0.0</ele></rtept>
    <rtept lat="52.186719" lon="4.697998"><ele>0.0</ele></rtept>
    <rtept lat="52.186962" lon="4.698218"><ele>0.0</ele></rtept>
    <rtept lat="52.187240" lon="4.698588"><ele>0.0</ele></rtept>
    <rtept lat="52.187351" lon="4.698588"><ele>0.0</ele></rtept>
    <rtept lat="52.187486" lon="4.698746"><ele>0.0</ele></rtept>
    <rtept lat="52.187640" lon="4.698918"><ele>0.0</ele></rtept>
    <rtept lat="52.188030" lon="4.699325"><ele>0.0</ele></rtept>
    <rtept lat="52.188181" lon="4.699493"><ele>0.0</ele></rtept>
    <rtept lat="52.188420" lon="4.699812"><ele>0.0</ele></rtept>
    <rtept lat="52.188610" lon="4.700106"><ele>0.0</ele></rtept>
    <rtept lat="52.189856" lon="4.702209"><ele>0.0</ele></rtept>
    <rtept lat="52.190058" lon="4.702605"><ele>0.0</ele></rtept>
    <rtept lat="52.190408" lon="4.703419"><ele>0.0</ele></rtept>
    <rtept lat="52.190605" lon="4.703878"><ele>0.0</ele></rtept>
    <rtept lat="52.190776" lon="4.704275"><ele>0.0</ele></rtept>
    <rtept lat="52.190982" lon="4.704805"><ele>0.0</ele></rtept>
    <rtept lat="52.191496" lon="4.705924"><ele>0.0</ele></rtept>
    <rtept lat="52.191776" lon="4.706573"><ele>0.0</ele></rtept>
    <rtept lat="52.192152" lon="4.707528"><ele>0.0</ele></rtept>
    <rtept lat="52.192532" lon="4.709164"><ele>0.0</ele></rtept>
    <rtept lat="52.192586" lon="4.709415"><ele>0.0</ele></rtept>
    <rtept lat="52.192715" lon="4.709982"><ele>0.0</ele></rtept>
    <rtept lat="52.192806" lon="4.710382"><ele>0.0</ele></rtept>
    <rtept lat="52.192847" lon="4.710564"><ele>0.0</ele></rtept>
    <rtept lat="52.193007" lon="4.711306"><ele>0.0</ele></rtept>
    <rtept lat="52.193050" lon="4.711501"><ele>0.0</ele></rtept>
    <rtept lat="52.193076" lon="4.711626"><ele>0.0</ele></rtept>
    <rtept lat="52.193086" lon="4.711684"><ele>0.0</ele></rtept>
    <rtept lat="52.193169" lon="4.712104"><ele>0.0</ele></rtept>
    <rtept lat="52.193243" lon="4.712432"><ele>0.0</ele></rtept>
    <rtept lat="52.193394" lon="4.713096"><ele>0.0</ele></rtept>
    <rtept lat="52.193482" lon="4.713486"><ele>0.0</ele></rtept>
    <rtept lat="52.193535" lon="4.713702"><ele>0.0</ele></rtept>
    <rtept lat="52.193843" lon="4.715081"><ele>0.0</ele></rtept>
    <rtept lat="52.193927" lon="4.715436"><ele>0.0</ele></rtept>
    <rtept lat="52.194099" lon="4.716168"><ele>0.0</ele></rtept>
    <rtept lat="52.194280" lon="4.716970"><ele>0.0</ele></rtept>
    <rtept lat="52.194400" lon="4.717500"><ele>0.0</ele></rtept>
    <rtept lat="52.194473" lon="4.717719"><ele>0.0</ele></rtept>
    <rtept lat="52.194500" lon="4.717800"><ele>0.0</ele></rtept>
    <rtept lat="52.194607" lon="4.717982"><ele>0.0</ele></rtept>
    <rtept lat="52.194970" lon="4.718356"><ele>0.0</ele></rtept>
    <rtept lat="52.195027" lon="4.718411"><ele>0.0</ele></rtept>
    <rtept lat="52.195500" lon="4.718878"><ele>0.0</ele></rtept>
    <rtept lat="52.195566" lon="4.718864"><ele>0.0</ele></rtept>
    <rtept lat="52.196817" lon="4.720108"><ele>0.0</ele></rtept>
    <rtept lat="52.198219" lon="4.721553"><ele>0.0</ele></rtept>
    <rtept lat="52.198819" lon="4.722068"><ele>0.0</ele></rtept>
    <rtept lat="52.199446" lon="4.722400"><ele>0.0</ele></rtept>
    <rtept lat="52.200179" lon="4.722611"><ele>0.0</ele></rtept>
    <rtept lat="52.200266" lon="4.722571"><ele>0.0</ele></rtept>
    <rtept lat="52.200421" lon="4.722329"><ele>0.0</ele></rtept>
    <rtept lat="52.201429" lon="4.720334"><ele>0.0</ele></rtept>
    <rtept lat="52.201477" lon="4.720400"><ele>0.0</ele></rtept>
    <rtept lat="52.201633" lon="4.720637"><ele>0.0</ele></rtept>
    <rtept lat="52.201700" lon="4.720704"><ele>0.0</ele></rtept>
    <rtept lat="52.206192" lon="4.721887"><ele>0.0</ele></rtept>
    <rtept lat="52.210461" lon="4.723090"><ele>0.0</ele></rtept>
    <rtept lat="52.211498" lon="4.723348"><ele>0.0</ele></rtept>
    <rtept lat="52.211540" lon="4.723373"><ele>0.0</ele></rtept>
    <rtept lat="52.211613" lon="4.723476"><ele>0.0</ele></rtept>
    <rtept lat="52.211729" lon="4.723580"><ele>0.0</ele></rtept>
    <rtept lat="52.212304" lon="4.723784"><ele>0.0</ele></rtept>
    <rtept lat="52.212369" lon="4.723808"><ele>0.0</ele></rtept>
    <rtept lat="52.212416" lon="4.723825"><ele>0.0</ele></rtept>
    <rtept lat="52.212376" lon="4.724103"><ele>0.0</ele></rtept>
    <rtept lat="52.212487" lon="4.724225"><ele>0.0</ele></rtept>
    <rtept lat="52.212820" lon="4.724467"><ele>0.0</ele></rtept>
    <rtept lat="52.212880" lon="4.724428"><ele>0.0</ele></rtept>
    <rtept lat="52.213249" lon="4.723801"><ele>0.0</ele></rtept>
    <rtept lat="52.213341" lon="4.723729"><ele>0.0</ele></rtept>
    <rtept lat="52.213414" lon="4.723705"><ele>0.0</ele></rtept>
    <rtept lat="52.213498" lon="4.723712"><ele>0.0</ele></rtept>
    <rtept lat="52.214078" lon="4.723907"><ele>0.0</ele></rtept>
    <rtept lat="52.214306" lon="4.723940"><ele>0.0</ele></rtept>
    <rtept lat="52.214438" lon="4.723865"><ele>0.0</ele></rtept>
    <rtept lat="52.214612" lon="4.723540"><ele>0.0</ele></rtept>
    <rtept lat="52.214714" lon="4.723441"><ele>0.0</ele></rtept>
    <rtept lat="52.215373" lon="4.723088"><ele>0.0</ele></rtept>
    <rtept lat="52.215570" lon="4.723039"><ele>0.0</ele></rtept>
    <rtept lat="52.215796" lon="4.723079"><ele>0.0</ele></rtept>
    <rtept lat="52.216306" lon="4.723242"><ele>0.0</ele></rtept>
    <rtept lat="52.216418" lon="4.723306"><ele>0.0</ele></rtept>
    <rtept lat="52.216490" lon="4.723400"><ele>0.0</ele></rtept>
    <rtept lat="52.218330" lon="4.727170"><ele>0.0</ele></rtept>
    <rtept lat="52.221531" lon="4.733588"><ele>0.0</ele></rtept>
    <rtept lat="52.222855" lon="4.736285"><ele>0.0</ele></rtept>
    <rtept lat="52.222945" lon="4.736323"><ele>0.0</ele></rtept>
    <rtept lat="52.223091" lon="4.736346"><ele>0.0</ele></rtept>
    <rtept lat="52.223133" lon="4.736405"><ele>0.0</ele></rtept>
    <rtept lat="52.223182" lon="4.736491"><ele>0.0</ele></rtept>
    <rtept lat="52.223232" lon="4.736577"><ele>0.0</ele></rtept>
    <rtept lat="52.223203" lon="4.736686"><ele>0.0</ele></rtept>
    <rtept lat="52.223211" lon="4.736828"><ele>0.0</ele></rtept>
    <rtept lat="52.223235" lon="4.736896"><ele>0.0</ele></rtept>
    <rtept lat="52.225582" lon="4.741636"><ele>0.0</ele></rtept>
    <rtept lat="52.227526" lon="4.745545"><ele>0.0</ele></rtept>
    <rtept lat="52.228362" lon="4.747271"><ele>0.0</ele></rtept>
    <rtept lat="52.228445" lon="4.747291"><ele>0.0</ele></rtept>
    <rtept lat="52.228508" lon="4.747408"><ele>0.0</ele></rtept>
    <rtept lat="52.228580" lon="4.747545"><ele>0.0</ele></rtept>
    <rtept lat="52.228562" lon="4.747619"><ele>0.0</ele></rtept>
    <rtept lat="52.228572" lon="4.747691"><ele>0.0</ele></rtept>
    <rtept lat="52.229244" lon="4.749062"><ele>0.0</ele></rtept>
    <rtept lat="52.230554" lon="4.751711"><ele>0.0</ele></rtept>
    <rtept lat="52.230708" lon="4.751968"><ele>0.0</ele></rtept>
    <rtept lat="52.230900" lon="4.752313"><ele>0.0</ele></rtept>
    <rtept lat="52.230986" lon="4.752465"><ele>0.0</ele></rtept>
    <rtept lat="52.231297" lon="4.752061"><ele>0.0</ele></rtept>
    <rtept lat="52.231529" lon="4.751759"><ele>0.0</ele></rtept>
    <rtept lat="52.231824" lon="4.751364"><ele>0.0</ele></rtept>
    <rtept lat="52.231878" lon="4.751292"><ele>0.0</ele></rtept>
    <rtept lat="52.231914" lon="4.751245"><ele>0.0</ele></rtept>
    <rtept lat="52.231934" lon="4.751218"><ele>0.0</ele></rtept>
    <rtept lat="52.232028" lon="4.751095"><ele>0.0</ele></rtept>
    <rtept lat="52.232315" lon="4.750715"><ele>0.0</ele></rtept>
    <rtept lat="52.232356" lon="4.750697"><ele>0.0</ele></rtept>
    <rtept lat="52.232374" lon="4.750674"><ele>0.0</ele></rtept>
    <rtept lat="52.232641" lon="4.750317"><ele>0.0</ele></rtept>
    <rtept lat="52.232659" lon="4.750294"><ele>0.0</ele></rtept>
    <rtept lat="52.232940" lon="4.749944"><ele>0.0</ele></rtept>
    <rtept lat="52.233164" lon="4.749648"><ele>0.0</ele></rtept>
    <rtept lat="52.233406" lon="4.749328"><ele>0.0</ele></rtept>
    <rtept lat="52.233506" lon="4.749197"><ele>0.0</ele></rtept>
    <rtept lat="52.233527" lon="4.749157"><ele>0.0</ele></rtept>
    <rtept lat="52.233557" lon="4.749105"><ele>0.0</ele></rtept>
    <rtept lat="52.233598" lon="4.749054"><ele>0.0</ele></rtept>
    <rtept lat="52.233648" lon="4.748991"><ele>0.0</ele></rtept>
    <rtept lat="52.233691" lon="4.748938"><ele>0.0</ele></rtept>
    <rtept lat="52.233916" lon="4.748643"><ele>0.0</ele></rtept>
    <rtept lat="52.234034" lon="4.748528"><ele>0.0</ele></rtept>
    <rtept lat="52.234139" lon="4.748309"><ele>0.0</ele></rtept>
    <rtept lat="52.234238" lon="4.748011"><ele>0.0</ele></rtept>
    <rtept lat="52.234348" lon="4.747667"><ele>0.0</ele></rtept>
    <rtept lat="52.234717" lon="4.747869"><ele>0.0</ele></rtept>
    <rtept lat="52.234759" lon="4.747900"><ele>0.0</ele></rtept>
    <rtept lat="52.234854" lon="4.747978"><ele>0.0</ele></rtept>
    <rtept lat="52.234949" lon="4.748042"><ele>0.0</ele></rtept>
    <rtept lat="52.235318" lon="4.748314"><ele>0.0</ele></rtept>
    <rtept lat="52.235406" lon="4.748375"><ele>0.0</ele></rtept>
    <rtept lat="52.235674" lon="4.748564"><ele>0.0</ele></rtept>
    <rtept lat="52.235798" lon="4.748649"><ele>0.0</ele></rtept>
    <rtept lat="52.236162" lon="4.748861"><ele>0.0</ele></rtept>
    <rtept lat="52.236585" lon="4.749143"><ele>0.0</ele></rtept>
    <rtept lat="52.236727" lon="4.749240"><ele>0.0</ele></rtept>
    <rtept lat="52.236966" lon="4.749404"><ele>0.0</ele></rtept>
    <rtept lat="52.237196" lon="4.749566"><ele>0.0</ele></rtept>
    <rtept lat="52.237631" lon="4.749876"><ele>0.0</ele></rtept>
    <rtept lat="52.237676" lon="4.749910"><ele>0.0</ele></rtept>
    <rtept lat="52.237816" lon="4.750034"><ele>0.0</ele></rtept>
    <rtept lat="52.238008" lon="4.750163"><ele>0.0</ele></rtept>
    <rtept lat="52.238579" lon="4.750549"><ele>0.0</ele></rtept>
    <rtept lat="52.238694" lon="4.750631"><ele>0.0</ele></rtept>
    <rtept lat="52.238696" lon="4.750760"><ele>0.0</ele></rtept>
    <rtept lat="52.238746" lon="4.750848"><ele>0.0</ele></rtept>
    <rtept lat="52.238817" lon="4.750888"><ele>0.0</ele></rtept>
    <rtept lat="52.238886" lon="4.750919"><ele>0.0</ele></rtept>
    <rtept lat="52.239219" lon="4.751004"><ele>0.0</ele></rtept>
    <rtept lat="52.239414" lon="4.750994"><ele>0.0</ele></rtept>
    <rtept lat="52.239465" lon="4.751012"><ele>0.0</ele></rtept>
    <rtept lat="52.239574" lon="4.751051"><ele>0.0</ele></rtept>
    <rtept lat="52.239839" lon="4.751226"><ele>0.0</ele></rtept>
    <rtept lat="52.240047" lon="4.751406"><ele>0.0</ele></rtept>
    <rtept lat="52.240237" lon="4.751572"><ele>0.0</ele></rtept>
    <rtept lat="52.240468" lon="4.751807"><ele>0.0</ele></rtept>
    <rtept lat="52.240606" lon="4.751944"><ele>0.0</ele></rtept>
    <rtept lat="52.240795" lon="4.752117"><ele>0.0</ele></rtept>
    <rtept lat="52.240832" lon="4.752150"><ele>0.0</ele></rtept>
    <rtept lat="52.241201" lon="4.752427"><ele>0.0</ele></rtept>
    <rtept lat="52.242193" lon="4.753073"><ele>0.0</ele></rtept>
    <rtept lat="52.246699" lon="4.756222"><ele>0.0</ele></rtept>
    <rtept lat="52.246829" lon="4.756349"><ele>0.0</ele></rtept>
    <rtept lat="52.246891" lon="4.756441"><ele>0.0</ele></rtept>
    <rtept lat="52.246955" lon="4.756661"><ele>0.0</ele></rtept>
    <rtept lat="52.246961" lon="4.757069"><ele>0.0</ele></rtept>
    <rtept lat="52.246919" lon="4.757660"><ele>0.0</ele></rtept>
    <rtept lat="52.246918" lon="4.757884"><ele>0.0</ele></rtept>
    <rtept lat="52.246948" lon="4.758233"><ele>0.0</ele></rtept>
    <rtept lat="52.246993" lon="4.758405"><ele>0.0</ele></rtept>
    <rtept lat="52.247144" lon="4.758714"><ele>0.0</ele></rtept>
    <rtept lat="52.247332" lon="4.758925"><ele>0.0</ele></rtept>
    <rtept lat="52.247555" lon="4.759090"><ele>0.0</ele></rtept>
    <rtept lat="52.247692" lon="4.759143"><ele>0.0</ele></rtept>
    <rtept lat="52.247784" lon="4.759135"><ele>0.0</ele></rtept>
    <rtept lat="52.247883" lon="4.759066"><ele>0.0</ele></rtept>
    <rtept lat="52.247982" lon="4.758925"><ele>0.0</ele></rtept>
    <rtept lat="52.248400" lon="4.758156"><ele>0.0</ele></rtept>
    <rtept lat="52.248552" lon="4.757963"><ele>0.0</ele></rtept>
    <rtept lat="52.248691" lon="4.757743"><ele>0.0</ele></rtept>
    <rtept lat="52.248750" lon="4.757669"><ele>0.0</ele></rtept>
    <rtept lat="52.248784" lon="4.757681"><ele>0.0</ele></rtept>
    <rtept lat="52.248936" lon="4.757793"><ele>0.0</ele></rtept>
    <rtept lat="52.249073" lon="4.757824"><ele>0.0</ele></rtept>
    <rtept lat="52.249262" lon="4.757950"><ele>0.0</ele></rtept>
    <rtept lat="52.249329" lon="4.757997"><ele>0.0</ele></rtept>
    <rtept lat="52.249494" lon="4.758115"><ele>0.0</ele></rtept>
    <rtept lat="52.249656" lon="4.758234"><ele>0.0</ele></rtept>
    <rtept lat="52.249862" lon="4.758376"><ele>0.0</ele></rtept>
    <rtept lat="52.250541" lon="4.758852"><ele>0.0</ele></rtept>
    <rtept lat="52.250815" lon="4.759043"><ele>0.0</ele></rtept>
    <rtept lat="52.250892" lon="4.759244"><ele>0.0</ele></rtept>
    <rtept lat="52.250915" lon="4.759293"><ele>0.0</ele></rtept>
    <rtept lat="52.250970" lon="4.759325"><ele>0.0</ele></rtept>
    <rtept lat="52.251093" lon="4.759388"><ele>0.0</ele></rtept>
    <rtept lat="52.251200" lon="4.759091"><ele>0.0</ele></rtept>
    <rtept lat="52.251254" lon="4.758995"><ele>0.0</ele></rtept>
    <rtept lat="52.251324" lon="4.758922"><ele>0.0</ele></rtept>
    <rtept lat="52.251422" lon="4.758872"><ele>0.0</ele></rtept>
    <rtept lat="52.252209" lon="4.758701"><ele>0.0</ele></rtept>
    <rtept lat="52.252331" lon="4.758696"><ele>0.0</ele></rtept>
    <rtept lat="52.252712" lon="4.758645"><ele>0.0</ele></rtept>
    <rtept lat="52.252848" lon="4.758607"><ele>0.0</ele></rtept>
    <rtept lat="52.252924" lon="4.758538"><ele>0.0</ele></rtept>
    <rtept lat="52.252984" lon="4.758521"><ele>0.0</ele></rtept>
    <rtept lat="52.254458" lon="4.758202"><ele>0.0</ele></rtept>
    <rtept lat="52.255208" lon="4.758029"><ele>0.0</ele></rtept>
    <rtept lat="52.256448" lon="4.757728"><ele>0.0</ele></rtept>
    <rtept lat="52.256819" lon="4.757642"><ele>0.0</ele></rtept>
    <rtept lat="52.256930" lon="4.757596"><ele>0.0</ele></rtept>
    <rtept lat="52.257063" lon="4.757506"><ele>0.0</ele></rtept>
    <rtept lat="52.257238" lon="4.757459"><ele>0.0</ele></rtept>
    <rtept lat="52.257846" lon="4.757346"><ele>0.0</ele></rtept>
    <rtept lat="52.258116" lon="4.757140"><ele>0.0</ele></rtept>
    <rtept lat="52.258416" lon="4.756854"><ele>0.0</ele></rtept>
    <rtept lat="52.259693" lon="4.755690"><ele>0.0</ele></rtept>
    <rtept lat="52.259772" lon="4.755602"><ele>0.0</ele></rtept>
    <rtept lat="52.259876" lon="4.755485"><ele>0.0</ele></rtept>
    <rtept lat="52.259960" lon="4.755390"><ele>0.0</ele></rtept>
    <rtept lat="52.260220" lon="4.755120"><ele>0.0</ele></rtept>
    <rtept lat="52.260946" lon="4.754480"><ele>0.0</ele></rtept>
    <rtept lat="52.261560" lon="4.753898"><ele>0.0</ele></rtept>
    <rtept lat="52.261869" lon="4.753619"><ele>0.0</ele></rtept>
    <rtept lat="52.262825" lon="4.752726"><ele>0.0</ele></rtept>
    <rtept lat="52.262894" lon="4.752660"><ele>0.0</ele></rtept>
    <rtept lat="52.263278" lon="4.752291"><ele>0.0</ele></rtept>
    <rtept lat="52.263472" lon="4.752106"><ele>0.0</ele></rtept>
    <rtept lat="52.263602" lon="4.751982"><ele>0.0</ele></rtept>
    <rtept lat="52.263714" lon="4.751876"><ele>0.0</ele></rtept>
    <rtept lat="52.263836" lon="4.751761"><ele>0.0</ele></rtept>
    <rtept lat="52.264016" lon="4.751590"><ele>0.0</ele></rtept>
    <rtept lat="52.264162" lon="4.751450"><ele>0.0</ele></rtept>
    <rtept lat="52.264629" lon="4.750987"><ele>0.0</ele></rtept>
    <rtept lat="52.264674" lon="4.750934"><ele>0.0</ele></rtept>
    <rtept lat="52.264708" lon="4.750898"><ele>0.0</ele></rtept>
    <rtept lat="52.264763" lon="4.750840"><ele>0.0</ele></rtept>
    <rtept lat="52.264817" lon="4.750776"><ele>0.0</ele></rtept>
    <rtept lat="52.264940" lon="4.750648"><ele>0.0</ele></rtept>
    <rtept lat="52.265342" lon="4.750276"><ele>0.0</ele></rtept>
    <rtept lat="52.265503" lon="4.750130"><ele>0.0</ele></rtept>
    <rtept lat="52.265693" lon="4.749959"><ele>0.0</ele></rtept>
    <rtept lat="52.266263" lon="4.749403"><ele>0.0</ele></rtept>
    <rtept lat="52.266355" lon="4.749321"><ele>0.0</ele></rtept>
    <rtept lat="52.266513" lon="4.749181"><ele>0.0</ele></rtept>
    <rtept lat="52.266562" lon="4.749142"><ele>0.0</ele></rtept>
    <rtept lat="52.266642" lon="4.749078"><ele>0.0</ele></rtept>
    <rtept lat="52.266740" lon="4.748997"><ele>0.0</ele></rtept>
    <rtept lat="52.266865" lon="4.748888"><ele>0.0</ele></rtept>
    <rtept lat="52.266921" lon="4.748897"><ele>0.0</ele></rtept>
    <rtept lat="52.267033" lon="4.749145"><ele>0.0</ele></rtept>
    <rtept lat="52.267142" lon="4.749417"><ele>0.0</ele></rtept>
    <rtept lat="52.267308" lon="4.749820"><ele>0.0</ele></rtept>
    <rtept lat="52.267335" lon="4.749884"><ele>0.0</ele></rtept>
    <rtept lat="52.267538" lon="4.750315"><ele>0.0</ele></rtept>
    <rtept lat="52.267620" lon="4.750500"><ele>0.0</ele></rtept>
    <rtept lat="52.267821" lon="4.750958"><ele>0.0</ele></rtept>
    <rtept lat="52.267886" lon="4.751116"><ele>0.0</ele></rtept>
    <rtept lat="52.268034" lon="4.751447"><ele>0.0</ele></rtept>
    <rtept lat="52.268114" lon="4.751637"><ele>0.0</ele></rtept>
    <rtept lat="52.268130" lon="4.751676"><ele>0.0</ele></rtept>
    <rtept lat="52.268171" lon="4.751813"><ele>0.0</ele></rtept>
    <rtept lat="52.268182" lon="4.751912"><ele>0.0</ele></rtept>
    <rtept lat="52.268209" lon="4.752020"><ele>0.0</ele></rtept>
    <rtept lat="52.268543" lon="4.752880"><ele>0.0</ele></rtept>
    <rtept lat="52.268551" lon="4.752901"><ele>0.0</ele></rtept>
    <rtept lat="52.268639" lon="4.753130"><ele>0.0</ele></rtept>
    <rtept lat="52.268904" lon="4.753744"><ele>0.0</ele></rtept>
    <rtept lat="52.269043" lon="4.754140"><ele>0.0</ele></rtept>
    <rtept lat="52.269070" lon="4.754280"><ele>0.0</ele></rtept>
    <rtept lat="52.269066" lon="4.754401"><ele>0.0</ele></rtept>
    <rtept lat="52.269076" lon="4.754454"><ele>0.0</ele></rtept>
    <rtept lat="52.269131" lon="4.754632"><ele>0.0</ele></rtept>
    <rtept lat="52.269148" lon="4.754681"><ele>0.0</ele></rtept>
    <rtept lat="52.269182" lon="4.754763"><ele>0.0</ele></rtept>
    <rtept lat="52.269267" lon="4.754815"><ele>0.0</ele></rtept>
    <rtept lat="52.269314" lon="4.754822"><ele>0.0</ele></rtept>
    <rtept lat="52.269378" lon="4.754806"><ele>0.0</ele></rtept>
    <rtept lat="52.269418" lon="4.754775"><ele>0.0</ele></rtept>
    <rtept lat="52.269481" lon="4.754674"><ele>0.0</ele></rtept>
    <rtept lat="52.269523" lon="4.754505"><ele>0.0</ele></rtept>
    <rtept lat="52.269737" lon="4.754384"><ele>0.0</ele></rtept>
    <rtept lat="52.270060" lon="4.754152"><ele>0.0</ele></rtept>
    <rtept lat="52.271725" lon="4.752562"><ele>0.0</ele></rtept>
    <rtept lat="52.271761" lon="4.752527"><ele>0.0</ele></rtept>
    <rtept lat="52.271823" lon="4.752468"><ele>0.0</ele></rtept>
    <rtept lat="52.271895" lon="4.752388"><ele>0.0</ele></rtept>
    <rtept lat="52.272029" lon="4.752321"><ele>0.0</ele></rtept>
    <rtept lat="52.272186" lon="4.752133"><ele>0.0</ele></rtept>
    <rtept lat="52.272438" lon="4.751925"><ele>0.0</ele></rtept>
    <rtept lat="52.272657" lon="4.751779"><ele>0.0</ele></rtept>
    <rtept lat="52.273534" lon="4.751345"><ele>0.0</ele></rtept>
    <rtept lat="52.273881" lon="4.751165"><ele>0.0</ele></rtept>
    <rtept lat="52.273976" lon="4.751132"><ele>0.0</ele></rtept>
    <rtept lat="52.274048" lon="4.751137"><ele>0.0</ele></rtept>
    <rtept lat="52.274121" lon="4.751126"><ele>0.0</ele></rtept>
    <rtept lat="52.274185" lon="4.751079"><ele>0.0</ele></rtept>
    <rtept lat="52.274270" lon="4.750944"><ele>0.0</ele></rtept>
    <rtept lat="52.274305" lon="4.750811"><ele>0.0</ele></rtept>
    <rtept lat="52.274335" lon="4.750577"><ele>0.0</ele></rtept>
    <rtept lat="52.274364" lon="4.750508"><ele>0.0</ele></rtept>
    <rtept lat="52.275535" lon="4.748404"><ele>0.0</ele></rtept>
    <rtept lat="52.276348" lon="4.747039"><ele>0.0</ele></rtept>
    <rtept lat="52.276509" lon="4.746841"><ele>0.0</ele></rtept>
    <rtept lat="52.276556" lon="4.746780"><ele>0.0</ele></rtept>
    <rtept lat="52.276676" lon="4.746602"><ele>0.0</ele></rtept>
    <rtept lat="52.276843" lon="4.746299"><ele>0.0</ele></rtept>
    <rtept lat="52.277036" lon="4.745943"><ele>0.0</ele></rtept>
    <rtept lat="52.277260" lon="4.745527"><ele>0.0</ele></rtept>
    <rtept lat="52.277619" lon="4.744857"><ele>0.0</ele></rtept>
    <rtept lat="52.277771" lon="4.744680"><ele>0.0</ele></rtept>
    <rtept lat="52.277933" lon="4.744379"><ele>0.0</ele></rtept>
    <rtept lat="52.278028" lon="4.744202"><ele>0.0</ele></rtept>
    <rtept lat="52.278042" lon="4.744076"><ele>0.0</ele></rtept>
    <rtept lat="52.278561" lon="4.743122"><ele>0.0</ele></rtept>
    <rtept lat="52.281266" lon="4.738104"><ele>0.0</ele></rtept>
    <rtept lat="52.281238" lon="4.738065"><ele>0.0</ele></rtept>
    <rtept lat="52.281559" lon="4.737437"><ele>0.0</ele></rtept>
    <rtept lat="52.281640" lon="4.737214"><ele>0.0</ele></rtept>
    <rtept lat="52.281897" lon="4.736707"><ele>0.0</ele></rtept>
    <rtept lat="52.283443" lon="4.733841"><ele>0.0</ele></rtept>
    <rtept lat="52.283672" lon="4.733418"><ele>0.0</ele></rtept>
    <rtept lat="52.283860" lon="4.733388"><ele>0.0</ele></rtept>
    <rtept lat="52.283928" lon="4.733340"><ele>0.0</ele></rtept>
    <rtept lat="52.283936" lon="4.733131"><ele>0.0</ele></rtept>
    <rtept lat="52.283993" lon="4.732820"><ele>0.0</ele></rtept>
    <rtept lat="52.284022" lon="4.732762"><ele>0.0</ele></rtept>
    <rtept lat="52.284128" lon="4.732565"><ele>0.0</ele></rtept>
    <rtept lat="52.284329" lon="4.732194"><ele>0.0</ele></rtept>
    <rtept lat="52.284371" lon="4.732116"><ele>0.0</ele></rtept>
    <rtept lat="52.284453" lon="4.731964"><ele>0.0</ele></rtept>
    <rtept lat="52.284543" lon="4.731797"><ele>0.0</ele></rtept>
    <rtept lat="52.284756" lon="4.731399"><ele>0.0</ele></rtept>
    <rtept lat="52.284970" lon="4.731006"><ele>0.0</ele></rtept>
    <rtept lat="52.286171" lon="4.728794"><ele>0.0</ele></rtept>
    <rtept lat="52.286672" lon="4.727900"><ele>0.0</ele></rtept>
    <rtept lat="52.286792" lon="4.727693"><ele>0.0</ele></rtept>
    <rtept lat="52.287097" lon="4.727222"><ele>0.0</ele></rtept>
    <rtept lat="52.287224" lon="4.727208"><ele>0.0</ele></rtept>
    <rtept lat="52.287225" lon="4.727090"><ele>0.0</ele></rtept>
    <rtept lat="52.287229" lon="4.726998"><ele>0.0</ele></rtept>
    <rtept lat="52.287329" lon="4.726830"><ele>0.0</ele></rtept>
    <rtept lat="52.287634" lon="4.726329"><ele>0.0</ele></rtept>
    <rtept lat="52.288123" lon="4.725426"><ele>0.0</ele></rtept>
    <rtept lat="52.288201" lon="4.725232"><ele>0.0</ele></rtept>
    <rtept lat="52.288384" lon="4.724839"><ele>0.0</ele></rtept>
    <rtept lat="52.288465" lon="4.724677"><ele>0.0</ele></rtept>
    <rtept lat="52.288789" lon="4.724017"><ele>0.0</ele></rtept>
    <rtept lat="52.288940" lon="4.723750"><ele>0.0</ele></rtept>
    <rtept lat="52.288994" lon="4.723651"><ele>0.0</ele></rtept>
    <rtept lat="52.289075" lon="4.723509"><ele>0.0</ele></rtept>
    <rtept lat="52.289156" lon="4.723289"><ele>0.0</ele></rtept>
    <rtept lat="52.289485" lon="4.722645"><ele>0.0</ele></rtept>
    <rtept lat="52.289836" lon="4.721980"><ele>0.0</ele></rtept>
    <rtept lat="52.290044" lon="4.721592"><ele>0.0</ele></rtept>
    <rtept lat="52.290173" lon="4.721356"><ele>0.0</ele></rtept>
    <rtept lat="52.290426" lon="4.720899"><ele>0.0</ele></rtept>
    <rtept lat="52.290520" lon="4.720725"><ele>0.0</ele></rtept>
    <rtept lat="52.291047" lon="4.719743"><ele>0.0</ele></rtept>
    <rtept lat="52.291380" lon="4.719127"><ele>0.0</ele></rtept>
    <rtept lat="52.291566" lon="4.718786"><ele>0.0</ele></rtept>
    <rtept lat="52.291656" lon="4.718621"><ele>0.0</ele></rtept>
    <rtept lat="52.292099" lon="4.717796"><ele>0.0</ele></rtept>
    <rtept lat="52.292417" lon="4.717209"><ele>0.0</ele></rtept>
    <rtept lat="52.292605" lon="4.716867"><ele>0.0</ele></rtept>
    <rtept lat="52.292826" lon="4.716465"><ele>0.0</ele></rtept>
    <rtept lat="52.292955" lon="4.716312"><ele>0.0</ele></rtept>
    <rtept lat="52.293244" lon="4.715786"><ele>0.0</ele></rtept>
    <rtept lat="52.293402" lon="4.715662"><ele>0.0</ele></rtept>
    <rtept lat="52.293469" lon="4.715536"><ele>0.0</ele></rtept>
    <rtept lat="52.293639" lon="4.715219"><ele>0.0</ele></rtept>
    <rtept lat="52.293673" lon="4.715136"><ele>0.0</ele></rtept>
    <rtept lat="52.293705" lon="4.714877"><ele>0.0</ele></rtept>
    <rtept lat="52.293837" lon="4.714619"><ele>0.0</ele></rtept>
    <rtept lat="52.294881" lon="4.712698"><ele>0.0</ele></rtept>
    <rtept lat="52.295762" lon="4.711083"><ele>0.0</ele></rtept>
    <rtept lat="52.296139" lon="4.710463"><ele>0.0</ele></rtept>
    <rtept lat="52.296297" lon="4.710278"><ele>0.0</ele></rtept>
    <rtept lat="52.296460" lon="4.710123"><ele>0.0</ele></rtept>
    <rtept lat="52.296551" lon="4.710091"><ele>0.0</ele></rtept>
    <rtept lat="52.296654" lon="4.710087"><ele>0.0</ele></rtept>
    <rtept lat="52.297037" lon="4.710201"><ele>0.0</ele></rtept>
    <rtept lat="52.297091" lon="4.710203"><ele>0.0</ele></rtept>
    <rtept lat="52.297202" lon="4.710158"><ele>0.0</ele></rtept>
    <rtept lat="52.297263" lon="4.710104"><ele>0.0</ele></rtept>
    <rtept lat="52.297362" lon="4.709942"><ele>0.0</ele></rtept>
    <rtept lat="52.297410" lon="4.709761"><ele>0.0</ele></rtept>
    <rtept lat="52.297419" lon="4.709565"><ele>0.0</ele></rtept>
    <rtept lat="52.297375" lon="4.708946"><ele>0.0</ele></rtept>
    <rtept lat="52.297164" lon="4.707757"><ele>0.0</ele></rtept>
    <rtept lat="52.297777" lon="4.707277"><ele>0.0</ele></rtept>
    <rtept lat="52.298031" lon="4.706992"><ele>0.0</ele></rtept>
    <rtept lat="52.298083" lon="4.706901"><ele>0.0</ele></rtept>
    <rtept lat="52.298791" lon="4.705578"><ele>0.0</ele></rtept>
    <rtept lat="52.298954" lon="4.705293"><ele>0.0</ele></rtept>
    <rtept lat="52.299405" lon="4.704427"><ele>0.0</ele></rtept>
    <rtept lat="52.299430" lon="4.704320"><ele>0.0</ele></rtept>
    <rtept lat="52.299463" lon="4.704216"><ele>0.0</ele></rtept>
    <rtept lat="52.299529" lon="4.704082"><ele>0.0</ele></rtept>
    <rtept lat="52.299548" lon="4.704034"><ele>0.0</ele></rtept>
    <rtept lat="52.299855" lon="4.703466"><ele>0.0</ele></rtept>
    <rtept lat="52.300140" lon="4.703023"><ele>0.0</ele></rtept>
    <rtept lat="52.300212" lon="4.702901"><ele>0.0</ele></rtept>
    <rtept lat="52.300305" lon="4.702754"><ele>0.0</ele></rtept>
    <rtept lat="52.300393" lon="4.702583"><ele>0.0</ele></rtept>
    <rtept lat="52.300679" lon="4.702034"><ele>0.0</ele></rtept>
    <rtept lat="52.301287" lon="4.700918"><ele>0.0</ele></rtept>
    <rtept lat="52.301613" lon="4.700321"><ele>0.0</ele></rtept>
    <rtept lat="52.301556" lon="4.700242"><ele>0.0</ele></rtept>
    <rtept lat="52.301619" lon="4.700155"><ele>0.0</ele></rtept>
    <rtept lat="52.301641" lon="4.700076"><ele>0.0</ele></rtept>
    <rtept lat="52.301671" lon="4.700027"><ele>0.0</ele></rtept>
    <rtept lat="52.301767" lon="4.699847"><ele>0.0</ele></rtept>
    <rtept lat="52.301860" lon="4.699673"><ele>0.0</ele></rtept>
    <rtept lat="52.301880" lon="4.699636"><ele>0.0</ele></rtept>
    <rtept lat="52.302033" lon="4.699353"><ele>0.0</ele></rtept>
    <rtept lat="52.302383" lon="4.698705"><ele>0.0</ele></rtept>
    <rtept lat="52.302468" lon="4.698542"><ele>0.0</ele></rtept>
    <rtept lat="52.302527" lon="4.698623"><ele>0.0</ele></rtept>
    <rtept lat="52.303101" lon="4.697556"><ele>0.0</ele></rtept>
    <rtept lat="52.303134" lon="4.697491"><ele>0.0</ele></rtept>
    <rtept lat="52.303239" lon="4.697326"><ele>0.0</ele></rtept>
    <rtept lat="52.303564" lon="4.696707"><ele>0.0</ele></rtept>
    <rtept lat="52.303716" lon="4.696438"><ele>0.0</ele></rtept>
    <rtept lat="52.303926" lon="4.696029"><ele>0.0</ele></rtept>
    <rtept lat="52.304705" lon="4.694612"><ele>0.0</ele></rtept>
    <rtept lat="52.305240" lon="4.693619"><ele>0.0</ele></rtept>
    <rtept lat="52.305505" lon="4.693122"><ele>0.0</ele></rtept>
    <rtept lat="52.305519" lon="4.693059"><ele>0.0</ele></rtept>
    <rtept lat="52.305589" lon="4.693036"><ele>0.0</ele></rtept>
    <rtept lat="52.305638" lon="4.693003"><ele>0.0</ele></rtept>
    <rtept lat="52.305709" lon="4.692912"><ele>0.0</ele></rtept>
    <rtept lat="52.305744" lon="4.692831"><ele>0.0</ele></rtept>
    <rtept lat="52.305769" lon="4.692690"><ele>0.0</ele></rtept>
    <rtept lat="52.305844" lon="4.692685"><ele>0.0</ele></rtept>
    <rtept lat="52.305843" lon="4.692610"><ele>0.0</ele></rtept>
    <rtept lat="52.305868" lon="4.692513"><ele>0.0</ele></rtept>
    <rtept lat="52.305991" lon="4.692274"><ele>0.0</ele></rtept>
    <rtept lat="52.306069" lon="4.692137"><ele>0.0</ele></rtept>
    <rtept lat="52.306188" lon="4.691911"><ele>0.0</ele></rtept>
    <rtept lat="52.306661" lon="4.691029"><ele>0.0</ele></rtept>
    <rtept lat="52.307353" lon="4.689737"><ele>0.0</ele></rtept>
    <rtept lat="52.307617" lon="4.689253"><ele>0.0</ele></rtept>
    <rtept lat="52.307707" lon="4.689086"><ele>0.0</ele></rtept>
    <rtept lat="52.308431" lon="4.687746"><ele>0.0</ele></rtept>
    <rtept lat="52.308510" lon="4.687595"><ele>0.0</ele></rtept>
    <rtept lat="52.308533" lon="4.687541"><ele>0.0</ele></rtept>
    <rtept lat="52.308604" lon="4.687407"><ele>0.0</ele></rtept>
    <rtept lat="52.309348" lon="4.686022"><ele>0.0</ele></rtept>
    <rtept lat="52.309377" lon="4.685969"><ele>0.0</ele></rtept>
    <rtept lat="52.309491" lon="4.685756"><ele>0.0</ele></rtept>
    <rtept lat="52.309519" lon="4.685704"><ele>0.0</ele></rtept>
    <rtept lat="52.309651" lon="4.685459"><ele>0.0</ele></rtept>
    <rtept lat="52.309845" lon="4.685098"><ele>0.0</ele></rtept>
    <rtept lat="52.310511" lon="4.683956"><ele>0.0</ele></rtept>
    <rtept lat="52.310557" lon="4.683897"><ele>0.0</ele></rtept>
    <rtept lat="52.310591" lon="4.683877"><ele>0.0</ele></rtept>
    <rtept lat="52.310629" lon="4.683791"><ele>0.0</ele></rtept>
    <rtept lat="52.310696" lon="4.683689"><ele>0.0</ele></rtept>
    <rtept lat="52.310736" lon="4.683621"><ele>0.0</ele></rtept>
    <rtept lat="52.310828" lon="4.683468"><ele>0.0</ele></rtept>
    <rtept lat="52.310969" lon="4.683194"><ele>0.0</ele></rtept>
    <rtept lat="52.311093" lon="4.682862"><ele>0.0</ele></rtept>
    <rtept lat="52.311275" lon="4.682530"><ele>0.0</ele></rtept>
    <rtept lat="52.311360" lon="4.682337"><ele>0.0</ele></rtept>
    <rtept lat="52.311431" lon="4.682198"><ele>0.0</ele></rtept>
    <rtept lat="52.311510" lon="4.682053"><ele>0.0</ele></rtept>
    <rtept lat="52.311926" lon="4.681317"><ele>0.0</ele></rtept>
    <rtept lat="52.312442" lon="4.680348"><ele>0.0</ele></rtept>
    <rtept lat="52.312930" lon="4.679452"><ele>0.0</ele></rtept>
    <rtept lat="52.313301" lon="4.678772"><ele>0.0</ele></rtept>
    <rtept lat="52.313446" lon="4.678564"><ele>0.0</ele></rtept>
    <rtept lat="52.313535" lon="4.678398"><ele>0.0</ele></rtept>
    <rtept lat="52.313628" lon="4.678219"><ele>0.0</ele></rtept>
    <rtept lat="52.313729" lon="4.677965"><ele>0.0</ele></rtept>
    <rtept lat="52.314085" lon="4.677312"><ele>0.0</ele></rtept>
    <rtept lat="52.314095" lon="4.677293"><ele>0.0</ele></rtept>
    <rtept lat="52.314531" lon="4.676496"><ele>0.0</ele></rtept>
    <rtept lat="52.314760" lon="4.676338"><ele>0.0</ele></rtept>
    <rtept lat="52.314847" lon="4.676288"><ele>0.0</ele></rtept>
    <rtept lat="52.315034" lon="4.676073"><ele>0.0</ele></rtept>
    <rtept lat="52.315070" lon="4.676151"><ele>0.0</ele></rtept>
    <rtept lat="52.315110" lon="4.676187"><ele>0.0</ele></rtept>
    <rtept lat="52.315653" lon="4.676314"><ele>0.0</ele></rtept>
    <rtept lat="52.316017" lon="4.676298"><ele>0.0</ele></rtept>
    <rtept lat="52.316606" lon="4.676027"><ele>0.0</ele></rtept>
    <rtept lat="52.316810" lon="4.675921"><ele>0.0</ele></rtept>
    <rtept lat="52.316870" lon="4.675853"><ele>0.0</ele></rtept>
    <rtept lat="52.317003" lon="4.675585"><ele>0.0</ele></rtept>
    <rtept lat="52.317025" lon="4.675538"><ele>0.0</ele></rtept>
    <rtept lat="52.317210" lon="4.675193"><ele>0.0</ele></rtept>
    <rtept lat="52.317303" lon="4.675019"><ele>0.0</ele></rtept>
    <rtept lat="52.317405" lon="4.674905"><ele>0.0</ele></rtept>
    <rtept lat="52.317615" lon="4.674763"><ele>0.0</ele></rtept>
    <rtept lat="52.317800" lon="4.674647"><ele>0.0</ele></rtept>
    <rtept lat="52.317922" lon="4.674626"><ele>0.0</ele></rtept>
    <rtept lat="52.317976" lon="4.674592"><ele>0.0</ele></rtept>
    <rtept lat="52.318052" lon="4.674542"><ele>0.0</ele></rtept>
    <rtept lat="52.318116" lon="4.674500"><ele>0.0</ele></rtept>
    <rtept lat="52.318207" lon="4.674403"><ele>0.0</ele></rtept>
    <rtept lat="52.318504" lon="4.674212"><ele>0.0</ele></rtept>
    <rtept lat="52.318560" lon="4.674159"><ele>0.0</ele></rtept>
    <rtept lat="52.319223" lon="4.672942"><ele>0.0</ele></rtept>
    <rtept lat="52.319302" lon="4.672851"><ele>0.0</ele></rtept>
    <rtept lat="52.319400" lon="4.672667"><ele>0.0</ele></rtept>
    <rtept lat="52.319445" lon="4.672591"><ele>0.0</ele></rtept>
    <rtept lat="52.319540" lon="4.672419"><ele>0.0</ele></rtept>
    <rtept lat="52.319592" lon="4.672510"><ele>0.0</ele></rtept>
    <rtept lat="52.319656" lon="4.672806"><ele>0.0</ele></rtept>
    <rtept lat="52.319832" lon="4.673072"><ele>0.0</ele></rtept>
    <rtept lat="52.320410" lon="4.673895"><ele>0.0</ele></rtept>
    <rtept lat="52.320973" lon="4.674710"><ele>0.0</ele></rtept>
    <rtept lat="52.321197" lon="4.675030"><ele>0.0</ele></rtept>
    <rtept lat="52.321303" lon="4.675143"><ele>0.0</ele></rtept>
    <rtept lat="52.321478" lon="4.674828"><ele>0.0</ele></rtept>
    <rtept lat="52.321511" lon="4.674794"><ele>0.0</ele></rtept>
    <rtept lat="52.321627" lon="4.674741"><ele>0.0</ele></rtept>
    <rtept lat="52.321759" lon="4.674719"><ele>0.0</ele></rtept>
    <rtept lat="52.321861" lon="4.674390"><ele>0.0</ele></rtept>
    <rtept lat="52.321970" lon="4.674220"><ele>0.0</ele></rtept>
    <rtept lat="52.322043" lon="4.674141"><ele>0.0</ele></rtept>
    <rtept lat="52.322150" lon="4.674106"><ele>0.0</ele></rtept>
    <rtept lat="52.322197" lon="4.674157"><ele>0.0</ele></rtept>
    <rtept lat="52.322223" lon="4.674245"><ele>0.0</ele></rtept>
    <rtept lat="52.322577" lon="4.674151"><ele>0.0</ele></rtept>
    <rtept lat="52.322741" lon="4.674136"><ele>0.0</ele></rtept>
    <rtept lat="52.322903" lon="4.674161"><ele>0.0</ele></rtept>
    <rtept lat="52.323058" lon="4.674233"><ele>0.0</ele></rtept>
    <rtept lat="52.323139" lon="4.674263"><ele>0.0</ele></rtept>
    <rtept lat="52.323194" lon="4.673896"><ele>0.0</ele></rtept>
    <rtept lat="52.323200" lon="4.673826"><ele>0.0</ele></rtept>
    <rtept lat="52.323208" lon="4.673713"><ele>0.0</ele></rtept>
    <rtept lat="52.323245" lon="4.673476"><ele>0.0</ele></rtept>
    <rtept lat="52.323455" lon="4.672941"><ele>0.0</ele></rtept>
    <rtept lat="52.323527" lon="4.672704"><ele>0.0</ele></rtept>
    <rtept lat="52.323694" lon="4.672230"><ele>0.0</ele></rtept>
    <rtept lat="52.323765" lon="4.671981"><ele>0.0</ele></rtept>
    <rtept lat="52.323897" lon="4.671353"><ele>0.0</ele></rtept>
    <rtept lat="52.324135" lon="4.670675"><ele>0.0</ele></rtept>
    <rtept lat="52.324271" lon="4.670404"><ele>0.0</ele></rtept>
    <rtept lat="52.324422" lon="4.670134"><ele>0.0</ele></rtept>
    <rtept lat="52.324605" lon="4.669899"><ele>0.0</ele></rtept>
    <rtept lat="52.324761" lon="4.669725"><ele>0.0</ele></rtept>
    <rtept lat="52.324876" lon="4.669621"><ele>0.0</ele></rtept>
    <rtept lat="52.325229" lon="4.669228"><ele>0.0</ele></rtept>
    <rtept lat="52.325375" lon="4.669155"><ele>0.0</ele></rtept>
    <rtept lat="52.325487" lon="4.669050"><ele>0.0</ele></rtept>
    <rtept lat="52.325529" lon="4.668962"><ele>0.0</ele></rtept>
    <rtept lat="52.325699" lon="4.668401"><ele>0.0</ele></rtept>
    <rtept lat="52.325842" lon="4.667832"><ele>0.0</ele></rtept>
    <rtept lat="52.325980" lon="4.667515"><ele>0.0</ele></rtept>
    <rtept lat="52.325998" lon="4.667489"><ele>0.0</ele></rtept>
    <rtept lat="52.326441" lon="4.667245"><ele>0.0</ele></rtept>
    <rtept lat="52.326646" lon="4.667029"><ele>0.0</ele></rtept>
    <rtept lat="52.326705" lon="4.666923"><ele>0.0</ele></rtept>
    <rtept lat="52.326862" lon="4.666520"><ele>0.0</ele></rtept>
    <rtept lat="52.326891" lon="4.666440"><ele>0.0</ele></rtept>
    <rtept lat="52.326994" lon="4.666317"><ele>0.0</ele></rtept>
    <rtept lat="52.327245" lon="4.666208"><ele>0.0</ele></rtept>
    <rtept lat="52.327460" lon="4.666142"><ele>0.0</ele></rtept>
    <rtept lat="52.327669" lon="4.665743"><ele>0.0</ele></rtept>
    <rtept lat="52.327732" lon="4.665623"><ele>0.0</ele></rtept>
    <rtept lat="52.327847" lon="4.665403"><ele>0.0</ele></rtept>
    <rtept lat="52.327873" lon="4.665354"><ele>0.0</ele></rtept>
    <rtept lat="52.327981" lon="4.665150"><ele>0.0</ele></rtept>
    <rtept lat="52.328025" lon="4.665071"><ele>0.0</ele></rtept>
    <rtept lat="52.328117" lon="4.664893"><ele>0.0</ele></rtept>
    <rtept lat="52.328383" lon="4.664442"><ele>0.0</ele></rtept>
    <rtept lat="52.328516" lon="4.664281"><ele>0.0</ele></rtept>
    <rtept lat="52.328658" lon="4.664138"><ele>0.0</ele></rtept>
    <rtept lat="52.329032" lon="4.663892"><ele>0.0</ele></rtept>
    <rtept lat="52.329106" lon="4.663757"><ele>0.0</ele></rtept>
    <rtept lat="52.329182" lon="4.663665"><ele>0.0</ele></rtept>
    <rtept lat="52.329356" lon="4.663671"><ele>0.0</ele></rtept>
    <rtept lat="52.329425" lon="4.663651"><ele>0.0</ele></rtept>
    <rtept lat="52.329751" lon="4.663456"><ele>0.0</ele></rtept>
    <rtept lat="52.330127" lon="4.663227"><ele>0.0</ele></rtept>
    <rtept lat="52.330399" lon="4.663079"><ele>0.0</ele></rtept>
    <rtept lat="52.330788" lon="4.662873"><ele>0.0</ele></rtept>
    <rtept lat="52.330809" lon="4.662862"><ele>0.0</ele></rtept>
    <rtept lat="52.330974" lon="4.662770"><ele>0.0</ele></rtept>
    <rtept lat="52.331095" lon="4.662699"><ele>0.0</ele></rtept>
    <rtept lat="52.330676" lon="4.660698"><ele>0.0</ele></rtept>
    <rtept lat="52.330668" lon="4.660661"><ele>0.0</ele></rtept>
    <rtept lat="52.330632" lon="4.660507"><ele>0.0</ele></rtept>
    <rtept lat="52.330628" lon="4.660482"><ele>0.0</ele></rtept>
    <rtept lat="52.330585" lon="4.660281"><ele>0.0</ele></rtept>
    <rtept lat="52.330598" lon="4.660138"><ele>0.0</ele></rtept>
    <rtept lat="52.331189" lon="4.659050"><ele>0.0</ele></rtept>
    <rtept lat="52.333187" lon="4.655387"><ele>0.0</ele></rtept>
    <rtept lat="52.333224" lon="4.655307"><ele>0.0</ele></rtept>
    <rtept lat="52.333845" lon="4.655259"><ele>0.0</ele></rtept>
    <rtept lat="52.334082" lon="4.654797"><ele>0.0</ele></rtept>
    <rtept lat="52.334239" lon="4.654503"><ele>0.0</ele></rtept>
    <rtept lat="52.334341" lon="4.654314"><ele>0.0</ele></rtept>
    <rtept lat="52.334472" lon="4.654075"><ele>0.0</ele></rtept>
    <rtept lat="52.334616" lon="4.654284"><ele>0.0</ele></rtept>
    <rtept lat="52.335240" lon="4.653117"><ele>0.0</ele></rtept>
    <rtept lat="52.335329" lon="4.652958"><ele>0.0</ele></rtept>
    <rtept lat="52.335480" lon="4.652674"><ele>0.0</ele></rtept>
    <rtept lat="52.335770" lon="4.652129"><ele>0.0</ele></rtept>
    <rtept lat="52.336089" lon="4.651531"><ele>0.0</ele></rtept>
    <rtept lat="52.336316" lon="4.651106"><ele>0.0</ele></rtept>
    <rtept lat="52.336413" lon="4.650926"><ele>0.0</ele></rtept>
    <rtept lat="52.336640" lon="4.650501"><ele>0.0</ele></rtept>
    <rtept lat="52.336879" lon="4.650054"><ele>0.0</ele></rtept>
    <rtept lat="52.336898" lon="4.650018"><ele>0.0</ele></rtept>
    <rtept lat="52.337156" lon="4.649537"><ele>0.0</ele></rtept>
    <rtept lat="52.337442" lon="4.649002"><ele>0.0</ele></rtept>
    <rtept lat="52.337525" lon="4.648846"><ele>0.0</ele></rtept>
    <rtept lat="52.337857" lon="4.648242"><ele>0.0</ele></rtept>
    <rtept lat="52.338066" lon="4.647864"><ele>0.0</ele></rtept>
    <rtept lat="52.338343" lon="4.647357"><ele>0.0</ele></rtept>
    <rtept lat="52.338416" lon="4.647218"><ele>0.0</ele></rtept>
    <rtept lat="52.338585" lon="4.646916"><ele>0.0</ele></rtept>
    <rtept lat="52.338598" lon="4.646848"><ele>0.0</ele></rtept>
    <rtept lat="52.338609" lon="4.646795"><ele>0.0</ele></rtept>
    <rtept lat="52.338687" lon="4.646762"><ele>0.0</ele></rtept>
    <rtept lat="52.338729" lon="4.646795"><ele>0.0</ele></rtept>
    <rtept lat="52.338939" lon="4.646973"><ele>0.0</ele></rtept>
    <rtept lat="52.338980" lon="4.647058"><ele>0.0</ele></rtept>
    <rtept lat="52.339474" lon="4.646640"><ele>0.0</ele></rtept>
    <rtept lat="52.339580" lon="4.647310"><ele>0.0</ele></rtept>
    <rtept lat="52.339680" lon="4.647815"><ele>0.0</ele></rtept>
    <rtept lat="52.339721" lon="4.647795"><ele>0.0</ele></rtept>
    <rtept lat="52.339712" lon="4.647744"><ele>0.0</ele></rtept>
    <rtept lat="52.339726" lon="4.647736"><ele>0.0</ele></rtept>
    <rtept lat="52.340053" lon="4.647559"><ele>0.0</ele></rtept>
    <rtept lat="52.340080" lon="4.647544"><ele>0.0</ele></rtept>
    <rtept lat="52.340255" lon="4.648278"><ele>0.0</ele></rtept>
    <rtept lat="52.340435" lon="4.648894"><ele>0.0</ele></rtept>
    <rtept lat="52.340674" lon="4.649522"><ele>0.0</ele></rtept>
    <rtept lat="52.341459" lon="4.651327"><ele>0.0</ele></rtept>
    <rtept lat="52.341595" lon="4.651586"><ele>0.0</ele></rtept>
    <rtept lat="52.341685" lon="4.651698"><ele>0.0</ele></rtept>
    <rtept lat="52.341754" lon="4.651698"><ele>0.0</ele></rtept>
    <rtept lat="52.341957" lon="4.651794"><ele>0.0</ele></rtept>
    <rtept lat="52.342013" lon="4.651801"><ele>0.0</ele></rtept>
    <rtept lat="52.342064" lon="4.651800"><ele>0.0</ele></rtept>
    <rtept lat="52.342335" lon="4.651730"><ele>0.0</ele></rtept>
    <rtept lat="52.342369" lon="4.651696"><ele>0.0</ele></rtept>
    <rtept lat="52.342425" lon="4.650730"><ele>0.0</ele></rtept>
    <rtept lat="52.342485" lon="4.650390"><ele>0.0</ele></rtept>
    <rtept lat="52.342556" lon="4.650180"><ele>0.0</ele></rtept>
    <rtept lat="52.342666" lon="4.649972"><ele>0.0</ele></rtept>
    <rtept lat="52.343001" lon="4.649581"><ele>0.0</ele></rtept>
    <rtept lat="52.343159" lon="4.649484"><ele>0.0</ele></rtept>
    <rtept lat="52.343416" lon="4.649421"><ele>0.0</ele></rtept>
    <rtept lat="52.343613" lon="4.649427"><ele>0.0</ele></rtept>
    <rtept lat="52.343773" lon="4.649476"><ele>0.0</ele></rtept>
    <rtept lat="52.343950" lon="4.649604"><ele>0.0</ele></rtept>
    <rtept lat="52.344176" lon="4.649928"><ele>0.0</ele></rtept>
    <rtept lat="52.344881" lon="4.651016"><ele>0.0</ele></rtept>
    <rtept lat="52.344940" lon="4.651020"><ele>0.0</ele></rtept>
    <rtept lat="52.345066" lon="4.650982"><ele>0.0</ele></rtept>
    <rtept lat="52.345236" lon="4.650922"><ele>0.0</ele></rtept>
    <rtept lat="52.345388" lon="4.651110"><ele>0.0</ele></rtept>
    <rtept lat="52.345436" lon="4.652011"><ele>0.0</ele></rtept>
    <rtept lat="52.345513" lon="4.652414"><ele>0.0</ele></rtept>
    <rtept lat="52.345667" lon="4.652911"><ele>0.0</ele></rtept>
    <rtept lat="52.346012" lon="4.653697"><ele>0.0</ele></rtept>
    <rtept lat="52.346234" lon="4.654221"><ele>0.0</ele></rtept>
    <rtept lat="52.346377" lon="4.654461"><ele>0.0</ele></rtept>
    <rtept lat="52.346476" lon="4.654604"><ele>0.0</ele></rtept>
    <rtept lat="52.346709" lon="4.654815"><ele>0.0</ele></rtept>
    <rtept lat="52.346819" lon="4.654898"><ele>0.0</ele></rtept>
    <rtept lat="52.347350" lon="4.655372"><ele>0.0</ele></rtept>
    <rtept lat="52.347802" lon="4.656989"><ele>0.0</ele></rtept>
    <rtept lat="52.347871" lon="4.657263"><ele>0.0</ele></rtept>
    <rtept lat="52.348028" lon="4.657212"><ele>0.0</ele></rtept>
    <rtept lat="52.348146" lon="4.657134"><ele>0.0</ele></rtept>
    <rtept lat="52.348360" lon="4.656988"><ele>0.0</ele></rtept>
    <rtept lat="52.348946" lon="4.656599"><ele>0.0</ele></rtept>
    <rtept lat="52.349204" lon="4.656432"><ele>0.0</ele></rtept>
    <rtept lat="52.349542" lon="4.656005"><ele>0.0</ele></rtept>
    <rtept lat="52.349598" lon="4.655934"><ele>0.0</ele></rtept>
    <rtept lat="52.349690" lon="4.655819"><ele>0.0</ele></rtept>
    <rtept lat="52.349725" lon="4.655773"><ele>0.0</ele></rtept>
    <rtept lat="52.349755" lon="4.655811"><ele>0.0</ele></rtept>
    <rtept lat="52.349959" lon="4.655751"><ele>0.0</ele></rtept>
    <rtept lat="52.350596" lon="4.655503"><ele>0.0</ele></rtept>
    <rtept lat="52.350713" lon="4.655459"><ele>0.0</ele></rtept>
    <rtept lat="52.350811" lon="4.655391"><ele>0.0</ele></rtept>
    <rtept lat="52.350866" lon="4.655353"><ele>0.0</ele></rtept>
    <rtept lat="52.350980" lon="4.655276"><ele>0.0</ele></rtept>
    <rtept lat="52.351047" lon="4.655272"><ele>0.0</ele></rtept>
    <rtept lat="52.351114" lon="4.655229"><ele>0.0</ele></rtept>
    <rtept lat="52.351185" lon="4.655180"><ele>0.0</ele></rtept>
    <rtept lat="52.351231" lon="4.655094"><ele>0.0</ele></rtept>
    <rtept lat="52.351301" lon="4.655048"><ele>0.0</ele></rtept>
    <rtept lat="52.351612" lon="4.654882"><ele>0.0</ele></rtept>
    <rtept lat="52.351732" lon="4.654852"><ele>0.0</ele></rtept>
    <rtept lat="52.351833" lon="4.654827"><ele>0.0</ele></rtept>
    <rtept lat="52.352156" lon="4.654831"><ele>0.0</ele></rtept>
    <rtept lat="52.352801" lon="4.654823"><ele>0.0</ele></rtept>
    <rtept lat="52.352927" lon="4.654821"><ele>0.0</ele></rtept>
    <rtept lat="52.353138" lon="4.654814"><ele>0.0</ele></rtept>
    <rtept lat="52.353194" lon="4.654813"><ele>0.0</ele></rtept>
    <rtept lat="52.353264" lon="4.654814"><ele>0.0</ele></rtept>
    <rtept lat="52.353325" lon="4.654862"><ele>0.0</ele></rtept>
    <rtept lat="52.353576" lon="4.654870"><ele>0.0</ele></rtept>
    <rtept lat="52.353647" lon="4.654847"><ele>0.0</ele></rtept>
    <rtept lat="52.354127" lon="4.654831"><ele>0.0</ele></rtept>
    <rtept lat="52.354181" lon="4.654880"><ele>0.0</ele></rtept>
    <rtept lat="52.354234" lon="4.654883"><ele>0.0</ele></rtept>
    <rtept lat="52.354286" lon="4.654875"><ele>0.0</ele></rtept>
    <rtept lat="52.354343" lon="4.654865"><ele>0.0</ele></rtept>
    <rtept lat="52.354383" lon="4.654791"><ele>0.0</ele></rtept>
    <rtept lat="52.354582" lon="4.654610"><ele>0.0</ele></rtept>
    <rtept lat="52.354857" lon="4.654336"><ele>0.0</ele></rtept>
    <rtept lat="52.355102" lon="4.654089"><ele>0.0</ele></rtept>
    <rtept lat="52.355348" lon="4.653602"><ele>0.0</ele></rtept>
    <rtept lat="52.355447" lon="4.653387"><ele>0.0</ele></rtept>
    <rtept lat="52.355506" lon="4.653269"><ele>0.0</ele></rtept>
    <rtept lat="52.355523" lon="4.653267"><ele>0.0</ele></rtept>
    <rtept lat="52.355619" lon="4.653326"><ele>0.0</ele></rtept>
    <rtept lat="52.355910" lon="4.653484"><ele>0.0</ele></rtept>
    <rtept lat="52.356053" lon="4.653510"><ele>0.0</ele></rtept>
    <rtept lat="52.356272" lon="4.653494"><ele>0.0</ele></rtept>
    <rtept lat="52.356404" lon="4.653460"><ele>0.0</ele></rtept>
    <rtept lat="52.356452" lon="4.653449"><ele>0.0</ele></rtept>
    <rtept lat="52.356813" lon="4.653357"><ele>0.0</ele></rtept>
    <rtept lat="52.356883" lon="4.653437"><ele>0.0</ele></rtept>
    <rtept lat="52.356955" lon="4.653484"><ele>0.0</ele></rtept>
    <rtept lat="52.357045" lon="4.653480"><ele>0.0</ele></rtept>
    <rtept lat="52.357132" lon="4.653378"><ele>0.0</ele></rtept>
    <rtept lat="52.357206" lon="4.653257"><ele>0.0</ele></rtept>
    <rtept lat="52.357489" lon="4.653170"><ele>0.0</ele></rtept>
    <rtept lat="52.357534" lon="4.653126"><ele>0.0</ele></rtept>
    <rtept lat="52.358212" lon="4.652945"><ele>0.0</ele></rtept>
    <rtept lat="52.358760" lon="4.652870"><ele>0.0</ele></rtept>
    <rtept lat="52.358933" lon="4.652817"><ele>0.0</ele></rtept>
    <rtept lat="52.359366" lon="4.652714"><ele>0.0</ele></rtept>
    <rtept lat="52.360114" lon="4.652458"><ele>0.0</ele></rtept>
    <rtept lat="52.360177" lon="4.652473"><ele>0.0</ele></rtept>
    <rtept lat="52.360202" lon="4.652505"><ele>0.0</ele></rtept>
    <rtept lat="52.360233" lon="4.652646"><ele>0.0</ele></rtept>
    <rtept lat="52.360253" lon="4.653322"><ele>0.0</ele></rtept>
    <rtept lat="52.360285" lon="4.653486"><ele>0.0</ele></rtept>
    <rtept lat="52.360367" lon="4.653773"><ele>0.0</ele></rtept>
    <rtept lat="52.360403" lon="4.654166"><ele>0.0</ele></rtept>
    <rtept lat="52.360461" lon="4.654152"><ele>0.0</ele></rtept>
    <rtept lat="52.360621" lon="4.654102"><ele>0.0</ele></rtept>
    <rtept lat="52.360711" lon="4.654127"><ele>0.0</ele></rtept>
    <rtept lat="52.360742" lon="4.654147"><ele>0.0</ele></rtept>
    <rtept lat="52.360844" lon="4.654168"><ele>0.0</ele></rtept>
    <rtept lat="52.361216" lon="4.654163"><ele>0.0</ele></rtept>
    <rtept lat="52.361326" lon="4.654162"><ele>0.0</ele></rtept>
    <rtept lat="52.361412" lon="4.654126"><ele>0.0</ele></rtept>
    <rtept lat="52.361570" lon="4.654125"><ele>0.0</ele></rtept>
    <rtept lat="52.361783" lon="4.654123"><ele>0.0</ele></rtept>
    <rtept lat="52.362071" lon="4.654118"><ele>0.0</ele></rtept>
    <rtept lat="52.362123" lon="4.654117"><ele>0.0</ele></rtept>
    <rtept lat="52.362590" lon="4.654102"><ele>0.0</ele></rtept>
    <rtept lat="52.362878" lon="4.654092"><ele>0.0</ele></rtept>
    <rtept lat="52.363395" lon="4.654083"><ele>0.0</ele></rtept>
    <rtept lat="52.364269" lon="4.654060"><ele>0.0</ele></rtept>
    <rtept lat="52.364322" lon="4.654021"><ele>0.0</ele></rtept>
    <rtept lat="52.364433" lon="4.653981"><ele>0.0</ele></rtept>
    <rtept lat="52.364513" lon="4.653978"><ele>0.0</ele></rtept>
    <rtept lat="52.364581" lon="4.653989"><ele>0.0</ele></rtept>
    <rtept lat="52.364782" lon="4.654057"><ele>0.0</ele></rtept>
    <rtept lat="52.365750" lon="4.654064"><ele>0.0</ele></rtept>
    <rtept lat="52.365789" lon="4.654064"><ele>0.0</ele></rtept>
    <rtept lat="52.366357" lon="4.654069"><ele>0.0</ele></rtept>
    <rtept lat="52.366848" lon="4.654073"><ele>0.0</ele></rtept>
    <rtept lat="52.367097" lon="4.654035"><ele>0.0</ele></rtept>
    <rtept lat="52.367538" lon="4.654010"><ele>0.0</ele></rtept>
    <rtept lat="52.367578" lon="4.653977"><ele>0.0</ele></rtept>
    <rtept lat="52.367619" lon="4.653893"><ele>0.0</ele></rtept>
    <rtept lat="52.367730" lon="4.653866"><ele>0.0</ele></rtept>
    <rtept lat="52.367835" lon="4.653868"><ele>0.0</ele></rtept>
    <rtept lat="52.367914" lon="4.653873"><ele>0.0</ele></rtept>
    <rtept lat="52.367956" lon="4.653903"><ele>0.0</ele></rtept>
    <rtept lat="52.368048" lon="4.653989"><ele>0.0</ele></rtept>
    <rtept lat="52.368746" lon="4.654020"><ele>0.0</ele></rtept>
    <rtept lat="52.368986" lon="4.654073"><ele>0.0</ele></rtept>
    <rtept lat="52.369718" lon="4.654141"><ele>0.0</ele></rtept>
    <rtept lat="52.369915" lon="4.654083"><ele>0.0</ele></rtept>
    <rtept lat="52.370021" lon="4.654058"><ele>0.0</ele></rtept>
    <rtept lat="52.370091" lon="4.654053"><ele>0.0</ele></rtept>
    <rtept lat="52.370213" lon="4.654051"><ele>0.0</ele></rtept>
    <rtept lat="52.370315" lon="4.654049"><ele>0.0</ele></rtept>
    <rtept lat="52.370383" lon="4.654046"><ele>0.0</ele></rtept>
    <rtept lat="52.370538" lon="4.654082"><ele>0.0</ele></rtept>
    <rtept lat="52.370725" lon="4.654174"><ele>0.0</ele></rtept>
    <rtept lat="52.370859" lon="4.654271"><ele>0.0</ele></rtept>
    <rtept lat="52.371236" lon="4.654599"><ele>0.0</ele></rtept>
    <rtept lat="52.371585" lon="4.654921"><ele>0.0</ele></rtept>
    <rtept lat="52.371732" lon="4.655058"><ele>0.0</ele></rtept>
    <rtept lat="52.371869" lon="4.655171"><ele>0.0</ele></rtept>
    <rtept lat="52.372940" lon="4.656054"><ele>0.0</ele></rtept>
    <rtept lat="52.374345" lon="4.657221"><ele>0.0</ele></rtept>
    <rtept lat="52.374521" lon="4.657375"><ele>0.0</ele></rtept>
    <rtept lat="52.374915" lon="4.657845"><ele>0.0</ele></rtept>
    <rtept lat="52.375156" lon="4.658134"><ele>0.0</ele></rtept>
    <rtept lat="52.375240" lon="4.658240"><ele>0.0</ele></rtept>
    <rtept lat="52.375421" lon="4.658427"><ele>0.0</ele></rtept>
    <rtept lat="52.375447" lon="4.658454"><ele>0.0</ele></rtept>
    <rtept lat="52.375661" lon="4.658648"><ele>0.0</ele></rtept>
    <rtept lat="52.376522" lon="4.659138"><ele>0.0</ele></rtept>
    <rtept lat="52.376692" lon="4.659214"><ele>0.0</ele></rtept>
    <rtept lat="52.377331" lon="4.659496"><ele>0.0</ele></rtept>
    <rtept lat="52.378160" lon="4.659899"><ele>0.0</ele></rtept>
    <rtept lat="52.378179" lon="4.659797"><ele>0.0</ele></rtept>
    <rtept lat="52.378203" lon="4.659657"><ele>0.0</ele></rtept>
    <rtept lat="52.378241" lon="4.659432"><ele>0.0</ele></rtept>
    <rtept lat="52.378255" lon="4.659351"><ele>0.0</ele></rtept>
    <rtept lat="52.378439" lon="4.658196"><ele>0.0</ele></rtept>
    <rtept lat="52.378633" lon="4.658301"><ele>0.0</ele></rtept>
    <rtept lat="52.378896" lon="4.657371"><ele>0.0</ele></rtept>
    <rtept lat="52.379010" lon="4.657010"><ele>0.0</ele></rtept>
    <rtept lat="52.379172" lon="4.656914"><ele>0.0</ele></rtept>
    <rtept lat="52.379265" lon="4.656910"><ele>0.0</ele></rtept>
    <rtept lat="52.379322" lon="4.656758"><ele>0.0</ele></rtept>
    <rtept lat="52.379484" lon="4.656332"><ele>0.0</ele></rtept>
    <rtept lat="52.379811" lon="4.656611"><ele>0.0</ele></rtept>
    <rtept lat="52.379890" lon="4.656860"><ele>0.0</ele></rtept>
    <rtept lat="52.379960" lon="4.657149"><ele>0.0</ele></rtept>
    <rtept lat="52.380029" lon="4.657505"><ele>0.0</ele></rtept>
    <rtept lat="52.380029" lon="4.657510"><ele>0.0</ele></rtept>
  </rte>
</gpx>