<?xml version="1.0" encoding="UTF-8"?>
<gpx version="1.1" creator="WeeklyCyclingRoutes"
  xmlns="http://www.topografix.com/GPX/1/1"
  xmlns:xsi="http://www.w3.org/2001/XMLSchema-instance"
  xsi:schemaLocation="http://www.topografix.com/GPX/1/1 http://www.topografix.com/GPX/1/1/gpx.xsd">
  <metadata>
    <name>30km Route – September 14, 2026</name>
    <desc>Round trip from Cremerstraat, Haarlem. Actual: 24.9km</desc>
    <time>2026-09-14T11:29:29Z</time>
  </metadata>
  <rte>
    <name>30km Cycling Route – Haarlem</name>
    <rtept lat="52.380029" lon="4.657510"><ele>0.0</ele></rtept>
    <rtept lat="52.380041" lon="4.657887"><ele>0.0</ele></rtept>
    <rtept lat="52.379804" lon="4.657899"><ele>0.0</ele></rtept>
    <rtept lat="52.379574" lon="4.657888"><ele>0.0</ele></rtept>
    <rtept lat="52.379447" lon="4.659520"><ele>0.0</ele></rtept>
    <rtept lat="52.379026" lon="4.659422"><ele>0.0</ele></rtept>
    <rtept lat="52.378994" lon="4.659805"><ele>0.0</ele></rtept>
    <rtept lat="52.378980" lon="4.659944"><ele>0.0</ele></rtept>
    <rtept lat="52.378919" lon="4.660207"><ele>0.0</ele></rtept>
    <rtept lat="52.378892" lon="4.660355"><ele>0.0</ele></rtept>
    <rtept lat="52.378869" lon="4.660481"><ele>0.0</ele></rtept>
    <rtept lat="52.378835" lon="4.660666"><ele>0.0</ele></rtept>
    <rtept lat="52.378754" lon="4.660632"><ele>0.0</ele></rtept>
    <rtept lat="52.378107" lon="4.660341"><ele>0.0</ele></rtept>
    <rtept lat="52.376591" lon="4.659639"><ele>0.0</ele></rtept>
    <rtept lat="52.376416" lon="4.659550"><ele>0.0</ele></rtept>
    <rtept lat="52.376248" lon="4.659469"><ele>0.0</ele></rtept>
    <rtept lat="52.375939" lon="4.659321"><ele>0.0</ele></rtept>
    <rtept lat="52.375387" lon="4.658920"><ele>0.0</ele></rtept>
    <rtept lat="52.375299" lon="4.658822"><ele>0.0</ele></rtept>
    <rtept lat="52.375264" lon="4.658783"><ele>0.0</ele></rtept>
    <rtept lat="52.375174" lon="4.658688"><ele>0.0</ele></rtept>
    <rtept lat="52.375071" lon="4.658558"><ele>0.0</ele></rtept>
    <rtept lat="52.374903" lon="4.658355"><ele>0.0</ele></rtept>
    <rtept lat="52.374774" lon="4.658199"><ele>0.0</ele></rtept>
    <rtept lat="52.374640" lon="4.658034"><ele>0.0</ele></rtept>
    <rtept lat="52.374391" lon="4.657790"><ele>0.0</ele></rtept>
    <rtept lat="52.374222" lon="4.657609"><ele>0.0</ele></rtept>
    <rtept lat="52.372821" lon="4.656439"><ele>0.0</ele></rtept>
    <rtept lat="52.371743" lon="4.655569"><ele>0.0</ele></rtept>
    <rtept lat="52.371644" lon="4.655494"><ele>0.0</ele></rtept>
    <rtept lat="52.371432" lon="4.655322"><ele>0.0</ele></rtept>
    <rtept lat="52.370928" lon="4.654930"><ele>0.0</ele></rtept>
    <rtept lat="52.370723" lon="4.654874"><ele>0.0</ele></rtept>
    <rtept lat="52.370389" lon="4.654836"><ele>0.0</ele></rtept>
    <rtept lat="52.370283" lon="4.654833"><ele>0.0</ele></rtept>
    <rtept lat="52.370075" lon="4.654826"><ele>0.0</ele></rtept>
    <rtept lat="52.369981" lon="4.654809"><ele>0.0</ele></rtept>
    <rtept lat="52.369938" lon="4.654772"><ele>0.0</ele></rtept>
    <rtept lat="52.369824" lon="4.654648"><ele>0.0</ele></rtept>
    <rtept lat="52.368957" lon="4.654543"><ele>0.0</ele></rtept>
    <rtept lat="52.368663" lon="4.654470"><ele>0.0</ele></rtept>
    <rtept lat="52.368353" lon="4.654479"><ele>0.0</ele></rtept>
    <rtept lat="52.368337" lon="4.654479"><ele>0.0</ele></rtept>
    <rtept lat="52.368020" lon="4.654482"><ele>0.0</ele></rtept>
    <rtept lat="52.367966" lon="4.654499"><ele>0.0</ele></rtept>
    <rtept lat="52.367813" lon="4.654557"><ele>0.0</ele></rtept>
    <rtept lat="52.367800" lon="4.654688"><ele>0.0</ele></rtept>
    <rtept lat="52.367802" lon="4.655012"><ele>0.0</ele></rtept>
    <rtept lat="52.367801" lon="4.656505"><ele>0.0</ele></rtept>
    <rtept lat="52.367811" lon="4.657704"><ele>0.0</ele></rtept>
    <rtept lat="52.367821" lon="4.659432"><ele>0.0</ele></rtept>
    <rtept lat="52.367829" lon="4.660912"><ele>0.0</ele></rtept>
    <rtept lat="52.367827" lon="4.662490"><ele>0.0</ele></rtept>
    <rtept lat="52.367872" lon="4.663787"><ele>0.0</ele></rtept>
    <rtept lat="52.367879" lon="4.664269"><ele>0.0</ele></rtept>
    <rtept lat="52.367889" lon="4.666109"><ele>0.0</ele></rtept>
    <rtept lat="52.367838" lon="4.666112"><ele>0.0</ele></rtept>
    <rtept lat="52.367782" lon="4.666114"><ele>0.0</ele></rtept>
    <rtept lat="52.367674" lon="4.666133"><ele>0.0</ele></rtept>
    <rtept lat="52.367549" lon="4.666157"><ele>0.0</ele></rtept>
    <rtept lat="52.366772" lon="4.666360"><ele>0.0</ele></rtept>
    <rtept lat="52.366728" lon="4.666376"><ele>0.0</ele></rtept>
    <rtept lat="52.366226" lon="4.666499"><ele>0.0</ele></rtept>
    <rtept lat="52.364616" lon="4.666862"><ele>0.0</ele></rtept>
    <rtept lat="52.364555" lon="4.666877"><ele>0.0</ele></rtept>
    <rtept lat="52.364252" lon="4.666958"><ele>0.0</ele></rtept>
    <rtept lat="52.362877" lon="4.667285"><ele>0.0</ele></rtept>
    <rtept lat="52.362158" lon="4.667456"><ele>0.0</ele></rtept>
    <rtept lat="52.362034" lon="4.667495"><ele>0.0</ele></rtept>
    <rtept lat="52.361115" lon="4.667716"><ele>0.0</ele></rtept>
    <rtept lat="52.360741" lon="4.667804"><ele>0.0</ele></rtept>
    <rtept lat="52.360693" lon="4.668029"><ele>0.0</ele></rtept>
    <rtept lat="52.360581" lon="4.668367"><ele>0.0</ele></rtept>
    <rtept lat="52.360467" lon="4.668618"><ele>0.0</ele></rtept>
    <rtept lat="52.360332" lon="4.668884"><ele>0.0</ele></rtept>
    <rtept lat="52.360291" lon="4.668924"><ele>0.0</ele></rtept>
    <rtept lat="52.360156" lon="4.669100"><ele>0.0</ele></rtept>
    <rtept lat="52.359958" lon="4.669296"><ele>0.0</ele></rtept>
    <rtept lat="52.359637" lon="4.669464"><ele>0.0</ele></rtept>
    <rtept lat="52.359469" lon="4.669519"><ele>0.0</ele></rtept>
    <rtept lat="52.359365" lon="4.669522"><ele>0.0</ele></rtept>
    <rtept lat="52.358102" lon="4.669544"><ele>0.0</ele></rtept>
    <rtept lat="52.357541" lon="4.669577"><ele>0.0</ele></rtept>
    <rtept lat="52.356571" lon="4.669792"><ele>0.0</ele></rtept>
    <rtept lat="52.356332" lon="4.669868"><ele>0.0</ele></rtept>
    <rtept lat="52.355799" lon="4.670115"><ele>0.0</ele></rtept>
    <rtept lat="52.355744" lon="4.670136"><ele>0.0</ele></rtept>
    <rtept lat="52.355673" lon="4.670170"><ele>0.0</ele></rtept>
    <rtept lat="52.355736" lon="4.670631"><ele>0.0</ele></rtept>
    <rtept lat="52.355992" lon="4.672205"><ele>0.0</ele></rtept>
    <rtept lat="52.356103" lon="4.673000"><ele>0.0</ele></rtept>
    <rtept lat="52.356060" lon="4.673244"><ele>0.0</ele></rtept>
    <rtept lat="52.355980" lon="4.673417"><ele>0.0</ele></rtept>
    <rtept lat="52.355766" lon="4.673762"><ele>0.0</ele></rtept>
    <rtept lat="52.354878" lon="4.674952"><ele>0.0</ele></rtept>
    <rtept lat="52.354134" lon="4.675928"><ele>0.0</ele></rtept>
    <rtept lat="52.354027" lon="4.676138"><ele>0.0</ele></rtept>
    <rtept lat="52.354006" lon="4.676245"><ele>0.0</ele></rtept>
    <rtept lat="52.353924" lon="4.676809"><ele>0.0</ele></rtept>
    <rtept lat="52.353909" lon="4.676910"><ele>0.0</ele></rtept>
    <rtept lat="52.353525" lon="4.676767"><ele>0.0</ele></rtept>
    <rtept lat="52.352686" lon="4.676218"><ele>0.0</ele></rtept>
    <rtept lat="52.352414" lon="4.676000"><ele>0.0</ele></rtept>
    <rtept lat="52.351765" lon="4.675341"><ele>0.0</ele></rtept>
    <rtept lat="52.351536" lon="4.675076"><ele>0.0</ele></rtept>
    <rtept lat="52.351073" lon="4.674468"><ele>0.0</ele></rtept>
    <rtept lat="52.350937" lon="4.674255"><ele>0.0</ele></rtept>
    <rtept lat="52.350570" lon="4.673550"><ele>0.0</ele></rtept>
    <rtept lat="52.349416" lon="4.670958"><ele>0.0</ele></rtept>
    <rtept lat="52.349319" lon="4.671047"><ele>0.0</ele></rtept>
    <rtept lat="52.348940" lon="4.671303"><ele>0.0</ele></rtept>
    <rtept lat="52.348565" lon="4.671474"><ele>0.0</ele></rtept>
    <rtept lat="52.348137" lon="4.671580"><ele>0.0</ele></rtept>
    <rtept lat="52.347251" lon="4.671674"><ele>0.0</ele></rtept>
    <rtept lat="52.347037" lon="4.671690"><ele>0.0</ele></rtept>
    <rtept lat="52.346890" lon="4.671700"><ele>0.0</ele></rtept>
    <rtept lat="52.346472" lon="4.671729"><ele>0.0</ele></rtept>
    <rtept lat="52.346320" lon="4.671657"><ele>0.0</ele></rtept>
    <rtept lat="52.346288" lon="4.671669"><ele>0.0</ele></rtept>
    <rtept lat="52.346274" lon="4.671698"><ele>0.0</ele></rtept>
    <rtept lat="52.346253" lon="4.671740"><ele>0.0</ele></rtept>
    <rtept lat="52.346236" lon="4.671775"><ele>0.0</ele></rtept>
    <rtept lat="52.346208" lon="4.671801"><ele>0.0</ele></rtept>
    <rtept lat="52.346099" lon="4.671824"><ele>0.0</ele></rtept>
    <rtept lat="52.346064" lon="4.671865"><ele>0.0</ele></rtept>
    <rtept lat="52.346041" lon="4.671887"><ele>0.0</ele></rtept>
    <rtept lat="52.345250" lon="4.672126"><ele>0.0</ele></rtept>
    <rtept lat="52.345076" lon="4.672242"><ele>0.0</ele></rtept>
    <rtept lat="52.344572" lon="4.672383"><ele>0.0</ele></rtept>
    <rtept lat="52.344355" lon="4.672373"><ele>0.0</ele></rtept>
    <rtept lat="52.343553" lon="4.672596"><ele>0.0</ele></rtept>
    <rtept lat="52.343522" lon="4.672605"><ele>0.0</ele></rtept>
    <rtept lat="52.343406" lon="4.672650"><ele>0.0</ele></rtept>
    <rtept lat="52.343232" lon="4.672765"><ele>0.0</ele></rtept>
    <rtept lat="52.342456" lon="4.672992"><ele>0.0</ele></rtept>
    <rtept lat="52.342132" lon="4.673000"><ele>0.0</ele></rtept>
    <rtept lat="52.341895" lon="4.673064"><ele>0.0</ele></rtept>
    <rtept lat="52.339506" lon="4.673740"><ele>0.0</ele></rtept>
    <rtept lat="52.339330" lon="4.673743"><ele>0.0</ele></rtept>
    <rtept lat="52.338432" lon="4.673864"><ele>0.0</ele></rtept>
    <rtept lat="52.338064" lon="4.673973"><ele>0.0</ele></rtept>
    <rtept lat="52.337773" lon="4.674005"><ele>0.0</ele></rtept>
    <rtept lat="52.336415" lon="4.674412"><ele>0.0</ele></rtept>
    <rtept lat="52.336239" lon="4.674488"><ele>0.0</ele></rtept>
    <rtept lat="52.335163" lon="4.674789"><ele>0.0</ele></rtept>
    <rtept lat="52.334916" lon="4.674863"><ele>0.0</ele></rtept>
    <rtept lat="52.334850" lon="4.674881"><ele>0.0</ele></rtept>
    <rtept lat="52.334561" lon="4.674958"><ele>0.0</ele></rtept>
    <rtept lat="52.334141" lon="4.675025"><ele>0.0</ele></rtept>
    <rtept lat="52.333495" lon="4.675123"><ele>0.0</ele></rtept>
    <rtept lat="52.333059" lon="4.675149"><ele>0.0</ele></rtept>
    <rtept lat="52.329442" lon="4.676183"><ele>0.0</ele></rtept>
    <rtept lat="52.329411" lon="4.676192"><ele>0.0</ele></rtept>
    <rtept lat="52.324001" lon="4.677735"><ele>0.0</ele></rtept>
    <rtept lat="52.323922" lon="4.677682"><ele>0.0</ele></rtept>
    <rtept lat="52.323778" lon="4.677457"><ele>0.0</ele></rtept>
    <rtept lat="52.323647" lon="4.677378"><ele>0.0</ele></rtept>
    <rtept lat="52.323527" lon="4.677397"><ele>0.0</ele></rtept>
    <rtept lat="52.323453" lon="4.677527"><ele>0.0</ele></rtept>
    <rtept lat="52.323383" lon="4.677735"><ele>0.0</ele></rtept>
    <rtept lat="52.323270" lon="4.678009"><ele>0.0</ele></rtept>
    <rtept lat="52.323221" lon="4.678099"><ele>0.0</ele></rtept>
    <rtept lat="52.323179" lon="4.678185"><ele>0.0</ele></rtept>
    <rtept lat="52.323069" lon="4.678349"><ele>0.0</ele></rtept>
    <rtept lat="52.322978" lon="4.678431"><ele>0.0</ele></rtept>
    <rtept lat="52.318071" lon="4.680272"><ele>0.0</ele></rtept>
    <rtept lat="52.317106" lon="4.680641"><ele>0.0</ele></rtept>
    <rtept lat="52.317032" lon="4.680676"><ele>0.0</ele></rtept>
    <rtept lat="52.316816" lon="4.680786"><ele>0.0</ele></rtept>
    <rtept lat="52.316541" lon="4.680892"><ele>0.0</ele></rtept>
    <rtept lat="52.316281" lon="4.680986"><ele>0.0</ele></rtept>
    <rtept lat="52.316009" lon="4.681085"><ele>0.0</ele></rtept>
    <rtept lat="52.315765" lon="4.681138"><ele>0.0</ele></rtept>
    <rtept lat="52.315717" lon="4.681151"><ele>0.0</ele></rtept>
    <rtept lat="52.314498" lon="4.681614"><ele>0.0</ele></rtept>
    <rtept lat="52.314416" lon="4.681646"><ele>0.0</ele></rtept>
    <rtept lat="52.314367" lon="4.681654"><ele>0.0</ele></rtept>
    <rtept lat="52.314092" lon="4.681384"><ele>0.0</ele></rtept>
    <rtept lat="52.314020" lon="4.681404"><ele>0.0</ele></rtept>
    <rtept lat="52.313964" lon="4.681423"><ele>0.0</ele></rtept>
    <rtept lat="52.312199" lon="4.682078"><ele>0.0</ele></rtept>
    <rtept lat="52.312158" lon="4.682050"><ele>0.0</ele></rtept>
    <rtept lat="52.311961" lon="4.682044"><ele>0.0</ele></rtept>
    <rtept lat="52.311777" lon="4.682177"><ele>0.0</ele></rtept>
    <rtept lat="52.311730" lon="4.682245"><ele>0.0</ele></rtept>
    <rtept lat="52.311523" lon="4.682385"><ele>0.0</ele></rtept>
    <rtept lat="52.311473" lon="4.682399"><ele>0.0</ele></rtept>
    <rtept lat="52.311426" lon="4.682400"><ele>0.0</ele></rtept>
    <rtept lat="52.311360" lon="4.682337"><ele>0.0</ele></rtept>
    <rtept lat="52.311275" lon="4.682530"><ele>0.0</ele></rtept>
    <rtept lat="52.311093" lon="4.682862"><ele>0.0</ele></rtept>
    <rtept lat="52.310969" lon="4.683194"><ele>0.0</ele></rtept>
    <rtept lat="52.310828" lon="4.683468"><ele>0.0</ele></rtept>
    <rtept lat="52.310736" lon="4.683621"><ele>0.0</ele></rtept>
    <rtept lat="52.310696" lon="4.683689"><ele>0.0</ele></rtept>
    <rtept lat="52.310629" lon="4.683791"><ele>0.0</ele></rtept>
    <rtept lat="52.310569" lon="4.683847"><ele>0.0</ele></rtept>
    <rtept lat="52.310557" lon="4.683897"><ele>0.0</ele></rtept>
    <rtept lat="52.310511" lon="4.683956"><ele>0.0</ele></rtept>
    <rtept lat="52.309845" lon="4.685098"><ele>0.0</ele></rtept>
    <rtept lat="52.309651" lon="4.685459"><ele>0.0</ele></rtept>
    <rtept lat="52.309519" lon="4.685704"><ele>0.0</ele></rtept>
    <rtept lat="52.309491" lon="4.685756"><ele>0.0</ele></rtept>
    <rtept lat="52.309377" lon="4.685969"><ele>0.0</ele></rtept>
    <rtept lat="52.309348" lon="4.686022"><ele>0.0</ele></rtept>
    <rtept lat="52.308604" lon="4.687407"><ele>0.0</ele></rtept>
    <rtept lat="52.308533" lon="4.687541"><ele>0.0</ele></rtept>
    <rtept lat="52.308510" lon="4.687595"><ele>0.0</ele></rtept>
    <rtept lat="52.308431" lon="4.687746"><ele>0.0</ele></rtept>
    <rtept lat="52.307707" lon="4.689086"><ele>0.0</ele></rtept>
    <rtept lat="52.307617" lon="4.689253"><ele>0.0</ele></rtept>
    <rtept lat="52.307353" lon="4.689737"><ele>0.0</ele></rtept>
    <rtept lat="52.306661" lon="4.691029"><ele>0.0</ele></rtept>
    <rtept lat="52.306188" lon="4.691911"><ele>0.0</ele></rtept>
    <rtept lat="52.306069" lon="4.692137"><ele>0.0</ele></rtept>
    <rtept lat="52.305991" lon="4.692274"><ele>0.0</ele></rtept>
    <rtept lat="52.305868" lon="4.692513"><ele>0.0</ele></rtept>
    <rtept lat="52.305843" lon="4.692610"><ele>0.0</ele></rtept>
    <rtept lat="52.305768" lon="4.692613"><ele>0.0</ele></rtept>
    <rtept lat="52.305769" lon="4.692690"><ele>0.0</ele></rtept>
    <rtept lat="52.305744" lon="4.692831"><ele>0.0</ele></rtept>
    <rtept lat="52.305709" lon="4.692912"><ele>0.0</ele></rtept>
    <rtept lat="52.305638" lon="4.693003"><ele>0.0</ele></rtept>
    <rtept lat="52.305589" lon="4.693036"><ele>0.0</ele></rtept>
    <rtept lat="52.305519" lon="4.693059"><ele>0.0</ele></rtept>
    <rtept lat="52.305505" lon="4.693122"><ele>0.0</ele></rtept>
    <rtept lat="52.305240" lon="4.693619"><ele>0.0</ele></rtept>
    <rtept lat="52.304705" lon="4.694612"><ele>0.0</ele></rtept>
    <rtept lat="52.303926" lon="4.696029"><ele>0.0</ele></rtept>
    <rtept lat="52.303716" lon="4.696438"><ele>0.0</ele></rtept>
    <rtept lat="52.303564" lon="4.696707"><ele>0.0</ele></rtept>
    <rtept lat="52.303239" lon="4.697326"><ele>0.0</ele></rtept>
    <rtept lat="52.303168" lon="4.697240"><ele>0.0</ele></rtept>
    <rtept lat="52.303000" lon="4.696995"><ele>0.0</ele></rtept>
    <rtept lat="52.302870" lon="4.696809"><ele>0.0</ele></rtept>
    <rtept lat="52.302615" lon="4.696431"><ele>0.0</ele></rtept>
    <rtept lat="52.302470" lon="4.696224"><ele>0.0</ele></rtept>
    <rtept lat="52.302387" lon="4.696133"><ele>0.0</ele></rtept>
    <rtept lat="52.301892" lon="4.697049"><ele>0.0</ele></rtept>
    <rtept lat="52.301701" lon="4.697427"><ele>0.0</ele></rtept>
    <rtept lat="52.301085" lon="4.698576"><ele>0.0</ele></rtept>
    <rtept lat="52.300830" lon="4.699013"><ele>0.0</ele></rtept>
    <rtept lat="52.300778" lon="4.699124"><ele>0.0</ele></rtept>
    <rtept lat="52.300738" lon="4.699191"><ele>0.0</ele></rtept>
    <rtept lat="52.300478" lon="4.699669"><ele>0.0</ele></rtept>
    <rtept lat="52.300024" lon="4.700526"><ele>0.0</ele></rtept>
    <rtept lat="52.299997" lon="4.700639"><ele>0.0</ele></rtept>
    <rtept lat="52.299830" lon="4.700898"><ele>0.0</ele></rtept>
    <rtept lat="52.299784" lon="4.700941"><ele>0.0</ele></rtept>
    <rtept lat="52.299496" lon="4.701480"><ele>0.0</ele></rtept>
    <rtept lat="52.299475" lon="4.701643"><ele>0.0</ele></rtept>
    <rtept lat="52.299471" lon="4.701720"><ele>0.0</ele></rtept>
    <rtept lat="52.299447" lon="4.701794"><ele>0.0</ele></rtept>
    <rtept lat="52.299276" lon="4.702109"><ele>0.0</ele></rtept>
    <rtept lat="52.299199" lon="4.702242"><ele>0.0</ele></rtept>
    <rtept lat="52.298814" lon="4.702961"><ele>0.0</ele></rtept>
    <rtept lat="52.298793" lon="4.702999"><ele>0.0</ele></rtept>
    <rtept lat="52.298697" lon="4.703179"><ele>0.0</ele></rtept>
    <rtept lat="52.298682" lon="4.703218"><ele>0.0</ele></rtept>
    <rtept lat="52.297855" lon="4.702025"><ele>0.0</ele></rtept>
    <rtept lat="52.297741" lon="4.701852"><ele>0.0</ele></rtept>
    <rtept lat="52.297612" lon="4.701813"><ele>0.0</ele></rtept>
    <rtept lat="52.297571" lon="4.701754"><ele>0.0</ele></rtept>
    <rtept lat="52.297465" lon="4.701600"><ele>0.0</ele></rtept>
    <rtept lat="52.296866" lon="4.700728"><ele>0.0</ele></rtept>
    <rtept lat="52.296804" lon="4.700630"><ele>0.0</ele></rtept>
    <rtept lat="52.296747" lon="4.700592"><ele>0.0</ele></rtept>
    <rtept lat="52.296596" lon="4.700588"><ele>0.0</ele></rtept>
    <rtept lat="52.296124" lon="4.699918"><ele>0.0</ele></rtept>
    <rtept lat="52.296066" lon="4.699826"><ele>0.0</ele></rtept>
    <rtept lat="52.296199" lon="4.699596"><ele>0.0</ele></rtept>
    <rtept lat="52.296295" lon="4.699417"><ele>0.0</ele></rtept>
    <rtept lat="52.296342" lon="4.699329"><ele>0.0</ele></rtept>
    <rtept lat="52.296379" lon="4.699261"><ele>0.0</ele></rtept>
    <rtept lat="52.296747" lon="4.698597"><ele>0.0</ele></rtept>
    <rtept lat="52.296801" lon="4.698543"><ele>0.0</ele></rtept>
    <rtept lat="52.296872" lon="4.698447"><ele>0.0</ele></rtept>
    <rtept lat="52.297098" lon="4.698031"><ele>0.0</ele></rtept>
    <rtept lat="52.297117" lon="4.697953"><ele>0.0</ele></rtept>
    <rtept lat="52.297113" lon="4.697793"><ele>0.0</ele></rtept>
    <rtept lat="52.297149" lon="4.697760"><ele>0.0</ele></rtept>
    <rtept lat="52.297237" lon="4.697597"><ele>0.0</ele></rtept>
    <rtept lat="52.297408" lon="4.697282"><ele>0.0</ele></rtept>
    <rtept lat="52.297461" lon="4.697185"><ele>0.0</ele></rtept>
    <rtept lat="52.297535" lon="4.697044"><ele>0.0</ele></rtept>
    <rtept lat="52.297540" lon="4.697034"><ele>0.0</ele></rtept>
    <rtept lat="52.297616" lon="4.696893"><ele>0.0</ele></rtept>
    <rtept lat="52.297797" lon="4.696558"><ele>0.0</ele></rtept>
    <rtept lat="52.298052" lon="4.696086"><ele>0.0</ele></rtept>
    <rtept lat="52.298211" lon="4.695791"><ele>0.0</ele></rtept>
    <rtept lat="52.298494" lon="4.695263"><ele>0.0</ele></rtept>
    <rtept lat="52.298544" lon="4.695171"><ele>0.0</ele></rtept>
    <rtept lat="52.298625" lon="4.695017"><ele>0.0</ele></rtept>
    <rtept lat="52.298651" lon="4.694969"><ele>0.0</ele></rtept>
    <rtept lat="52.298703" lon="4.694875"><ele>0.0</ele></rtept>
    <rtept lat="52.298830" lon="4.694641"><ele>0.0</ele></rtept>
    <rtept lat="52.299042" lon="4.694251"><ele>0.0</ele></rtept>
    <rtept lat="52.299246" lon="4.693717"><ele>0.0</ele></rtept>
    <rtept lat="52.299281" lon="4.693618"><ele>0.0</ele></rtept>
    <rtept lat="52.299318" lon="4.693504"><ele>0.0</ele></rtept>
    <rtept lat="52.299347" lon="4.693410"><ele>0.0</ele></rtept>
    <rtept lat="52.299253" lon="4.693301"><ele>0.0</ele></rtept>
    <rtept lat="52.299175" lon="4.693201"><ele>0.0</ele></rtept>
    <rtept lat="52.299122" lon="4.693184"><ele>0.0</ele></rtept>
    <rtept lat="52.298978" lon="4.692983"><ele>0.0</ele></rtept>
    <rtept lat="52.298821" lon="4.692756"><ele>0.0</ele></rtept>
    <rtept lat="52.298187" lon="4.691853"><ele>0.0</ele></rtept>
    <rtept lat="52.298059" lon="4.691697"><ele>0.0</ele></rtept>
    <rtept lat="52.298110" lon="4.691604"><ele>0.0</ele></rtept>
    <rtept lat="52.297919" lon="4.691329"><ele>0.0</ele></rtept>
    <rtept lat="52.297939" lon="4.691299"><ele>0.0</ele></rtept>
    <rtept lat="52.298248" lon="4.690911"><ele>0.0</ele></rtept>
    <rtept lat="52.299064" lon="4.689992"><ele>0.0</ele></rtept>
    <rtept lat="52.299165" lon="4.689902"><ele>0.0</ele></rtept>
    <rtept lat="52.299361" lon="4.689818"><ele>0.0</ele></rtept>
    <rtept lat="52.299440" lon="4.689733"><ele>0.0</ele></rtept>
    <rtept lat="52.299756" lon="4.689222"><ele>0.0</ele></rtept>
    <rtept lat="52.300396" lon="4.688473"><ele>0.0</ele></rtept>
    <rtept lat="52.301099" lon="4.687205"><ele>0.0</ele></rtept>
    <rtept lat="52.301131" lon="4.687142"><ele>0.0</ele></rtept>
    <rtept lat="52.301133" lon="4.687138"><ele>0.0</ele></rtept>
    <rtept lat="52.301193" lon="4.687015"><ele>0.0</ele></rtept>
    <rtept lat="52.301226" lon="4.686947"><ele>0.0</ele></rtept>
    <rtept lat="52.301258" lon="4.686885"><ele>0.0</ele></rtept>
    <rtept lat="52.301293" lon="4.686820"><ele>0.0</ele></rtept>
    <rtept lat="52.301330" lon="4.686744"><ele>0.0</ele></rtept>
    <rtept lat="52.301411" lon="4.686587"><ele>0.0</ele></rtept>
    <rtept lat="52.301477" lon="4.686454"><ele>0.0</ele></rtept>
    <rtept lat="52.301874" lon="4.687020"><ele>0.0</ele></rtept>
    <rtept lat="52.301971" lon="4.686838"><ele>0.0</ele></rtept>
    <rtept lat="52.302041" lon="4.686756"><ele>0.0</ele></rtept>
    <rtept lat="52.302219" lon="4.686402"><ele>0.0</ele></rtept>
    <rtept lat="52.302256" lon="4.686265"><ele>0.0</ele></rtept>
    <rtept lat="52.302331" lon="4.686119"><ele>0.0</ele></rtept>
    <rtept lat="52.302372" lon="4.686068"><ele>0.0</ele></rtept>
    <rtept lat="52.302423" lon="4.685960"><ele>0.0</ele></rtept>
    <rtept lat="52.302540" lon="4.685804"><ele>0.0</ele></rtept>
    <rtept lat="52.302771" lon="4.685520"><ele>0.0</ele></rtept>
    <rtept lat="52.303071" lon="4.685109"><ele>0.0</ele></rtept>
    <rtept lat="52.303243" lon="4.685068"><ele>0.0</ele></rtept>
    <rtept lat="52.304362" lon="4.685013"><ele>0.0</ele></rtept>
    <rtept lat="52.306701" lon="4.684116"><ele>0.0</ele></rtept>
    <rtept lat="52.306759" lon="4.684125"><ele>0.0</ele></rtept>
    <rtept lat="52.306818" lon="4.684145"><ele>0.0</ele></rtept>
    <rtept lat="52.306886" lon="4.684134"><ele>0.0</ele></rtept>
    <rtept lat="52.306957" lon="4.684078"><ele>0.0</ele></rtept>
    <rtept lat="52.307013" lon="4.684035"><ele>0.0</ele></rtept>
    <rtept lat="52.307083" lon="4.683992"><ele>0.0</ele></rtept>
    <rtept lat="52.309805" lon="4.682955"><ele>0.0</ele></rtept>
    <rtept lat="52.309896" lon="4.682829"><ele>0.0</ele></rtept>
    <rtept lat="52.309914" lon="4.682801"><ele>0.0</ele></rtept>
    <rtept lat="52.309972" lon="4.682735"><ele>0.0</ele></rtept>
    <rtept lat="52.310029" lon="4.682669"><ele>0.0</ele></rtept>
    <rtept lat="52.310104" lon="4.682643"><ele>0.0</ele></rtept>
    <rtept lat="52.310165" lon="4.682607"><ele>0.0</ele></rtept>
    <rtept lat="52.310195" lon="4.682554"><ele>0.0</ele></rtept>
    <rtept lat="52.310267" lon="4.682425"><ele>0.0</ele></rtept>
    <rtept lat="52.311073" lon="4.682099"><ele>0.0</ele></rtept>
    <rtept lat="52.311101" lon="4.682063"><ele>0.0</ele></rtept>
    <rtept lat="52.311128" lon="4.681877"><ele>0.0</ele></rtept>
    <rtept lat="52.311289" lon="4.681581"><ele>0.0</ele></rtept>
    <rtept lat="52.311303" lon="4.681492"><ele>0.0</ele></rtept>
    <rtept lat="52.311264" lon="4.680905"><ele>0.0</ele></rtept>
    <rtept lat="52.311282" lon="4.680873"><ele>0.0</ele></rtept>
    <rtept lat="52.311386" lon="4.680680"><ele>0.0</ele></rtept>
    <rtept lat="52.311406" lon="4.680648"><ele>0.0</ele></rtept>
    <rtept lat="52.311812" lon="4.679892"><ele>0.0</ele></rtept>
    <rtept lat="52.311920" lon="4.679714"><ele>0.0</ele></rtept>
    <rtept lat="52.311982" lon="4.679652"><ele>0.0</ele></rtept>
    <rtept lat="52.312364" lon="4.679585"><ele>0.0</ele></rtept>
    <rtept lat="52.312438" lon="4.679521"><ele>0.0</ele></rtept>
    <rtept lat="52.313262" lon="4.678002"><ele>0.0</ele></rtept>
    <rtept lat="52.313425" lon="4.678245"><ele>0.0</ele></rtept>
    <rtept lat="52.313446" lon="4.678277"><ele>0.0</ele></rtept>
    <rtept lat="52.313482" lon="4.678327"><ele>0.0</ele></rtept>
    <rtept lat="52.313535" lon="4.678398"><ele>0.0</ele></rtept>
    <rtept lat="52.313628" lon="4.678219"><ele>0.0</ele></rtept>
    <rtept lat="52.313729" lon="4.677965"><ele>0.0</ele></rtept>
    <rtept lat="52.314085" lon="4.677312"><ele>0.0</ele></rtept>
    <rtept lat="52.314095" lon="4.677293"><ele>0.0</ele></rtept>
    <rtept lat="52.314531" lon="4.676496"><ele>0.0</ele></rtept>
    <rtept lat="52.314760" lon="4.676338"><ele>0.0</ele></rtept>
    <rtept lat="52.314847" lon="4.676288"><ele>0.0</ele></rtept>
    <rtept lat="52.315034" lon="4.676073"><ele>0.0</ele></rtept>
    <rtept lat="52.315070" lon="4.676151"><ele>0.0</ele></rtept>
    <rtept lat="52.315110" lon="4.676187"><ele>0.0</ele></rtept>
    <rtept lat="52.315653" lon="4.676314"><ele>0.0</ele></rtept>
    <rtept lat="52.316017" lon="4.676298"><ele>0.0</ele></rtept>
    <rtept lat="52.316606" lon="4.676027"><ele>0.0</ele></rtept>
    <rtept lat="52.316810" lon="4.675921"><ele>0.0</ele></rtept>
    <rtept lat="52.316870" lon="4.675853"><ele>0.0</ele></rtept>
    <rtept lat="52.317003" lon="4.675585"><ele>0.0</ele></rtept>
    <rtept lat="52.317025" lon="4.675538"><ele>0.0</ele></rtept>
    <rtept lat="52.317210" lon="4.675193"><ele>0.0</ele></rtept>
    <rtept lat="52.317303" lon="4.675019"><ele>0.0</ele></rtept>
    <rtept lat="52.317405" lon="4.674905"><ele>0.0</ele></rtept>
    <rtept lat="52.317615" lon="4.674763"><ele>0.0</ele></rtept>
    <rtept lat="52.317800" lon="4.674647"><ele>0.0</ele></rtept>
    <rtept lat="52.317922" lon="4.674626"><ele>0.0</ele></rtept>
    <rtept lat="52.317976" lon="4.674592"><ele>0.0</ele></rtept>
    <rtept lat="52.318052" lon="4.674542"><ele>0.0</ele></rtept>
    <rtept lat="52.318116" lon="4.674500"><ele>0.0</ele></rtept>
    <rtept lat="52.318207" lon="4.674403"><ele>0.0</ele></rtept>
    <rtept lat="52.318504" lon="4.674212"><ele>0.0</ele></rtept>
    <rtept lat="52.318560" lon="4.674159"><ele>0.0</ele></rtept>
    <rtept lat="52.319223" lon="4.672942"><ele>0.0</ele></rtept>
    <rtept lat="52.319302" lon="4.672851"><ele>0.0</ele></rtept>
    <rtept lat="52.319400" lon="4.672667"><ele>0.0</ele></rtept>
    <rtept lat="52.319445" lon="4.672591"><ele>0.0</ele></rtept>
    <rtept lat="52.319540" lon="4.672419"><ele>0.0</ele></rtept>
    <rtept lat="52.319592" lon="4.672510"><ele>0.0</ele></rtept>
    <rtept lat="52.319656" lon="4.672806"><ele>0.0</ele></rtept>
    <rtept lat="52.319832" lon="4.673072"><ele>0.0</ele></rtept>
    <rtept lat="52.320410" lon="4.673895"><ele>0.0</ele></rtept>
    <rtept lat="52.320973" lon="4.674710"><ele>0.0</ele></rtept>
    <rtept lat="52.321197" lon="4.675030"><ele>0.0</ele></rtept>
    <rtept lat="52.321303" lon="4.675143"><ele>0.0</ele></rtept>
    <rtept lat="52.321478" lon="4.674828"><ele>0.0</ele></rtept>
    <rtept lat="52.321511" lon="4.674794"><ele>0.0</ele></rtept>
    <rtept lat="52.321627" lon="4.674741"><ele>0.0</ele></rtept>
    <rtept lat="52.321759" lon="4.674719"><ele>0.0</ele></rtept>
    <rtept lat="52.321861" lon="4.674390"><ele>0.0</ele></rtept>
    <rtept lat="52.321970" lon="4.674220"><ele>0.0</ele></rtept>
    <rtept lat="52.322043" lon="4.674141"><ele>0.0</ele></rtept>
    <rtept lat="52.322150" lon="4.674106"><ele>0.0</ele></rtept>
    <rtept lat="52.322197" lon="4.674157"><ele>0.0</ele></rtept>
    <rtept lat="52.322223" lon="4.674245"><ele>0.0</ele></rtept>
    <rtept lat="52.322577" lon="4.674151"><ele>0.0</ele></rtept>
    <rtept lat="52.322741" lon="4.674136"><ele>0.0</ele></rtept>
    <rtept lat="52.322903" lon="4.674161"><ele>0.0</ele></rtept>
    <rtept lat="52.323058" lon="4.674233"><ele>0.0</ele></rtept>
    <rtept lat="52.323139" lon="4.674263"><ele>0.0</ele></rtept>
    <rtept lat="52.323194" lon="4.673896"><ele>0.0</ele></rtept>
    <rtept lat="52.323200" lon="4.673826"><ele>0.0</ele></rtept>
    <rtept lat="52.323208" lon="4.673713"><ele>0.0</ele></rtept>
    <rtept lat="52.323245" lon="4.673476"><ele>0.0</ele></rtept>
    <rtept lat="52.323455" lon="4.672941"><ele>0.0</ele></rtept>
    <rtept lat="52.323527" lon="4.672704"><ele>0.0</ele></rtept>
    <rtept lat="52.323694" lon="4.672230"><ele>0.0</ele></rtept>
    <rtept lat="52.323765" lon="4.671981"><ele>0.0</ele></rtept>
    <rtept lat="52.323897" lon="4.671353"><ele>0.0</ele></rtept>
    <rtept lat="52.324135" lon="4.670675"><ele>0.0</ele></rtept>
    <rtept lat="52.324271" lon="4.670404"><ele>0.0</ele></rtept>
    <rtept lat="52.324422" lon="4.670134"><ele>0.0</ele></rtept>
    <rtept lat="52.324605" lon="4.669899"><ele>0.0</ele></rtept>
    <rtept lat="52.324761" lon="4.669725"><ele>0.0</ele></rtept>
    <rtept lat="52.324876" lon="4.669621"><ele>0.0</ele></rtept>
    <rtept lat="52.325229" lon="4.669228"><ele>0.0</ele></rtept>
    <rtept lat="52.325375" lon="4.669155"><ele>0.0</ele></rtept>
    <rtept lat="52.325487" lon="4.669050"><ele>0.0</ele></rtept>
    <rtept lat="52.325529" lon="4.668962"><ele>0.0</ele></rtept>
    <rtept lat="52.325699" lon="4.668401"><ele>0.0</ele></rtept>
    <rtept lat="52.325842" lon="4.667832"><ele>0.0</ele></rtept>
    <rtept lat="52.325980" lon="4.667515"><ele>0.0</ele></rtept>
    <rtept lat="52.325998" lon="4.667489"><ele>0.0</ele></rtept>
    <rtept lat="52.326441" lon="4.667245"><ele>0.0</ele></rtept>
    <rtept lat="52.326646" lon="4.667029"><ele>0.0</ele></rtept>
    <rtept lat="52.326705" lon="4.666923"><ele>0.0</ele></rtept>
    <rtept lat="52.326862" lon="4.666520"><ele>0.0</ele></rtept>
    <rtept lat="52.326891" lon="4.666440"><ele>0.0</ele></rtept>
    <rtept lat="52.326994" lon="4.666317"><ele>0.0</ele></rtept>
    <rtept lat="52.327245" lon="4.666208"><ele>0.0</ele></rtept>
    <rtept lat="52.327460" lon="4.666142"><ele>0.0</ele></rtept>
    <rtept lat="52.327669" lon="4.665743"><ele>0.0</ele></rtept>
    <rtept lat="52.327732" lon="4.665623"><ele>0.0</ele></rtept>
    <rtept lat="52.327847" lon="4.665403"><ele>0.0</ele></rtept>
    <rtept lat="52.327873" lon="4.665354"><ele>0.0</ele></rtept>
    <rtept lat="52.327981" lon="4.665150"><ele>0.0</ele></rtept>
    <rtept lat="52.328025" lon="4.665071"><ele>0.0</ele></rtept>
    <rtept lat="52.328117" lon="4.664893"><ele>0.0</ele></rtept>
    <rtept lat="52.328383" lon="4.664442"><ele>0.0</ele></rtept>
    <rtept lat="52.328516" lon="4.664281"><ele>0.0</ele></rtept>
    <rtept lat="52.328658" lon="4.664138"><ele>0.0</ele></rtept>
    <rtept lat="52.329032" lon="4.663892"><ele>0.0</ele></rtept>
    <rtept lat="52.329106" lon="4.663757"><ele>0.0</ele></rtept>
    <rtept lat="52.329182" lon="4.663665"><ele>0.0</ele></rtept>
    <rtept lat="52.329356" lon="4.663671"><ele>0.0</ele></rtept>
    <rtept lat="52.329425" lon="4.663651"><ele>0.0</ele></rtept>
    <rtept lat="52.329751" lon="4.663456"><ele>0.0</ele></rtept>
    <rtept lat="52.330127" lon="4.663227"><ele>0.0</ele></rtept>
    <rtept lat="52.330399" lon="4.663079"><ele>0.0</ele></rtept>
    <rtept lat="52.330788" lon="4.662873"><ele>0.0</ele></rtept>
    <rtept lat="52.330809" lon="4.662862"><ele>0.0</ele></rtept>
    <rtept lat="52.330974" lon="4.662770"><ele>0.0</ele></rtept>
    <rtept lat="52.331095" lon="4.662699"><ele>0.0</ele></rtept>
    <rtept lat="52.330676" lon="4.660698"><ele>0.0</ele></rtept>
    <rtept lat="52.330668" lon="4.660661"><ele>0.0</ele></rtept>
    <rtept lat="52.330632" lon="4.660507"><ele>0.0</ele></rtept>
    <rtept lat="52.330628" lon="4.660482"><ele>0.0</ele></rtept>
    <rtept lat="52.330585" lon="4.660281"><ele>0.0</ele></rtept>
    <rtept lat="52.330598" lon="4.660138"><ele>0.0</ele></rtept>
    <rtept lat="52.331189" lon="4.659050"><ele>0.0</ele></rtept>
    <rtept lat="52.333187" lon="4.655387"><ele>0.0</ele></rtept>
    <rtept lat="52.333224" lon="4.655307"><ele>0.0</ele></rtept>
    <rtept lat="52.333845" lon="4.655259"><ele>0.0</ele></rtept>
    <rtept lat="52.334082" lon="4.654797"><ele>0.0</ele></rtept>
    <rtept lat="52.334239" lon="4.654503"><ele>0.0</ele></rtept>
    <rtept lat="52.334341" lon="4.654314"><ele>0.0</ele></rtept>
    <rtept lat="52.334472" lon="4.654075"><ele>0.0</ele></rtept>
    <rtept lat="52.334616" lon="4.654284"><ele>0.0</ele></rtept>
    <rtept lat="52.335240" lon="4.653117"><ele>0.0</ele></rtept>
    <rtept lat="52.335329" lon="4.652958"><ele>0.0</ele></rtept>
    <rtept lat="52.335480" lon="4.652674"><ele>0.0</ele></rtept>
    <rtept lat="52.335770" lon="4.652129"><ele>0.0</ele></rtept>
    <rtept lat="52.336089" lon="4.651531"><ele>0.0</ele></rtept>
    <rtept lat="52.336316" lon="4.651106"><ele>0.0</ele></rtept>
    <rtept lat="52.336413" lon="4.650926"><ele>0.0</ele></rtept>
    <rtept lat="52.336640" lon="4.650501"><ele>0.0</ele></rtept>
    <rtept lat="52.336879" lon="4.650054"><ele>0.0</ele></rtept>
    <rtept lat="52.336898" lon="4.650018"><ele>0.0</ele></rtept>
    <rtept lat="52.337156" lon="4.649537"><ele>0.0</ele></rtept>
    <rtept lat="52.337442" lon="4.649002"><ele>0.0</ele></rtept>
    <rtept lat="52.337525" lon="4.648846"><ele>0.0</ele></rtept>
    <rtept lat="52.337857" lon="4.648242"><ele>0.0</ele></rtept>
    <rtept lat="52.338066" lon="4.647864"><ele>0.0</ele></rtept>
    <rtept lat="52.338343" lon="4.647357"><ele>0.0</ele></rtept>
    <rtept lat="52.338416" lon="4.647218"><ele>0.0</ele></rtept>
    <rtept lat="52.338585" lon="4.646916"><ele>0.0</ele></rtept>
    <rtept lat="52.338598" lon="4.646848"><ele>0.0</ele></rtept>
    <rtept lat="52.338609" lon="4.646795"><ele>0.0</ele></rtept>
    <rtept lat="52.338687" lon="4.646762"><ele>0.0</ele></rtept>
    <rtept lat="52.338729" lon="4.646795"><ele>0.0</ele></rtept>
    <rtept lat="52.338939" lon="4.646973"><ele>0.0</ele></rtept>
    <rtept lat="52.338980" lon="4.647058"><ele>0.0</ele></rtept>
    <rtept lat="52.339474" lon="4.646640"><ele>0.0</ele></rtept>
    <rtept lat="52.339580" lon="4.647310"><ele>0.0</ele></rtept>
    <rtept lat="52.339680" lon="4.647815"><ele>0.0</ele></rtept>
    <rtept lat="52.339721" lon="4.647795"><ele>0.0</ele></rtept>
    <rtept lat="52.339712" lon="4.647744"><ele>0.0</ele></rtept>
    <rtept lat="52.339726" lon="4.647736"><ele>0.0</ele></rtept>
    <rtept lat="52.340053" lon="4.647559"><ele>0.0</ele></rtept>
    <rtept lat="52.340080" lon="4.647544"><ele>0.0</ele></rtept>
    <rtept lat="52.340255" lon="4.648278"><ele>0.0</ele></rtept>
    <rtept lat="52.340435" lon="4.648894"><ele>0.0</ele></rtept>
    <rtept lat="52.340674" lon="4.649522"><ele>0.0</ele></rtept>
    <rtept lat="52.341459" lon="4.651327"><ele>0.0</ele></rtept>
    <rtept lat="52.341595" lon="4.651586"><ele>0.0</ele></rtept>
    <rtept lat="52.341685" lon="4.651698"><ele>0.0</ele></rtept>
    <rtept lat="52.341754" lon="4.651698"><ele>0.0</ele></rtept>
    <rtept lat="52.341957" lon="4.651794"><ele>0.0</ele></rtept>
    <rtept lat="52.342013" lon="4.651801"><ele>0.0</ele></rtept>
    <rtept lat="52.342064" lon="4.651800"><ele>0.0</ele></rtept>
    <rtept lat="52.342335" lon="4.651730"><ele>0.0</ele></rtept>
    <rtept lat="52.342369" lon="4.651696"><ele>0.0</ele></rtept>
    <rtept lat="52.342425" lon="4.650730"><ele>0.0</ele></rtept>
    <rtept lat="52.342485" lon="4.650390"><ele>0.0</ele></rtept>
    <rtept lat="52.342556" lon="4.650180"><ele>0.0</ele></rtept>
    <rtept lat="52.342666" lon="4.649972"><ele>0.0</ele></rtept>
    <rtept lat="52.343001" lon="4.649581"><ele>0.0</ele></rtept>
    <rtept lat="52.343159" lon="4.649484"><ele>0.0</ele></rtept>
    <rtept lat="52.343416" lon="4.649421"><ele>0.0</ele></rtept>
    <rtept lat="52.343613" lon="4.649427"><ele>0.0</ele></rtept>
    <rtept lat="52.343773" lon="4.649476"><ele>0.0</ele></rtept>
    <rtept lat="52.343950" lon="4.649604"><ele>0.0</ele></rtept>
    <rtept lat="52.344176" lon="4.649928"><ele>0.0</ele></rtept>
    <rtept lat="52.344881" lon="4.651016"><ele>0.0</ele></rtept>
    <rtept lat="52.344940" lon="4.651020"><ele>0.0</ele></rtept>
    <rtept lat="52.345066" lon="4.650982"><ele>0.0</ele></rtept>
    <rtept lat="52.345236" lon="4.650922"><ele>0.0</ele></rtept>
    <rtept lat="52.345388" lon="4.651110"><ele>0.0</ele></rtept>
    <rtept lat="52.345436" lon="4.652011"><ele>0.0</ele></rtept>
    <rtept lat="52.345513" lon="4.652414"><ele>0.0</ele></rtept>
    <rtept lat="52.345667" lon="4.652911"><ele>0.0</ele></rtept>
    <rtept lat="52.346012" lon="4.653697"><ele>0.0</ele></rtept>
    <rtept lat="52.346234" lon="4.654221"><ele>0.0</ele></rtept>
    <rtept lat="52.346377" lon="4.654461"><ele>0.0</ele></rtept>
    <rtept lat="52.346476" lon="4.654604"><ele>0.0</ele></rtept>
    <rtept lat="52.346709" lon="4.654815"><ele>0.0</ele></rtept>
    <rtept lat="52.346819" lon="4.654898"><ele>0.0</ele></rtept>
    <rtept lat="52.347350" lon="4.655372"><ele>0.0</ele></rtept>
    <rtept lat="52.347802" lon="4.656989"><ele>0.0</ele></rtept>
    <rtept lat="52.347871" lon="4.657263"><ele>0.0</ele></rtept>
    <rtept lat="52.348028" lon="4.657212"><ele>0.0</ele></rtept>
    <rtept lat="52.348146" lon="4.657134"><ele>0.0</ele></rtept>
    <rtept lat="52.348360" lon="4.656988"><ele>0.0</ele></rtept>
    <rtept lat="52.348946" lon="4.656599"><ele>0.0</ele></rtept>
    <rtept lat="52.349204" lon="4.656432"><ele>0.0</ele></rtept>
    <rtept lat="52.349223" lon="4.656509"><ele>0.0</ele></rtept>
    <rtept lat="52.349307" lon="4.656840"><ele>0.0</ele></rtept>
    <rtept lat="52.349378" lon="4.657136"><ele>0.0</ele></rtept>
    <rtept lat="52.349629" lon="4.657056"><ele>0.0</ele></rtept>
    <rtept lat="52.350036" lon="4.656895"><ele>0.0</ele></rtept>
    <rtept lat="52.350295" lon="4.656797"><ele>0.0</ele></rtept>
    <rtept lat="52.350389" lon="4.656764"><ele>0.0</ele></rtept>
    <rtept lat="52.350618" lon="4.656604"><ele>0.0</ele></rtept>
    <rtept lat="52.350918" lon="4.656243"><ele>0.0</ele></rtept>
    <rtept lat="52.350786" lon="4.655736"><ele>0.0</ele></rtept>
    <rtept lat="52.350722" lon="4.655495"><ele>0.0</ele></rtept>
    <rtept lat="52.350713" lon="4.655459"><ele>0.0</ele></rtept>
    <rtept lat="52.350811" lon="4.655391"><ele>0.0</ele></rtept>
    <rtept lat="52.350866" lon="4.655353"><ele>0.0</ele></rtept>
    <rtept lat="52.350980" lon="4.655276"><ele>0.0</ele></rtept>
    <rtept lat="52.351047" lon="4.655272"><ele>0.0</ele></rtept>
    <rtept lat="52.351114" lon="4.655229"><ele>0.0</ele></rtept>
    <rtept lat="52.351185" lon="4.655180"><ele>0.0</ele></rtept>
    <rtept lat="52.351231" lon="4.655094"><ele>0.0</ele></rtept>
    <rtept lat="52.351301" lon="4.655048"><ele>0.0</ele></rtept>
    <rtept lat="52.351612" lon="4.654882"><ele>0.0</ele></rtept>
    <rtept lat="52.351590" lon="4.654813"><ele>0.0</ele></rtept>
    <rtept lat="52.351731" lon="4.654793"><ele>0.0</ele></rtept>
    <rtept lat="52.352156" lon="4.654786"><ele>0.0</ele></rtept>
    <rtept lat="52.352156" lon="4.654831"><ele>0.0</ele></rtept>
    <rtept lat="52.352801" lon="4.654823"><ele>0.0</ele></rtept>
    <rtept lat="52.352927" lon="4.654821"><ele>0.0</ele></rtept>
    <rtept lat="52.353138" lon="4.654814"><ele>0.0</ele></rtept>
    <rtept lat="52.353194" lon="4.654813"><ele>0.0</ele></rtept>
    <rtept lat="52.353264" lon="4.654814"><ele>0.0</ele></rtept>
    <rtept lat="52.353325" lon="4.654862"><ele>0.0</ele></rtept>
    <rtept lat="52.353576" lon="4.654870"><ele>0.0</ele></rtept>
    <rtept lat="52.353647" lon="4.654847"><ele>0.0</ele></rtept>
    <rtept lat="52.354127" lon="4.654831"><ele>0.0</ele></rtept>
    <rtept lat="52.354181" lon="4.654880"><ele>0.0</ele></rtept>
    <rtept lat="52.354234" lon="4.654883"><ele>0.0</ele></rtept>
    <rtept lat="52.354286" lon="4.654875"><ele>0.0</ele></rtept>
    <rtept lat="52.354343" lon="4.654865"><ele>0.0</ele></rtept>
    <rtept lat="52.354383" lon="4.654791"><ele>0.0</ele></rtept>
    <rtept lat="52.354582" lon="4.654610"><ele>0.0</ele></rtept>
    <rtept lat="52.354857" lon="4.654336"><ele>0.0</ele></rtept>
    <rtept lat="52.355102" lon="4.654089"><ele>0.0</ele></rtept>
    <rtept lat="52.355348" lon="4.653602"><ele>0.0</ele></rtept>
    <rtept lat="52.355447" lon="4.653387"><ele>0.0</ele></rtept>
    <rtept lat="52.355506" lon="4.653269"><ele>0.0</ele></rtept>
    <rtept lat="52.355523" lon="4.653267"><ele>0.0</ele></rtept>
    <rtept lat="52.355619" lon="4.653326"><ele>0.0</ele></rtept>
    <rtept lat="52.355910" lon="4.653484"><ele>0.0</ele></rtept>
    <rtept lat="52.356053" lon="4.653510"><ele>0.0</ele></rtept>
    <rtept lat="52.356272" lon="4.653494"><ele>0.0</ele></rtept>
    <rtept lat="52.356404" lon="4.653460"><ele>0.0</ele></rtept>
    <rtept lat="52.356452" lon="4.653449"><ele>0.0</ele></rtept>
    <rtept lat="52.356813" lon="4.653357"><ele>0.0</ele></rtept>
    <rtept lat="52.356883" lon="4.653437"><ele>0.0</ele></rtept>
    <rtept lat="52.356955" lon="4.653484"><ele>0.0</ele></rtept>
    <rtept lat="52.357045" lon="4.653480"><ele>0.0</ele></rtept>
    <rtept lat="52.357132" lon="4.653378"><ele>0.0</ele></rtept>
    <rtept lat="52.357206" lon="4.653257"><ele>0.0</ele></rtept>
    <rtept lat="52.357489" lon="4.653170"><ele>0.0</ele></rtept>
    <rtept lat="52.357534" lon="4.653126"><ele>0.0</ele></rtept>
    <rtept lat="52.358212" lon="4.652945"><ele>0.0</ele></rtept>
    <rtept lat="52.358760" lon="4.652870"><ele>0.0</ele></rtept>
    <rtept lat="52.358933" lon="4.652817"><ele>0.0</ele></rtept>
    <rtept lat="52.359366" lon="4.652714"><ele>0.0</ele></rtept>
    <rtept lat="52.360114" lon="4.652458"><ele>0.0</ele></rtept>
    <rtept lat="52.360177" lon="4.652473"><ele>0.0</ele></rtept>
    <rtept lat="52.360202" lon="4.652505"><ele>0.0</ele></rtept>
    <rtept lat="52.360233" lon="4.652646"><ele>0.0</ele></rtept>
    <rtept lat="52.360253" lon="4.653322"><ele>0.0</ele></rtept>
    <rtept lat="52.360285" lon="4.653486"><ele>0.0</ele></rtept>
    <rtept lat="52.360367" lon="4.653773"><ele>0.0</ele></rtept>
    <rtept lat="52.360403" lon="4.654166"><ele>0.0</ele></rtept>
    <rtept lat="52.360461" lon="4.654152"><ele>0.0</ele></rtept>
    <rtept lat="52.360621" lon="4.654102"><ele>0.0</ele></rtept>
    <rtept lat="52.360711" lon="4.654127"><ele>0.0</ele></rtept>
    <rtept lat="52.360742" lon="4.654147"><ele>0.0</ele></rtept>
    <rtept lat="52.360844" lon="4.654168"><ele>0.0</ele></rtept>
    <rtept lat="52.361216" lon="4.654163"><ele>0.0</ele></rtept>
    <rtept lat="52.361326" lon="4.654162"><ele>0.0</ele></rtept>
    <rtept lat="52.361412" lon="4.654126"><ele>0.0</ele></rtept>
    <rtept lat="52.361570" lon="4.654125"><ele>0.0</ele></rtept>
    <rtept lat="52.361783" lon="4.654123"><ele>0.0</ele></rtept>
    <rtept lat="52.362071" lon="4.654118"><ele>0.0</ele></rtept>
    <rtept lat="52.362123" lon="4.654117"><ele>0.0</ele></rtept>
    <rtept lat="52.362590" lon="4.654102"><ele>0.0</ele></rtept>
    <rtept lat="52.362878" lon="4.654092"><ele>0.0</ele></rtept>
    <rtept lat="52.363395" lon="4.654083"><ele>0.0</ele></rtept>
    <rtept lat="52.364269" lon="4.654060"><ele>0.0</ele></rtept>
    <rtept lat="52.364322" lon="4.654021"><ele>0.0</ele></rtept>
    <rtept lat="52.364433" lon="4.653981"><ele>0.0</ele></rtept>
    <rtept lat="52.364513" lon="4.653978"><ele>0.0</ele></rtept>
    <rtept lat="52.364581" lon="4.653989"><ele>0.0</ele></rtept>
    <rtept lat="52.364782" lon="4.654057"><ele>0.0</ele></rtept>
    <rtept lat="52.365750" lon="4.654064"><ele>0.0</ele></rtept>
    <rtept lat="52.365789" lon="4.654064"><ele>0.0</ele></rtept>
    <rtept lat="52.366357" lon="4.654069"><ele>0.0</ele></rtept>
    <rtept lat="52.366848" lon="4.654073"><ele>0.0</ele></rtept>
    <rtept lat="52.367097" lon="4.654035"><ele>0.0</ele></rtept>
    <rtept lat="52.367538" lon="4.654010"><ele>0.0</ele></rtept>
    <rtept lat="52.367578" lon="4.653977"><ele>0.0</ele></rtept>
    <rtept lat="52.367619" lon="4.653893"><ele>0.0</ele></rtept>
    <rtept lat="52.367730" lon="4.653866"><ele>0.0</ele></rtept>
    <rtept lat="52.367835" lon="4.653868"><ele>0.0</ele></rtept>
    <rtept lat="52.367914" lon="4.653873"><ele>0.0</ele></rtept>
    <rtept lat="52.367956" lon="4.653903"><ele>0.0</ele></rtept>
    <rtept lat="52.368048" lon="4.653989"><ele>0.0</ele></rtept>
    <rtept lat="52.368746" lon="4.654020"><ele>0.0</ele></rtept>
    <rtept lat="52.368986" lon="4.654073"><ele>0.0</ele></rtept>
    <rtept lat="52.369718" lon="4.654141"><ele>0.0</ele></rtept>
    <rtept lat="52.369915" lon="4.654083"><ele>0.0</ele></rtept>
    <rtept lat="52.370021" lon="4.654058"><ele>0.0</ele></rtept>
    <rtept lat="52.370091" lon="4.654053"><ele>0.0</ele></rtept>
    <rtept lat="52.370213" lon="4.654051"><ele>0.0</ele></rtept>
    <rtept lat="52.370315" lon="4.654049"><ele>0.0</ele></rtept>
    <rtept lat="52.370383" lon="4.654046"><ele>0.0</ele></rtept>
    <rtept lat="52.370538" lon="4.654082"><ele>0.0</ele></rtept>
    <rtept lat="52.370725" lon="4.654174"><ele>0.0</ele></rtept>
    <rtept lat="52.370859" lon="4.654271"><ele>0.0</ele></rtept>
    <rtept lat="52.371236" lon="4.654599"><ele>0.0</ele></rtept>
    <rtept lat="52.371585" lon="4.654921"><ele>0.0</ele></rtept>
    <rtept lat="52.371732" lon="4.655058"><ele>0.0</ele></rtept>
    <rtept lat="52.371869" lon="4.655171"><ele>0.0</ele></rtept>
    <rtept lat="52.372940" lon="4.656054"><ele>0.0</ele></rtept>
    <rtept lat="52.374345" lon="4.657221"><ele>0.0</ele></rtept>
    <rtept lat="52.374521" lon="4.657375"><ele>0.0</ele></rtept>
    <rtept lat="52.374915" lon="4.657845"><ele>0.0</ele></rtept>
    <rtept lat="52.375156" lon="4.658134"><ele>0.0</ele></rtept>
    <rtept lat="52.375240" lon="4.658240"><ele>0.0</ele></rtept>
    <rtept lat="52.375421" lon="4.658427"><ele>0.0</ele></rtept>
    <rtept lat="52.375447" lon="4.658454"><ele>0.0</ele></rtept>
    <rtept lat="52.375661" lon="4.658648"><ele>0.0</ele></rtept>
    <rtept lat="52.376522" lon="4.659138"><ele>0.0</ele></rtept>
    <rtept lat="52.376692" lon="4.659214"><ele>0.0</ele></rtept>
    <rtept lat="52.377331" lon="4.659496"><ele>0.0</ele></rtept>
    <rtept lat="52.378160" lon="4.659899"><ele>0.0</ele></rtept>
    <rtept lat="52.378179" lon="4.659797"><ele>0.0</ele></rtept>
    <rtept lat="52.378203" lon="4.659657"><ele>0.0</ele></rtept>
    <rtept lat="52.378241" lon="4.659432"><ele>0.0</ele></rtept>
    <rtept lat="52.378255" lon="4.659351"><ele>0.0</ele></rtept>
    <rtept lat="52.378439" lon="4.658196"><ele>0.0</ele></rtept>
    <rtept lat="52.378633" lon="4.658301"><ele>0.0</ele></rtept>
    <rtept lat="52.378896" lon="4.657371"><ele>0.0</ele></rtept>
    <rtept lat="52.379010" lon="4.657010"><ele>0.0</ele></rtept>
    <rtept lat="52.379172" lon="4.656914"><ele>0.0</ele></rtept>
    <rtept lat="52.379265" lon="4.656910"><ele>0.0</ele></rtept>
    <rtept lat="52.379322" lon="4.656758"><ele>0.0</ele></rtept>
    <rtept lat="52.379484" lon="4.656332"><ele>0.0</ele></rtept>
    <rtept lat="52.379811" lon="4.656611"><ele>0.0</ele></rtept>
    <rtept lat="52.379890" lon="4.656860"><ele>0.0</ele></rtept>
    <rtept lat="52.379960" lon="4.657149"><ele>0.0</ele></rtept>
    <rtept lat="52.380029" lon="4.657505"><ele>0.0</ele></rtept>
    <rtept lat="52.380029" lon="4.657510"><ele>0.0</ele></rtept>
  </rte>
</gpx>