<?xml version="1.0" encoding="UTF-8"?>
<gpx version="1.1" creator="WeeklyCyclingRoutes"
  xmlns="http://www.topografix.com/GPX/1/1"
  xmlns:xsi="http://www.w3.org/2001/XMLSchema-instance"
  xsi:schemaLocation="http://www.topografix.com/GPX/1/1 http://www.topografix.com/GPX/1/1/gpx.xsd">
  <metadata>
    <name>20km Route – September 14, 2026</name>
    <desc>Round trip from Cremerstraat, Haarlem. Actual: 22.4km</desc>
    <time>2026-09-14T11:29:28Z</time>
  </metadata>
  <rte>
    <name>20km Cycling Route – Haarlem</name>
    <rtept lat="52.380029" lon="4.657510"><ele>0.0</ele></rtept>
    <rtept lat="52.380029" lon="4.657505"><ele>0.0</ele></rtept>
    <rtept lat="52.379960" lon="4.657149"><ele>0.0</ele></rtept>
    <rtept lat="52.379890" lon="4.656860"><ele>0.0</ele></rtept>
    <rtept lat="52.379811" lon="4.656611"><ele>0.0</ele></rtept>
    <rtept lat="52.379484" lon="4.656332"><ele>0.0</ele></rtept>
    <rtept lat="52.379720" lon="4.655630"><ele>0.0</ele></rtept>
    <rtept lat="52.379947" lon="4.654788"><ele>0.0</ele></rtept>
    <rtept lat="52.379963" lon="4.654729"><ele>0.0</ele></rtept>
    <rtept lat="52.380132" lon="4.654088"><ele>0.0</ele></rtept>
    <rtept lat="52.380326" lon="4.653373"><ele>0.0</ele></rtept>
    <rtept lat="52.380708" lon="4.651959"><ele>0.0</ele></rtept>
    <rtept lat="52.380759" lon="4.651852"><ele>0.0</ele></rtept>
    <rtept lat="52.380830" lon="4.651897"><ele>0.0</ele></rtept>
    <rtept lat="52.380924" lon="4.651884"><ele>0.0</ele></rtept>
    <rtept lat="52.381029" lon="4.651870"><ele>0.0</ele></rtept>
    <rtept lat="52.381088" lon="4.651857"><ele>0.0</ele></rtept>
    <rtept lat="52.381077" lon="4.651687"><ele>0.0</ele></rtept>
    <rtept lat="52.381072" lon="4.651605"><ele>0.0</ele></rtept>
    <rtept lat="52.381040" lon="4.651485"><ele>0.0</ele></rtept>
    <rtept lat="52.380980" lon="4.650628"><ele>0.0</ele></rtept>
    <rtept lat="52.380897" lon="4.649517"><ele>0.0</ele></rtept>
    <rtept lat="52.380781" lon="4.647736"><ele>0.0</ele></rtept>
    <rtept lat="52.380732" lon="4.647268"><ele>0.0</ele></rtept>
    <rtept lat="52.380661" lon="4.647204"><ele>0.0</ele></rtept>
    <rtept lat="52.380640" lon="4.647194"><ele>0.0</ele></rtept>
    <rtept lat="52.380520" lon="4.647127"><ele>0.0</ele></rtept>
    <rtept lat="52.380357" lon="4.646948"><ele>0.0</ele></rtept>
    <rtept lat="52.380227" lon="4.646733"><ele>0.0</ele></rtept>
    <rtept lat="52.380151" lon="4.646527"><ele>0.0</ele></rtept>
    <rtept lat="52.380116" lon="4.646366"><ele>0.0</ele></rtept>
    <rtept lat="52.380098" lon="4.646273"><ele>0.0</ele></rtept>
    <rtept lat="52.380083" lon="4.646212"><ele>0.0</ele></rtept>
    <rtept lat="52.380030" lon="4.646089"><ele>0.0</ele></rtept>
    <rtept lat="52.379996" lon="4.646014"><ele>0.0</ele></rtept>
    <rtept lat="52.379913" lon="4.645916"><ele>0.0</ele></rtept>
    <rtept lat="52.379859" lon="4.645889"><ele>0.0</ele></rtept>
    <rtept lat="52.379514" lon="4.645479"><ele>0.0</ele></rtept>
    <rtept lat="52.379406" lon="4.645413"><ele>0.0</ele></rtept>
    <rtept lat="52.379073" lon="4.645010"><ele>0.0</ele></rtept>
    <rtept lat="52.378668" lon="4.644518"><ele>0.0</ele></rtept>
    <rtept lat="52.378469" lon="4.644264"><ele>0.0</ele></rtept>
    <rtept lat="52.377671" lon="4.643291"><ele>0.0</ele></rtept>
    <rtept lat="52.377605" lon="4.643211"><ele>0.0</ele></rtept>
    <rtept lat="52.377305" lon="4.642858"><ele>0.0</ele></rtept>
    <rtept lat="52.377250" lon="4.642716"><ele>0.0</ele></rtept>
    <rtept lat="52.376696" lon="4.642032"><ele>0.0</ele></rtept>
    <rtept lat="52.376654" lon="4.641984"><ele>0.0</ele></rtept>
    <rtept lat="52.376589" lon="4.641908"><ele>0.0</ele></rtept>
    <rtept lat="52.376524" lon="4.641840"><ele>0.0</ele></rtept>
    <rtept lat="52.376545" lon="4.641791"><ele>0.0</ele></rtept>
    <rtept lat="52.376608" lon="4.641650"><ele>0.0</ele></rtept>
    <rtept lat="52.376619" lon="4.641629"><ele>0.0</ele></rtept>
    <rtept lat="52.376775" lon="4.641220"><ele>0.0</ele></rtept>
    <rtept lat="52.376868" lon="4.640911"><ele>0.0</ele></rtept>
    <rtept lat="52.376885" lon="4.640861"><ele>0.0</ele></rtept>
    <rtept lat="52.376921" lon="4.640746"><ele>0.0</ele></rtept>
    <rtept lat="52.376929" lon="4.640610"><ele>0.0</ele></rtept>
    <rtept lat="52.376903" lon="4.640469"><ele>0.0</ele></rtept>
    <rtept lat="52.376800" lon="4.640108"><ele>0.0</ele></rtept>
    <rtept lat="52.376748" lon="4.640006"><ele>0.0</ele></rtept>
    <rtept lat="52.376705" lon="4.639883"><ele>0.0</ele></rtept>
    <rtept lat="52.376679" lon="4.639726"><ele>0.0</ele></rtept>
    <rtept lat="52.376686" lon="4.639592"><ele>0.0</ele></rtept>
    <rtept lat="52.376739" lon="4.639414"><ele>0.0</ele></rtept>
    <rtept lat="52.376774" lon="4.639333"><ele>0.0</ele></rtept>
    <rtept lat="52.376813" lon="4.639244"><ele>0.0</ele></rtept>
    <rtept lat="52.376889" lon="4.639094"><ele>0.0</ele></rtept>
    <rtept lat="52.376937" lon="4.638990"><ele>0.0</ele></rtept>
    <rtept lat="52.376802" lon="4.638734"><ele>0.0</ele></rtept>
    <rtept lat="52.376617" lon="4.638156"><ele>0.0</ele></rtept>
    <rtept lat="52.376551" lon="4.637991"><ele>0.0</ele></rtept>
    <rtept lat="52.376427" lon="4.637589"><ele>0.0</ele></rtept>
    <rtept lat="52.376277" lon="4.637073"><ele>0.0</ele></rtept>
    <rtept lat="52.376176" lon="4.636710"><ele>0.0</ele></rtept>
    <rtept lat="52.376111" lon="4.636365"><ele>0.0</ele></rtept>
    <rtept lat="52.376098" lon="4.636105"><ele>0.0</ele></rtept>
    <rtept lat="52.376127" lon="4.635288"><ele>0.0</ele></rtept>
    <rtept lat="52.376131" lon="4.635187"><ele>0.0</ele></rtept>
    <rtept lat="52.376131" lon="4.635072"><ele>0.0</ele></rtept>
    <rtept lat="52.376160" lon="4.633635"><ele>0.0</ele></rtept>
    <rtept lat="52.376191" lon="4.632337"><ele>0.0</ele></rtept>
    <rtept lat="52.376230" lon="4.631314"><ele>0.0</ele></rtept>
    <rtept lat="52.376241" lon="4.631096"><ele>0.0</ele></rtept>
    <rtept lat="52.376201" lon="4.631077"><ele>0.0</ele></rtept>
    <rtept lat="52.376091" lon="4.631024"><ele>0.0</ele></rtept>
    <rtept lat="52.375972" lon="4.630980"><ele>0.0</ele></rtept>
    <rtept lat="52.375892" lon="4.630958"><ele>0.0</ele></rtept>
    <rtept lat="52.375773" lon="4.630932"><ele>0.0</ele></rtept>
    <rtept lat="52.375623" lon="4.630864"><ele>0.0</ele></rtept>
    <rtept lat="52.375389" lon="4.630746"><ele>0.0</ele></rtept>
    <rtept lat="52.375231" lon="4.630667"><ele>0.0</ele></rtept>
    <rtept lat="52.374998" lon="4.630541"><ele>0.0</ele></rtept>
    <rtept lat="52.374807" lon="4.630403"><ele>0.0</ele></rtept>
    <rtept lat="52.374721" lon="4.630321"><ele>0.0</ele></rtept>
    <rtept lat="52.374596" lon="4.630202"><ele>0.0</ele></rtept>
    <rtept lat="52.374559" lon="4.630167"><ele>0.0</ele></rtept>
    <rtept lat="52.374431" lon="4.630030"><ele>0.0</ele></rtept>
    <rtept lat="52.374358" lon="4.629949"><ele>0.0</ele></rtept>
    <rtept lat="52.374265" lon="4.629824"><ele>0.0</ele></rtept>
    <rtept lat="52.374087" lon="4.629584"><ele>0.0</ele></rtept>
    <rtept lat="52.373939" lon="4.629327"><ele>0.0</ele></rtept>
    <rtept lat="52.373807" lon="4.629027"><ele>0.0</ele></rtept>
    <rtept lat="52.373624" lon="4.628453"><ele>0.0</ele></rtept>
    <rtept lat="52.373567" lon="4.628143"><ele>0.0</ele></rtept>
    <rtept lat="52.373535" lon="4.628052"><ele>0.0</ele></rtept>
    <rtept lat="52.373519" lon="4.628009"><ele>0.0</ele></rtept>
    <rtept lat="52.373499" lon="4.627954"><ele>0.0</ele></rtept>
    <rtept lat="52.373145" lon="4.626954"><ele>0.0</ele></rtept>
    <rtept lat="52.373038" lon="4.626690"><ele>0.0</ele></rtept>
    <rtept lat="52.372979" lon="4.626594"><ele>0.0</ele></rtept>
    <rtept lat="52.372589" lon="4.625749"><ele>0.0</ele></rtept>
    <rtept lat="52.372402" lon="4.625426"><ele>0.0</ele></rtept>
    <rtept lat="52.372319" lon="4.625297"><ele>0.0</ele></rtept>
    <rtept lat="52.372111" lon="4.624970"><ele>0.0</ele></rtept>
    <rtept lat="52.371737" lon="4.624498"><ele>0.0</ele></rtept>
    <rtept lat="52.371214" lon="4.623862"><ele>0.0</ele></rtept>
    <rtept lat="52.370932" lon="4.623535"><ele>0.0</ele></rtept>
    <rtept lat="52.370690" lon="4.623274"><ele>0.0</ele></rtept>
    <rtept lat="52.370153" lon="4.622794"><ele>0.0</ele></rtept>
    <rtept lat="52.370043" lon="4.622646"><ele>0.0</ele></rtept>
    <rtept lat="52.369906" lon="4.622495"><ele>0.0</ele></rtept>
    <rtept lat="52.369793" lon="4.622420"><ele>0.0</ele></rtept>
    <rtept lat="52.369520" lon="4.622213"><ele>0.0</ele></rtept>
    <rtept lat="52.368746" lon="4.621506"><ele>0.0</ele></rtept>
    <rtept lat="52.368540" lon="4.621337"><ele>0.0</ele></rtept>
    <rtept lat="52.367883" lon="4.620839"><ele>0.0</ele></rtept>
    <rtept lat="52.367409" lon="4.620519"><ele>0.0</ele></rtept>
    <rtept lat="52.367289" lon="4.620428"><ele>0.0</ele></rtept>
    <rtept lat="52.366754" lon="4.620096"><ele>0.0</ele></rtept>
    <rtept lat="52.365831" lon="4.619395"><ele>0.0</ele></rtept>
    <rtept lat="52.365795" lon="4.619356"><ele>0.0</ele></rtept>
    <rtept lat="52.365640" lon="4.619291"><ele>0.0</ele></rtept>
    <rtept lat="52.365300" lon="4.619075"><ele>0.0</ele></rtept>
    <rtept lat="52.364846" lon="4.618781"><ele>0.0</ele></rtept>
    <rtept lat="52.364795" lon="4.618717"><ele>0.0</ele></rtept>
    <rtept lat="52.364754" lon="4.618666"><ele>0.0</ele></rtept>
    <rtept lat="52.364707" lon="4.618619"><ele>0.0</ele></rtept>
    <rtept lat="52.364526" lon="4.618609"><ele>0.0</ele></rtept>
    <rtept lat="52.363771" lon="4.618307"><ele>0.0</ele></rtept>
    <rtept lat="52.363477" lon="4.618024"><ele>0.0</ele></rtept>
    <rtept lat="52.363420" lon="4.617930"><ele>0.0</ele></rtept>
    <rtept lat="52.363386" lon="4.617812"><ele>0.0</ele></rtept>
    <rtept lat="52.363338" lon="4.617722"><ele>0.0</ele></rtept>
    <rtept lat="52.363281" lon="4.617693"><ele>0.0</ele></rtept>
    <rtept lat="52.362905" lon="4.617658"><ele>0.0</ele></rtept>
    <rtept lat="52.362561" lon="4.617691"><ele>0.0</ele></rtept>
    <rtept lat="52.362191" lon="4.617554"><ele>0.0</ele></rtept>
    <rtept lat="52.361960" lon="4.617593"><ele>0.0</ele></rtept>
    <rtept lat="52.361717" lon="4.617683"><ele>0.0</ele></rtept>
    <rtept lat="52.361532" lon="4.617707"><ele>0.0</ele></rtept>
    <rtept lat="52.361478" lon="4.617699"><ele>0.0</ele></rtept>
    <rtept lat="52.361244" lon="4.617652"><ele>0.0</ele></rtept>
    <rtept lat="52.360308" lon="4.617426"><ele>0.0</ele></rtept>
    <rtept lat="52.360123" lon="4.617353"><ele>0.0</ele></rtept>
    <rtept lat="52.360100" lon="4.617338"><ele>0.0</ele></rtept>
    <rtept lat="52.360089" lon="4.617313"><ele>0.0</ele></rtept>
    <rtept lat="52.360032" lon="4.617286"><ele>0.0</ele></rtept>
    <rtept lat="52.359966" lon="4.617273"><ele>0.0</ele></rtept>
    <rtept lat="52.359937" lon="4.617268"><ele>0.0</ele></rtept>
    <rtept lat="52.359824" lon="4.617285"><ele>0.0</ele></rtept>
    <rtept lat="52.359643" lon="4.617238"><ele>0.0</ele></rtept>
    <rtept lat="52.359450" lon="4.617138"><ele>0.0</ele></rtept>
    <rtept lat="52.359140" lon="4.616774"><ele>0.0</ele></rtept>
    <rtept lat="52.358859" lon="4.616393"><ele>0.0</ele></rtept>
    <rtept lat="52.358870" lon="4.616281"><ele>0.0</ele></rtept>
    <rtept lat="52.358899" lon="4.615939"><ele>0.0</ele></rtept>
    <rtept lat="52.358920" lon="4.615683"><ele>0.0</ele></rtept>
    <rtept lat="52.358951" lon="4.615300"><ele>0.0</ele></rtept>
    <rtept lat="52.358961" lon="4.615143"><ele>0.0</ele></rtept>
    <rtept lat="52.359040" lon="4.614337"><ele>0.0</ele></rtept>
    <rtept lat="52.359140" lon="4.613319"><ele>0.0</ele></rtept>
    <rtept lat="52.359153" lon="4.613176"><ele>0.0</ele></rtept>
    <rtept lat="52.359273" lon="4.611974"><ele>0.0</ele></rtept>
    <rtept lat="52.359333" lon="4.611618"><ele>0.0</ele></rtept>
    <rtept lat="52.359380" lon="4.611314"><ele>0.0</ele></rtept>
    <rtept lat="52.359397" lon="4.611189"><ele>0.0</ele></rtept>
    <rtept lat="52.359468" lon="4.610719"><ele>0.0</ele></rtept>
    <rtept lat="52.359487" lon="4.610533"><ele>0.0</ele></rtept>
    <rtept lat="52.359551" lon="4.609719"><ele>0.0</ele></rtept>
    <rtept lat="52.359637" lon="4.608539"><ele>0.0</ele></rtept>
    <rtept lat="52.359669" lon="4.608111"><ele>0.0</ele></rtept>
    <rtept lat="52.359680" lon="4.607930"><ele>0.0</ele></rtept>
    <rtept lat="52.359697" lon="4.607730"><ele>0.0</ele></rtept>
    <rtept lat="52.359725" lon="4.607452"><ele>0.0</ele></rtept>
    <rtept lat="52.359731" lon="4.607385"><ele>0.0</ele></rtept>
    <rtept lat="52.359734" lon="4.607352"><ele>0.0</ele></rtept>
    <rtept lat="52.359831" lon="4.607088"><ele>0.0</ele></rtept>
    <rtept lat="52.359869" lon="4.606773"><ele>0.0</ele></rtept>
    <rtept lat="52.359911" lon="4.606507"><ele>0.0</ele></rtept>
    <rtept lat="52.359947" lon="4.606121"><ele>0.0</ele></rtept>
    <rtept lat="52.359967" lon="4.605715"><ele>0.0</ele></rtept>
    <rtept lat="52.359975" lon="4.605546"><ele>0.0</ele></rtept>
    <rtept lat="52.359976" lon="4.605492"><ele>0.0</ele></rtept>
    <rtept lat="52.360143" lon="4.603836"><ele>0.0</ele></rtept>
    <rtept lat="52.360170" lon="4.603704"><ele>0.0</ele></rtept>
    <rtept lat="52.360189" lon="4.603369"><ele>0.0</ele></rtept>
    <rtept lat="52.360262" lon="4.602989"><ele>0.0</ele></rtept>
    <rtept lat="52.360352" lon="4.602588"><ele>0.0</ele></rtept>
    <rtept lat="52.360538" lon="4.601723"><ele>0.0</ele></rtept>
    <rtept lat="52.360605" lon="4.601465"><ele>0.0</ele></rtept>
    <rtept lat="52.360771" lon="4.600950"><ele>0.0</ele></rtept>
    <rtept lat="52.360886" lon="4.600593"><ele>0.0</ele></rtept>
    <rtept lat="52.360941" lon="4.600469"><ele>0.0</ele></rtept>
    <rtept lat="52.361138" lon="4.600068"><ele>0.0</ele></rtept>
    <rtept lat="52.361418" lon="4.599919"><ele>0.0</ele></rtept>
    <rtept lat="52.361513" lon="4.599828"><ele>0.0</ele></rtept>
    <rtept lat="52.361572" lon="4.599722"><ele>0.0</ele></rtept>
    <rtept lat="52.361626" lon="4.599543"><ele>0.0</ele></rtept>
    <rtept lat="52.361725" lon="4.598922"><ele>0.0</ele></rtept>
    <rtept lat="52.361818" lon="4.598958"><ele>0.0</ele></rtept>
    <rtept lat="52.361836" lon="4.598424"><ele>0.0</ele></rtept>
    <rtept lat="52.362020" lon="4.594510"><ele>0.0</ele></rtept>
    <rtept lat="52.362040" lon="4.593458"><ele>0.0</ele></rtept>
    <rtept lat="52.361957" lon="4.593472"><ele>0.0</ele></rtept>
    <rtept lat="52.362028" lon="4.591853"><ele>0.0</ele></rtept>
    <rtept lat="52.362185" lon="4.590793"><ele>0.0</ele></rtept>
    <rtept lat="52.362642" lon="4.587760"><ele>0.0</ele></rtept>
    <rtept lat="52.362759" lon="4.587412"><ele>0.0</ele></rtept>
    <rtept lat="52.363311" lon="4.586063"><ele>0.0</ele></rtept>
    <rtept lat="52.364111" lon="4.584103"><ele>0.0</ele></rtept>
    <rtept lat="52.364369" lon="4.583407"><ele>0.0</ele></rtept>
    <rtept lat="52.364520" lon="4.582930"><ele>0.0</ele></rtept>
    <rtept lat="52.364660" lon="4.582380"><ele>0.0</ele></rtept>
    <rtept lat="52.364812" lon="4.581629"><ele>0.0</ele></rtept>
    <rtept lat="52.364858" lon="4.581340"><ele>0.0</ele></rtept>
    <rtept lat="52.364983" lon="4.580667"><ele>0.0</ele></rtept>
    <rtept lat="52.365297" lon="4.579224"><ele>0.0</ele></rtept>
    <rtept lat="52.365765" lon="4.576765"><ele>0.0</ele></rtept>
    <rtept lat="52.365957" lon="4.574978"><ele>0.0</ele></rtept>
    <rtept lat="52.365728" lon="4.574714"><ele>0.0</ele></rtept>
    <rtept lat="52.365611" lon="4.574648"><ele>0.0</ele></rtept>
    <rtept lat="52.365763" lon="4.573445"><ele>0.0</ele></rtept>
    <rtept lat="52.365967" lon="4.571381"><ele>0.0</ele></rtept>
    <rtept lat="52.366010" lon="4.571100"><ele>0.0</ele></rtept>
    <rtept lat="52.366008" lon="4.570924"><ele>0.0</ele></rtept>
    <rtept lat="52.366049" lon="4.570457"><ele>0.0</ele></rtept>
    <rtept lat="52.366070" lon="4.570226"><ele>0.0</ele></rtept>
    <rtept lat="52.366680" lon="4.563690"><ele>0.0</ele></rtept>
    <rtept lat="52.366736" lon="4.562889"><ele>0.0</ele></rtept>
    <rtept lat="52.366717" lon="4.562405"><ele>0.0</ele></rtept>
    <rtept lat="52.366671" lon="4.561959"><ele>0.0</ele></rtept>
    <rtept lat="52.366550" lon="4.561435"><ele>0.0</ele></rtept>
    <rtept lat="52.366618" lon="4.561397"><ele>0.0</ele></rtept>
    <rtept lat="52.366706" lon="4.561438"><ele>0.0</ele></rtept>
    <rtept lat="52.366809" lon="4.561711"><ele>0.0</ele></rtept>
    <rtept lat="52.366848" lon="4.561756"><ele>0.0</ele></rtept>
    <rtept lat="52.366946" lon="4.561782"><ele>0.0</ele></rtept>
    <rtept lat="52.366994" lon="4.561834"><ele>0.0</ele></rtept>
    <rtept lat="52.367091" lon="4.561734"><ele>0.0</ele></rtept>
    <rtept lat="52.367169" lon="4.561731"><ele>0.0</ele></rtept>
    <rtept lat="52.367270" lon="4.561806"><ele>0.0</ele></rtept>
    <rtept lat="52.367317" lon="4.561902"><ele>0.0</ele></rtept>
    <rtept lat="52.367336" lon="4.562012"><ele>0.0</ele></rtept>
    <rtept lat="52.367346" lon="4.562342"><ele>0.0</ele></rtept>
    <rtept lat="52.367405" lon="4.562467"><ele>0.0</ele></rtept>
    <rtept lat="52.367471" lon="4.562505"><ele>0.0</ele></rtept>
    <rtept lat="52.368344" lon="4.556871"><ele>0.0</ele></rtept>
    <rtept lat="52.368998" lon="4.552640"><ele>0.0</ele></rtept>
    <rtept lat="52.369163" lon="4.551689"><ele>0.0</ele></rtept>
    <rtept lat="52.369223" lon="4.551096"><ele>0.0</ele></rtept>
    <rtept lat="52.369307" lon="4.549857"><ele>0.0</ele></rtept>
    <rtept lat="52.369322" lon="4.549168"><ele>0.0</ele></rtept>
    <rtept lat="52.369462" lon="4.549159"><ele>0.0</ele></rtept>
    <rtept lat="52.369485" lon="4.549065"><ele>0.0</ele></rtept>
    <rtept lat="52.369561" lon="4.548903"><ele>0.0</ele></rtept>
    <rtept lat="52.369616" lon="4.548864"><ele>0.0</ele></rtept>
    <rtept lat="52.369822" lon="4.548801"><ele>0.0</ele></rtept>
    <rtept lat="52.369989" lon="4.548707"><ele>0.0</ele></rtept>
    <rtept lat="52.370013" lon="4.548657"><ele>0.0</ele></rtept>
    <rtept lat="52.370490" lon="4.548392"><ele>0.0</ele></rtept>
    <rtept lat="52.370617" lon="4.548412"><ele>0.0</ele></rtept>
    <rtept lat="52.370806" lon="4.548589"><ele>0.0</ele></rtept>
    <rtept lat="52.370954" lon="4.548673"><ele>0.0</ele></rtept>
    <rtept lat="52.371119" lon="4.548842"><ele>0.0</ele></rtept>
    <rtept lat="52.371327" lon="4.549259"><ele>0.0</ele></rtept>
    <rtept lat="52.371465" lon="4.549301"><ele>0.0</ele></rtept>
    <rtept lat="52.371594" lon="4.549386"><ele>0.0</ele></rtept>
    <rtept lat="52.371932" lon="4.549471"><ele>0.0</ele></rtept>
    <rtept lat="52.372074" lon="4.549634"><ele>0.0</ele></rtept>
    <rtept lat="52.372287" lon="4.549805"><ele>0.0</ele></rtept>
    <rtept lat="52.372338" lon="4.549903"><ele>0.0</ele></rtept>
    <rtept lat="52.372407" lon="4.550264"><ele>0.0</ele></rtept>
    <rtept lat="52.372489" lon="4.550541"><ele>0.0</ele></rtept>
    <rtept lat="52.372574" lon="4.550709"><ele>0.0</ele></rtept>
    <rtept lat="52.372590" lon="4.550715"><ele>0.0</ele></rtept>
    <rtept lat="52.372718" lon="4.550759"><ele>0.0</ele></rtept>
    <rtept lat="52.372891" lon="4.550858"><ele>0.0</ele></rtept>
    <rtept lat="52.373068" lon="4.551028"><ele>0.0</ele></rtept>
    <rtept lat="52.373126" lon="4.551112"><ele>0.0</ele></rtept>
    <rtept lat="52.373176" lon="4.551184"><ele>0.0</ele></rtept>
    <rtept lat="52.373419" lon="4.551298"><ele>0.0</ele></rtept>
    <rtept lat="52.373518" lon="4.551382"><ele>0.0</ele></rtept>
    <rtept lat="52.373668" lon="4.551587"><ele>0.0</ele></rtept>
    <rtept lat="52.373797" lon="4.551922"><ele>0.0</ele></rtept>
    <rtept lat="52.373892" lon="4.552061"><ele>0.0</ele></rtept>
    <rtept lat="52.374085" lon="4.552469"><ele>0.0</ele></rtept>
    <rtept lat="52.374174" lon="4.552968"><ele>0.0</ele></rtept>
    <rtept lat="52.374455" lon="4.553874"><ele>0.0</ele></rtept>
    <rtept lat="52.374491" lon="4.554105"><ele>0.0</ele></rtept>
    <rtept lat="52.374481" lon="4.554475"><ele>0.0</ele></rtept>
    <rtept lat="52.374521" lon="4.554759"><ele>0.0</ele></rtept>
    <rtept lat="52.374612" lon="4.555188"><ele>0.0</ele></rtept>
    <rtept lat="52.374570" lon="4.555714"><ele>0.0</ele></rtept>
    <rtept lat="52.374573" lon="4.555923"><ele>0.0</ele></rtept>
    <rtept lat="52.374639" lon="4.556197"><ele>0.0</ele></rtept>
    <rtept lat="52.374862" lon="4.556809"><ele>0.0</ele></rtept>
    <rtept lat="52.375061" lon="4.556647"><ele>0.0</ele></rtept>
    <rtept lat="52.375148" lon="4.556045"><ele>0.0</ele></rtept>
    <rtept lat="52.375177" lon="4.555926"><ele>0.0</ele></rtept>
    <rtept lat="52.375241" lon="4.555846"><ele>0.0</ele></rtept>
    <rtept lat="52.375420" lon="4.555774"><ele>0.0</ele></rtept>
    <rtept lat="52.375241" lon="4.555846"><ele>0.0</ele></rtept>
    <rtept lat="52.375177" lon="4.555926"><ele>0.0</ele></rtept>
    <rtept lat="52.375148" lon="4.556045"><ele>0.0</ele></rtept>
    <rtept lat="52.375061" lon="4.556647"><ele>0.0</ele></rtept>
    <rtept lat="52.374862" lon="4.556809"><ele>0.0</ele></rtept>
    <rtept lat="52.374947" lon="4.557049"><ele>0.0</ele></rtept>
    <rtept lat="52.375117" lon="4.557635"><ele>0.0</ele></rtept>
    <rtept lat="52.375113" lon="4.557777"><ele>0.0</ele></rtept>
    <rtept lat="52.375067" lon="4.557738"><ele>0.0</ele></rtept>
    <rtept lat="52.374938" lon="4.557757"><ele>0.0</ele></rtept>
    <rtept lat="52.374825" lon="4.557706"><ele>0.0</ele></rtept>
    <rtept lat="52.374699" lon="4.557626"><ele>0.0</ele></rtept>
    <rtept lat="52.374593" lon="4.557588"><ele>0.0</ele></rtept>
    <rtept lat="52.374451" lon="4.557584"><ele>0.0</ele></rtept>
    <rtept lat="52.374314" lon="4.557649"><ele>0.0</ele></rtept>
    <rtept lat="52.374206" lon="4.557738"><ele>0.0</ele></rtept>
    <rtept lat="52.374114" lon="4.557710"><ele>0.0</ele></rtept>
    <rtept lat="52.373940" lon="4.557605"><ele>0.0</ele></rtept>
    <rtept lat="52.373812" lon="4.557613"><ele>0.0</ele></rtept>
    <rtept lat="52.373750" lon="4.557813"><ele>0.0</ele></rtept>
    <rtept lat="52.373760" lon="4.557996"><ele>0.0</ele></rtept>
    <rtept lat="52.373837" lon="4.558313"><ele>0.0</ele></rtept>
    <rtept lat="52.373832" lon="4.558403"><ele>0.0</ele></rtept>
    <rtept lat="52.373752" lon="4.558612"><ele>0.0</ele></rtept>
    <rtept lat="52.373714" lon="4.558779"><ele>0.0</ele></rtept>
    <rtept lat="52.373622" lon="4.558934"><ele>0.0</ele></rtept>
    <rtept lat="52.373508" lon="4.559047"><ele>0.0</ele></rtept>
    <rtept lat="52.373426" lon="4.559090"><ele>0.0</ele></rtept>
    <rtept lat="52.373354" lon="4.559278"><ele>0.0</ele></rtept>
    <rtept lat="52.373262" lon="4.559385"><ele>0.0</ele></rtept>
    <rtept lat="52.373205" lon="4.559390"><ele>0.0</ele></rtept>
    <rtept lat="52.373139" lon="4.559687"><ele>0.0</ele></rtept>
    <rtept lat="52.373122" lon="4.559706"><ele>0.0</ele></rtept>
    <rtept lat="52.372851" lon="4.560107"><ele>0.0</ele></rtept>
    <rtept lat="52.372810" lon="4.560289"><ele>0.0</ele></rtept>
    <rtept lat="52.372789" lon="4.560578"><ele>0.0</ele></rtept>
    <rtept lat="52.372732" lon="4.560716"><ele>0.0</ele></rtept>
    <rtept lat="52.372690" lon="4.560764"><ele>0.0</ele></rtept>
    <rtept lat="52.372634" lon="4.560655"><ele>0.0</ele></rtept>
    <rtept lat="52.372564" lon="4.560567"><ele>0.0</ele></rtept>
    <rtept lat="52.372425" lon="4.560361"><ele>0.0</ele></rtept>
    <rtept lat="52.372273" lon="4.560254"><ele>0.0</ele></rtept>
    <rtept lat="52.372201" lon="4.560155"><ele>0.0</ele></rtept>
    <rtept lat="52.372098" lon="4.559961"><ele>0.0</ele></rtept>
    <rtept lat="52.371954" lon="4.559918"><ele>0.0</ele></rtept>
    <rtept lat="52.371903" lon="4.559834"><ele>0.0</ele></rtept>
    <rtept lat="52.371891" lon="4.559754"><ele>0.0</ele></rtept>
    <rtept lat="52.371906" lon="4.559430"><ele>0.0</ele></rtept>
    <rtept lat="52.371874" lon="4.559292"><ele>0.0</ele></rtept>
    <rtept lat="52.371837" lon="4.559213"><ele>0.0</ele></rtept>
    <rtept lat="52.371630" lon="4.559016"><ele>0.0</ele></rtept>
    <rtept lat="52.371517" lon="4.558929"><ele>0.0</ele></rtept>
    <rtept lat="52.371470" lon="4.558936"><ele>0.0</ele></rtept>
    <rtept lat="52.371427" lon="4.558966"><ele>0.0</ele></rtept>
    <rtept lat="52.371305" lon="4.559150"><ele>0.0</ele></rtept>
    <rtept lat="52.371238" lon="4.559163"><ele>0.0</ele></rtept>
    <rtept lat="52.371163" lon="4.559139"><ele>0.0</ele></rtept>
    <rtept lat="52.371084" lon="4.559157"><ele>0.0</ele></rtept>
    <rtept lat="52.370945" lon="4.559286"><ele>0.0</ele></rtept>
    <rtept lat="52.370900" lon="4.559349"><ele>0.0</ele></rtept>
    <rtept lat="52.370698" lon="4.559428"><ele>0.0</ele></rtept>
    <rtept lat="52.370536" lon="4.559627"><ele>0.0</ele></rtept>
    <rtept lat="52.370486" lon="4.559631"><ele>0.0</ele></rtept>
    <rtept lat="52.370438" lon="4.559610"><ele>0.0</ele></rtept>
    <rtept lat="52.370296" lon="4.559460"><ele>0.0</ele></rtept>
    <rtept lat="52.370016" lon="4.559101"><ele>0.0</ele></rtept>
    <rtept lat="52.369959" lon="4.558989"><ele>0.0</ele></rtept>
    <rtept lat="52.369940" lon="4.558795"><ele>0.0</ele></rtept>
    <rtept lat="52.369967" lon="4.558577"><ele>0.0</ele></rtept>
    <rtept lat="52.369971" lon="4.558406"><ele>0.0</ele></rtept>
    <rtept lat="52.369934" lon="4.558069"><ele>0.0</ele></rtept>
    <rtept lat="52.369942" lon="4.557789"><ele>0.0</ele></rtept>
    <rtept lat="52.369928" lon="4.557551"><ele>0.0</ele></rtept>
    <rtept lat="52.369865" lon="4.557340"><ele>0.0</ele></rtept>
    <rtept lat="52.369840" lon="4.557158"><ele>0.0</ele></rtept>
    <rtept lat="52.369823" lon="4.556775"><ele>0.0</ele></rtept>
    <rtept lat="52.369788" lon="4.556467"><ele>0.0</ele></rtept>
    <rtept lat="52.369734" lon="4.556084"><ele>0.0</ele></rtept>
    <rtept lat="52.369649" lon="4.555683"><ele>0.0</ele></rtept>
    <rtept lat="52.369614" lon="4.555417"><ele>0.0</ele></rtept>
    <rtept lat="52.369612" lon="4.555197"><ele>0.0</ele></rtept>
    <rtept lat="52.369577" lon="4.554978"><ele>0.0</ele></rtept>
    <rtept lat="52.369352" lon="4.554361"><ele>0.0</ele></rtept>
    <rtept lat="52.369281" lon="4.554118"><ele>0.0</ele></rtept>
    <rtept lat="52.369269" lon="4.553913"><ele>0.0</ele></rtept>
    <rtept lat="52.369295" lon="4.553689"><ele>0.0</ele></rtept>
    <rtept lat="52.369346" lon="4.553497"><ele>0.0</ele></rtept>
    <rtept lat="52.369165" lon="4.553086"><ele>0.0</ele></rtept>
    <rtept lat="52.369114" lon="4.552920"><ele>0.0</ele></rtept>
    <rtept lat="52.369119" lon="4.552829"><ele>0.0</ele></rtept>
    <rtept lat="52.368998" lon="4.552640"><ele>0.0</ele></rtept>
    <rtept lat="52.368919" lon="4.552502"><ele>0.0</ele></rtept>
    <rtept lat="52.368829" lon="4.552343"><ele>0.0</ele></rtept>
    <rtept lat="52.368068" lon="4.551084"><ele>0.0</ele></rtept>
    <rtept lat="52.367575" lon="4.550336"><ele>0.0</ele></rtept>
    <rtept lat="52.367280" lon="4.549800"><ele>0.0</ele></rtept>
    <rtept lat="52.367016" lon="4.549542"><ele>0.0</ele></rtept>
    <rtept lat="52.366570" lon="4.549105"><ele>0.0</ele></rtept>
    <rtept lat="52.366032" lon="4.548601"><ele>0.0</ele></rtept>
    <rtept lat="52.366015" lon="4.548584"><ele>0.0</ele></rtept>
    <rtept lat="52.366466" lon="4.547232"><ele>0.0</ele></rtept>
    <rtept lat="52.366574" lon="4.547057"><ele>0.0</ele></rtept>
    <rtept lat="52.366645" lon="4.546904"><ele>0.0</ele></rtept>
    <rtept lat="52.366738" lon="4.546619"><ele>0.0</ele></rtept>
    <rtept lat="52.366800" lon="4.546432"><ele>0.0</ele></rtept>
    <rtept lat="52.366823" lon="4.546350"><ele>0.0</ele></rtept>
    <rtept lat="52.366766" lon="4.546292"><ele>0.0</ele></rtept>
    <rtept lat="52.366706" lon="4.546245"><ele>0.0</ele></rtept>
    <rtept lat="52.366661" lon="4.546211"><ele>0.0</ele></rtept>
    <rtept lat="52.366475" lon="4.546754"><ele>0.0</ele></rtept>
    <rtept lat="52.365619" lon="4.549288"><ele>0.0</ele></rtept>
    <rtept lat="52.365430" lon="4.549893"><ele>0.0</ele></rtept>
    <rtept lat="52.365228" lon="4.550799"><ele>0.0</ele></rtept>
    <rtept lat="52.365154" lon="4.551298"><ele>0.0</ele></rtept>
    <rtept lat="52.365083" lon="4.551894"><ele>0.0</ele></rtept>
    <rtept lat="52.365034" lon="4.552523"><ele>0.0</ele></rtept>
    <rtept lat="52.364953" lon="4.552995"><ele>0.0</ele></rtept>
    <rtept lat="52.364948" lon="4.553331"><ele>0.0</ele></rtept>
    <rtept lat="52.364932" lon="4.553417"><ele>0.0</ele></rtept>
    <rtept lat="52.364848" lon="4.553498"><ele>0.0</ele></rtept>
    <rtept lat="52.364798" lon="4.553629"><ele>0.0</ele></rtept>
    <rtept lat="52.364788" lon="4.553831"><ele>0.0</ele></rtept>
    <rtept lat="52.364852" lon="4.554024"><ele>0.0</ele></rtept>
    <rtept lat="52.364880" lon="4.554149"><ele>0.0</ele></rtept>
    <rtept lat="52.364874" lon="4.554378"><ele>0.0</ele></rtept>
    <rtept lat="52.364754" lon="4.555509"><ele>0.0</ele></rtept>
    <rtept lat="52.364676" lon="4.556528"><ele>0.0</ele></rtept>
    <rtept lat="52.364675" lon="4.556936"><ele>0.0</ele></rtept>
    <rtept lat="52.364740" lon="4.557514"><ele>0.0</ele></rtept>
    <rtept lat="52.364800" lon="4.557860"><ele>0.0</ele></rtept>
    <rtept lat="52.364904" lon="4.558225"><ele>0.0</ele></rtept>
    <rtept lat="52.365100" lon="4.558713"><ele>0.0</ele></rtept>
    <rtept lat="52.365995" lon="4.560524"><ele>0.0</ele></rtept>
    <rtept lat="52.366295" lon="4.561166"><ele>0.0</ele></rtept>
    <rtept lat="52.366487" lon="4.561798"><ele>0.0</ele></rtept>
    <rtept lat="52.366577" lon="4.562288"><ele>0.0</ele></rtept>
    <rtept lat="52.366615" lon="4.562865"><ele>0.0</ele></rtept>
    <rtept lat="52.366610" lon="4.563070"><ele>0.0</ele></rtept>
    <rtept lat="52.366558" lon="4.563668"><ele>0.0</ele></rtept>
    <rtept lat="52.366292" lon="4.566543"><ele>0.0</ele></rtept>
    <rtept lat="52.366025" lon="4.569362"><ele>0.0</ele></rtept>
    <rtept lat="52.365958" lon="4.569643"><ele>0.0</ele></rtept>
    <rtept lat="52.365889" lon="4.569958"><ele>0.0</ele></rtept>
    <rtept lat="52.365878" lon="4.570138"><ele>0.0</ele></rtept>
    <rtept lat="52.365863" lon="4.570256"><ele>0.0</ele></rtept>
    <rtept lat="52.365858" lon="4.570376"><ele>0.0</ele></rtept>
    <rtept lat="52.365797" lon="4.571355"><ele>0.0</ele></rtept>
    <rtept lat="52.365597" lon="4.573606"><ele>0.0</ele></rtept>
    <rtept lat="52.365512" lon="4.574329"><ele>0.0</ele></rtept>
    <rtept lat="52.365435" lon="4.574868"><ele>0.0</ele></rtept>
    <rtept lat="52.365430" lon="4.574931"><ele>0.0</ele></rtept>
    <rtept lat="52.365337" lon="4.575604"><ele>0.0</ele></rtept>
    <rtept lat="52.365275" lon="4.575929"><ele>0.0</ele></rtept>
    <rtept lat="52.365149" lon="4.576425"><ele>0.0</ele></rtept>
    <rtept lat="52.365044" lon="4.576828"><ele>0.0</ele></rtept>
    <rtept lat="52.364998" lon="4.577067"><ele>0.0</ele></rtept>
    <rtept lat="52.364857" lon="4.577837"><ele>0.0</ele></rtept>
    <rtept lat="52.364784" lon="4.578829"><ele>0.0</ele></rtept>
    <rtept lat="52.364724" lon="4.579099"><ele>0.0</ele></rtept>
    <rtept lat="52.364696" lon="4.579609"><ele>0.0</ele></rtept>
    <rtept lat="52.364598" lon="4.580414"><ele>0.0</ele></rtept>
    <rtept lat="52.364292" lon="4.581752"><ele>0.0</ele></rtept>
    <rtept lat="52.363986" lon="4.583139"><ele>0.0</ele></rtept>
    <rtept lat="52.363905" lon="4.583445"><ele>0.0</ele></rtept>
    <rtept lat="52.363757" lon="4.583837"><ele>0.0</ele></rtept>
    <rtept lat="52.363673" lon="4.584060"><ele>0.0</ele></rtept>
    <rtept lat="52.363489" lon="4.584469"><ele>0.0</ele></rtept>
    <rtept lat="52.363143" lon="4.585112"><ele>0.0</ele></rtept>
    <rtept lat="52.363048" lon="4.585226"><ele>0.0</ele></rtept>
    <rtept lat="52.362812" lon="4.585601"><ele>0.0</ele></rtept>
    <rtept lat="52.362776" lon="4.585660"><ele>0.0</ele></rtept>
    <rtept lat="52.362742" lon="4.585724"><ele>0.0</ele></rtept>
    <rtept lat="52.362625" lon="4.586026"><ele>0.0</ele></rtept>
    <rtept lat="52.362590" lon="4.586125"><ele>0.0</ele></rtept>
    <rtept lat="52.362357" lon="4.586556"><ele>0.0</ele></rtept>
    <rtept lat="52.362236" lon="4.586863"><ele>0.0</ele></rtept>
    <rtept lat="52.362128" lon="4.587260"><ele>0.0</ele></rtept>
    <rtept lat="52.361749" lon="4.589814"><ele>0.0</ele></rtept>
    <rtept lat="52.361650" lon="4.590223"><ele>0.0</ele></rtept>
    <rtept lat="52.361608" lon="4.590698"><ele>0.0</ele></rtept>
    <rtept lat="52.361675" lon="4.590709"><ele>0.0</ele></rtept>
    <rtept lat="52.361748" lon="4.590721"><ele>0.0</ele></rtept>
    <rtept lat="52.362185" lon="4.590793"><ele>0.0</ele></rtept>
    <rtept lat="52.362874" lon="4.590890"><ele>0.0</ele></rtept>
    <rtept lat="52.362875" lon="4.590992"><ele>0.0</ele></rtept>
    <rtept lat="52.362912" lon="4.591073"><ele>0.0</ele></rtept>
    <rtept lat="52.362810" lon="4.591310"><ele>0.0</ele></rtept>
    <rtept lat="52.362770" lon="4.591677"><ele>0.0</ele></rtept>
    <rtept lat="52.362678" lon="4.593306"><ele>0.0</ele></rtept>
    <rtept lat="52.362753" lon="4.595314"><ele>0.0</ele></rtept>
    <rtept lat="52.362856" lon="4.595689"><ele>0.0</ele></rtept>
    <rtept lat="52.363046" lon="4.596250"><ele>0.0</ele></rtept>
    <rtept lat="52.363537" lon="4.597298"><ele>0.0</ele></rtept>
    <rtept lat="52.363746" lon="4.597743"><ele>0.0</ele></rtept>
    <rtept lat="52.363879" lon="4.598121"><ele>0.0</ele></rtept>
    <rtept lat="52.363966" lon="4.598487"><ele>0.0</ele></rtept>
    <rtept lat="52.363991" lon="4.598885"><ele>0.0</ele></rtept>
    <rtept lat="52.363970" lon="4.599337"><ele>0.0</ele></rtept>
    <rtept lat="52.363925" lon="4.599718"><ele>0.0</ele></rtept>
    <rtept lat="52.364309" lon="4.599857"><ele>0.0</ele></rtept>
    <rtept lat="52.364321" lon="4.600133"><ele>0.0</ele></rtept>
    <rtept lat="52.364450" lon="4.600330"><ele>0.0</ele></rtept>
    <rtept lat="52.364620" lon="4.600940"><ele>0.0</ele></rtept>
    <rtept lat="52.364730" lon="4.601240"><ele>0.0</ele></rtept>
    <rtept lat="52.364950" lon="4.601590"><ele>0.0</ele></rtept>
    <rtept lat="52.365770" lon="4.602460"><ele>0.0</ele></rtept>
    <rtept lat="52.366537" lon="4.603224"><ele>0.0</ele></rtept>
    <rtept lat="52.367030" lon="4.603608"><ele>0.0</ele></rtept>
    <rtept lat="52.367560" lon="4.603947"><ele>0.0</ele></rtept>
    <rtept lat="52.367595" lon="4.603964"><ele>0.0</ele></rtept>
    <rtept lat="52.367757" lon="4.604059"><ele>0.0</ele></rtept>
    <rtept lat="52.367980" lon="4.604155"><ele>0.0</ele></rtept>
    <rtept lat="52.368112" lon="4.604157"><ele>0.0</ele></rtept>
    <rtept lat="52.368225" lon="4.604124"><ele>0.0</ele></rtept>
    <rtept lat="52.368544" lon="4.603888"><ele>0.0</ele></rtept>
    <rtept lat="52.368721" lon="4.603831"><ele>0.0</ele></rtept>
    <rtept lat="52.368843" lon="4.603839"><ele>0.0</ele></rtept>
    <rtept lat="52.369070" lon="4.603911"><ele>0.0</ele></rtept>
    <rtept lat="52.369881" lon="4.604154"><ele>0.0</ele></rtept>
    <rtept lat="52.370902" lon="4.604460"><ele>0.0</ele></rtept>
    <rtept lat="52.371289" lon="4.604591"><ele>0.0</ele></rtept>
    <rtept lat="52.371277" lon="4.604791"><ele>0.0</ele></rtept>
    <rtept lat="52.371344" lon="4.604893"><ele>0.0</ele></rtept>
    <rtept lat="52.371483" lon="4.604972"><ele>0.0</ele></rtept>
    <rtept lat="52.372542" lon="4.605407"><ele>0.0</ele></rtept>
    <rtept lat="52.372595" lon="4.605452"><ele>0.0</ele></rtept>
    <rtept lat="52.372623" lon="4.605502"><ele>0.0</ele></rtept>
    <rtept lat="52.372632" lon="4.605694"><ele>0.0</ele></rtept>
    <rtept lat="52.372266" lon="4.608222"><ele>0.0</ele></rtept>
    <rtept lat="52.372258" lon="4.608272"><ele>0.0</ele></rtept>
    <rtept lat="52.372148" lon="4.609021"><ele>0.0</ele></rtept>
    <rtept lat="52.372137" lon="4.609114"><ele>0.0</ele></rtept>
    <rtept lat="52.372147" lon="4.609208"><ele>0.0</ele></rtept>
    <rtept lat="52.372229" lon="4.609292"><ele>0.0</ele></rtept>
    <rtept lat="52.372255" lon="4.609374"><ele>0.0</ele></rtept>
    <rtept lat="52.372260" lon="4.609466"><ele>0.0</ele></rtept>
    <rtept lat="52.372254" lon="4.609552"><ele>0.0</ele></rtept>
    <rtept lat="52.372226" lon="4.609636"><ele>0.0</ele></rtept>
    <rtept lat="52.372173" lon="4.609675"><ele>0.0</ele></rtept>
    <rtept lat="52.372147" lon="4.609747"><ele>0.0</ele></rtept>
    <rtept lat="52.372117" lon="4.610102"><ele>0.0</ele></rtept>
    <rtept lat="52.372119" lon="4.610243"><ele>0.0</ele></rtept>
    <rtept lat="52.372162" lon="4.610395"><ele>0.0</ele></rtept>
    <rtept lat="52.372251" lon="4.610540"><ele>0.0</ele></rtept>
    <rtept lat="52.372074" lon="4.611698"><ele>0.0</ele></rtept>
    <rtept lat="52.372020" lon="4.612014"><ele>0.0</ele></rtept>
    <rtept lat="52.371932" lon="4.612579"><ele>0.0</ele></rtept>
    <rtept lat="52.371868" lon="4.613026"><ele>0.0</ele></rtept>
    <rtept lat="52.371848" lon="4.613163"><ele>0.0</ele></rtept>
    <rtept lat="52.371776" lon="4.613673"><ele>0.0</ele></rtept>
    <rtept lat="52.371689" lon="4.613981"><ele>0.0</ele></rtept>
    <rtept lat="52.371604" lon="4.614379"><ele>0.0</ele></rtept>
    <rtept lat="52.371528" lon="4.614439"><ele>0.0</ele></rtept>
    <rtept lat="52.371487" lon="4.614514"><ele>0.0</ele></rtept>
    <rtept lat="52.371462" lon="4.614609"><ele>0.0</ele></rtept>
    <rtept lat="52.371456" lon="4.614707"><ele>0.0</ele></rtept>
    <rtept lat="52.371469" lon="4.614805"><ele>0.0</ele></rtept>
    <rtept lat="52.371508" lon="4.614910"><ele>0.0</ele></rtept>
    <rtept lat="52.371563" lon="4.614977"><ele>0.0</ele></rtept>
    <rtept lat="52.371578" lon="4.615074"><ele>0.0</ele></rtept>
    <rtept lat="52.371601" lon="4.615221"><ele>0.0</ele></rtept>
    <rtept lat="52.371468" lon="4.616402"><ele>0.0</ele></rtept>
    <rtept lat="52.371404" lon="4.617017"><ele>0.0</ele></rtept>
    <rtept lat="52.371394" lon="4.617250"><ele>0.0</ele></rtept>
    <rtept lat="52.371388" lon="4.617493"><ele>0.0</ele></rtept>
    <rtept lat="52.371358" lon="4.617849"><ele>0.0</ele></rtept>
    <rtept lat="52.371345" lon="4.618067"><ele>0.0</ele></rtept>
    <rtept lat="52.371315" lon="4.618274"><ele>0.0</ele></rtept>
    <rtept lat="52.371286" lon="4.618358"><ele>0.0</ele></rtept>
    <rtept lat="52.371244" lon="4.618418"><ele>0.0</ele></rtept>
    <rtept lat="52.371219" lon="4.618459"><ele>0.0</ele></rtept>
    <rtept lat="52.371196" lon="4.618653"><ele>0.0</ele></rtept>
    <rtept lat="52.371184" lon="4.618782"><ele>0.0</ele></rtept>
    <rtept lat="52.371139" lon="4.619219"><ele>0.0</ele></rtept>
    <rtept lat="52.371129" lon="4.619661"><ele>0.0</ele></rtept>
    <rtept lat="52.370885" lon="4.621887"><ele>0.0</ele></rtept>
    <rtept lat="52.370947" lon="4.622005"><ele>0.0</ele></rtept>
    <rtept lat="52.370980" lon="4.622108"><ele>0.0</ele></rtept>
    <rtept lat="52.371089" lon="4.622609"><ele>0.0</ele></rtept>
    <rtept lat="52.371165" lon="4.623098"><ele>0.0</ele></rtept>
    <rtept lat="52.371210" lon="4.623614"><ele>0.0</ele></rtept>
    <rtept lat="52.371214" lon="4.623862"><ele>0.0</ele></rtept>
    <rtept lat="52.371195" lon="4.623931"><ele>0.0</ele></rtept>
    <rtept lat="52.371173" lon="4.623999"><ele>0.0</ele></rtept>
    <rtept lat="52.371477" lon="4.624331"><ele>0.0</ele></rtept>
    <rtept lat="52.371561" lon="4.624467"><ele>0.0</ele></rtept>
    <rtept lat="52.371639" lon="4.624586"><ele>0.0</ele></rtept>
    <rtept lat="52.371678" lon="4.624630"><ele>0.0</ele></rtept>
    <rtept lat="52.371814" lon="4.624775"><ele>0.0</ele></rtept>
    <rtept lat="52.372062" lon="4.625134"><ele>0.0</ele></rtept>
    <rtept lat="52.372246" lon="4.625422"><ele>0.0</ele></rtept>
    <rtept lat="52.372317" lon="4.625538"><ele>0.0</ele></rtept>
    <rtept lat="52.372509" lon="4.625868"><ele>0.0</ele></rtept>
    <rtept lat="52.372644" lon="4.626124"><ele>0.0</ele></rtept>
    <rtept lat="52.373058" lon="4.627054"><ele>0.0</ele></rtept>
    <rtept lat="52.373232" lon="4.627563"><ele>0.0</ele></rtept>
    <rtept lat="52.373213" lon="4.627803"><ele>0.0</ele></rtept>
    <rtept lat="52.373261" lon="4.627820"><ele>0.0</ele></rtept>
    <rtept lat="52.373301" lon="4.627905"><ele>0.0</ele></rtept>
    <rtept lat="52.373341" lon="4.628001"><ele>0.0</ele></rtept>
    <rtept lat="52.373389" lon="4.628113"><ele>0.0</ele></rtept>
    <rtept lat="52.373463" lon="4.628151"><ele>0.0</ele></rtept>
    <rtept lat="52.373531" lon="4.628149"><ele>0.0</ele></rtept>
    <rtept lat="52.373567" lon="4.628143"><ele>0.0</ele></rtept>
    <rtept lat="52.373670" lon="4.628094"><ele>0.0</ele></rtept>
    <rtept lat="52.373902" lon="4.627857"><ele>0.0</ele></rtept>
    <rtept lat="52.373979" lon="4.627800"><ele>0.0</ele></rtept>
    <rtept lat="52.374016" lon="4.627796"><ele>0.0</ele></rtept>
    <rtept lat="52.374361" lon="4.627925"><ele>0.0</ele></rtept>
    <rtept lat="52.374401" lon="4.627925"><ele>0.0</ele></rtept>
    <rtept lat="52.374495" lon="4.627914"><ele>0.0</ele></rtept>
    <rtept lat="52.374895" lon="4.627640"><ele>0.0</ele></rtept>
    <rtept lat="52.374912" lon="4.627614"><ele>0.0</ele></rtept>
    <rtept lat="52.374955" lon="4.627559"><ele>0.0</ele></rtept>
    <rtept lat="52.374990" lon="4.627502"><ele>0.0</ele></rtept>
    <rtept lat="52.375070" lon="4.627376"><ele>0.0</ele></rtept>
    <rtept lat="52.375107" lon="4.627321"><ele>0.0</ele></rtept>
    <rtept lat="52.375190" lon="4.627300"><ele>0.0</ele></rtept>
    <rtept lat="52.375847" lon="4.627240"><ele>0.0</ele></rtept>
    <rtept lat="52.375778" lon="4.627644"><ele>0.0</ele></rtept>
    <rtept lat="52.375720" lon="4.627940"><ele>0.0</ele></rtept>
    <rtept lat="52.375245" lon="4.630589"><ele>0.0</ele></rtept>
    <rtept lat="52.375231" lon="4.630667"><ele>0.0</ele></rtept>
    <rtept lat="52.375190" lon="4.630889"><ele>0.0</ele></rtept>
    <rtept lat="52.375234" lon="4.630883"><ele>0.0</ele></rtept>
    <rtept lat="52.375338" lon="4.630801"><ele>0.0</ele></rtept>
    <rtept lat="52.375380" lon="4.630802"><ele>0.0</ele></rtept>
    <rtept lat="52.375614" lon="4.630916"><ele>0.0</ele></rtept>
    <rtept lat="52.375707" lon="4.630968"><ele>0.0</ele></rtept>
    <rtept lat="52.375889" lon="4.631022"><ele>0.0</ele></rtept>
    <rtept lat="52.375883" lon="4.631107"><ele>0.0</ele></rtept>
    <rtept lat="52.375846" lon="4.632272"><ele>0.0</ele></rtept>
    <rtept lat="52.375814" lon="4.633763"><ele>0.0</ele></rtept>
    <rtept lat="52.375774" lon="4.635077"><ele>0.0</ele></rtept>
    <rtept lat="52.375773" lon="4.635192"><ele>0.0</ele></rtept>
    <rtept lat="52.375782" lon="4.635649"><ele>0.0</ele></rtept>
    <rtept lat="52.375813" lon="4.636342"><ele>0.0</ele></rtept>
    <rtept lat="52.375886" lon="4.636864"><ele>0.0</ele></rtept>
    <rtept lat="52.375966" lon="4.637197"><ele>0.0</ele></rtept>
    <rtept lat="52.376074" lon="4.637550"><ele>0.0</ele></rtept>
    <rtept lat="52.376317" lon="4.638330"><ele>0.0</ele></rtept>
    <rtept lat="52.376522" lon="4.638976"><ele>0.0</ele></rtept>
    <rtept lat="52.376551" lon="4.639068"><ele>0.0</ele></rtept>
    <rtept lat="52.376704" lon="4.639362"><ele>0.0</ele></rtept>
    <rtept lat="52.376739" lon="4.639414"><ele>0.0</ele></rtept>
    <rtept lat="52.376799" lon="4.639487"><ele>0.0</ele></rtept>
    <rtept lat="52.376748" lon="4.639731"><ele>0.0</ele></rtept>
    <rtept lat="52.376748" lon="4.639808"><ele>0.0</ele></rtept>
    <rtept lat="52.376776" lon="4.639949"><ele>0.0</ele></rtept>
    <rtept lat="52.376832" lon="4.640027"><ele>0.0</ele></rtept>
    <rtept lat="52.376940" lon="4.640401"><ele>0.0</ele></rtept>
    <rtept lat="52.376996" lon="4.640565"><ele>0.0</ele></rtept>
    <rtept lat="52.377018" lon="4.640752"><ele>0.0</ele></rtept>
    <rtept lat="52.377008" lon="4.640848"><ele>0.0</ele></rtept>
    <rtept lat="52.376957" lon="4.640921"><ele>0.0</ele></rtept>
    <rtept lat="52.376935" lon="4.640966"><ele>0.0</ele></rtept>
    <rtept lat="52.376720" lon="4.641625"><ele>0.0</ele></rtept>
    <rtept lat="52.376619" lon="4.641629"><ele>0.0</ele></rtept>
    <rtept lat="52.376608" lon="4.641650"><ele>0.0</ele></rtept>
    <rtept lat="52.376545" lon="4.641791"><ele>0.0</ele></rtept>
    <rtept lat="52.376524" lon="4.641840"><ele>0.0</ele></rtept>
    <rtept lat="52.376396" lon="4.642108"><ele>0.0</ele></rtept>
    <rtept lat="52.376324" lon="4.642260"><ele>0.0</ele></rtept>
    <rtept lat="52.376223" lon="4.642429"><ele>0.0</ele></rtept>
    <rtept lat="52.376266" lon="4.642526"><ele>0.0</ele></rtept>
    <rtept lat="52.376317" lon="4.642652"><ele>0.0</ele></rtept>
    <rtept lat="52.376364" lon="4.642843"><ele>0.0</ele></rtept>
    <rtept lat="52.376408" lon="4.643488"><ele>0.0</ele></rtept>
    <rtept lat="52.376475" lon="4.644615"><ele>0.0</ele></rtept>
    <rtept lat="52.376555" lon="4.645774"><ele>0.0</ele></rtept>
    <rtept lat="52.376507" lon="4.645904"><ele>0.0</ele></rtept>
    <rtept lat="52.376530" lon="4.646289"><ele>0.0</ele></rtept>
    <rtept lat="52.376569" lon="4.646302"><ele>0.0</ele></rtept>
    <rtept lat="52.376588" lon="4.646355"><ele>0.0</ele></rtept>
    <rtept lat="52.376728" lon="4.648280"><ele>0.0</ele></rtept>
    <rtept lat="52.376728" lon="4.648428"><ele>0.0</ele></rtept>
    <rtept lat="52.376608" lon="4.648896"><ele>0.0</ele></rtept>
    <rtept lat="52.376626" lon="4.649419"><ele>0.0</ele></rtept>
    <rtept lat="52.376792" lon="4.649386"><ele>0.0</ele></rtept>
    <rtept lat="52.376935" lon="4.649362"><ele>0.0</ele></rtept>
    <rtept lat="52.376986" lon="4.649354"><ele>0.0</ele></rtept>
    <rtept lat="52.377017" lon="4.649942"><ele>0.0</ele></rtept>
    <rtept lat="52.377039" lon="4.650248"><ele>0.0</ele></rtept>
    <rtept lat="52.377041" lon="4.650289"><ele>0.0</ele></rtept>
    <rtept lat="52.377079" lon="4.650924"><ele>0.0</ele></rtept>
    <rtept lat="52.376764" lon="4.651077"><ele>0.0</ele></rtept>
    <rtept lat="52.376704" lon="4.651130"><ele>0.0</ele></rtept>
    <rtept lat="52.376382" lon="4.651708"><ele>0.0</ele></rtept>
    <rtept lat="52.376357" lon="4.651822"><ele>0.0</ele></rtept>
    <rtept lat="52.376353" lon="4.651934"><ele>0.0</ele></rtept>
    <rtept lat="52.376384" lon="4.652182"><ele>0.0</ele></rtept>
    <rtept lat="52.376463" lon="4.652848"><ele>0.0</ele></rtept>
    <rtept lat="52.376578" lon="4.653775"><ele>0.0</ele></rtept>
    <rtept lat="52.376571" lon="4.653984"><ele>0.0</ele></rtept>
    <rtept lat="52.376715" lon="4.654486"><ele>0.0</ele></rtept>
    <rtept lat="52.376862" lon="4.655041"><ele>0.0</ele></rtept>
    <rtept lat="52.376926" lon="4.655274"><ele>0.0</ele></rtept>
    <rtept lat="52.377017" lon="4.655609"><ele>0.0</ele></rtept>
    <rtept lat="52.377129" lon="4.656052"><ele>0.0</ele></rtept>
    <rtept lat="52.377176" lon="4.656129"><ele>0.0</ele></rtept>
    <rtept lat="52.377279" lon="4.656200"><ele>0.0</ele></rtept>
    <rtept lat="52.377592" lon="4.656397"><ele>0.0</ele></rtept>
    <rtept lat="52.378161" lon="4.656810"><ele>0.0</ele></rtept>
    <rtept lat="52.378896" lon="4.657371"><ele>0.0</ele></rtept>
    <rtept lat="52.379192" lon="4.657600"><ele>0.0</ele></rtept>
    <rtept lat="52.379403" lon="4.657759"><ele>0.0</ele></rtept>
    <rtept lat="52.379574" lon="4.657888"><ele>0.0</ele></rtept>
    <rtept lat="52.379804" lon="4.657899"><ele>0.0</ele></rtept>
    <rtept lat="52.380041" lon="4.657887"><ele>0.0</ele></rtept>
    <rtept lat="52.380029" lon="4.657510"><ele>0.0</ele></rtept>
  </rte>
</gpx>