<?xml version="1.0" encoding="UTF-8"?>
<gpx version="1.1" creator="WeeklyCyclingRoutes"
  xmlns="http://www.topografix.com/GPX/1/1"
  xmlns:xsi="http://www.w3.org/2001/XMLSchema-instance"
  xsi:schemaLocation="http://www.topografix.com/GPX/1/1 http://www.topografix.com/GPX/1/1/gpx.xsd">
  <metadata>
    <name>40km Route – August 24, 2026</name>
    <desc>Round trip from Cremerstraat, Haarlem. Actual: 35.8km</desc>
    <time>2026-08-24T06:43:03Z</time>
  </metadata>
  <rte>
    <name>40km Cycling Route – Haarlem</name>
    <rtept lat="52.380029" lon="4.657510"><ele>0.0</ele></rtept>
    <rtept lat="52.380041" lon="4.657887"><ele>0.0</ele></rtept>
    <rtept lat="52.379804" lon="4.657899"><ele>0.0</ele></rtept>
    <rtept lat="52.379574" lon="4.657888"><ele>0.0</ele></rtept>
    <rtept lat="52.379447" lon="4.659520"><ele>0.0</ele></rtept>
    <rtept lat="52.379026" lon="4.659422"><ele>0.0</ele></rtept>
    <rtept lat="52.378994" lon="4.659805"><ele>0.0</ele></rtept>
    <rtept lat="52.378980" lon="4.659944"><ele>0.0</ele></rtept>
    <rtept lat="52.378919" lon="4.660207"><ele>0.0</ele></rtept>
    <rtept lat="52.378892" lon="4.660355"><ele>0.0</ele></rtept>
    <rtept lat="52.378869" lon="4.660481"><ele>0.0</ele></rtept>
    <rtept lat="52.378835" lon="4.660666"><ele>0.0</ele></rtept>
    <rtept lat="52.378754" lon="4.660632"><ele>0.0</ele></rtept>
    <rtept lat="52.378107" lon="4.660341"><ele>0.0</ele></rtept>
    <rtept lat="52.376591" lon="4.659639"><ele>0.0</ele></rtept>
    <rtept lat="52.376416" lon="4.659550"><ele>0.0</ele></rtept>
    <rtept lat="52.376248" lon="4.659469"><ele>0.0</ele></rtept>
    <rtept lat="52.375939" lon="4.659321"><ele>0.0</ele></rtept>
    <rtept lat="52.375387" lon="4.658920"><ele>0.0</ele></rtept>
    <rtept lat="52.375299" lon="4.658822"><ele>0.0</ele></rtept>
    <rtept lat="52.375264" lon="4.658783"><ele>0.0</ele></rtept>
    <rtept lat="52.375174" lon="4.658688"><ele>0.0</ele></rtept>
    <rtept lat="52.375071" lon="4.658558"><ele>0.0</ele></rtept>
    <rtept lat="52.374903" lon="4.658355"><ele>0.0</ele></rtept>
    <rtept lat="52.374774" lon="4.658199"><ele>0.0</ele></rtept>
    <rtept lat="52.374640" lon="4.658034"><ele>0.0</ele></rtept>
    <rtept lat="52.374391" lon="4.657790"><ele>0.0</ele></rtept>
    <rtept lat="52.374222" lon="4.657609"><ele>0.0</ele></rtept>
    <rtept lat="52.372821" lon="4.656439"><ele>0.0</ele></rtept>
    <rtept lat="52.371743" lon="4.655569"><ele>0.0</ele></rtept>
    <rtept lat="52.371644" lon="4.655494"><ele>0.0</ele></rtept>
    <rtept lat="52.371432" lon="4.655322"><ele>0.0</ele></rtept>
    <rtept lat="52.370928" lon="4.654930"><ele>0.0</ele></rtept>
    <rtept lat="52.370723" lon="4.654874"><ele>0.0</ele></rtept>
    <rtept lat="52.370389" lon="4.654836"><ele>0.0</ele></rtept>
    <rtept lat="52.370283" lon="4.654833"><ele>0.0</ele></rtept>
    <rtept lat="52.370075" lon="4.654826"><ele>0.0</ele></rtept>
    <rtept lat="52.369981" lon="4.654809"><ele>0.0</ele></rtept>
    <rtept lat="52.369938" lon="4.654772"><ele>0.0</ele></rtept>
    <rtept lat="52.369824" lon="4.654648"><ele>0.0</ele></rtept>
    <rtept lat="52.368957" lon="4.654543"><ele>0.0</ele></rtept>
    <rtept lat="52.368663" lon="4.654470"><ele>0.0</ele></rtept>
    <rtept lat="52.368353" lon="4.654479"><ele>0.0</ele></rtept>
    <rtept lat="52.368337" lon="4.654479"><ele>0.0</ele></rtept>
    <rtept lat="52.368020" lon="4.654482"><ele>0.0</ele></rtept>
    <rtept lat="52.367966" lon="4.654499"><ele>0.0</ele></rtept>
    <rtept lat="52.367813" lon="4.654557"><ele>0.0</ele></rtept>
    <rtept lat="52.367800" lon="4.654688"><ele>0.0</ele></rtept>
    <rtept lat="52.367802" lon="4.655012"><ele>0.0</ele></rtept>
    <rtept lat="52.367801" lon="4.656505"><ele>0.0</ele></rtept>
    <rtept lat="52.367811" lon="4.657704"><ele>0.0</ele></rtept>
    <rtept lat="52.367821" lon="4.659432"><ele>0.0</ele></rtept>
    <rtept lat="52.367829" lon="4.660912"><ele>0.0</ele></rtept>
    <rtept lat="52.367827" lon="4.662490"><ele>0.0</ele></rtept>
    <rtept lat="52.367872" lon="4.663787"><ele>0.0</ele></rtept>
    <rtept lat="52.367879" lon="4.664269"><ele>0.0</ele></rtept>
    <rtept lat="52.367889" lon="4.666109"><ele>0.0</ele></rtept>
    <rtept lat="52.367838" lon="4.666112"><ele>0.0</ele></rtept>
    <rtept lat="52.367782" lon="4.666114"><ele>0.0</ele></rtept>
    <rtept lat="52.367674" lon="4.666133"><ele>0.0</ele></rtept>
    <rtept lat="52.367549" lon="4.666157"><ele>0.0</ele></rtept>
    <rtept lat="52.366772" lon="4.666360"><ele>0.0</ele></rtept>
    <rtept lat="52.366728" lon="4.666376"><ele>0.0</ele></rtept>
    <rtept lat="52.366226" lon="4.666499"><ele>0.0</ele></rtept>
    <rtept lat="52.364616" lon="4.666862"><ele>0.0</ele></rtept>
    <rtept lat="52.364555" lon="4.666877"><ele>0.0</ele></rtept>
    <rtept lat="52.364252" lon="4.666958"><ele>0.0</ele></rtept>
    <rtept lat="52.362877" lon="4.667285"><ele>0.0</ele></rtept>
    <rtept lat="52.362158" lon="4.667456"><ele>0.0</ele></rtept>
    <rtept lat="52.362034" lon="4.667495"><ele>0.0</ele></rtept>
    <rtept lat="52.361115" lon="4.667716"><ele>0.0</ele></rtept>
    <rtept lat="52.360741" lon="4.667804"><ele>0.0</ele></rtept>
    <rtept lat="52.360693" lon="4.668029"><ele>0.0</ele></rtept>
    <rtept lat="52.360581" lon="4.668367"><ele>0.0</ele></rtept>
    <rtept lat="52.360467" lon="4.668618"><ele>0.0</ele></rtept>
    <rtept lat="52.360332" lon="4.668884"><ele>0.0</ele></rtept>
    <rtept lat="52.360291" lon="4.668924"><ele>0.0</ele></rtept>
    <rtept lat="52.360156" lon="4.669100"><ele>0.0</ele></rtept>
    <rtept lat="52.359958" lon="4.669296"><ele>0.0</ele></rtept>
    <rtept lat="52.359637" lon="4.669464"><ele>0.0</ele></rtept>
    <rtept lat="52.359469" lon="4.669519"><ele>0.0</ele></rtept>
    <rtept lat="52.359365" lon="4.669522"><ele>0.0</ele></rtept>
    <rtept lat="52.358102" lon="4.669544"><ele>0.0</ele></rtept>
    <rtept lat="52.357541" lon="4.669577"><ele>0.0</ele></rtept>
    <rtept lat="52.356571" lon="4.669792"><ele>0.0</ele></rtept>
    <rtept lat="52.356332" lon="4.669868"><ele>0.0</ele></rtept>
    <rtept lat="52.355799" lon="4.670115"><ele>0.0</ele></rtept>
    <rtept lat="52.355744" lon="4.670136"><ele>0.0</ele></rtept>
    <rtept lat="52.355673" lon="4.670170"><ele>0.0</ele></rtept>
    <rtept lat="52.355736" lon="4.670631"><ele>0.0</ele></rtept>
    <rtept lat="52.355992" lon="4.672205"><ele>0.0</ele></rtept>
    <rtept lat="52.356103" lon="4.673000"><ele>0.0</ele></rtept>
    <rtept lat="52.356060" lon="4.673244"><ele>0.0</ele></rtept>
    <rtept lat="52.355980" lon="4.673417"><ele>0.0</ele></rtept>
    <rtept lat="52.355766" lon="4.673762"><ele>0.0</ele></rtept>
    <rtept lat="52.354878" lon="4.674952"><ele>0.0</ele></rtept>
    <rtept lat="52.354134" lon="4.675928"><ele>0.0</ele></rtept>
    <rtept lat="52.354027" lon="4.676138"><ele>0.0</ele></rtept>
    <rtept lat="52.354006" lon="4.676245"><ele>0.0</ele></rtept>
    <rtept lat="52.353924" lon="4.676809"><ele>0.0</ele></rtept>
    <rtept lat="52.353909" lon="4.676910"><ele>0.0</ele></rtept>
    <rtept lat="52.353525" lon="4.676767"><ele>0.0</ele></rtept>
    <rtept lat="52.352686" lon="4.676218"><ele>0.0</ele></rtept>
    <rtept lat="52.352414" lon="4.676000"><ele>0.0</ele></rtept>
    <rtept lat="52.351765" lon="4.675341"><ele>0.0</ele></rtept>
    <rtept lat="52.351536" lon="4.675076"><ele>0.0</ele></rtept>
    <rtept lat="52.351073" lon="4.674468"><ele>0.0</ele></rtept>
    <rtept lat="52.350937" lon="4.674255"><ele>0.0</ele></rtept>
    <rtept lat="52.350570" lon="4.673550"><ele>0.0</ele></rtept>
    <rtept lat="52.349416" lon="4.670958"><ele>0.0</ele></rtept>
    <rtept lat="52.349319" lon="4.671047"><ele>0.0</ele></rtept>
    <rtept lat="52.348940" lon="4.671303"><ele>0.0</ele></rtept>
    <rtept lat="52.348565" lon="4.671474"><ele>0.0</ele></rtept>
    <rtept lat="52.348137" lon="4.671580"><ele>0.0</ele></rtept>
    <rtept lat="52.347251" lon="4.671674"><ele>0.0</ele></rtept>
    <rtept lat="52.347037" lon="4.671690"><ele>0.0</ele></rtept>
    <rtept lat="52.346890" lon="4.671700"><ele>0.0</ele></rtept>
    <rtept lat="52.346472" lon="4.671729"><ele>0.0</ele></rtept>
    <rtept lat="52.346320" lon="4.671657"><ele>0.0</ele></rtept>
    <rtept lat="52.346288" lon="4.671669"><ele>0.0</ele></rtept>
    <rtept lat="52.346274" lon="4.671698"><ele>0.0</ele></rtept>
    <rtept lat="52.346253" lon="4.671740"><ele>0.0</ele></rtept>
    <rtept lat="52.346236" lon="4.671775"><ele>0.0</ele></rtept>
    <rtept lat="52.346208" lon="4.671801"><ele>0.0</ele></rtept>
    <rtept lat="52.346099" lon="4.671824"><ele>0.0</ele></rtept>
    <rtept lat="52.346064" lon="4.671865"><ele>0.0</ele></rtept>
    <rtept lat="52.346041" lon="4.671887"><ele>0.0</ele></rtept>
    <rtept lat="52.345250" lon="4.672126"><ele>0.0</ele></rtept>
    <rtept lat="52.345076" lon="4.672242"><ele>0.0</ele></rtept>
    <rtept lat="52.344572" lon="4.672383"><ele>0.0</ele></rtept>
    <rtept lat="52.344355" lon="4.672373"><ele>0.0</ele></rtept>
    <rtept lat="52.343553" lon="4.672596"><ele>0.0</ele></rtept>
    <rtept lat="52.343522" lon="4.672605"><ele>0.0</ele></rtept>
    <rtept lat="52.343406" lon="4.672650"><ele>0.0</ele></rtept>
    <rtept lat="52.343232" lon="4.672765"><ele>0.0</ele></rtept>
    <rtept lat="52.342456" lon="4.672992"><ele>0.0</ele></rtept>
    <rtept lat="52.342132" lon="4.673000"><ele>0.0</ele></rtept>
    <rtept lat="52.341895" lon="4.673064"><ele>0.0</ele></rtept>
    <rtept lat="52.339506" lon="4.673740"><ele>0.0</ele></rtept>
    <rtept lat="52.339330" lon="4.673743"><ele>0.0</ele></rtept>
    <rtept lat="52.338432" lon="4.673864"><ele>0.0</ele></rtept>
    <rtept lat="52.338064" lon="4.673973"><ele>0.0</ele></rtept>
    <rtept lat="52.337773" lon="4.674005"><ele>0.0</ele></rtept>
    <rtept lat="52.336415" lon="4.674412"><ele>0.0</ele></rtept>
    <rtept lat="52.336239" lon="4.674488"><ele>0.0</ele></rtept>
    <rtept lat="52.335163" lon="4.674789"><ele>0.0</ele></rtept>
    <rtept lat="52.334916" lon="4.674863"><ele>0.0</ele></rtept>
    <rtept lat="52.334850" lon="4.674881"><ele>0.0</ele></rtept>
    <rtept lat="52.334561" lon="4.674958"><ele>0.0</ele></rtept>
    <rtept lat="52.334141" lon="4.675025"><ele>0.0</ele></rtept>
    <rtept lat="52.333495" lon="4.675123"><ele>0.0</ele></rtept>
    <rtept lat="52.333059" lon="4.675149"><ele>0.0</ele></rtept>
    <rtept lat="52.329442" lon="4.676183"><ele>0.0</ele></rtept>
    <rtept lat="52.329411" lon="4.676192"><ele>0.0</ele></rtept>
    <rtept lat="52.324001" lon="4.677735"><ele>0.0</ele></rtept>
    <rtept lat="52.323922" lon="4.677682"><ele>0.0</ele></rtept>
    <rtept lat="52.323778" lon="4.677457"><ele>0.0</ele></rtept>
    <rtept lat="52.323647" lon="4.677378"><ele>0.0</ele></rtept>
    <rtept lat="52.323527" lon="4.677397"><ele>0.0</ele></rtept>
    <rtept lat="52.323453" lon="4.677527"><ele>0.0</ele></rtept>
    <rtept lat="52.323383" lon="4.677735"><ele>0.0</ele></rtept>
    <rtept lat="52.323270" lon="4.678009"><ele>0.0</ele></rtept>
    <rtept lat="52.323221" lon="4.678099"><ele>0.0</ele></rtept>
    <rtept lat="52.323179" lon="4.678185"><ele>0.0</ele></rtept>
    <rtept lat="52.323069" lon="4.678349"><ele>0.0</ele></rtept>
    <rtept lat="52.322978" lon="4.678431"><ele>0.0</ele></rtept>
    <rtept lat="52.318071" lon="4.680272"><ele>0.0</ele></rtept>
    <rtept lat="52.317106" lon="4.680641"><ele>0.0</ele></rtept>
    <rtept lat="52.317032" lon="4.680676"><ele>0.0</ele></rtept>
    <rtept lat="52.316816" lon="4.680786"><ele>0.0</ele></rtept>
    <rtept lat="52.316541" lon="4.680892"><ele>0.0</ele></rtept>
    <rtept lat="52.316281" lon="4.680986"><ele>0.0</ele></rtept>
    <rtept lat="52.316009" lon="4.681085"><ele>0.0</ele></rtept>
    <rtept lat="52.315765" lon="4.681138"><ele>0.0</ele></rtept>
    <rtept lat="52.315717" lon="4.681151"><ele>0.0</ele></rtept>
    <rtept lat="52.314498" lon="4.681614"><ele>0.0</ele></rtept>
    <rtept lat="52.314416" lon="4.681646"><ele>0.0</ele></rtept>
    <rtept lat="52.314367" lon="4.681654"><ele>0.0</ele></rtept>
    <rtept lat="52.314092" lon="4.681384"><ele>0.0</ele></rtept>
    <rtept lat="52.314020" lon="4.681404"><ele>0.0</ele></rtept>
    <rtept lat="52.313964" lon="4.681423"><ele>0.0</ele></rtept>
    <rtept lat="52.312199" lon="4.682078"><ele>0.0</ele></rtept>
    <rtept lat="52.312158" lon="4.682050"><ele>0.0</ele></rtept>
    <rtept lat="52.311961" lon="4.682044"><ele>0.0</ele></rtept>
    <rtept lat="52.311942" lon="4.681964"><ele>0.0</ele></rtept>
    <rtept lat="52.311901" lon="4.681944"><ele>0.0</ele></rtept>
    <rtept lat="52.311501" lon="4.682140"><ele>0.0</ele></rtept>
    <rtept lat="52.311281" lon="4.682226"><ele>0.0</ele></rtept>
    <rtept lat="52.311221" lon="4.682210"><ele>0.0</ele></rtept>
    <rtept lat="52.311101" lon="4.682063"><ele>0.0</ele></rtept>
    <rtept lat="52.311073" lon="4.682099"><ele>0.0</ele></rtept>
    <rtept lat="52.310267" lon="4.682425"><ele>0.0</ele></rtept>
    <rtept lat="52.310195" lon="4.682554"><ele>0.0</ele></rtept>
    <rtept lat="52.310165" lon="4.682607"><ele>0.0</ele></rtept>
    <rtept lat="52.310104" lon="4.682643"><ele>0.0</ele></rtept>
    <rtept lat="52.310029" lon="4.682669"><ele>0.0</ele></rtept>
    <rtept lat="52.309972" lon="4.682735"><ele>0.0</ele></rtept>
    <rtept lat="52.309914" lon="4.682801"><ele>0.0</ele></rtept>
    <rtept lat="52.309896" lon="4.682829"><ele>0.0</ele></rtept>
    <rtept lat="52.309805" lon="4.682955"><ele>0.0</ele></rtept>
    <rtept lat="52.307083" lon="4.683992"><ele>0.0</ele></rtept>
    <rtept lat="52.307013" lon="4.684035"><ele>0.0</ele></rtept>
    <rtept lat="52.306957" lon="4.684078"><ele>0.0</ele></rtept>
    <rtept lat="52.306886" lon="4.684134"><ele>0.0</ele></rtept>
    <rtept lat="52.306818" lon="4.684145"><ele>0.0</ele></rtept>
    <rtept lat="52.306759" lon="4.684125"><ele>0.0</ele></rtept>
    <rtept lat="52.306701" lon="4.684116"><ele>0.0</ele></rtept>
    <rtept lat="52.304362" lon="4.685013"><ele>0.0</ele></rtept>
    <rtept lat="52.303243" lon="4.685068"><ele>0.0</ele></rtept>
    <rtept lat="52.303071" lon="4.685109"><ele>0.0</ele></rtept>
    <rtept lat="52.302771" lon="4.685520"><ele>0.0</ele></rtept>
    <rtept lat="52.302540" lon="4.685804"><ele>0.0</ele></rtept>
    <rtept lat="52.302423" lon="4.685960"><ele>0.0</ele></rtept>
    <rtept lat="52.302372" lon="4.686068"><ele>0.0</ele></rtept>
    <rtept lat="52.302331" lon="4.686119"><ele>0.0</ele></rtept>
    <rtept lat="52.302256" lon="4.686265"><ele>0.0</ele></rtept>
    <rtept lat="52.302219" lon="4.686402"><ele>0.0</ele></rtept>
    <rtept lat="52.302041" lon="4.686756"><ele>0.0</ele></rtept>
    <rtept lat="52.301971" lon="4.686838"><ele>0.0</ele></rtept>
    <rtept lat="52.301874" lon="4.687020"><ele>0.0</ele></rtept>
    <rtept lat="52.301477" lon="4.686454"><ele>0.0</ele></rtept>
    <rtept lat="52.301411" lon="4.686587"><ele>0.0</ele></rtept>
    <rtept lat="52.301330" lon="4.686744"><ele>0.0</ele></rtept>
    <rtept lat="52.301293" lon="4.686820"><ele>0.0</ele></rtept>
    <rtept lat="52.301258" lon="4.686885"><ele>0.0</ele></rtept>
    <rtept lat="52.301226" lon="4.686947"><ele>0.0</ele></rtept>
    <rtept lat="52.301193" lon="4.687015"><ele>0.0</ele></rtept>
    <rtept lat="52.301133" lon="4.687138"><ele>0.0</ele></rtept>
    <rtept lat="52.301131" lon="4.687142"><ele>0.0</ele></rtept>
    <rtept lat="52.301099" lon="4.687205"><ele>0.0</ele></rtept>
    <rtept lat="52.300396" lon="4.688473"><ele>0.0</ele></rtept>
    <rtept lat="52.299756" lon="4.689222"><ele>0.0</ele></rtept>
    <rtept lat="52.299440" lon="4.689733"><ele>0.0</ele></rtept>
    <rtept lat="52.299361" lon="4.689818"><ele>0.0</ele></rtept>
    <rtept lat="52.299165" lon="4.689902"><ele>0.0</ele></rtept>
    <rtept lat="52.299064" lon="4.689992"><ele>0.0</ele></rtept>
    <rtept lat="52.298248" lon="4.690911"><ele>0.0</ele></rtept>
    <rtept lat="52.297939" lon="4.691299"><ele>0.0</ele></rtept>
    <rtept lat="52.297919" lon="4.691329"><ele>0.0</ele></rtept>
    <rtept lat="52.297868" lon="4.691422"><ele>0.0</ele></rtept>
    <rtept lat="52.297711" lon="4.691189"><ele>0.0</ele></rtept>
    <rtept lat="52.297463" lon="4.690810"><ele>0.0</ele></rtept>
    <rtept lat="52.297441" lon="4.690851"><ele>0.0</ele></rtept>
    <rtept lat="52.297400" lon="4.690929"><ele>0.0</ele></rtept>
    <rtept lat="52.297348" lon="4.691000"><ele>0.0</ele></rtept>
    <rtept lat="52.297173" lon="4.691003"><ele>0.0</ele></rtept>
    <rtept lat="52.296882" lon="4.691457"><ele>0.0</ele></rtept>
    <rtept lat="52.296353" lon="4.692078"><ele>0.0</ele></rtept>
    <rtept lat="52.295576" lon="4.692934"><ele>0.0</ele></rtept>
    <rtept lat="52.295390" lon="4.693139"><ele>0.0</ele></rtept>
    <rtept lat="52.294822" lon="4.693808"><ele>0.0</ele></rtept>
    <rtept lat="52.294293" lon="4.694405"><ele>0.0</ele></rtept>
    <rtept lat="52.293865" lon="4.694892"><ele>0.0</ele></rtept>
    <rtept lat="52.293624" lon="4.695212"><ele>0.0</ele></rtept>
    <rtept lat="52.293605" lon="4.695252"><ele>0.0</ele></rtept>
    <rtept lat="52.293602" lon="4.695606"><ele>0.0</ele></rtept>
    <rtept lat="52.293432" lon="4.695684"><ele>0.0</ele></rtept>
    <rtept lat="52.293143" lon="4.695992"><ele>0.0</ele></rtept>
    <rtept lat="52.293025" lon="4.696131"><ele>0.0</ele></rtept>
    <rtept lat="52.292732" lon="4.696472"><ele>0.0</ele></rtept>
    <rtept lat="52.292631" lon="4.696606"><ele>0.0</ele></rtept>
    <rtept lat="52.292614" lon="4.696670"><ele>0.0</ele></rtept>
    <rtept lat="52.292613" lon="4.696804"><ele>0.0</ele></rtept>
    <rtept lat="52.292642" lon="4.696911"><ele>0.0</ele></rtept>
    <rtept lat="52.292674" lon="4.696982"><ele>0.0</ele></rtept>
    <rtept lat="52.292979" lon="4.697717"><ele>0.0</ele></rtept>
    <rtept lat="52.293002" lon="4.697972"><ele>0.0</ele></rtept>
    <rtept lat="52.292795" lon="4.698310"><ele>0.0</ele></rtept>
    <rtept lat="52.292718" lon="4.698456"><ele>0.0</ele></rtept>
    <rtept lat="52.292632" lon="4.698598"><ele>0.0</ele></rtept>
    <rtept lat="52.292476" lon="4.698873"><ele>0.0</ele></rtept>
    <rtept lat="52.292427" lon="4.698955"><ele>0.0</ele></rtept>
    <rtept lat="52.292327" lon="4.699132"><ele>0.0</ele></rtept>
    <rtept lat="52.292215" lon="4.699307"><ele>0.0</ele></rtept>
    <rtept lat="52.291991" lon="4.699724"><ele>0.0</ele></rtept>
    <rtept lat="52.291837" lon="4.700004"><ele>0.0</ele></rtept>
    <rtept lat="52.291787" lon="4.700180"><ele>0.0</ele></rtept>
    <rtept lat="52.291680" lon="4.700136"><ele>0.0</ele></rtept>
    <rtept lat="52.291571" lon="4.700103"><ele>0.0</ele></rtept>
    <rtept lat="52.291473" lon="4.700086"><ele>0.0</ele></rtept>
    <rtept lat="52.291419" lon="4.700110"><ele>0.0</ele></rtept>
    <rtept lat="52.291178" lon="4.700557"><ele>0.0</ele></rtept>
    <rtept lat="52.291132" lon="4.700646"><ele>0.0</ele></rtept>
    <rtept lat="52.290954" lon="4.700388"><ele>0.0</ele></rtept>
    <rtept lat="52.290726" lon="4.700063"><ele>0.0</ele></rtept>
    <rtept lat="52.290506" lon="4.699745"><ele>0.0</ele></rtept>
    <rtept lat="52.290476" lon="4.699712"><ele>0.0</ele></rtept>
    <rtept lat="52.286669" lon="4.703980"><ele>0.0</ele></rtept>
    <rtept lat="52.286129" lon="4.704584"><ele>0.0</ele></rtept>
    <rtept lat="52.286082" lon="4.704686"><ele>0.0</ele></rtept>
    <rtept lat="52.285961" lon="4.704908"><ele>0.0</ele></rtept>
    <rtept lat="52.285291" lon="4.706187"><ele>0.0</ele></rtept>
    <rtept lat="52.285079" lon="4.706529"><ele>0.0</ele></rtept>
    <rtept lat="52.284752" lon="4.707171"><ele>0.0</ele></rtept>
    <rtept lat="52.283687" lon="4.709146"><ele>0.0</ele></rtept>
    <rtept lat="52.280982" lon="4.714133"><ele>0.0</ele></rtept>
    <rtept lat="52.280808" lon="4.714449"><ele>0.0</ele></rtept>
    <rtept lat="52.280730" lon="4.714599"><ele>0.0</ele></rtept>
    <rtept lat="52.280735" lon="4.714676"><ele>0.0</ele></rtept>
    <rtept lat="52.280850" lon="4.714832"><ele>0.0</ele></rtept>
    <rtept lat="52.280950" lon="4.714861"><ele>0.0</ele></rtept>
    <rtept lat="52.281013" lon="4.714832"><ele>0.0</ele></rtept>
    <rtept lat="52.281057" lon="4.714782"><ele>0.0</ele></rtept>
    <rtept lat="52.281262" lon="4.714396"><ele>0.0</ele></rtept>
    <rtept lat="52.281387" lon="4.714150"><ele>0.0</ele></rtept>
    <rtept lat="52.281275" lon="4.713971"><ele>0.0</ele></rtept>
    <rtept lat="52.281228" lon="4.713950"><ele>0.0</ele></rtept>
    <rtept lat="52.279989" lon="4.716243"><ele>0.0</ele></rtept>
    <rtept lat="52.279531" lon="4.717096"><ele>0.0</ele></rtept>
    <rtept lat="52.279538" lon="4.717156"><ele>0.0</ele></rtept>
    <rtept lat="52.279646" lon="4.717310"><ele>0.0</ele></rtept>
    <rtept lat="52.279680" lon="4.717329"><ele>0.0</ele></rtept>
    <rtept lat="52.279803" lon="4.717098"><ele>0.0</ele></rtept>
    <rtept lat="52.280011" lon="4.716705"><ele>0.0</ele></rtept>
    <rtept lat="52.280025" lon="4.716603"><ele>0.0</ele></rtept>
    <rtept lat="52.280019" lon="4.716504"><ele>0.0</ele></rtept>
    <rtept lat="52.279995" lon="4.716419"><ele>0.0</ele></rtept>
    <rtept lat="52.279953" lon="4.716344"><ele>0.0</ele></rtept>
    <rtept lat="52.279871" lon="4.716238"><ele>0.0</ele></rtept>
    <rtept lat="52.279839" lon="4.716236"><ele>0.0</ele></rtept>
    <rtept lat="52.279747" lon="4.716401"><ele>0.0</ele></rtept>
    <rtept lat="52.279735" lon="4.716423"><ele>0.0</ele></rtept>
    <rtept lat="52.279171" lon="4.717497"><ele>0.0</ele></rtept>
    <rtept lat="52.278718" lon="4.718316"><ele>0.0</ele></rtept>
    <rtept lat="52.277281" lon="4.720979"><ele>0.0</ele></rtept>
    <rtept lat="52.274257" lon="4.726584"><ele>0.0</ele></rtept>
    <rtept lat="52.274196" lon="4.726701"><ele>0.0</ele></rtept>
    <rtept lat="52.274151" lon="4.726789"><ele>0.0</ele></rtept>
    <rtept lat="52.274113" lon="4.726852"><ele>0.0</ele></rtept>
    <rtept lat="52.273499" lon="4.727987"><ele>0.0</ele></rtept>
    <rtept lat="52.273450" lon="4.728009"><ele>0.0</ele></rtept>
    <rtept lat="52.273304" lon="4.727825"><ele>0.0</ele></rtept>
    <rtept lat="52.273280" lon="4.727816"><ele>0.0</ele></rtept>
    <rtept lat="52.270553" lon="4.732874"><ele>0.0</ele></rtept>
    <rtept lat="52.270492" lon="4.733023"><ele>0.0</ele></rtept>
    <rtept lat="52.270458" lon="4.733053"><ele>0.0</ele></rtept>
    <rtept lat="52.270432" lon="4.733041"><ele>0.0</ele></rtept>
    <rtept lat="52.270174" lon="4.732894"><ele>0.0</ele></rtept>
    <rtept lat="52.270073" lon="4.732871"><ele>0.0</ele></rtept>
    <rtept lat="52.270048" lon="4.732866"><ele>0.0</ele></rtept>
    <rtept lat="52.269133" lon="4.732712"><ele>0.0</ele></rtept>
    <rtept lat="52.268057" lon="4.732623"><ele>0.0</ele></rtept>
    <rtept lat="52.267954" lon="4.732637"><ele>0.0</ele></rtept>
    <rtept lat="52.267873" lon="4.732703"><ele>0.0</ele></rtept>
    <rtept lat="52.267817" lon="4.732790"><ele>0.0</ele></rtept>
    <rtept lat="52.267002" lon="4.734307"><ele>0.0</ele></rtept>
    <rtept lat="52.266914" lon="4.734395"><ele>0.0</ele></rtept>
    <rtept lat="52.267150" lon="4.735286"><ele>0.0</ele></rtept>
    <rtept lat="52.267310" lon="4.736010"><ele>0.0</ele></rtept>
    <rtept lat="52.267539" lon="4.737103"><ele>0.0</ele></rtept>
    <rtept lat="52.267594" lon="4.737493"><ele>0.0</ele></rtept>
    <rtept lat="52.267747" lon="4.738210"><ele>0.0</ele></rtept>
    <rtept lat="52.267957" lon="4.738940"><ele>0.0</ele></rtept>
    <rtept lat="52.268036" lon="4.739140"><ele>0.0</ele></rtept>
    <rtept lat="52.268636" lon="4.740363"><ele>0.0</ele></rtept>
    <rtept lat="52.268912" lon="4.740927"><ele>0.0</ele></rtept>
    <rtept lat="52.269380" lon="4.741869"><ele>0.0</ele></rtept>
    <rtept lat="52.269699" lon="4.741384"><ele>0.0</ele></rtept>
    <rtept lat="52.270091" lon="4.740678"><ele>0.0</ele></rtept>
    <rtept lat="52.270513" lon="4.739891"><ele>0.0</ele></rtept>
    <rtept lat="52.270554" lon="4.739734"><ele>0.0</ele></rtept>
    <rtept lat="52.271458" lon="4.738026"><ele>0.0</ele></rtept>
    <rtept lat="52.271520" lon="4.738090"><ele>0.0</ele></rtept>
    <rtept lat="52.271573" lon="4.737968"><ele>0.0</ele></rtept>
    <rtept lat="52.271642" lon="4.738010"><ele>0.0</ele></rtept>
    <rtept lat="52.271713" lon="4.737982"><ele>0.0</ele></rtept>
    <rtept lat="52.271764" lon="4.737896"><ele>0.0</ele></rtept>
    <rtept lat="52.271775" lon="4.737765"><ele>0.0</ele></rtept>
    <rtept lat="52.271739" lon="4.737654"><ele>0.0</ele></rtept>
    <rtept lat="52.271662" lon="4.737595"><ele>0.0</ele></rtept>
    <rtept lat="52.271583" lon="4.737625"><ele>0.0</ele></rtept>
    <rtept lat="52.271552" lon="4.737668"><ele>0.0</ele></rtept>
    <rtept lat="52.271523" lon="4.737792"><ele>0.0</ele></rtept>
    <rtept lat="52.271527" lon="4.737858"><ele>0.0</ele></rtept>
    <rtept lat="52.271573" lon="4.737968"><ele>0.0</ele></rtept>
    <rtept lat="52.271642" lon="4.738010"><ele>0.0</ele></rtept>
    <rtept lat="52.271713" lon="4.737982"><ele>0.0</ele></rtept>
    <rtept lat="52.271811" lon="4.738109"><ele>0.0</ele></rtept>
    <rtept lat="52.271873" lon="4.738180"><ele>0.0</ele></rtept>
    <rtept lat="52.271943" lon="4.738223"><ele>0.0</ele></rtept>
    <rtept lat="52.273969" lon="4.741148"><ele>0.0</ele></rtept>
    <rtept lat="52.274098" lon="4.741384"><ele>0.0</ele></rtept>
    <rtept lat="52.274052" lon="4.741468"><ele>0.0</ele></rtept>
    <rtept lat="52.274109" lon="4.741566"><ele>0.0</ele></rtept>
    <rtept lat="52.274116" lon="4.741679"><ele>0.0</ele></rtept>
    <rtept lat="52.274077" lon="4.741790"><ele>0.0</ele></rtept>
    <rtept lat="52.274099" lon="4.741827"><ele>0.0</ele></rtept>
    <rtept lat="52.274200" lon="4.741968"><ele>0.0</ele></rtept>
    <rtept lat="52.274229" lon="4.742009"><ele>0.0</ele></rtept>
    <rtept lat="52.274261" lon="4.742054"><ele>0.0</ele></rtept>
    <rtept lat="52.274302" lon="4.741991"><ele>0.0</ele></rtept>
    <rtept lat="52.274407" lon="4.741980"><ele>0.0</ele></rtept>
    <rtept lat="52.276162" lon="4.744522"><ele>0.0</ele></rtept>
    <rtept lat="52.276222" lon="4.744643"><ele>0.0</ele></rtept>
    <rtept lat="52.276555" lon="4.745139"><ele>0.0</ele></rtept>
    <rtept lat="52.276665" lon="4.745361"><ele>0.0</ele></rtept>
    <rtept lat="52.276677" lon="4.745411"><ele>0.0</ele></rtept>
    <rtept lat="52.276676" lon="4.745575"><ele>0.0</ele></rtept>
    <rtept lat="52.276846" lon="4.745821"><ele>0.0</ele></rtept>
    <rtept lat="52.276931" lon="4.745944"><ele>0.0</ele></rtept>
    <rtept lat="52.276970" lon="4.746000"><ele>0.0</ele></rtept>
    <rtept lat="52.277018" lon="4.746067"><ele>0.0</ele></rtept>
    <rtept lat="52.277049" lon="4.746112"><ele>0.0</ele></rtept>
    <rtept lat="52.276892" lon="4.746404"><ele>0.0</ele></rtept>
    <rtept lat="52.276641" lon="4.746838"><ele>0.0</ele></rtept>
    <rtept lat="52.276600" lon="4.746845"><ele>0.0</ele></rtept>
    <rtept lat="52.276556" lon="4.746780"><ele>0.0</ele></rtept>
    <rtept lat="52.276676" lon="4.746602"><ele>0.0</ele></rtept>
    <rtept lat="52.276843" lon="4.746299"><ele>0.0</ele></rtept>
    <rtept lat="52.277036" lon="4.745943"><ele>0.0</ele></rtept>
    <rtept lat="52.277260" lon="4.745527"><ele>0.0</ele></rtept>
    <rtept lat="52.277619" lon="4.744857"><ele>0.0</ele></rtept>
    <rtept lat="52.277771" lon="4.744680"><ele>0.0</ele></rtept>
    <rtept lat="52.277933" lon="4.744379"><ele>0.0</ele></rtept>
    <rtept lat="52.278028" lon="4.744202"><ele>0.0</ele></rtept>
    <rtept lat="52.278042" lon="4.744076"><ele>0.0</ele></rtept>
    <rtept lat="52.278561" lon="4.743122"><ele>0.0</ele></rtept>
    <rtept lat="52.278530" lon="4.743078"><ele>0.0</ele></rtept>
    <rtept lat="52.281238" lon="4.738065"><ele>0.0</ele></rtept>
    <rtept lat="52.281559" lon="4.737437"><ele>0.0</ele></rtept>
    <rtept lat="52.281640" lon="4.737214"><ele>0.0</ele></rtept>
    <rtept lat="52.281897" lon="4.736707"><ele>0.0</ele></rtept>
    <rtept lat="52.283443" lon="4.733841"><ele>0.0</ele></rtept>
    <rtept lat="52.283672" lon="4.733418"><ele>0.0</ele></rtept>
    <rtept lat="52.283860" lon="4.733388"><ele>0.0</ele></rtept>
    <rtept lat="52.283928" lon="4.733340"><ele>0.0</ele></rtept>
    <rtept lat="52.283936" lon="4.733131"><ele>0.0</ele></rtept>
    <rtept lat="52.283993" lon="4.732820"><ele>0.0</ele></rtept>
    <rtept lat="52.284022" lon="4.732762"><ele>0.0</ele></rtept>
    <rtept lat="52.284128" lon="4.732565"><ele>0.0</ele></rtept>
    <rtept lat="52.284329" lon="4.732194"><ele>0.0</ele></rtept>
    <rtept lat="52.284371" lon="4.732116"><ele>0.0</ele></rtept>
    <rtept lat="52.284453" lon="4.731964"><ele>0.0</ele></rtept>
    <rtept lat="52.284543" lon="4.731797"><ele>0.0</ele></rtept>
    <rtept lat="52.284595" lon="4.731871"><ele>0.0</ele></rtept>
    <rtept lat="52.284809" lon="4.731475"><ele>0.0</ele></rtept>
    <rtept lat="52.285023" lon="4.731081"><ele>0.0</ele></rtept>
    <rtept lat="52.285134" lon="4.730827"><ele>0.0</ele></rtept>
    <rtept lat="52.286120" lon="4.728996"><ele>0.0</ele></rtept>
    <rtept lat="52.286215" lon="4.728860"><ele>0.0</ele></rtept>
    <rtept lat="52.286282" lon="4.728702"><ele>0.0</ele></rtept>
    <rtept lat="52.286710" lon="4.727959"><ele>0.0</ele></rtept>
    <rtept lat="52.286831" lon="4.727747"><ele>0.0</ele></rtept>
    <rtept lat="52.286792" lon="4.727693"><ele>0.0</ele></rtept>
    <rtept lat="52.287097" lon="4.727222"><ele>0.0</ele></rtept>
    <rtept lat="52.287224" lon="4.727208"><ele>0.0</ele></rtept>
    <rtept lat="52.287225" lon="4.727090"><ele>0.0</ele></rtept>
    <rtept lat="52.287229" lon="4.726998"><ele>0.0</ele></rtept>
    <rtept lat="52.287329" lon="4.726830"><ele>0.0</ele></rtept>
    <rtept lat="52.287634" lon="4.726329"><ele>0.0</ele></rtept>
    <rtept lat="52.288123" lon="4.725426"><ele>0.0</ele></rtept>
    <rtept lat="52.288201" lon="4.725232"><ele>0.0</ele></rtept>
    <rtept lat="52.288384" lon="4.724839"><ele>0.0</ele></rtept>
    <rtept lat="52.288465" lon="4.724677"><ele>0.0</ele></rtept>
    <rtept lat="52.288789" lon="4.724017"><ele>0.0</ele></rtept>
    <rtept lat="52.288940" lon="4.723750"><ele>0.0</ele></rtept>
    <rtept lat="52.288994" lon="4.723651"><ele>0.0</ele></rtept>
    <rtept lat="52.289075" lon="4.723509"><ele>0.0</ele></rtept>
    <rtept lat="52.289156" lon="4.723289"><ele>0.0</ele></rtept>
    <rtept lat="52.289485" lon="4.722645"><ele>0.0</ele></rtept>
    <rtept lat="52.289836" lon="4.721980"><ele>0.0</ele></rtept>
    <rtept lat="52.290044" lon="4.721592"><ele>0.0</ele></rtept>
    <rtept lat="52.290173" lon="4.721356"><ele>0.0</ele></rtept>
    <rtept lat="52.290426" lon="4.720899"><ele>0.0</ele></rtept>
    <rtept lat="52.290520" lon="4.720725"><ele>0.0</ele></rtept>
    <rtept lat="52.291047" lon="4.719743"><ele>0.0</ele></rtept>
    <rtept lat="52.291380" lon="4.719127"><ele>0.0</ele></rtept>
    <rtept lat="52.291566" lon="4.718786"><ele>0.0</ele></rtept>
    <rtept lat="52.291656" lon="4.718621"><ele>0.0</ele></rtept>
    <rtept lat="52.292099" lon="4.717796"><ele>0.0</ele></rtept>
    <rtept lat="52.292417" lon="4.717209"><ele>0.0</ele></rtept>
    <rtept lat="52.292605" lon="4.716867"><ele>0.0</ele></rtept>
    <rtept lat="52.292826" lon="4.716465"><ele>0.0</ele></rtept>
    <rtept lat="52.292955" lon="4.716312"><ele>0.0</ele></rtept>
    <rtept lat="52.293244" lon="4.715786"><ele>0.0</ele></rtept>
    <rtept lat="52.293402" lon="4.715662"><ele>0.0</ele></rtept>
    <rtept lat="52.293469" lon="4.715536"><ele>0.0</ele></rtept>
    <rtept lat="52.293568" lon="4.715642"><ele>0.0</ele></rtept>
    <rtept lat="52.293800" lon="4.715785"><ele>0.0</ele></rtept>
    <rtept lat="52.293830" lon="4.715830"><ele>0.0</ele></rtept>
    <rtept lat="52.293891" lon="4.715719"><ele>0.0</ele></rtept>
    <rtept lat="52.293980" lon="4.715557"><ele>0.0</ele></rtept>
    <rtept lat="52.294075" lon="4.715349"><ele>0.0</ele></rtept>
    <rtept lat="52.294096" lon="4.715237"><ele>0.0</ele></rtept>
    <rtept lat="52.294073" lon="4.715000"><ele>0.0</ele></rtept>
    <rtept lat="52.293981" lon="4.714773"><ele>0.0</ele></rtept>
    <rtept lat="52.293964" lon="4.714632"><ele>0.0</ele></rtept>
    <rtept lat="52.293986" lon="4.714450"><ele>0.0</ele></rtept>
    <rtept lat="52.294237" lon="4.713977"><ele>0.0</ele></rtept>
    <rtept lat="52.294368" lon="4.713742"><ele>0.0</ele></rtept>
    <rtept lat="52.294919" lon="4.712752"><ele>0.0</ele></rtept>
    <rtept lat="52.294881" lon="4.712698"><ele>0.0</ele></rtept>
    <rtept lat="52.295762" lon="4.711083"><ele>0.0</ele></rtept>
    <rtept lat="52.296139" lon="4.710463"><ele>0.0</ele></rtept>
    <rtept lat="52.296297" lon="4.710278"><ele>0.0</ele></rtept>
    <rtept lat="52.296460" lon="4.710123"><ele>0.0</ele></rtept>
    <rtept lat="52.296551" lon="4.710091"><ele>0.0</ele></rtept>
    <rtept lat="52.296654" lon="4.710087"><ele>0.0</ele></rtept>
    <rtept lat="52.297037" lon="4.710201"><ele>0.0</ele></rtept>
    <rtept lat="52.297091" lon="4.710203"><ele>0.0</ele></rtept>
    <rtept lat="52.297202" lon="4.710158"><ele>0.0</ele></rtept>
    <rtept lat="52.297263" lon="4.710104"><ele>0.0</ele></rtept>
    <rtept lat="52.297362" lon="4.709942"><ele>0.0</ele></rtept>
    <rtept lat="52.297410" lon="4.709761"><ele>0.0</ele></rtept>
    <rtept lat="52.297419" lon="4.709565"><ele>0.0</ele></rtept>
    <rtept lat="52.297375" lon="4.708946"><ele>0.0</ele></rtept>
    <rtept lat="52.297164" lon="4.707757"><ele>0.0</ele></rtept>
    <rtept lat="52.297777" lon="4.707277"><ele>0.0</ele></rtept>
    <rtept lat="52.298031" lon="4.706992"><ele>0.0</ele></rtept>
    <rtept lat="52.298083" lon="4.706901"><ele>0.0</ele></rtept>
    <rtept lat="52.298323" lon="4.707235"><ele>0.0</ele></rtept>
    <rtept lat="52.298463" lon="4.707446"><ele>0.0</ele></rtept>
    <rtept lat="52.298520" lon="4.707519"><ele>0.0</ele></rtept>
    <rtept lat="52.298601" lon="4.707560"><ele>0.0</ele></rtept>
    <rtept lat="52.298673" lon="4.707525"><ele>0.0</ele></rtept>
    <rtept lat="52.298904" lon="4.707104"><ele>0.0</ele></rtept>
    <rtept lat="52.299739" lon="4.708286"><ele>0.0</ele></rtept>
    <rtept lat="52.299953" lon="4.707889"><ele>0.0</ele></rtept>
    <rtept lat="52.299997" lon="4.707814"><ele>0.0</ele></rtept>
    <rtept lat="52.300063" lon="4.707811"><ele>0.0</ele></rtept>
    <rtept lat="52.300082" lon="4.707791"><ele>0.0</ele></rtept>
    <rtept lat="52.300335" lon="4.707323"><ele>0.0</ele></rtept>
    <rtept lat="52.300573" lon="4.706879"><ele>0.0</ele></rtept>
    <rtept lat="52.300577" lon="4.706740"><ele>0.0</ele></rtept>
    <rtept lat="52.300644" lon="4.706610"><ele>0.0</ele></rtept>
    <rtept lat="52.300692" lon="4.706517"><ele>0.0</ele></rtept>
    <rtept lat="52.300811" lon="4.706302"><ele>0.0</ele></rtept>
    <rtept lat="52.300847" lon="4.706241"><ele>0.0</ele></rtept>
    <rtept lat="52.300994" lon="4.705972"><ele>0.0</ele></rtept>
    <rtept lat="52.301056" lon="4.705867"><ele>0.0</ele></rtept>
    <rtept lat="52.301111" lon="4.705846"><ele>0.0</ele></rtept>
    <rtept lat="52.301170" lon="4.705782"><ele>0.0</ele></rtept>
    <rtept lat="52.301230" lon="4.705694"><ele>0.0</ele></rtept>
    <rtept lat="52.301255" lon="4.705598"><ele>0.0</ele></rtept>
    <rtept lat="52.301286" lon="4.705541"><ele>0.0</ele></rtept>
    <rtept lat="52.301319" lon="4.705481"><ele>0.0</ele></rtept>
    <rtept lat="52.301396" lon="4.705344"><ele>0.0</ele></rtept>
    <rtept lat="52.301698" lon="4.704778"><ele>0.0</ele></rtept>
    <rtept lat="52.301710" lon="4.704795"><ele>0.0</ele></rtept>
    <rtept lat="52.301788" lon="4.704658"><ele>0.0</ele></rtept>
    <rtept lat="52.301894" lon="4.704544"><ele>0.0</ele></rtept>
    <rtept lat="52.301935" lon="4.704462"><ele>0.0</ele></rtept>
    <rtept lat="52.302013" lon="4.704317"><ele>0.0</ele></rtept>
    <rtept lat="52.302067" lon="4.704142"><ele>0.0</ele></rtept>
    <rtept lat="52.302337" lon="4.703625"><ele>0.0</ele></rtept>
    <rtept lat="52.302479" lon="4.703370"><ele>0.0</ele></rtept>
    <rtept lat="52.302555" lon="4.703238"><ele>0.0</ele></rtept>
    <rtept lat="52.302707" lon="4.703098"><ele>0.0</ele></rtept>
    <rtept lat="52.302872" lon="4.702935"><ele>0.0</ele></rtept>
    <rtept lat="52.302935" lon="4.702802"><ele>0.0</ele></rtept>
    <rtept lat="52.303018" lon="4.702623"><ele>0.0</ele></rtept>
    <rtept lat="52.303072" lon="4.702309"><ele>0.0</ele></rtept>
    <rtept lat="52.303071" lon="4.702220"><ele>0.0</ele></rtept>
    <rtept lat="52.303676" lon="4.701121"><ele>0.0</ele></rtept>
    <rtept lat="52.303695" lon="4.701087"><ele>0.0</ele></rtept>
    <rtept lat="52.303714" lon="4.701053"><ele>0.0</ele></rtept>
    <rtept lat="52.303874" lon="4.700761"><ele>0.0</ele></rtept>
    <rtept lat="52.304125" lon="4.700298"><ele>0.0</ele></rtept>
    <rtept lat="52.304159" lon="4.700298"><ele>0.0</ele></rtept>
    <rtept lat="52.304323" lon="4.700147"><ele>0.0</ele></rtept>
    <rtept lat="52.304491" lon="4.699952"><ele>0.0</ele></rtept>
    <rtept lat="52.304709" lon="4.699598"><ele>0.0</ele></rtept>
    <rtept lat="52.304739" lon="4.699549"><ele>0.0</ele></rtept>
    <rtept lat="52.304803" lon="4.699421"><ele>0.0</ele></rtept>
    <rtept lat="52.305266" lon="4.698766"><ele>0.0</ele></rtept>
    <rtept lat="52.305514" lon="4.698446"><ele>0.0</ele></rtept>
    <rtept lat="52.305812" lon="4.698089"><ele>0.0</ele></rtept>
    <rtept lat="52.306141" lon="4.697712"><ele>0.0</ele></rtept>
    <rtept lat="52.306261" lon="4.697533"><ele>0.0</ele></rtept>
    <rtept lat="52.306455" lon="4.697183"><ele>0.0</ele></rtept>
    <rtept lat="52.306492" lon="4.697020"><ele>0.0</ele></rtept>
    <rtept lat="52.306656" lon="4.696706"><ele>0.0</ele></rtept>
    <rtept lat="52.306699" lon="4.696639"><ele>0.0</ele></rtept>
    <rtept lat="52.306893" lon="4.696299"><ele>0.0</ele></rtept>
    <rtept lat="52.307143" lon="4.695828"><ele>0.0</ele></rtept>
    <rtept lat="52.307247" lon="4.695635"><ele>0.0</ele></rtept>
    <rtept lat="52.307292" lon="4.695540"><ele>0.0</ele></rtept>
    <rtept lat="52.307328" lon="4.695461"><ele>0.0</ele></rtept>
    <rtept lat="52.307481" lon="4.695173"><ele>0.0</ele></rtept>
    <rtept lat="52.307517" lon="4.695107"><ele>0.0</ele></rtept>
    <rtept lat="52.307564" lon="4.695023"><ele>0.0</ele></rtept>
    <rtept lat="52.307963" lon="4.694302"><ele>0.0</ele></rtept>
    <rtept lat="52.308376" lon="4.693537"><ele>0.0</ele></rtept>
    <rtept lat="52.308396" lon="4.693501"><ele>0.0</ele></rtept>
    <rtept lat="52.308457" lon="4.693392"><ele>0.0</ele></rtept>
    <rtept lat="52.309223" lon="4.691968"><ele>0.0</ele></rtept>
    <rtept lat="52.309242" lon="4.691933"><ele>0.0</ele></rtept>
    <rtept lat="52.309587" lon="4.691286"><ele>0.0</ele></rtept>
    <rtept lat="52.310017" lon="4.690489"><ele>0.0</ele></rtept>
    <rtept lat="52.310100" lon="4.690337"><ele>0.0</ele></rtept>
    <rtept lat="52.310142" lon="4.690259"><ele>0.0</ele></rtept>
    <rtept lat="52.310184" lon="4.690002"><ele>0.0</ele></rtept>
    <rtept lat="52.310322" lon="4.689739"><ele>0.0</ele></rtept>
    <rtept lat="52.310345" lon="4.689692"><ele>0.0</ele></rtept>
    <rtept lat="52.310519" lon="4.689378"><ele>0.0</ele></rtept>
    <rtept lat="52.310574" lon="4.689043"><ele>0.0</ele></rtept>
    <rtept lat="52.310957" lon="4.688336"><ele>0.0</ele></rtept>
    <rtept lat="52.310992" lon="4.688224"><ele>0.0</ele></rtept>
    <rtept lat="52.311108" lon="4.687990"><ele>0.0</ele></rtept>
    <rtept lat="52.311211" lon="4.687805"><ele>0.0</ele></rtept>
    <rtept lat="52.311310" lon="4.687623"><ele>0.0</ele></rtept>
    <rtept lat="52.311371" lon="4.687465"><ele>0.0</ele></rtept>
    <rtept lat="52.311416" lon="4.687240"><ele>0.0</ele></rtept>
    <rtept lat="52.311421" lon="4.687089"><ele>0.0</ele></rtept>
    <rtept lat="52.311352" lon="4.686592"><ele>0.0</ele></rtept>
    <rtept lat="52.311291" lon="4.686201"><ele>0.0</ele></rtept>
    <rtept lat="52.311249" lon="4.686064"><ele>0.0</ele></rtept>
    <rtept lat="52.311052" lon="4.684788"><ele>0.0</ele></rtept>
    <rtept lat="52.311050" lon="4.684580"><ele>0.0</ele></rtept>
    <rtept lat="52.310957" lon="4.683941"><ele>0.0</ele></rtept>
    <rtept lat="52.310828" lon="4.683468"><ele>0.0</ele></rtept>
    <rtept lat="52.310969" lon="4.683194"><ele>0.0</ele></rtept>
    <rtept lat="52.311093" lon="4.682862"><ele>0.0</ele></rtept>
    <rtept lat="52.311275" lon="4.682530"><ele>0.0</ele></rtept>
    <rtept lat="52.311360" lon="4.682337"><ele>0.0</ele></rtept>
    <rtept lat="52.311431" lon="4.682198"><ele>0.0</ele></rtept>
    <rtept lat="52.311510" lon="4.682053"><ele>0.0</ele></rtept>
    <rtept lat="52.311926" lon="4.681317"><ele>0.0</ele></rtept>
    <rtept lat="52.312442" lon="4.680348"><ele>0.0</ele></rtept>
    <rtept lat="52.312930" lon="4.679452"><ele>0.0</ele></rtept>
    <rtept lat="52.313301" lon="4.678772"><ele>0.0</ele></rtept>
    <rtept lat="52.313446" lon="4.678564"><ele>0.0</ele></rtept>
    <rtept lat="52.313535" lon="4.678398"><ele>0.0</ele></rtept>
    <rtept lat="52.313628" lon="4.678219"><ele>0.0</ele></rtept>
    <rtept lat="52.313729" lon="4.677965"><ele>0.0</ele></rtept>
    <rtept lat="52.314085" lon="4.677312"><ele>0.0</ele></rtept>
    <rtept lat="52.314095" lon="4.677293"><ele>0.0</ele></rtept>
    <rtept lat="52.314531" lon="4.676496"><ele>0.0</ele></rtept>
    <rtept lat="52.314760" lon="4.676338"><ele>0.0</ele></rtept>
    <rtept lat="52.314847" lon="4.676288"><ele>0.0</ele></rtept>
    <rtept lat="52.315034" lon="4.676073"><ele>0.0</ele></rtept>
    <rtept lat="52.315070" lon="4.676151"><ele>0.0</ele></rtept>
    <rtept lat="52.315110" lon="4.676187"><ele>0.0</ele></rtept>
    <rtept lat="52.315653" lon="4.676314"><ele>0.0</ele></rtept>
    <rtept lat="52.316017" lon="4.676298"><ele>0.0</ele></rtept>
    <rtept lat="52.316606" lon="4.676027"><ele>0.0</ele></rtept>
    <rtept lat="52.316810" lon="4.675921"><ele>0.0</ele></rtept>
    <rtept lat="52.316870" lon="4.675853"><ele>0.0</ele></rtept>
    <rtept lat="52.317003" lon="4.675585"><ele>0.0</ele></rtept>
    <rtept lat="52.317025" lon="4.675538"><ele>0.0</ele></rtept>
    <rtept lat="52.317210" lon="4.675193"><ele>0.0</ele></rtept>
    <rtept lat="52.317303" lon="4.675019"><ele>0.0</ele></rtept>
    <rtept lat="52.317405" lon="4.674905"><ele>0.0</ele></rtept>
    <rtept lat="52.317615" lon="4.674763"><ele>0.0</ele></rtept>
    <rtept lat="52.317800" lon="4.674647"><ele>0.0</ele></rtept>
    <rtept lat="52.317922" lon="4.674626"><ele>0.0</ele></rtept>
    <rtept lat="52.317976" lon="4.674592"><ele>0.0</ele></rtept>
    <rtept lat="52.318052" lon="4.674542"><ele>0.0</ele></rtept>
    <rtept lat="52.318116" lon="4.674500"><ele>0.0</ele></rtept>
    <rtept lat="52.318207" lon="4.674403"><ele>0.0</ele></rtept>
    <rtept lat="52.318504" lon="4.674212"><ele>0.0</ele></rtept>
    <rtept lat="52.318560" lon="4.674159"><ele>0.0</ele></rtept>
    <rtept lat="52.319223" lon="4.672942"><ele>0.0</ele></rtept>
    <rtept lat="52.319302" lon="4.672851"><ele>0.0</ele></rtept>
    <rtept lat="52.319400" lon="4.672667"><ele>0.0</ele></rtept>
    <rtept lat="52.319445" lon="4.672591"><ele>0.0</ele></rtept>
    <rtept lat="52.319540" lon="4.672419"><ele>0.0</ele></rtept>
    <rtept lat="52.319592" lon="4.672510"><ele>0.0</ele></rtept>
    <rtept lat="52.319656" lon="4.672806"><ele>0.0</ele></rtept>
    <rtept lat="52.319832" lon="4.673072"><ele>0.0</ele></rtept>
    <rtept lat="52.320410" lon="4.673895"><ele>0.0</ele></rtept>
    <rtept lat="52.320973" lon="4.674710"><ele>0.0</ele></rtept>
    <rtept lat="52.321197" lon="4.675030"><ele>0.0</ele></rtept>
    <rtept lat="52.321303" lon="4.675143"><ele>0.0</ele></rtept>
    <rtept lat="52.321478" lon="4.674828"><ele>0.0</ele></rtept>
    <rtept lat="52.321511" lon="4.674794"><ele>0.0</ele></rtept>
    <rtept lat="52.321627" lon="4.674741"><ele>0.0</ele></rtept>
    <rtept lat="52.321759" lon="4.674719"><ele>0.0</ele></rtept>
    <rtept lat="52.321861" lon="4.674390"><ele>0.0</ele></rtept>
    <rtept lat="52.321970" lon="4.674220"><ele>0.0</ele></rtept>
    <rtept lat="52.322043" lon="4.674141"><ele>0.0</ele></rtept>
    <rtept lat="52.322150" lon="4.674106"><ele>0.0</ele></rtept>
    <rtept lat="52.322197" lon="4.674157"><ele>0.0</ele></rtept>
    <rtept lat="52.322223" lon="4.674245"><ele>0.0</ele></rtept>
    <rtept lat="52.322577" lon="4.674151"><ele>0.0</ele></rtept>
    <rtept lat="52.322741" lon="4.674136"><ele>0.0</ele></rtept>
    <rtept lat="52.322903" lon="4.674161"><ele>0.0</ele></rtept>
    <rtept lat="52.323058" lon="4.674233"><ele>0.0</ele></rtept>
    <rtept lat="52.323139" lon="4.674263"><ele>0.0</ele></rtept>
    <rtept lat="52.323194" lon="4.673896"><ele>0.0</ele></rtept>
    <rtept lat="52.323200" lon="4.673826"><ele>0.0</ele></rtept>
    <rtept lat="52.323208" lon="4.673713"><ele>0.0</ele></rtept>
    <rtept lat="52.323245" lon="4.673476"><ele>0.0</ele></rtept>
    <rtept lat="52.323455" lon="4.672941"><ele>0.0</ele></rtept>
    <rtept lat="52.323527" lon="4.672704"><ele>0.0</ele></rtept>
    <rtept lat="52.323694" lon="4.672230"><ele>0.0</ele></rtept>
    <rtept lat="52.323765" lon="4.671981"><ele>0.0</ele></rtept>
    <rtept lat="52.323897" lon="4.671353"><ele>0.0</ele></rtept>
    <rtept lat="52.324135" lon="4.670675"><ele>0.0</ele></rtept>
    <rtept lat="52.324271" lon="4.670404"><ele>0.0</ele></rtept>
    <rtept lat="52.324422" lon="4.670134"><ele>0.0</ele></rtept>
    <rtept lat="52.324605" lon="4.669899"><ele>0.0</ele></rtept>
    <rtept lat="52.324761" lon="4.669725"><ele>0.0</ele></rtept>
    <rtept lat="52.324876" lon="4.669621"><ele>0.0</ele></rtept>
    <rtept lat="52.325229" lon="4.669228"><ele>0.0</ele></rtept>
    <rtept lat="52.325375" lon="4.669155"><ele>0.0</ele></rtept>
    <rtept lat="52.325487" lon="4.669050"><ele>0.0</ele></rtept>
    <rtept lat="52.325529" lon="4.668962"><ele>0.0</ele></rtept>
    <rtept lat="52.325699" lon="4.668401"><ele>0.0</ele></rtept>
    <rtept lat="52.325842" lon="4.667832"><ele>0.0</ele></rtept>
    <rtept lat="52.325980" lon="4.667515"><ele>0.0</ele></rtept>
    <rtept lat="52.325998" lon="4.667489"><ele>0.0</ele></rtept>
    <rtept lat="52.326441" lon="4.667245"><ele>0.0</ele></rtept>
    <rtept lat="52.326646" lon="4.667029"><ele>0.0</ele></rtept>
    <rtept lat="52.326705" lon="4.666923"><ele>0.0</ele></rtept>
    <rtept lat="52.326862" lon="4.666520"><ele>0.0</ele></rtept>
    <rtept lat="52.326891" lon="4.666440"><ele>0.0</ele></rtept>
    <rtept lat="52.326994" lon="4.666317"><ele>0.0</ele></rtept>
    <rtept lat="52.327245" lon="4.666208"><ele>0.0</ele></rtept>
    <rtept lat="52.327460" lon="4.666142"><ele>0.0</ele></rtept>
    <rtept lat="52.327669" lon="4.665743"><ele>0.0</ele></rtept>
    <rtept lat="52.327732" lon="4.665623"><ele>0.0</ele></rtept>
    <rtept lat="52.327847" lon="4.665403"><ele>0.0</ele></rtept>
    <rtept lat="52.327873" lon="4.665354"><ele>0.0</ele></rtept>
    <rtept lat="52.327981" lon="4.665150"><ele>0.0</ele></rtept>
    <rtept lat="52.328025" lon="4.665071"><ele>0.0</ele></rtept>
    <rtept lat="52.328117" lon="4.664893"><ele>0.0</ele></rtept>
    <rtept lat="52.328383" lon="4.664442"><ele>0.0</ele></rtept>
    <rtept lat="52.328516" lon="4.664281"><ele>0.0</ele></rtept>
    <rtept lat="52.328658" lon="4.664138"><ele>0.0</ele></rtept>
    <rtept lat="52.329032" lon="4.663892"><ele>0.0</ele></rtept>
    <rtept lat="52.329106" lon="4.663757"><ele>0.0</ele></rtept>
    <rtept lat="52.329182" lon="4.663665"><ele>0.0</ele></rtept>
    <rtept lat="52.329356" lon="4.663671"><ele>0.0</ele></rtept>
    <rtept lat="52.329425" lon="4.663651"><ele>0.0</ele></rtept>
    <rtept lat="52.329751" lon="4.663456"><ele>0.0</ele></rtept>
    <rtept lat="52.330127" lon="4.663227"><ele>0.0</ele></rtept>
    <rtept lat="52.330399" lon="4.663079"><ele>0.0</ele></rtept>
    <rtept lat="52.330788" lon="4.662873"><ele>0.0</ele></rtept>
    <rtept lat="52.330809" lon="4.662862"><ele>0.0</ele></rtept>
    <rtept lat="52.330974" lon="4.662770"><ele>0.0</ele></rtept>
    <rtept lat="52.331095" lon="4.662699"><ele>0.0</ele></rtept>
    <rtept lat="52.330676" lon="4.660698"><ele>0.0</ele></rtept>
    <rtept lat="52.330668" lon="4.660661"><ele>0.0</ele></rtept>
    <rtept lat="52.330632" lon="4.660507"><ele>0.0</ele></rtept>
    <rtept lat="52.330628" lon="4.660482"><ele>0.0</ele></rtept>
    <rtept lat="52.330585" lon="4.660281"><ele>0.0</ele></rtept>
    <rtept lat="52.330598" lon="4.660138"><ele>0.0</ele></rtept>
    <rtept lat="52.331189" lon="4.659050"><ele>0.0</ele></rtept>
    <rtept lat="52.333187" lon="4.655387"><ele>0.0</ele></rtept>
    <rtept lat="52.333224" lon="4.655307"><ele>0.0</ele></rtept>
    <rtept lat="52.333845" lon="4.655259"><ele>0.0</ele></rtept>
    <rtept lat="52.334082" lon="4.654797"><ele>0.0</ele></rtept>
    <rtept lat="52.334239" lon="4.654503"><ele>0.0</ele></rtept>
    <rtept lat="52.333688" lon="4.653700"><ele>0.0</ele></rtept>
    <rtept lat="52.333907" lon="4.653256"><ele>0.0</ele></rtept>
    <rtept lat="52.334224" lon="4.652651"><ele>0.0</ele></rtept>
    <rtept lat="52.334268" lon="4.652413"><ele>0.0</ele></rtept>
    <rtept lat="52.334352" lon="4.652222"><ele>0.0</ele></rtept>
    <rtept lat="52.334534" lon="4.651983"><ele>0.0</ele></rtept>
    <rtept lat="52.335004" lon="4.651149"><ele>0.0</ele></rtept>
    <rtept lat="52.335088" lon="4.651073"><ele>0.0</ele></rtept>
    <rtept lat="52.337223" lon="4.647084"><ele>0.0</ele></rtept>
    <rtept lat="52.337268" lon="4.646702"><ele>0.0</ele></rtept>
    <rtept lat="52.337439" lon="4.646667"><ele>0.0</ele></rtept>
    <rtept lat="52.337640" lon="4.646322"><ele>0.0</ele></rtept>
    <rtept lat="52.337786" lon="4.646153"><ele>0.0</ele></rtept>
    <rtept lat="52.337901" lon="4.646145"><ele>0.0</ele></rtept>
    <rtept lat="52.338319" lon="4.646519"><ele>0.0</ele></rtept>
    <rtept lat="52.338564" lon="4.646744"><ele>0.0</ele></rtept>
    <rtept lat="52.338598" lon="4.646848"><ele>0.0</ele></rtept>
    <rtept lat="52.338609" lon="4.646795"><ele>0.0</ele></rtept>
    <rtept lat="52.338687" lon="4.646762"><ele>0.0</ele></rtept>
    <rtept lat="52.338729" lon="4.646795"><ele>0.0</ele></rtept>
    <rtept lat="52.338939" lon="4.646973"><ele>0.0</ele></rtept>
    <rtept lat="52.338980" lon="4.647058"><ele>0.0</ele></rtept>
    <rtept lat="52.339474" lon="4.646640"><ele>0.0</ele></rtept>
    <rtept lat="52.339580" lon="4.647310"><ele>0.0</ele></rtept>
    <rtept lat="52.339680" lon="4.647815"><ele>0.0</ele></rtept>
    <rtept lat="52.339721" lon="4.647795"><ele>0.0</ele></rtept>
    <rtept lat="52.339712" lon="4.647744"><ele>0.0</ele></rtept>
    <rtept lat="52.339726" lon="4.647736"><ele>0.0</ele></rtept>
    <rtept lat="52.340053" lon="4.647559"><ele>0.0</ele></rtept>
    <rtept lat="52.340080" lon="4.647544"><ele>0.0</ele></rtept>
    <rtept lat="52.339962" lon="4.646937"><ele>0.0</ele></rtept>
    <rtept lat="52.339869" lon="4.646303"><ele>0.0</ele></rtept>
    <rtept lat="52.339871" lon="4.645940"><ele>0.0</ele></rtept>
    <rtept lat="52.339884" lon="4.645917"><ele>0.0</ele></rtept>
    <rtept lat="52.339914" lon="4.645841"><ele>0.0</ele></rtept>
    <rtept lat="52.339918" lon="4.645777"><ele>0.0</ele></rtept>
    <rtept lat="52.339708" lon="4.644243"><ele>0.0</ele></rtept>
    <rtept lat="52.339735" lon="4.643958"><ele>0.0</ele></rtept>
    <rtept lat="52.339842" lon="4.643715"><ele>0.0</ele></rtept>
    <rtept lat="52.339824" lon="4.643563"><ele>0.0</ele></rtept>
    <rtept lat="52.340806" lon="4.642965"><ele>0.0</ele></rtept>
    <rtept lat="52.341150" lon="4.642757"><ele>0.0</ele></rtept>
    <rtept lat="52.341490" lon="4.642574"><ele>0.0</ele></rtept>
    <rtept lat="52.341549" lon="4.642541"><ele>0.0</ele></rtept>
    <rtept lat="52.341582" lon="4.642523"><ele>0.0</ele></rtept>
    <rtept lat="52.341672" lon="4.642474"><ele>0.0</ele></rtept>
    <rtept lat="52.341738" lon="4.642469"><ele>0.0</ele></rtept>
    <rtept lat="52.341780" lon="4.642466"><ele>0.0</ele></rtept>
    <rtept lat="52.341852" lon="4.642506"><ele>0.0</ele></rtept>
    <rtept lat="52.342119" lon="4.642756"><ele>0.0</ele></rtept>
    <rtept lat="52.342162" lon="4.642800"><ele>0.0</ele></rtept>
    <rtept lat="52.342299" lon="4.642938"><ele>0.0</ele></rtept>
    <rtept lat="52.342400" lon="4.643000"><ele>0.0</ele></rtept>
    <rtept lat="52.342462" lon="4.642993"><ele>0.0</ele></rtept>
    <rtept lat="52.342539" lon="4.642984"><ele>0.0</ele></rtept>
    <rtept lat="52.342709" lon="4.642964"><ele>0.0</ele></rtept>
    <rtept lat="52.342725" lon="4.642963"><ele>0.0</ele></rtept>
    <rtept lat="52.342897" lon="4.642922"><ele>0.0</ele></rtept>
    <rtept lat="52.343513" lon="4.642782"><ele>0.0</ele></rtept>
    <rtept lat="52.344148" lon="4.642688"><ele>0.0</ele></rtept>
    <rtept lat="52.344431" lon="4.642656"><ele>0.0</ele></rtept>
    <rtept lat="52.344512" lon="4.642624"><ele>0.0</ele></rtept>
    <rtept lat="52.345034" lon="4.642537"><ele>0.0</ele></rtept>
    <rtept lat="52.345126" lon="4.642519"><ele>0.0</ele></rtept>
    <rtept lat="52.345339" lon="4.642477"><ele>0.0</ele></rtept>
    <rtept lat="52.345615" lon="4.642431"><ele>0.0</ele></rtept>
    <rtept lat="52.345980" lon="4.642346"><ele>0.0</ele></rtept>
    <rtept lat="52.346074" lon="4.642324"><ele>0.0</ele></rtept>
    <rtept lat="52.346247" lon="4.642283"><ele>0.0</ele></rtept>
    <rtept lat="52.346334" lon="4.642262"><ele>0.0</ele></rtept>
    <rtept lat="52.346347" lon="4.642259"><ele>0.0</ele></rtept>
    <rtept lat="52.346708" lon="4.642228"><ele>0.0</ele></rtept>
    <rtept lat="52.346877" lon="4.642213"><ele>0.0</ele></rtept>
    <rtept lat="52.346927" lon="4.642208"><ele>0.0</ele></rtept>
    <rtept lat="52.347318" lon="4.642174"><ele>0.0</ele></rtept>
    <rtept lat="52.347667" lon="4.642101"><ele>0.0</ele></rtept>
    <rtept lat="52.348440" lon="4.641960"><ele>0.0</ele></rtept>
    <rtept lat="52.348613" lon="4.641939"><ele>0.0</ele></rtept>
    <rtept lat="52.348913" lon="4.641902"><ele>0.0</ele></rtept>
    <rtept lat="52.349011" lon="4.641892"><ele>0.0</ele></rtept>
    <rtept lat="52.349219" lon="4.641864"><ele>0.0</ele></rtept>
    <rtept lat="52.349246" lon="4.641858"><ele>0.0</ele></rtept>
    <rtept lat="52.349296" lon="4.641865"><ele>0.0</ele></rtept>
    <rtept lat="52.349855" lon="4.641812"><ele>0.0</ele></rtept>
    <rtept lat="52.349932" lon="4.641805"><ele>0.0</ele></rtept>
    <rtept lat="52.349964" lon="4.641799"><ele>0.0</ele></rtept>
    <rtept lat="52.350115" lon="4.641772"><ele>0.0</ele></rtept>
    <rtept lat="52.350287" lon="4.641741"><ele>0.0</ele></rtept>
    <rtept lat="52.350320" lon="4.641735"><ele>0.0</ele></rtept>
    <rtept lat="52.350788" lon="4.641667"><ele>0.0</ele></rtept>
    <rtept lat="52.351091" lon="4.641627"><ele>0.0</ele></rtept>
    <rtept lat="52.351359" lon="4.641584"><ele>0.0</ele></rtept>
    <rtept lat="52.351501" lon="4.641541"><ele>0.0</ele></rtept>
    <rtept lat="52.351570" lon="4.641461"><ele>0.0</ele></rtept>
    <rtept lat="52.351670" lon="4.641352"><ele>0.0</ele></rtept>
    <rtept lat="52.351835" lon="4.640822"><ele>0.0</ele></rtept>
    <rtept lat="52.351862" lon="4.640681"><ele>0.0</ele></rtept>
    <rtept lat="52.351871" lon="4.640633"><ele>0.0</ele></rtept>
    <rtept lat="52.351902" lon="4.640467"><ele>0.0</ele></rtept>
    <rtept lat="52.351950" lon="4.640338"><ele>0.0</ele></rtept>
    <rtept lat="52.352015" lon="4.640268"><ele>0.0</ele></rtept>
    <rtept lat="52.352272" lon="4.640181"><ele>0.0</ele></rtept>
    <rtept lat="52.352333" lon="4.640168"><ele>0.0</ele></rtept>
    <rtept lat="52.352392" lon="4.640155"><ele>0.0</ele></rtept>
    <rtept lat="52.352900" lon="4.640055"><ele>0.0</ele></rtept>
    <rtept lat="52.353757" lon="4.640024"><ele>0.0</ele></rtept>
    <rtept lat="52.353842" lon="4.640021"><ele>0.0</ele></rtept>
    <rtept lat="52.354276" lon="4.640005"><ele>0.0</ele></rtept>
    <rtept lat="52.354346" lon="4.639999"><ele>0.0</ele></rtept>
    <rtept lat="52.354659" lon="4.640006"><ele>0.0</ele></rtept>
    <rtept lat="52.354923" lon="4.640146"><ele>0.0</ele></rtept>
    <rtept lat="52.355030" lon="4.640266"><ele>0.0</ele></rtept>
    <rtept lat="52.355220" lon="4.640542"><ele>0.0</ele></rtept>
    <rtept lat="52.355299" lon="4.640687"><ele>0.0</ele></rtept>
    <rtept lat="52.355407" lon="4.640841"><ele>0.0</ele></rtept>
    <rtept lat="52.355608" lon="4.641028"><ele>0.0</ele></rtept>
    <rtept lat="52.355674" lon="4.641091"><ele>0.0</ele></rtept>
    <rtept lat="52.355869" lon="4.641189"><ele>0.0</ele></rtept>
    <rtept lat="52.355957" lon="4.641233"><ele>0.0</ele></rtept>
    <rtept lat="52.356100" lon="4.641305"><ele>0.0</ele></rtept>
    <rtept lat="52.356410" lon="4.641375"><ele>0.0</ele></rtept>
    <rtept lat="52.356646" lon="4.641340"><ele>0.0</ele></rtept>
    <rtept lat="52.356970" lon="4.641200"><ele>0.0</ele></rtept>
    <rtept lat="52.357108" lon="4.641067"><ele>0.0</ele></rtept>
    <rtept lat="52.357381" lon="4.641029"><ele>0.0</ele></rtept>
    <rtept lat="52.357620" lon="4.641040"><ele>0.0</ele></rtept>
    <rtept lat="52.357755" lon="4.640920"><ele>0.0</ele></rtept>
    <rtept lat="52.357802" lon="4.640865"><ele>0.0</ele></rtept>
    <rtept lat="52.358230" lon="4.640357"><ele>0.0</ele></rtept>
    <rtept lat="52.358397" lon="4.640159"><ele>0.0</ele></rtept>
    <rtept lat="52.358460" lon="4.640084"><ele>0.0</ele></rtept>
    <rtept lat="52.358527" lon="4.640005"><ele>0.0</ele></rtept>
    <rtept lat="52.358670" lon="4.639836"><ele>0.0</ele></rtept>
    <rtept lat="52.358979" lon="4.639469"><ele>0.0</ele></rtept>
    <rtept lat="52.359205" lon="4.639196"><ele>0.0</ele></rtept>
    <rtept lat="52.359496" lon="4.638877"><ele>0.0</ele></rtept>
    <rtept lat="52.359607" lon="4.638753"><ele>0.0</ele></rtept>
    <rtept lat="52.359648" lon="4.638706"><ele>0.0</ele></rtept>
    <rtept lat="52.359876" lon="4.638477"><ele>0.0</ele></rtept>
    <rtept lat="52.360045" lon="4.638349"><ele>0.0</ele></rtept>
    <rtept lat="52.360291" lon="4.638228"><ele>0.0</ele></rtept>
    <rtept lat="52.360657" lon="4.638089"><ele>0.0</ele></rtept>
    <rtept lat="52.361056" lon="4.638007"><ele>0.0</ele></rtept>
    <rtept lat="52.361559" lon="4.637869"><ele>0.0</ele></rtept>
    <rtept lat="52.362380" lon="4.637590"><ele>0.0</ele></rtept>
    <rtept lat="52.362577" lon="4.637492"><ele>0.0</ele></rtept>
    <rtept lat="52.362700" lon="4.637430"><ele>0.0</ele></rtept>
    <rtept lat="52.363258" lon="4.637243"><ele>0.0</ele></rtept>
    <rtept lat="52.363828" lon="4.637270"><ele>0.0</ele></rtept>
    <rtept lat="52.364472" lon="4.637375"><ele>0.0</ele></rtept>
    <rtept lat="52.364550" lon="4.637390"><ele>0.0</ele></rtept>
    <rtept lat="52.364714" lon="4.637418"><ele>0.0</ele></rtept>
    <rtept lat="52.365524" lon="4.637580"><ele>0.0</ele></rtept>
    <rtept lat="52.365779" lon="4.637607"><ele>0.0</ele></rtept>
    <rtept lat="52.366052" lon="4.637574"><ele>0.0</ele></rtept>
    <rtept lat="52.367037" lon="4.637328"><ele>0.0</ele></rtept>
    <rtept lat="52.367224" lon="4.637265"><ele>0.0</ele></rtept>
    <rtept lat="52.367757" lon="4.637002"><ele>0.0</ele></rtept>
    <rtept lat="52.367976" lon="4.636890"><ele>0.0</ele></rtept>
    <rtept lat="52.368214" lon="4.636807"><ele>0.0</ele></rtept>
    <rtept lat="52.369148" lon="4.636555"><ele>0.0</ele></rtept>
    <rtept lat="52.369258" lon="4.636536"><ele>0.0</ele></rtept>
    <rtept lat="52.369349" lon="4.636523"><ele>0.0</ele></rtept>
    <rtept lat="52.369535" lon="4.636602"><ele>0.0</ele></rtept>
    <rtept lat="52.369702" lon="4.636781"><ele>0.0</ele></rtept>
    <rtept lat="52.369851" lon="4.636996"><ele>0.0</ele></rtept>
    <rtept lat="52.369973" lon="4.637230"><ele>0.0</ele></rtept>
    <rtept lat="52.370144" lon="4.637706"><ele>0.0</ele></rtept>
    <rtept lat="52.370270" lon="4.638061"><ele>0.0</ele></rtept>
    <rtept lat="52.370412" lon="4.638542"><ele>0.0</ele></rtept>
    <rtept lat="52.370702" lon="4.639521"><ele>0.0</ele></rtept>
    <rtept lat="52.370789" lon="4.639744"><ele>0.0</ele></rtept>
    <rtept lat="52.370855" lon="4.639911"><ele>0.0</ele></rtept>
    <rtept lat="52.370878" lon="4.639885"><ele>0.0</ele></rtept>
    <rtept lat="52.370979" lon="4.639909"><ele>0.0</ele></rtept>
    <rtept lat="52.371085" lon="4.639996"><ele>0.0</ele></rtept>
    <rtept lat="52.371435" lon="4.640556"><ele>0.0</ele></rtept>
    <rtept lat="52.371507" lon="4.640757"><ele>0.0</ele></rtept>
    <rtept lat="52.371533" lon="4.640985"><ele>0.0</ele></rtept>
    <rtept lat="52.371530" lon="4.641052"><ele>0.0</ele></rtept>
    <rtept lat="52.371916" lon="4.641663"><ele>0.0</ele></rtept>
    <rtept lat="52.372468" lon="4.642417"><ele>0.0</ele></rtept>
    <rtept lat="52.372544" lon="4.642493"><ele>0.0</ele></rtept>
    <rtept lat="52.373028" lon="4.642867"><ele>0.0</ele></rtept>
    <rtept lat="52.373346" lon="4.643068"><ele>0.0</ele></rtept>
    <rtept lat="52.373649" lon="4.643191"><ele>0.0</ele></rtept>
    <rtept lat="52.373635" lon="4.643324"><ele>0.0</ele></rtept>
    <rtept lat="52.373626" lon="4.643460"><ele>0.0</ele></rtept>
    <rtept lat="52.373649" lon="4.644390"><ele>0.0</ele></rtept>
    <rtept lat="52.373716" lon="4.646253"><ele>0.0</ele></rtept>
    <rtept lat="52.373741" lon="4.647203"><ele>0.0</ele></rtept>
    <rtept lat="52.373807" lon="4.648893"><ele>0.0</ele></rtept>
    <rtept lat="52.374260" lon="4.648870"><ele>0.0</ele></rtept>
    <rtept lat="52.374570" lon="4.648850"><ele>0.0</ele></rtept>
    <rtept lat="52.374726" lon="4.648878"><ele>0.0</ele></rtept>
    <rtept lat="52.374852" lon="4.648931"><ele>0.0</ele></rtept>
    <rtept lat="52.375431" lon="4.649330"><ele>0.0</ele></rtept>
    <rtept lat="52.375644" lon="4.649501"><ele>0.0</ele></rtept>
    <rtept lat="52.375810" lon="4.649550"><ele>0.0</ele></rtept>
    <rtept lat="52.376065" lon="4.649522"><ele>0.0</ele></rtept>
    <rtept lat="52.376626" lon="4.649419"><ele>0.0</ele></rtept>
    <rtept lat="52.376792" lon="4.649386"><ele>0.0</ele></rtept>
    <rtept lat="52.376935" lon="4.649362"><ele>0.0</ele></rtept>
    <rtept lat="52.376986" lon="4.649354"><ele>0.0</ele></rtept>
    <rtept lat="52.377378" lon="4.649321"><ele>0.0</ele></rtept>
    <rtept lat="52.377874" lon="4.649547"><ele>0.0</ele></rtept>
    <rtept lat="52.378273" lon="4.649729"><ele>0.0</ele></rtept>
    <rtept lat="52.378359" lon="4.649800"><ele>0.0</ele></rtept>
    <rtept lat="52.379260" lon="4.650511"><ele>0.0</ele></rtept>
    <rtept lat="52.379725" lon="4.650899"><ele>0.0</ele></rtept>
    <rtept lat="52.380262" lon="4.651351"><ele>0.0</ele></rtept>
    <rtept lat="52.380685" lon="4.651734"><ele>0.0</ele></rtept>
    <rtept lat="52.380737" lon="4.651796"><ele>0.0</ele></rtept>
    <rtept lat="52.380759" lon="4.651852"><ele>0.0</ele></rtept>
    <rtept lat="52.380708" lon="4.651959"><ele>0.0</ele></rtept>
    <rtept lat="52.380326" lon="4.653373"><ele>0.0</ele></rtept>
    <rtept lat="52.380132" lon="4.654088"><ele>0.0</ele></rtept>
    <rtept lat="52.379963" lon="4.654729"><ele>0.0</ele></rtept>
    <rtept lat="52.379947" lon="4.654788"><ele>0.0</ele></rtept>
    <rtept lat="52.379720" lon="4.655630"><ele>0.0</ele></rtept>
    <rtept lat="52.379484" lon="4.656332"><ele>0.0</ele></rtept>
    <rtept lat="52.379811" lon="4.656611"><ele>0.0</ele></rtept>
    <rtept lat="52.379890" lon="4.656860"><ele>0.0</ele></rtept>
    <rtept lat="52.379960" lon="4.657149"><ele>0.0</ele></rtept>
    <rtept lat="52.380029" lon="4.657505"><ele>0.0</ele></rtept>
    <rtept lat="52.380029" lon="4.657510"><ele>0.0</ele></rtept>
  </rte>
</gpx>