<?xml version="1.0" encoding="UTF-8"?>
<gpx version="1.1" creator="WeeklyCyclingRoutes"
  xmlns="http://www.topografix.com/GPX/1/1"
  xmlns:xsi="http://www.w3.org/2001/XMLSchema-instance"
  xsi:schemaLocation="http://www.topografix.com/GPX/1/1 http://www.topografix.com/GPX/1/1/gpx.xsd">
  <metadata>
    <name>60km Route – August 24, 2026</name>
    <desc>Round trip from Cremerstraat, Haarlem. Actual: 55.1km</desc>
    <time>2026-08-24T06:43:07Z</time>
  </metadata>
  <rte>
    <name>60km Cycling Route – Haarlem</name>
    <rtept lat="52.380029" lon="4.657510"><ele>0.0</ele></rtept>
    <rtept lat="52.380029" lon="4.657505"><ele>0.0</ele></rtept>
    <rtept lat="52.379960" lon="4.657149"><ele>0.0</ele></rtept>
    <rtept lat="52.379890" lon="4.656860"><ele>0.0</ele></rtept>
    <rtept lat="52.379811" lon="4.656611"><ele>0.0</ele></rtept>
    <rtept lat="52.379484" lon="4.656332"><ele>0.0</ele></rtept>
    <rtept lat="52.379720" lon="4.655630"><ele>0.0</ele></rtept>
    <rtept lat="52.379407" lon="4.655371"><ele>0.0</ele></rtept>
    <rtept lat="52.378800" lon="4.655271"><ele>0.0</ele></rtept>
    <rtept lat="52.378534" lon="4.655438"><ele>0.0</ele></rtept>
    <rtept lat="52.378340" lon="4.654689"><ele>0.0</ele></rtept>
    <rtept lat="52.378260" lon="4.654360"><ele>0.0</ele></rtept>
    <rtept lat="52.378208" lon="4.654146"><ele>0.0</ele></rtept>
    <rtept lat="52.378201" lon="4.654056"><ele>0.0</ele></rtept>
    <rtept lat="52.378306" lon="4.653806"><ele>0.0</ele></rtept>
    <rtept lat="52.378054" lon="4.653495"><ele>0.0</ele></rtept>
    <rtept lat="52.378008" lon="4.653442"><ele>0.0</ele></rtept>
    <rtept lat="52.377656" lon="4.652811"><ele>0.0</ele></rtept>
    <rtept lat="52.377347" lon="4.652221"><ele>0.0</ele></rtept>
    <rtept lat="52.377214" lon="4.651882"><ele>0.0</ele></rtept>
    <rtept lat="52.377175" lon="4.651656"><ele>0.0</ele></rtept>
    <rtept lat="52.377079" lon="4.650924"><ele>0.0</ele></rtept>
    <rtept lat="52.377041" lon="4.650289"><ele>0.0</ele></rtept>
    <rtept lat="52.377039" lon="4.650248"><ele>0.0</ele></rtept>
    <rtept lat="52.377017" lon="4.649942"><ele>0.0</ele></rtept>
    <rtept lat="52.376986" lon="4.649354"><ele>0.0</ele></rtept>
    <rtept lat="52.376935" lon="4.649362"><ele>0.0</ele></rtept>
    <rtept lat="52.376792" lon="4.649386"><ele>0.0</ele></rtept>
    <rtept lat="52.376626" lon="4.649419"><ele>0.0</ele></rtept>
    <rtept lat="52.376608" lon="4.648896"><ele>0.0</ele></rtept>
    <rtept lat="52.376728" lon="4.648428"><ele>0.0</ele></rtept>
    <rtept lat="52.376728" lon="4.648280"><ele>0.0</ele></rtept>
    <rtept lat="52.376588" lon="4.646355"><ele>0.0</ele></rtept>
    <rtept lat="52.376569" lon="4.646302"><ele>0.0</ele></rtept>
    <rtept lat="52.376530" lon="4.646289"><ele>0.0</ele></rtept>
    <rtept lat="52.376507" lon="4.645904"><ele>0.0</ele></rtept>
    <rtept lat="52.376555" lon="4.645774"><ele>0.0</ele></rtept>
    <rtept lat="52.376475" lon="4.644615"><ele>0.0</ele></rtept>
    <rtept lat="52.376408" lon="4.643488"><ele>0.0</ele></rtept>
    <rtept lat="52.376364" lon="4.642843"><ele>0.0</ele></rtept>
    <rtept lat="52.376317" lon="4.642652"><ele>0.0</ele></rtept>
    <rtept lat="52.376266" lon="4.642526"><ele>0.0</ele></rtept>
    <rtept lat="52.376223" lon="4.642429"><ele>0.0</ele></rtept>
    <rtept lat="52.375747" lon="4.642858"><ele>0.0</ele></rtept>
    <rtept lat="52.375656" lon="4.642922"><ele>0.0</ele></rtept>
    <rtept lat="52.375109" lon="4.643257"><ele>0.0</ele></rtept>
    <rtept lat="52.374958" lon="4.643331"><ele>0.0</ele></rtept>
    <rtept lat="52.374649" lon="4.643392"><ele>0.0</ele></rtept>
    <rtept lat="52.374372" lon="4.643385"><ele>0.0</ele></rtept>
    <rtept lat="52.374003" lon="4.643305"><ele>0.0</ele></rtept>
    <rtept lat="52.373649" lon="4.643191"><ele>0.0</ele></rtept>
    <rtept lat="52.373346" lon="4.643068"><ele>0.0</ele></rtept>
    <rtept lat="52.373028" lon="4.642867"><ele>0.0</ele></rtept>
    <rtept lat="52.372544" lon="4.642493"><ele>0.0</ele></rtept>
    <rtept lat="52.372468" lon="4.642417"><ele>0.0</ele></rtept>
    <rtept lat="52.371916" lon="4.641663"><ele>0.0</ele></rtept>
    <rtept lat="52.371530" lon="4.641052"><ele>0.0</ele></rtept>
    <rtept lat="52.371312" lon="4.640703"><ele>0.0</ele></rtept>
    <rtept lat="52.371309" lon="4.640590"><ele>0.0</ele></rtept>
    <rtept lat="52.371345" lon="4.640491"><ele>0.0</ele></rtept>
    <rtept lat="52.371679" lon="4.639974"><ele>0.0</ele></rtept>
    <rtept lat="52.371722" lon="4.639922"><ele>0.0</ele></rtept>
    <rtept lat="52.371835" lon="4.639689"><ele>0.0</ele></rtept>
    <rtept lat="52.371889" lon="4.639515"><ele>0.0</ele></rtept>
    <rtept lat="52.371935" lon="4.639042"><ele>0.0</ele></rtept>
    <rtept lat="52.371936" lon="4.638929"><ele>0.0</ele></rtept>
    <rtept lat="52.371913" lon="4.638778"><ele>0.0</ele></rtept>
    <rtept lat="52.371884" lon="4.638636"><ele>0.0</ele></rtept>
    <rtept lat="52.371760" lon="4.638157"><ele>0.0</ele></rtept>
    <rtept lat="52.371671" lon="4.637889"><ele>0.0</ele></rtept>
    <rtept lat="52.371414" lon="4.637379"><ele>0.0</ele></rtept>
    <rtept lat="52.371438" lon="4.637319"><ele>0.0</ele></rtept>
    <rtept lat="52.371583" lon="4.637042"><ele>0.0</ele></rtept>
    <rtept lat="52.371577" lon="4.636987"><ele>0.0</ele></rtept>
    <rtept lat="52.371738" lon="4.636292"><ele>0.0</ele></rtept>
    <rtept lat="52.371791" lon="4.636059"><ele>0.0</ele></rtept>
    <rtept lat="52.371886" lon="4.635595"><ele>0.0</ele></rtept>
    <rtept lat="52.372038" lon="4.634832"><ele>0.0</ele></rtept>
    <rtept lat="52.372102" lon="4.634424"><ele>0.0</ele></rtept>
    <rtept lat="52.372275" lon="4.633341"><ele>0.0</ele></rtept>
    <rtept lat="52.371860" lon="4.633158"><ele>0.0</ele></rtept>
    <rtept lat="52.371416" lon="4.632951"><ele>0.0</ele></rtept>
    <rtept lat="52.371364" lon="4.631457"><ele>0.0</ele></rtept>
    <rtept lat="52.371325" lon="4.630602"><ele>0.0</ele></rtept>
    <rtept lat="52.371357" lon="4.630375"><ele>0.0</ele></rtept>
    <rtept lat="52.371457" lon="4.629937"><ele>0.0</ele></rtept>
    <rtept lat="52.371602" lon="4.629597"><ele>0.0</ele></rtept>
    <rtept lat="52.371621" lon="4.629566"><ele>0.0</ele></rtept>
    <rtept lat="52.371731" lon="4.629362"><ele>0.0</ele></rtept>
    <rtept lat="52.371833" lon="4.629191"><ele>0.0</ele></rtept>
    <rtept lat="52.371757" lon="4.629166"><ele>0.0</ele></rtept>
    <rtept lat="52.371659" lon="4.629128"><ele>0.0</ele></rtept>
    <rtept lat="52.371547" lon="4.629081"><ele>0.0</ele></rtept>
    <rtept lat="52.371509" lon="4.629067"><ele>0.0</ele></rtept>
    <rtept lat="52.371251" lon="4.628972"><ele>0.0</ele></rtept>
    <rtept lat="52.370803" lon="4.628807"><ele>0.0</ele></rtept>
    <rtept lat="52.370187" lon="4.628642"><ele>0.0</ele></rtept>
    <rtept lat="52.369991" lon="4.628592"><ele>0.0</ele></rtept>
    <rtept lat="52.369808" lon="4.628606"><ele>0.0</ele></rtept>
    <rtept lat="52.369559" lon="4.628584"><ele>0.0</ele></rtept>
    <rtept lat="52.369393" lon="4.628516"><ele>0.0</ele></rtept>
    <rtept lat="52.369016" lon="4.628467"><ele>0.0</ele></rtept>
    <rtept lat="52.368862" lon="4.628466"><ele>0.0</ele></rtept>
    <rtept lat="52.368845" lon="4.628303"><ele>0.0</ele></rtept>
    <rtept lat="52.368717" lon="4.627923"><ele>0.0</ele></rtept>
    <rtept lat="52.368685" lon="4.627850"><ele>0.0</ele></rtept>
    <rtept lat="52.368499" lon="4.627431"><ele>0.0</ele></rtept>
    <rtept lat="52.368355" lon="4.627126"><ele>0.0</ele></rtept>
    <rtept lat="52.367723" lon="4.625618"><ele>0.0</ele></rtept>
    <rtept lat="52.367601" lon="4.625041"><ele>0.0</ele></rtept>
    <rtept lat="52.367528" lon="4.624467"><ele>0.0</ele></rtept>
    <rtept lat="52.367459" lon="4.623983"><ele>0.0</ele></rtept>
    <rtept lat="52.367412" lon="4.623754"><ele>0.0</ele></rtept>
    <rtept lat="52.367301" lon="4.623353"><ele>0.0</ele></rtept>
    <rtept lat="52.367048" lon="4.622552"><ele>0.0</ele></rtept>
    <rtept lat="52.366804" lon="4.621952"><ele>0.0</ele></rtept>
    <rtept lat="52.366645" lon="4.621689"><ele>0.0</ele></rtept>
    <rtept lat="52.366135" lon="4.620972"><ele>0.0</ele></rtept>
    <rtept lat="52.365654" lon="4.620409"><ele>0.0</ele></rtept>
    <rtept lat="52.365464" lon="4.620205"><ele>0.0</ele></rtept>
    <rtept lat="52.365211" lon="4.619971"><ele>0.0</ele></rtept>
    <rtept lat="52.365159" lon="4.619919"><ele>0.0</ele></rtept>
    <rtept lat="52.364853" lon="4.619647"><ele>0.0</ele></rtept>
    <rtept lat="52.364732" lon="4.619540"><ele>0.0</ele></rtept>
    <rtept lat="52.364675" lon="4.619495"><ele>0.0</ele></rtept>
    <rtept lat="52.364668" lon="4.619100"><ele>0.0</ele></rtept>
    <rtept lat="52.364674" lon="4.619044"><ele>0.0</ele></rtept>
    <rtept lat="52.364586" lon="4.619035"><ele>0.0</ele></rtept>
    <rtept lat="52.364483" lon="4.619030"><ele>0.0</ele></rtept>
    <rtept lat="52.364278" lon="4.618939"><ele>0.0</ele></rtept>
    <rtept lat="52.364224" lon="4.618891"><ele>0.0</ele></rtept>
    <rtept lat="52.363532" lon="4.618629"><ele>0.0</ele></rtept>
    <rtept lat="52.363314" lon="4.618506"><ele>0.0</ele></rtept>
    <rtept lat="52.362895" lon="4.618190"><ele>0.0</ele></rtept>
    <rtept lat="52.362904" lon="4.617894"><ele>0.0</ele></rtept>
    <rtept lat="52.362837" lon="4.617873"><ele>0.0</ele></rtept>
    <rtept lat="52.362351" lon="4.617760"><ele>0.0</ele></rtept>
    <rtept lat="52.361961" lon="4.617745"><ele>0.0</ele></rtept>
    <rtept lat="52.361960" lon="4.617593"><ele>0.0</ele></rtept>
    <rtept lat="52.361717" lon="4.617683"><ele>0.0</ele></rtept>
    <rtept lat="52.361532" lon="4.617707"><ele>0.0</ele></rtept>
    <rtept lat="52.361478" lon="4.617699"><ele>0.0</ele></rtept>
    <rtept lat="52.361244" lon="4.617652"><ele>0.0</ele></rtept>
    <rtept lat="52.360308" lon="4.617426"><ele>0.0</ele></rtept>
    <rtept lat="52.360123" lon="4.617353"><ele>0.0</ele></rtept>
    <rtept lat="52.360100" lon="4.617338"><ele>0.0</ele></rtept>
    <rtept lat="52.360089" lon="4.617313"><ele>0.0</ele></rtept>
    <rtept lat="52.360032" lon="4.617286"><ele>0.0</ele></rtept>
    <rtept lat="52.359966" lon="4.617273"><ele>0.0</ele></rtept>
    <rtept lat="52.359937" lon="4.617268"><ele>0.0</ele></rtept>
    <rtept lat="52.359824" lon="4.617285"><ele>0.0</ele></rtept>
    <rtept lat="52.359643" lon="4.617238"><ele>0.0</ele></rtept>
    <rtept lat="52.359450" lon="4.617138"><ele>0.0</ele></rtept>
    <rtept lat="52.359140" lon="4.616774"><ele>0.0</ele></rtept>
    <rtept lat="52.358859" lon="4.616393"><ele>0.0</ele></rtept>
    <rtept lat="52.358787" lon="4.616300"><ele>0.0</ele></rtept>
    <rtept lat="52.358740" lon="4.616237"><ele>0.0</ele></rtept>
    <rtept lat="52.358685" lon="4.616164"><ele>0.0</ele></rtept>
    <rtept lat="52.357863" lon="4.615130"><ele>0.0</ele></rtept>
    <rtept lat="52.357834" lon="4.615097"><ele>0.0</ele></rtept>
    <rtept lat="52.357735" lon="4.614978"><ele>0.0</ele></rtept>
    <rtept lat="52.357403" lon="4.614630"><ele>0.0</ele></rtept>
    <rtept lat="52.357226" lon="4.614431"><ele>0.0</ele></rtept>
    <rtept lat="52.357199" lon="4.614409"><ele>0.0</ele></rtept>
    <rtept lat="52.357050" lon="4.614293"><ele>0.0</ele></rtept>
    <rtept lat="52.356433" lon="4.613907"><ele>0.0</ele></rtept>
    <rtept lat="52.355368" lon="4.613351"><ele>0.0</ele></rtept>
    <rtept lat="52.355195" lon="4.613260"><ele>0.0</ele></rtept>
    <rtept lat="52.355083" lon="4.613199"><ele>0.0</ele></rtept>
    <rtept lat="52.354049" lon="4.612658"><ele>0.0</ele></rtept>
    <rtept lat="52.353532" lon="4.612373"><ele>0.0</ele></rtept>
    <rtept lat="52.353509" lon="4.612360"><ele>0.0</ele></rtept>
    <rtept lat="52.353126" lon="4.612156"><ele>0.0</ele></rtept>
    <rtept lat="52.352860" lon="4.611980"><ele>0.0</ele></rtept>
    <rtept lat="52.352800" lon="4.611938"><ele>0.0</ele></rtept>
    <rtept lat="52.352141" lon="4.611464"><ele>0.0</ele></rtept>
    <rtept lat="52.352115" lon="4.611323"><ele>0.0</ele></rtept>
    <rtept lat="52.352038" lon="4.611199"><ele>0.0</ele></rtept>
    <rtept lat="52.351967" lon="4.611161"><ele>0.0</ele></rtept>
    <rtept lat="52.351901" lon="4.611165"><ele>0.0</ele></rtept>
    <rtept lat="52.351799" lon="4.611257"><ele>0.0</ele></rtept>
    <rtept lat="52.351231" lon="4.611042"><ele>0.0</ele></rtept>
    <rtept lat="52.350945" lon="4.610946"><ele>0.0</ele></rtept>
    <rtept lat="52.350810" lon="4.610923"><ele>0.0</ele></rtept>
    <rtept lat="52.350565" lon="4.610802"><ele>0.0</ele></rtept>
    <rtept lat="52.350416" lon="4.610702"><ele>0.0</ele></rtept>
    <rtept lat="52.349742" lon="4.610370"><ele>0.0</ele></rtept>
    <rtept lat="52.348467" lon="4.609732"><ele>0.0</ele></rtept>
    <rtept lat="52.348322" lon="4.609676"><ele>0.0</ele></rtept>
    <rtept lat="52.347237" lon="4.609133"><ele>0.0</ele></rtept>
    <rtept lat="52.346042" lon="4.608555"><ele>0.0</ele></rtept>
    <rtept lat="52.345528" lon="4.608302"><ele>0.0</ele></rtept>
    <rtept lat="52.345294" lon="4.608188"><ele>0.0</ele></rtept>
    <rtept lat="52.344736" lon="4.607886"><ele>0.0</ele></rtept>
    <rtept lat="52.344693" lon="4.607863"><ele>0.0</ele></rtept>
    <rtept lat="52.344596" lon="4.607820"><ele>0.0</ele></rtept>
    <rtept lat="52.344528" lon="4.607789"><ele>0.0</ele></rtept>
    <rtept lat="52.343562" lon="4.607330"><ele>0.0</ele></rtept>
    <rtept lat="52.343347" lon="4.607260"><ele>0.0</ele></rtept>
    <rtept lat="52.342720" lon="4.606862"><ele>0.0</ele></rtept>
    <rtept lat="52.342523" lon="4.606726"><ele>0.0</ele></rtept>
    <rtept lat="52.342487" lon="4.606679"><ele>0.0</ele></rtept>
    <rtept lat="52.342236" lon="4.606513"><ele>0.0</ele></rtept>
    <rtept lat="52.341444" lon="4.606000"><ele>0.0</ele></rtept>
    <rtept lat="52.341097" lon="4.605791"><ele>0.0</ele></rtept>
    <rtept lat="52.340795" lon="4.605637"><ele>0.0</ele></rtept>
    <rtept lat="52.340659" lon="4.605591"><ele>0.0</ele></rtept>
    <rtept lat="52.340460" lon="4.605571"><ele>0.0</ele></rtept>
    <rtept lat="52.339999" lon="4.605406"><ele>0.0</ele></rtept>
    <rtept lat="52.339896" lon="4.605329"><ele>0.0</ele></rtept>
    <rtept lat="52.339478" lon="4.605155"><ele>0.0</ele></rtept>
    <rtept lat="52.338763" lon="4.604877"><ele>0.0</ele></rtept>
    <rtept lat="52.337821" lon="4.604277"><ele>0.0</ele></rtept>
    <rtept lat="52.336506" lon="4.603285"><ele>0.0</ele></rtept>
    <rtept lat="52.335194" lon="4.602258"><ele>0.0</ele></rtept>
    <rtept lat="52.334895" lon="4.602002"><ele>0.0</ele></rtept>
    <rtept lat="52.334326" lon="4.601595"><ele>0.0</ele></rtept>
    <rtept lat="52.333927" lon="4.601248"><ele>0.0</ele></rtept>
    <rtept lat="52.333589" lon="4.600911"><ele>0.0</ele></rtept>
    <rtept lat="52.333450" lon="4.600774"><ele>0.0</ele></rtept>
    <rtept lat="52.332962" lon="4.600437"><ele>0.0</ele></rtept>
    <rtept lat="52.331386" lon="4.599463"><ele>0.0</ele></rtept>
    <rtept lat="52.329920" lon="4.598582"><ele>0.0</ele></rtept>
    <rtept lat="52.329195" lon="4.598149"><ele>0.0</ele></rtept>
    <rtept lat="52.328190" lon="4.597538"><ele>0.0</ele></rtept>
    <rtept lat="52.327848" lon="4.597325"><ele>0.0</ele></rtept>
    <rtept lat="52.327416" lon="4.597011"><ele>0.0</ele></rtept>
    <rtept lat="52.327277" lon="4.596865"><ele>0.0</ele></rtept>
    <rtept lat="52.326991" lon="4.596687"><ele>0.0</ele></rtept>
    <rtept lat="52.327310" lon="4.595920"><ele>0.0</ele></rtept>
    <rtept lat="52.327376" lon="4.595716"><ele>0.0</ele></rtept>
    <rtept lat="52.327483" lon="4.595211"><ele>0.0</ele></rtept>
    <rtept lat="52.327434" lon="4.595173"><ele>0.0</ele></rtept>
    <rtept lat="52.327323" lon="4.595173"><ele>0.0</ele></rtept>
    <rtept lat="52.327234" lon="4.595144"><ele>0.0</ele></rtept>
    <rtept lat="52.326719" lon="4.594926"><ele>0.0</ele></rtept>
    <rtept lat="52.326057" lon="4.594607"><ele>0.0</ele></rtept>
    <rtept lat="52.326020" lon="4.594550"><ele>0.0</ele></rtept>
    <rtept lat="52.326019" lon="4.594494"><ele>0.0</ele></rtept>
    <rtept lat="52.326600" lon="4.592612"><ele>0.0</ele></rtept>
    <rtept lat="52.326533" lon="4.592557"><ele>0.0</ele></rtept>
    <rtept lat="52.326461" lon="4.592503"><ele>0.0</ele></rtept>
    <rtept lat="52.326397" lon="4.592446"><ele>0.0</ele></rtept>
    <rtept lat="52.325698" lon="4.591863"><ele>0.0</ele></rtept>
    <rtept lat="52.326016" lon="4.591005"><ele>0.0</ele></rtept>
    <rtept lat="52.326282" lon="4.590309"><ele>0.0</ele></rtept>
    <rtept lat="52.326310" lon="4.590236"><ele>0.0</ele></rtept>
    <rtept lat="52.326411" lon="4.589955"><ele>0.0</ele></rtept>
    <rtept lat="52.326429" lon="4.589904"><ele>0.0</ele></rtept>
    <rtept lat="52.325173" lon="4.588865"><ele>0.0</ele></rtept>
    <rtept lat="52.324510" lon="4.588316"><ele>0.0</ele></rtept>
    <rtept lat="52.324492" lon="4.588365"><ele>0.0</ele></rtept>
    <rtept lat="52.324414" lon="4.588294"><ele>0.0</ele></rtept>
    <rtept lat="52.324358" lon="4.588238"><ele>0.0</ele></rtept>
    <rtept lat="52.324374" lon="4.588181"><ele>0.0</ele></rtept>
    <rtept lat="52.324299" lon="4.588112"><ele>0.0</ele></rtept>
    <rtept lat="52.324229" lon="4.588052"><ele>0.0</ele></rtept>
    <rtept lat="52.324155" lon="4.587988"><ele>0.0</ele></rtept>
    <rtept lat="52.324120" lon="4.587959"><ele>0.0</ele></rtept>
    <rtept lat="52.322581" lon="4.586730"><ele>0.0</ele></rtept>
    <rtept lat="52.322541" lon="4.586697"><ele>0.0</ele></rtept>
    <rtept lat="52.322391" lon="4.586574"><ele>0.0</ele></rtept>
    <rtept lat="52.320361" lon="4.584942"><ele>0.0</ele></rtept>
    <rtept lat="52.318861" lon="4.583698"><ele>0.0</ele></rtept>
    <rtept lat="52.318626" lon="4.583384"><ele>0.0</ele></rtept>
    <rtept lat="52.318467" lon="4.583058"><ele>0.0</ele></rtept>
    <rtept lat="52.318288" lon="4.582591"><ele>0.0</ele></rtept>
    <rtept lat="52.318267" lon="4.582474"><ele>0.0</ele></rtept>
    <rtept lat="52.318163" lon="4.582132"><ele>0.0</ele></rtept>
    <rtept lat="52.318135" lon="4.582089"><ele>0.0</ele></rtept>
    <rtept lat="52.317706" lon="4.580564"><ele>0.0</ele></rtept>
    <rtept lat="52.316898" lon="4.577870"><ele>0.0</ele></rtept>
    <rtept lat="52.316800" lon="4.577556"><ele>0.0</ele></rtept>
    <rtept lat="52.316655" lon="4.577073"><ele>0.0</ele></rtept>
    <rtept lat="52.316230" lon="4.575672"><ele>0.0</ele></rtept>
    <rtept lat="52.315951" lon="4.574733"><ele>0.0</ele></rtept>
    <rtept lat="52.315937" lon="4.574620"><ele>0.0</ele></rtept>
    <rtept lat="52.315940" lon="4.574466"><ele>0.0</ele></rtept>
    <rtept lat="52.315982" lon="4.574253"><ele>0.0</ele></rtept>
    <rtept lat="52.315996" lon="4.574182"><ele>0.0</ele></rtept>
    <rtept lat="52.315949" lon="4.574142"><ele>0.0</ele></rtept>
    <rtept lat="52.315804" lon="4.573988"><ele>0.0</ele></rtept>
    <rtept lat="52.315689" lon="4.573803"><ele>0.0</ele></rtept>
    <rtept lat="52.315538" lon="4.573364"><ele>0.0</ele></rtept>
    <rtept lat="52.315480" lon="4.573161"><ele>0.0</ele></rtept>
    <rtept lat="52.315413" lon="4.572934"><ele>0.0</ele></rtept>
    <rtept lat="52.315327" lon="4.572655"><ele>0.0</ele></rtept>
    <rtept lat="52.315302" lon="4.572608"><ele>0.0</ele></rtept>
    <rtept lat="52.314438" lon="4.569769"><ele>0.0</ele></rtept>
    <rtept lat="52.314228" lon="4.569123"><ele>0.0</ele></rtept>
    <rtept lat="52.314075" lon="4.568743"><ele>0.0</ele></rtept>
    <rtept lat="52.314026" lon="4.568629"><ele>0.0</ele></rtept>
    <rtept lat="52.313998" lon="4.568457"><ele>0.0</ele></rtept>
    <rtept lat="52.313839" lon="4.568073"><ele>0.0</ele></rtept>
    <rtept lat="52.313793" lon="4.567883"><ele>0.0</ele></rtept>
    <rtept lat="52.313787" lon="4.567720"><ele>0.0</ele></rtept>
    <rtept lat="52.313801" lon="4.567577"><ele>0.0</ele></rtept>
    <rtept lat="52.313852" lon="4.567348"><ele>0.0</ele></rtept>
    <rtept lat="52.314140" lon="4.566238"><ele>0.0</ele></rtept>
    <rtept lat="52.314405" lon="4.564770"><ele>0.0</ele></rtept>
    <rtept lat="52.314628" lon="4.563930"><ele>0.0</ele></rtept>
    <rtept lat="52.314852" lon="4.563292"><ele>0.0</ele></rtept>
    <rtept lat="52.314947" lon="4.562967"><ele>0.0</ele></rtept>
    <rtept lat="52.314954" lon="4.562878"><ele>0.0</ele></rtept>
    <rtept lat="52.314945" lon="4.562334"><ele>0.0</ele></rtept>
    <rtept lat="52.314851" lon="4.561914"><ele>0.0</ele></rtept>
    <rtept lat="52.314678" lon="4.561636"><ele>0.0</ele></rtept>
    <rtept lat="52.314230" lon="4.561178"><ele>0.0</ele></rtept>
    <rtept lat="52.314089" lon="4.561032"><ele>0.0</ele></rtept>
    <rtept lat="52.313477" lon="4.560231"><ele>0.0</ele></rtept>
    <rtept lat="52.312961" lon="4.559485"><ele>0.0</ele></rtept>
    <rtept lat="52.312586" lon="4.559232"><ele>0.0</ele></rtept>
    <rtept lat="52.312339" lon="4.559030"><ele>0.0</ele></rtept>
    <rtept lat="52.311517" lon="4.558182"><ele>0.0</ele></rtept>
    <rtept lat="52.311009" lon="4.557658"><ele>0.0</ele></rtept>
    <rtept lat="52.310906" lon="4.557515"><ele>0.0</ele></rtept>
    <rtept lat="52.310846" lon="4.557286"><ele>0.0</ele></rtept>
    <rtept lat="52.310833" lon="4.557085"><ele>0.0</ele></rtept>
    <rtept lat="52.310774" lon="4.557045"><ele>0.0</ele></rtept>
    <rtept lat="52.310691" lon="4.557011"><ele>0.0</ele></rtept>
    <rtept lat="52.310547" lon="4.557022"><ele>0.0</ele></rtept>
    <rtept lat="52.310478" lon="4.557077"><ele>0.0</ele></rtept>
    <rtept lat="52.310411" lon="4.557170"><ele>0.0</ele></rtept>
    <rtept lat="52.310339" lon="4.557142"><ele>0.0</ele></rtept>
    <rtept lat="52.309872" lon="4.556755"><ele>0.0</ele></rtept>
    <rtept lat="52.309456" lon="4.556224"><ele>0.0</ele></rtept>
    <rtept lat="52.309065" lon="4.555633"><ele>0.0</ele></rtept>
    <rtept lat="52.308684" lon="4.554746"><ele>0.0</ele></rtept>
    <rtept lat="52.308282" lon="4.554081"><ele>0.0</ele></rtept>
    <rtept lat="52.308088" lon="4.553797"><ele>0.0</ele></rtept>
    <rtept lat="52.307784" lon="4.553346"><ele>0.0</ele></rtept>
    <rtept lat="52.307473" lon="4.552987"><ele>0.0</ele></rtept>
    <rtept lat="52.307194" lon="4.552709"><ele>0.0</ele></rtept>
    <rtept lat="52.306739" lon="4.552374"><ele>0.0</ele></rtept>
    <rtept lat="52.305889" lon="4.551864"><ele>0.0</ele></rtept>
    <rtept lat="52.305527" lon="4.551528"><ele>0.0</ele></rtept>
    <rtept lat="52.305179" lon="4.551125"><ele>0.0</ele></rtept>
    <rtept lat="52.304849" lon="4.550670"><ele>0.0</ele></rtept>
    <rtept lat="52.304705" lon="4.550413"><ele>0.0</ele></rtept>
    <rtept lat="52.304375" lon="4.549743"><ele>0.0</ele></rtept>
    <rtept lat="52.304250" lon="4.549535"><ele>0.0</ele></rtept>
    <rtept lat="52.303830" lon="4.548892"><ele>0.0</ele></rtept>
    <rtept lat="52.303589" lon="4.548534"><ele>0.0</ele></rtept>
    <rtept lat="52.303409" lon="4.548243"><ele>0.0</ele></rtept>
    <rtept lat="52.303374" lon="4.548187"><ele>0.0</ele></rtept>
    <rtept lat="52.303290" lon="4.548027"><ele>0.0</ele></rtept>
    <rtept lat="52.303160" lon="4.547612"><ele>0.0</ele></rtept>
    <rtept lat="52.302900" lon="4.546758"><ele>0.0</ele></rtept>
    <rtept lat="52.302761" lon="4.546220"><ele>0.0</ele></rtept>
    <rtept lat="52.302554" lon="4.545546"><ele>0.0</ele></rtept>
    <rtept lat="52.302496" lon="4.545235"><ele>0.0</ele></rtept>
    <rtept lat="52.302490" lon="4.545039"><ele>0.0</ele></rtept>
    <rtept lat="52.302509" lon="4.544868"><ele>0.0</ele></rtept>
    <rtept lat="52.302635" lon="4.544366"><ele>0.0</ele></rtept>
    <rtept lat="52.302947" lon="4.543227"><ele>0.0</ele></rtept>
    <rtept lat="52.302979" lon="4.543118"><ele>0.0</ele></rtept>
    <rtept lat="52.303316" lon="4.541945"><ele>0.0</ele></rtept>
    <rtept lat="52.303583" lon="4.540990"><ele>0.0</ele></rtept>
    <rtept lat="52.303639" lon="4.540623"><ele>0.0</ele></rtept>
    <rtept lat="52.303636" lon="4.540265"><ele>0.0</ele></rtept>
    <rtept lat="52.303596" lon="4.539983"><ele>0.0</ele></rtept>
    <rtept lat="52.303560" lon="4.539842"><ele>0.0</ele></rtept>
    <rtept lat="52.303437" lon="4.539520"><ele>0.0</ele></rtept>
    <rtept lat="52.303244" lon="4.539235"><ele>0.0</ele></rtept>
    <rtept lat="52.302859" lon="4.538816"><ele>0.0</ele></rtept>
    <rtept lat="52.302721" lon="4.538685"><ele>0.0</ele></rtept>
    <rtept lat="52.302451" lon="4.538397"><ele>0.0</ele></rtept>
    <rtept lat="52.302405" lon="4.538320"><ele>0.0</ele></rtept>
    <rtept lat="52.302237" lon="4.538086"><ele>0.0</ele></rtept>
    <rtept lat="52.302184" lon="4.538026"><ele>0.0</ele></rtept>
    <rtept lat="52.302108" lon="4.538265"><ele>0.0</ele></rtept>
    <rtept lat="52.302005" lon="4.538606"><ele>0.0</ele></rtept>
    <rtept lat="52.301906" lon="4.538519"><ele>0.0</ele></rtept>
    <rtept lat="52.301772" lon="4.538400"><ele>0.0</ele></rtept>
    <rtept lat="52.301659" lon="4.538266"><ele>0.0</ele></rtept>
    <rtept lat="52.301501" lon="4.537862"><ele>0.0</ele></rtept>
    <rtept lat="52.301272" lon="4.537572"><ele>0.0</ele></rtept>
    <rtept lat="52.300892" lon="4.537114"><ele>0.0</ele></rtept>
    <rtept lat="52.300667" lon="4.536796"><ele>0.0</ele></rtept>
    <rtept lat="52.299657" lon="4.535308"><ele>0.0</ele></rtept>
    <rtept lat="52.298773" lon="4.534046"><ele>0.0</ele></rtept>
    <rtept lat="52.298500" lon="4.533699"><ele>0.0</ele></rtept>
    <rtept lat="52.297946" lon="4.533075"><ele>0.0</ele></rtept>
    <rtept lat="52.297258" lon="4.532379"><ele>0.0</ele></rtept>
    <rtept lat="52.296696" lon="4.531721"><ele>0.0</ele></rtept>
    <rtept lat="52.296285" lon="4.531164"><ele>0.0</ele></rtept>
    <rtept lat="52.295731" lon="4.530346"><ele>0.0</ele></rtept>
    <rtept lat="52.294447" lon="4.528439"><ele>0.0</ele></rtept>
    <rtept lat="52.293785" lon="4.527570"><ele>0.0</ele></rtept>
    <rtept lat="52.293481" lon="4.527244"><ele>0.0</ele></rtept>
    <rtept lat="52.293045" lon="4.526824"><ele>0.0</ele></rtept>
    <rtept lat="52.292068" lon="4.526047"><ele>0.0</ele></rtept>
    <rtept lat="52.291787" lon="4.525831"><ele>0.0</ele></rtept>
    <rtept lat="52.291769" lon="4.525784"><ele>0.0</ele></rtept>
    <rtept lat="52.291729" lon="4.525612"><ele>0.0</ele></rtept>
    <rtept lat="52.291828" lon="4.525336"><ele>0.0</ele></rtept>
    <rtept lat="52.291825" lon="4.525247"><ele>0.0</ele></rtept>
    <rtept lat="52.292020" lon="4.524722"><ele>0.0</ele></rtept>
    <rtept lat="52.292215" lon="4.524346"><ele>0.0</ele></rtept>
    <rtept lat="52.292349" lon="4.523931"><ele>0.0</ele></rtept>
    <rtept lat="52.292448" lon="4.523202"><ele>0.0</ele></rtept>
    <rtept lat="52.292618" lon="4.523213"><ele>0.0</ele></rtept>
    <rtept lat="52.292737" lon="4.523155"><ele>0.0</ele></rtept>
    <rtept lat="52.292803" lon="4.523089"><ele>0.0</ele></rtept>
    <rtept lat="52.292897" lon="4.522886"><ele>0.0</ele></rtept>
    <rtept lat="52.293159" lon="4.522219"><ele>0.0</ele></rtept>
    <rtept lat="52.293372" lon="4.521302"><ele>0.0</ele></rtept>
    <rtept lat="52.293446" lon="4.520923"><ele>0.0</ele></rtept>
    <rtept lat="52.293469" lon="4.520519"><ele>0.0</ele></rtept>
    <rtept lat="52.293478" lon="4.519835"><ele>0.0</ele></rtept>
    <rtept lat="52.293572" lon="4.519293"><ele>0.0</ele></rtept>
    <rtept lat="52.293638" lon="4.519041"><ele>0.0</ele></rtept>
    <rtept lat="52.293700" lon="4.518891"><ele>0.0</ele></rtept>
    <rtept lat="52.293797" lon="4.518699"><ele>0.0</ele></rtept>
    <rtept lat="52.294370" lon="4.517848"><ele>0.0</ele></rtept>
    <rtept lat="52.294587" lon="4.517492"><ele>0.0</ele></rtept>
    <rtept lat="52.295155" lon="4.516255"><ele>0.0</ele></rtept>
    <rtept lat="52.295511" lon="4.515608"><ele>0.0</ele></rtept>
    <rtept lat="52.295579" lon="4.515437"><ele>0.0</ele></rtept>
    <rtept lat="52.295621" lon="4.515265"><ele>0.0</ele></rtept>
    <rtept lat="52.295641" lon="4.515070"><ele>0.0</ele></rtept>
    <rtept lat="52.295631" lon="4.514883"><ele>0.0</ele></rtept>
    <rtept lat="52.295318" lon="4.512524"><ele>0.0</ele></rtept>
    <rtept lat="52.295296" lon="4.512200"><ele>0.0</ele></rtept>
    <rtept lat="52.295304" lon="4.511801"><ele>0.0</ele></rtept>
    <rtept lat="52.295325" lon="4.511539"><ele>0.0</ele></rtept>
    <rtept lat="52.295646" lon="4.509194"><ele>0.0</ele></rtept>
    <rtept lat="52.295844" lon="4.507236"><ele>0.0</ele></rtept>
    <rtept lat="52.295994" lon="4.506611"><ele>0.0</ele></rtept>
    <rtept lat="52.296234" lon="4.505862"><ele>0.0</ele></rtept>
    <rtept lat="52.296534" lon="4.504918"><ele>0.0</ele></rtept>
    <rtept lat="52.296721" lon="4.504240"><ele>0.0</ele></rtept>
    <rtept lat="52.296898" lon="4.503511"><ele>0.0</ele></rtept>
    <rtept lat="52.296991" lon="4.502914"><ele>0.0</ele></rtept>
    <rtept lat="52.297005" lon="4.502455"><ele>0.0</ele></rtept>
    <rtept lat="52.296989" lon="4.502083"><ele>0.0</ele></rtept>
    <rtept lat="52.296948" lon="4.501781"><ele>0.0</ele></rtept>
    <rtept lat="52.296689" lon="4.500311"><ele>0.0</ele></rtept>
    <rtept lat="52.296689" lon="4.500205"><ele>0.0</ele></rtept>
    <rtept lat="52.296728" lon="4.500004"><ele>0.0</ele></rtept>
    <rtept lat="52.296868" lon="4.499699"><ele>0.0</ele></rtept>
    <rtept lat="52.296878" lon="4.499513"><ele>0.0</ele></rtept>
    <rtept lat="52.296853" lon="4.499414"><ele>0.0</ele></rtept>
    <rtept lat="52.296274" lon="4.497973"><ele>0.0</ele></rtept>
    <rtept lat="52.295940" lon="4.497049"><ele>0.0</ele></rtept>
    <rtept lat="52.295597" lon="4.496211"><ele>0.0</ele></rtept>
    <rtept lat="52.295350" lon="4.495705"><ele>0.0</ele></rtept>
    <rtept lat="52.293206" lon="4.491985"><ele>0.0</ele></rtept>
    <rtept lat="52.292122" lon="4.490186"><ele>0.0</ele></rtept>
    <rtept lat="52.292056" lon="4.490035"><ele>0.0</ele></rtept>
    <rtept lat="52.292025" lon="4.489979"><ele>0.0</ele></rtept>
    <rtept lat="52.290983" lon="4.488162"><ele>0.0</ele></rtept>
    <rtept lat="52.290652" lon="4.487679"><ele>0.0</ele></rtept>
    <rtept lat="52.290222" lon="4.487175"><ele>0.0</ele></rtept>
    <rtept lat="52.289577" lon="4.486537"><ele>0.0</ele></rtept>
    <rtept lat="52.289409" lon="4.486473"><ele>0.0</ele></rtept>
    <rtept lat="52.289240" lon="4.486511"><ele>0.0</ele></rtept>
    <rtept lat="52.287957" lon="4.486989"><ele>0.0</ele></rtept>
    <rtept lat="52.287426" lon="4.487291"><ele>0.0</ele></rtept>
    <rtept lat="52.287245" lon="4.487422"><ele>0.0</ele></rtept>
    <rtept lat="52.286904" lon="4.487719"><ele>0.0</ele></rtept>
    <rtept lat="52.286239" lon="4.488385"><ele>0.0</ele></rtept>
    <rtept lat="52.286105" lon="4.488422"><ele>0.0</ele></rtept>
    <rtept lat="52.286013" lon="4.488389"><ele>0.0</ele></rtept>
    <rtept lat="52.285939" lon="4.488335"><ele>0.0</ele></rtept>
    <rtept lat="52.285730" lon="4.487813"><ele>0.0</ele></rtept>
    <rtept lat="52.285582" lon="4.487501"><ele>0.0</ele></rtept>
    <rtept lat="52.285376" lon="4.487179"><ele>0.0</ele></rtept>
    <rtept lat="52.285178" lon="4.486984"><ele>0.0</ele></rtept>
    <rtept lat="52.284854" lon="4.486748"><ele>0.0</ele></rtept>
    <rtept lat="52.284727" lon="4.486622"><ele>0.0</ele></rtept>
    <rtept lat="52.283885" lon="4.485612"><ele>0.0</ele></rtept>
    <rtept lat="52.283601" lon="4.485302"><ele>0.0</ele></rtept>
    <rtept lat="52.283439" lon="4.485110"><ele>0.0</ele></rtept>
    <rtept lat="52.283442" lon="4.485018"><ele>0.0</ele></rtept>
    <rtept lat="52.283516" lon="4.484552"><ele>0.0</ele></rtept>
    <rtept lat="52.283605" lon="4.484291"><ele>0.0</ele></rtept>
    <rtept lat="52.283764" lon="4.483698"><ele>0.0</ele></rtept>
    <rtept lat="52.283865" lon="4.483114"><ele>0.0</ele></rtept>
    <rtept lat="52.283910" lon="4.482886"><ele>0.0</ele></rtept>
    <rtept lat="52.284027" lon="4.482640"><ele>0.0</ele></rtept>
    <rtept lat="52.283720" lon="4.482035"><ele>0.0</ele></rtept>
    <rtept lat="52.283347" lon="4.481435"><ele>0.0</ele></rtept>
    <rtept lat="52.282666" lon="4.480644"><ele>0.0</ele></rtept>
    <rtept lat="52.282247" lon="4.480273"><ele>0.0</ele></rtept>
    <rtept lat="52.282085" lon="4.480202"><ele>0.0</ele></rtept>
    <rtept lat="52.281963" lon="4.479762"><ele>0.0</ele></rtept>
    <rtept lat="52.281835" lon="4.478966"><ele>0.0</ele></rtept>
    <rtept lat="52.281752" lon="4.478265"><ele>0.0</ele></rtept>
    <rtept lat="52.281725" lon="4.477944"><ele>0.0</ele></rtept>
    <rtept lat="52.281722" lon="4.477719"><ele>0.0</ele></rtept>
    <rtept lat="52.281768" lon="4.477267"><ele>0.0</ele></rtept>
    <rtept lat="52.281794" lon="4.477160"><ele>0.0</ele></rtept>
    <rtept lat="52.281900" lon="4.476911"><ele>0.0</ele></rtept>
    <rtept lat="52.282057" lon="4.476602"><ele>0.0</ele></rtept>
    <rtept lat="52.282491" lon="4.476002"><ele>0.0</ele></rtept>
    <rtept lat="52.282800" lon="4.475541"><ele>0.0</ele></rtept>
    <rtept lat="52.283016" lon="4.475126"><ele>0.0</ele></rtept>
    <rtept lat="52.283216" lon="4.474536"><ele>0.0</ele></rtept>
    <rtept lat="52.283316" lon="4.473949"><ele>0.0</ele></rtept>
    <rtept lat="52.283208" lon="4.473786"><ele>0.0</ele></rtept>
    <rtept lat="52.283075" lon="4.473628"><ele>0.0</ele></rtept>
    <rtept lat="52.282825" lon="4.473121"><ele>0.0</ele></rtept>
    <rtept lat="52.282285" lon="4.471746"><ele>0.0</ele></rtept>
    <rtept lat="52.282058" lon="4.471219"><ele>0.0</ele></rtept>
    <rtept lat="52.281834" lon="4.470803"><ele>0.0</ele></rtept>
    <rtept lat="52.281510" lon="4.470296"><ele>0.0</ele></rtept>
    <rtept lat="52.280050" lon="4.468215"><ele>0.0</ele></rtept>
    <rtept lat="52.279527" lon="4.467320"><ele>0.0</ele></rtept>
    <rtept lat="52.279447" lon="4.467119"><ele>0.0</ele></rtept>
    <rtept lat="52.279342" lon="4.466757"><ele>0.0</ele></rtept>
    <rtept lat="52.279096" lon="4.465743"><ele>0.0</ele></rtept>
    <rtept lat="52.278999" lon="4.465504"><ele>0.0</ele></rtept>
    <rtept lat="52.278476" lon="4.464826"><ele>0.0</ele></rtept>
    <rtept lat="52.277609" lon="4.463795"><ele>0.0</ele></rtept>
    <rtept lat="52.276507" lon="4.462832"><ele>0.0</ele></rtept>
    <rtept lat="52.275397" lon="4.462039"><ele>0.0</ele></rtept>
    <rtept lat="52.275195" lon="4.461938"><ele>0.0</ele></rtept>
    <rtept lat="52.273420" lon="4.461259"><ele>0.0</ele></rtept>
    <rtept lat="52.273126" lon="4.461124"><ele>0.0</ele></rtept>
    <rtept lat="52.272964" lon="4.460947"><ele>0.0</ele></rtept>
    <rtept lat="52.272006" lon="4.459437"><ele>0.0</ele></rtept>
    <rtept lat="52.271751" lon="4.459063"><ele>0.0</ele></rtept>
    <rtept lat="52.271631" lon="4.458914"><ele>0.0</ele></rtept>
    <rtept lat="52.270522" lon="4.457737"><ele>0.0</ele></rtept>
    <rtept lat="52.270234" lon="4.457542"><ele>0.0</ele></rtept>
    <rtept lat="52.269774" lon="4.457415"><ele>0.0</ele></rtept>
    <rtept lat="52.269577" lon="4.457352"><ele>0.0</ele></rtept>
    <rtept lat="52.269274" lon="4.457256"><ele>0.0</ele></rtept>
    <rtept lat="52.268924" lon="4.457103"><ele>0.0</ele></rtept>
    <rtept lat="52.268422" lon="4.456683"><ele>0.0</ele></rtept>
    <rtept lat="52.267998" lon="4.456320"><ele>0.0</ele></rtept>
    <rtept lat="52.267306" lon="4.455738"><ele>0.0</ele></rtept>
    <rtept lat="52.266520" lon="4.455202"><ele>0.0</ele></rtept>
    <rtept lat="52.265559" lon="4.454557"><ele>0.0</ele></rtept>
    <rtept lat="52.264865" lon="4.454096"><ele>0.0</ele></rtept>
    <rtept lat="52.263804" lon="4.453531"><ele>0.0</ele></rtept>
    <rtept lat="52.263663" lon="4.453442"><ele>0.0</ele></rtept>
    <rtept lat="52.263541" lon="4.453327"><ele>0.0</ele></rtept>
    <rtept lat="52.263443" lon="4.453210"><ele>0.0</ele></rtept>
    <rtept lat="52.263363" lon="4.453069"><ele>0.0</ele></rtept>
    <rtept lat="52.263103" lon="4.452502"><ele>0.0</ele></rtept>
    <rtept lat="52.262885" lon="4.451912"><ele>0.0</ele></rtept>
    <rtept lat="52.262615" lon="4.451333"><ele>0.0</ele></rtept>
    <rtept lat="52.262346" lon="4.450829"><ele>0.0</ele></rtept>
    <rtept lat="52.261882" lon="4.450138"><ele>0.0</ele></rtept>
    <rtept lat="52.261559" lon="4.449531"><ele>0.0</ele></rtept>
    <rtept lat="52.260862" lon="4.448176"><ele>0.0</ele></rtept>
    <rtept lat="52.260788" lon="4.448060"><ele>0.0</ele></rtept>
    <rtept lat="52.260687" lon="4.447957"><ele>0.0</ele></rtept>
    <rtept lat="52.260573" lon="4.447889"><ele>0.0</ele></rtept>
    <rtept lat="52.260413" lon="4.447884"><ele>0.0</ele></rtept>
    <rtept lat="52.260305" lon="4.447919"><ele>0.0</ele></rtept>
    <rtept lat="52.260174" lon="4.447999"><ele>0.0</ele></rtept>
    <rtept lat="52.259989" lon="4.448171"><ele>0.0</ele></rtept>
    <rtept lat="52.259605" lon="4.448585"><ele>0.0</ele></rtept>
    <rtept lat="52.259321" lon="4.448769"><ele>0.0</ele></rtept>
    <rtept lat="52.258587" lon="4.449120"><ele>0.0</ele></rtept>
    <rtept lat="52.258472" lon="4.449196"><ele>0.0</ele></rtept>
    <rtept lat="52.258271" lon="4.449377"><ele>0.0</ele></rtept>
    <rtept lat="52.258158" lon="4.449515"><ele>0.0</ele></rtept>
    <rtept lat="52.258113" lon="4.449592"><ele>0.0</ele></rtept>
    <rtept lat="52.258063" lon="4.449734"><ele>0.0</ele></rtept>
    <rtept lat="52.258041" lon="4.449941"><ele>0.0</ele></rtept>
    <rtept lat="52.258003" lon="4.450800"><ele>0.0</ele></rtept>
    <rtept lat="52.257947" lon="4.451341"><ele>0.0</ele></rtept>
    <rtept lat="52.257930" lon="4.451482"><ele>0.0</ele></rtept>
    <rtept lat="52.257798" lon="4.451475"><ele>0.0</ele></rtept>
    <rtept lat="52.256920" lon="4.451429"><ele>0.0</ele></rtept>
    <rtept lat="52.256155" lon="4.450926"><ele>0.0</ele></rtept>
    <rtept lat="52.255126" lon="4.450260"><ele>0.0</ele></rtept>
    <rtept lat="52.254757" lon="4.450056"><ele>0.0</ele></rtept>
    <rtept lat="52.254478" lon="4.449940"><ele>0.0</ele></rtept>
    <rtept lat="52.253473" lon="4.449736"><ele>0.0</ele></rtept>
    <rtept lat="52.252977" lon="4.449661"><ele>0.0</ele></rtept>
    <rtept lat="52.252773" lon="4.449718"><ele>0.0</ele></rtept>
    <rtept lat="52.252326" lon="4.449978"><ele>0.0</ele></rtept>
    <rtept lat="52.252082" lon="4.450090"><ele>0.0</ele></rtept>
    <rtept lat="52.251917" lon="4.450129"><ele>0.0</ele></rtept>
    <rtept lat="52.251718" lon="4.450115"><ele>0.0</ele></rtept>
    <rtept lat="52.251650" lon="4.450076"><ele>0.0</ele></rtept>
    <rtept lat="52.251562" lon="4.449986"><ele>0.0</ele></rtept>
    <rtept lat="52.251394" lon="4.449818"><ele>0.0</ele></rtept>
    <rtept lat="52.251139" lon="4.449612"><ele>0.0</ele></rtept>
    <rtept lat="52.250415" lon="4.449133"><ele>0.0</ele></rtept>
    <rtept lat="52.250122" lon="4.448943"><ele>0.0</ele></rtept>
    <rtept lat="52.250051" lon="4.448861"><ele>0.0</ele></rtept>
    <rtept lat="52.250032" lon="4.448809"><ele>0.0</ele></rtept>
    <rtept lat="52.249831" lon="4.448667"><ele>0.0</ele></rtept>
    <rtept lat="52.249728" lon="4.448682"><ele>0.0</ele></rtept>
    <rtept lat="52.249695" lon="4.448710"><ele>0.0</ele></rtept>
    <rtept lat="52.249630" lon="4.448615"><ele>0.0</ele></rtept>
    <rtept lat="52.249573" lon="4.448569"><ele>0.0</ele></rtept>
    <rtept lat="52.249371" lon="4.448462"><ele>0.0</ele></rtept>
    <rtept lat="52.249043" lon="4.448193"><ele>0.0</ele></rtept>
    <rtept lat="52.248608" lon="4.447716"><ele>0.0</ele></rtept>
    <rtept lat="52.248277" lon="4.447252"><ele>0.0</ele></rtept>
    <rtept lat="52.247911" lon="4.446628"><ele>0.0</ele></rtept>
    <rtept lat="52.247722" lon="4.446213"><ele>0.0</ele></rtept>
    <rtept lat="52.247703" lon="4.446168"><ele>0.0</ele></rtept>
    <rtept lat="52.247667" lon="4.446218"><ele>0.0</ele></rtept>
    <rtept lat="52.247642" lon="4.446247"><ele>0.0</ele></rtept>
    <rtept lat="52.247616" lon="4.446281"><ele>0.0</ele></rtept>
    <rtept lat="52.246345" lon="4.448188"><ele>0.0</ele></rtept>
    <rtept lat="52.246308" lon="4.448225"><ele>0.0</ele></rtept>
    <rtept lat="52.246139" lon="4.448408"><ele>0.0</ele></rtept>
    <rtept lat="52.246226" lon="4.448628"><ele>0.0</ele></rtept>
    <rtept lat="52.246201" lon="4.448744"><ele>0.0</ele></rtept>
    <rtept lat="52.246277" lon="4.448934"><ele>0.0</ele></rtept>
    <rtept lat="52.246308" lon="4.449010"><ele>0.0</ele></rtept>
    <rtept lat="52.246479" lon="4.449077"><ele>0.0</ele></rtept>
    <rtept lat="52.246601" lon="4.449403"><ele>0.0</ele></rtept>
    <rtept lat="52.246803" lon="4.449916"><ele>0.0</ele></rtept>
    <rtept lat="52.246778" lon="4.450124"><ele>0.0</ele></rtept>
    <rtept lat="52.246818" lon="4.450138"><ele>0.0</ele></rtept>
    <rtept lat="52.247138" lon="4.450933"><ele>0.0</ele></rtept>
    <rtept lat="52.247143" lon="4.450993"><ele>0.0</ele></rtept>
    <rtept lat="52.247225" lon="4.451016"><ele>0.0</ele></rtept>
    <rtept lat="52.247322" lon="4.451264"><ele>0.0</ele></rtept>
    <rtept lat="52.247485" lon="4.451576"><ele>0.0</ele></rtept>
    <rtept lat="52.247596" lon="4.451859"><ele>0.0</ele></rtept>
    <rtept lat="52.247546" lon="4.451926"><ele>0.0</ele></rtept>
    <rtept lat="52.247386" lon="4.452144"><ele>0.0</ele></rtept>
    <rtept lat="52.247217" lon="4.452323"><ele>0.0</ele></rtept>
    <rtept lat="52.247001" lon="4.452526"><ele>0.0</ele></rtept>
    <rtept lat="52.246769" lon="4.452664"><ele>0.0</ele></rtept>
    <rtept lat="52.246719" lon="4.452672"><ele>0.0</ele></rtept>
    <rtept lat="52.246192" lon="4.452703"><ele>0.0</ele></rtept>
    <rtept lat="52.246121" lon="4.452710"><ele>0.0</ele></rtept>
    <rtept lat="52.245767" lon="4.452751"><ele>0.0</ele></rtept>
    <rtept lat="52.245644" lon="4.452788"><ele>0.0</ele></rtept>
    <rtept lat="52.245411" lon="4.452892"><ele>0.0</ele></rtept>
    <rtept lat="52.245345" lon="4.452952"><ele>0.0</ele></rtept>
    <rtept lat="52.245289" lon="4.453005"><ele>0.0</ele></rtept>
    <rtept lat="52.245236" lon="4.453084"><ele>0.0</ele></rtept>
    <rtept lat="52.245101" lon="4.453356"><ele>0.0</ele></rtept>
    <rtept lat="52.244444" lon="4.454491"><ele>0.0</ele></rtept>
    <rtept lat="52.243683" lon="4.455867"><ele>0.0</ele></rtept>
    <rtept lat="52.243580" lon="4.456020"><ele>0.0</ele></rtept>
    <rtept lat="52.243501" lon="4.456321"><ele>0.0</ele></rtept>
    <rtept lat="52.242949" lon="4.457685"><ele>0.0</ele></rtept>
    <rtept lat="52.242810" lon="4.457980"><ele>0.0</ele></rtept>
    <rtept lat="52.242237" lon="4.459075"><ele>0.0</ele></rtept>
    <rtept lat="52.242122" lon="4.459228"><ele>0.0</ele></rtept>
    <rtept lat="52.242023" lon="4.459482"><ele>0.0</ele></rtept>
    <rtept lat="52.241662" lon="4.460139"><ele>0.0</ele></rtept>
    <rtept lat="52.241611" lon="4.460181"><ele>0.0</ele></rtept>
    <rtept lat="52.241523" lon="4.460171"><ele>0.0</ele></rtept>
    <rtept lat="52.241497" lon="4.460196"><ele>0.0</ele></rtept>
    <rtept lat="52.241339" lon="4.460431"><ele>0.0</ele></rtept>
    <rtept lat="52.242180" lon="4.461960"><ele>0.0</ele></rtept>
    <rtept lat="52.243706" lon="4.464423"><ele>0.0</ele></rtept>
    <rtept lat="52.243834" lon="4.464622"><ele>0.0</ele></rtept>
    <rtept lat="52.244393" lon="4.465521"><ele>0.0</ele></rtept>
    <rtept lat="52.244754" lon="4.466092"><ele>0.0</ele></rtept>
    <rtept lat="52.245052" lon="4.466572"><ele>0.0</ele></rtept>
    <rtept lat="52.246073" lon="4.468433"><ele>0.0</ele></rtept>
    <rtept lat="52.246456" lon="4.469137"><ele>0.0</ele></rtept>
    <rtept lat="52.246752" lon="4.469544"><ele>0.0</ele></rtept>
    <rtept lat="52.246866" lon="4.469783"><ele>0.0</ele></rtept>
    <rtept lat="52.247342" lon="4.470560"><ele>0.0</ele></rtept>
    <rtept lat="52.247516" lon="4.470851"><ele>0.0</ele></rtept>
    <rtept lat="52.247822" lon="4.471332"><ele>0.0</ele></rtept>
    <rtept lat="52.247943" lon="4.471497"><ele>0.0</ele></rtept>
    <rtept lat="52.248126" lon="4.471672"><ele>0.0</ele></rtept>
    <rtept lat="52.248294" lon="4.471880"><ele>0.0</ele></rtept>
    <rtept lat="52.248813" lon="4.472704"><ele>0.0</ele></rtept>
    <rtept lat="52.249241" lon="4.473393"><ele>0.0</ele></rtept>
    <rtept lat="52.249554" lon="4.474078"><ele>0.0</ele></rtept>
    <rtept lat="52.249729" lon="4.474373"><ele>0.0</ele></rtept>
    <rtept lat="52.249941" lon="4.474703"><ele>0.0</ele></rtept>
    <rtept lat="52.250593" lon="4.475914"><ele>0.0</ele></rtept>
    <rtept lat="52.250723" lon="4.476067"><ele>0.0</ele></rtept>
    <rtept lat="52.251010" lon="4.476308"><ele>0.0</ele></rtept>
    <rtept lat="52.250000" lon="4.478122"><ele>0.0</ele></rtept>
    <rtept lat="52.249906" lon="4.478270"><ele>0.0</ele></rtept>
    <rtept lat="52.249685" lon="4.478362"><ele>0.0</ele></rtept>
    <rtept lat="52.249633" lon="4.478503"><ele>0.0</ele></rtept>
    <rtept lat="52.249657" lon="4.478812"><ele>0.0</ele></rtept>
    <rtept lat="52.249652" lon="4.478900"><ele>0.0</ele></rtept>
    <rtept lat="52.249447" lon="4.479309"><ele>0.0</ele></rtept>
    <rtept lat="52.249404" lon="4.479358"><ele>0.0</ele></rtept>
    <rtept lat="52.249351" lon="4.479376"><ele>0.0</ele></rtept>
    <rtept lat="52.249272" lon="4.479355"><ele>0.0</ele></rtept>
    <rtept lat="52.249218" lon="4.479370"><ele>0.0</ele></rtept>
    <rtept lat="52.249171" lon="4.479409"><ele>0.0</ele></rtept>
    <rtept lat="52.249104" lon="4.479536"><ele>0.0</ele></rtept>
    <rtept lat="52.249080" lon="4.479653"><ele>0.0</ele></rtept>
    <rtept lat="52.249154" lon="4.480054"><ele>0.0</ele></rtept>
    <rtept lat="52.249031" lon="4.480751"><ele>0.0</ele></rtept>
    <rtept lat="52.248987" lon="4.481186"><ele>0.0</ele></rtept>
    <rtept lat="52.248979" lon="4.481408"><ele>0.0</ele></rtept>
    <rtept lat="52.248984" lon="4.481763"><ele>0.0</ele></rtept>
    <rtept lat="52.249010" lon="4.482138"><ele>0.0</ele></rtept>
    <rtept lat="52.249053" lon="4.482426"><ele>0.0</ele></rtept>
    <rtept lat="52.249164" lon="4.482942"><ele>0.0</ele></rtept>
    <rtept lat="52.249461" lon="4.483942"><ele>0.0</ele></rtept>
    <rtept lat="52.249496" lon="4.484125"><ele>0.0</ele></rtept>
    <rtept lat="52.249532" lon="4.484454"><ele>0.0</ele></rtept>
    <rtept lat="52.249550" lon="4.484783"><ele>0.0</ele></rtept>
    <rtept lat="52.249548" lon="4.484847"><ele>0.0</ele></rtept>
    <rtept lat="52.249497" lon="4.485012"><ele>0.0</ele></rtept>
    <rtept lat="52.249461" lon="4.485132"><ele>0.0</ele></rtept>
    <rtept lat="52.249529" lon="4.485325"><ele>0.0</ele></rtept>
    <rtept lat="52.249545" lon="4.485440"><ele>0.0</ele></rtept>
    <rtept lat="52.249517" lon="4.485694"><ele>0.0</ele></rtept>
    <rtept lat="52.249409" lon="4.486129"><ele>0.0</ele></rtept>
    <rtept lat="52.249201" lon="4.486695"><ele>0.0</ele></rtept>
    <rtept lat="52.248125" lon="4.488832"><ele>0.0</ele></rtept>
    <rtept lat="52.247711" lon="4.489676"><ele>0.0</ele></rtept>
    <rtept lat="52.247560" lon="4.490027"><ele>0.0</ele></rtept>
    <rtept lat="52.247501" lon="4.490160"><ele>0.0</ele></rtept>
    <rtept lat="52.247348" lon="4.490530"><ele>0.0</ele></rtept>
    <rtept lat="52.247143" lon="4.491057"><ele>0.0</ele></rtept>
    <rtept lat="52.246799" lon="4.491909"><ele>0.0</ele></rtept>
    <rtept lat="52.245546" lon="4.494307"><ele>0.0</ele></rtept>
    <rtept lat="52.245050" lon="4.495291"><ele>0.0</ele></rtept>
    <rtept lat="52.244821" lon="4.495623"><ele>0.0</ele></rtept>
    <rtept lat="52.244794" lon="4.495660"><ele>0.0</ele></rtept>
    <rtept lat="52.244624" lon="4.495853"><ele>0.0</ele></rtept>
    <rtept lat="52.244590" lon="4.495882"><ele>0.0</ele></rtept>
    <rtept lat="52.244515" lon="4.495930"><ele>0.0</ele></rtept>
    <rtept lat="52.244458" lon="4.496003"><ele>0.0</ele></rtept>
    <rtept lat="52.244183" lon="4.496379"><ele>0.0</ele></rtept>
    <rtept lat="52.244114" lon="4.496510"><ele>0.0</ele></rtept>
    <rtept lat="52.244020" lon="4.496701"><ele>0.0</ele></rtept>
    <rtept lat="52.242249" lon="4.499486"><ele>0.0</ele></rtept>
    <rtept lat="52.242110" lon="4.499603"><ele>0.0</ele></rtept>
    <rtept lat="52.241960" lon="4.499815"><ele>0.0</ele></rtept>
    <rtept lat="52.241710" lon="4.500210"><ele>0.0</ele></rtept>
    <rtept lat="52.241271" lon="4.500880"><ele>0.0</ele></rtept>
    <rtept lat="52.241215" lon="4.500985"><ele>0.0</ele></rtept>
    <rtept lat="52.241173" lon="4.501142"><ele>0.0</ele></rtept>
    <rtept lat="52.241124" lon="4.501225"><ele>0.0</ele></rtept>
    <rtept lat="52.240830" lon="4.501698"><ele>0.0</ele></rtept>
    <rtept lat="52.240217" lon="4.502651"><ele>0.0</ele></rtept>
    <rtept lat="52.240130" lon="4.502786"><ele>0.0</ele></rtept>
    <rtept lat="52.240077" lon="4.502798"><ele>0.0</ele></rtept>
    <rtept lat="52.240014" lon="4.502884"><ele>0.0</ele></rtept>
    <rtept lat="52.239966" lon="4.502968"><ele>0.0</ele></rtept>
    <rtept lat="52.239961" lon="4.503057"><ele>0.0</ele></rtept>
    <rtept lat="52.239071" lon="4.504443"><ele>0.0</ele></rtept>
    <rtept lat="52.238533" lon="4.505276"><ele>0.0</ele></rtept>
    <rtept lat="52.238385" lon="4.505602"><ele>0.0</ele></rtept>
    <rtept lat="52.238308" lon="4.505810"><ele>0.0</ele></rtept>
    <rtept lat="52.238193" lon="4.506237"><ele>0.0</ele></rtept>
    <rtept lat="52.238084" lon="4.506427"><ele>0.0</ele></rtept>
    <rtept lat="52.238058" lon="4.506553"><ele>0.0</ele></rtept>
    <rtept lat="52.238044" lon="4.506661"><ele>0.0</ele></rtept>
    <rtept lat="52.238039" lon="4.506759"><ele>0.0</ele></rtept>
    <rtept lat="52.238150" lon="4.507042"><ele>0.0</ele></rtept>
    <rtept lat="52.238215" lon="4.507028"><ele>0.0</ele></rtept>
    <rtept lat="52.238286" lon="4.507023"><ele>0.0</ele></rtept>
    <rtept lat="52.238360" lon="4.507034"><ele>0.0</ele></rtept>
    <rtept lat="52.238437" lon="4.507134"><ele>0.0</ele></rtept>
    <rtept lat="52.238628" lon="4.507512"><ele>0.0</ele></rtept>
    <rtept lat="52.238667" lon="4.507636"><ele>0.0</ele></rtept>
    <rtept lat="52.238780" lon="4.507777"><ele>0.0</ele></rtept>
    <rtept lat="52.238987" lon="4.508023"><ele>0.0</ele></rtept>
    <rtept lat="52.239106" lon="4.508165"><ele>0.0</ele></rtept>
    <rtept lat="52.239201" lon="4.508274"><ele>0.0</ele></rtept>
    <rtept lat="52.240023" lon="4.509213"><ele>0.0</ele></rtept>
    <rtept lat="52.240061" lon="4.509261"><ele>0.0</ele></rtept>
    <rtept lat="52.240444" lon="4.509730"><ele>0.0</ele></rtept>
    <rtept lat="52.240832" lon="4.510168"><ele>0.0</ele></rtept>
    <rtept lat="52.240943" lon="4.510296"><ele>0.0</ele></rtept>
    <rtept lat="52.241816" lon="4.511271"><ele>0.0</ele></rtept>
    <rtept lat="52.241939" lon="4.511343"><ele>0.0</ele></rtept>
    <rtept lat="52.242053" lon="4.511364"><ele>0.0</ele></rtept>
    <rtept lat="52.242180" lon="4.511326"><ele>0.0</ele></rtept>
    <rtept lat="52.242442" lon="4.511157"><ele>0.0</ele></rtept>
    <rtept lat="52.242509" lon="4.511151"><ele>0.0</ele></rtept>
    <rtept lat="52.242665" lon="4.511261"><ele>0.0</ele></rtept>
    <rtept lat="52.243551" lon="4.512423"><ele>0.0</ele></rtept>
    <rtept lat="52.243829" lon="4.512788"><ele>0.0</ele></rtept>
    <rtept lat="52.246735" lon="4.516600"><ele>0.0</ele></rtept>
    <rtept lat="52.249172" lon="4.519800"><ele>0.0</ele></rtept>
    <rtept lat="52.249284" lon="4.519945"><ele>0.0</ele></rtept>
    <rtept lat="52.249619" lon="4.520374"><ele>0.0</ele></rtept>
    <rtept lat="52.249659" lon="4.520431"><ele>0.0</ele></rtept>
    <rtept lat="52.250258" lon="4.521377"><ele>0.0</ele></rtept>
    <rtept lat="52.250564" lon="4.521874"><ele>0.0</ele></rtept>
    <rtept lat="52.250945" lon="4.522629"><ele>0.0</ele></rtept>
    <rtept lat="52.251620" lon="4.523942"><ele>0.0</ele></rtept>
    <rtept lat="52.252278" lon="4.525255"><ele>0.0</ele></rtept>
    <rtept lat="52.252336" lon="4.525349"><ele>0.0</ele></rtept>
    <rtept lat="52.252529" lon="4.525660"><ele>0.0</ele></rtept>
    <rtept lat="52.252999" lon="4.526233"><ele>0.0</ele></rtept>
    <rtept lat="52.253510" lon="4.526741"><ele>0.0</ele></rtept>
    <rtept lat="52.253697" lon="4.526897"><ele>0.0</ele></rtept>
    <rtept lat="52.253837" lon="4.526975"><ele>0.0</ele></rtept>
    <rtept lat="52.254308" lon="4.527144"><ele>0.0</ele></rtept>
    <rtept lat="52.254535" lon="4.527256"><ele>0.0</ele></rtept>
    <rtept lat="52.254792" lon="4.527419"><ele>0.0</ele></rtept>
    <rtept lat="52.254990" lon="4.527581"><ele>0.0</ele></rtept>
    <rtept lat="52.255074" lon="4.527658"><ele>0.0</ele></rtept>
    <rtept lat="52.255798" lon="4.528312"><ele>0.0</ele></rtept>
    <rtept lat="52.255891" lon="4.528384"><ele>0.0</ele></rtept>
    <rtept lat="52.255998" lon="4.528429"><ele>0.0</ele></rtept>
    <rtept lat="52.256016" lon="4.528438"><ele>0.0</ele></rtept>
    <rtept lat="52.256501" lon="4.528578"><ele>0.0</ele></rtept>
    <rtept lat="52.256610" lon="4.528630"><ele>0.0</ele></rtept>
    <rtept lat="52.256714" lon="4.528695"><ele>0.0</ele></rtept>
    <rtept lat="52.256956" lon="4.528929"><ele>0.0</ele></rtept>
    <rtept lat="52.257265" lon="4.529149"><ele>0.0</ele></rtept>
    <rtept lat="52.257620" lon="4.529473"><ele>0.0</ele></rtept>
    <rtept lat="52.258114" lon="4.530150"><ele>0.0</ele></rtept>
    <rtept lat="52.258425" lon="4.530449"><ele>0.0</ele></rtept>
    <rtept lat="52.258593" lon="4.530645"><ele>0.0</ele></rtept>
    <rtept lat="52.260453" lon="4.533149"><ele>0.0</ele></rtept>
    <rtept lat="52.260488" lon="4.533255"><ele>0.0</ele></rtept>
    <rtept lat="52.260483" lon="4.533316"><ele>0.0</ele></rtept>
    <rtept lat="52.259866" lon="4.535389"><ele>0.0</ele></rtept>
    <rtept lat="52.259775" lon="4.535694"><ele>0.0</ele></rtept>
    <rtept lat="52.259412" lon="4.536909"><ele>0.0</ele></rtept>
    <rtept lat="52.259409" lon="4.537038"><ele>0.0</ele></rtept>
    <rtept lat="52.259436" lon="4.537138"><ele>0.0</ele></rtept>
    <rtept lat="52.259904" lon="4.537793"><ele>0.0</ele></rtept>
    <rtept lat="52.259926" lon="4.537846"><ele>0.0</ele></rtept>
    <rtept lat="52.259936" lon="4.537952"><ele>0.0</ele></rtept>
    <rtept lat="52.259908" lon="4.538143"><ele>0.0</ele></rtept>
    <rtept lat="52.259397" lon="4.539504"><ele>0.0</ele></rtept>
    <rtept lat="52.259377" lon="4.539637"><ele>0.0</ele></rtept>
    <rtept lat="52.259411" lon="4.539719"><ele>0.0</ele></rtept>
    <rtept lat="52.260395" lon="4.540847"><ele>0.0</ele></rtept>
    <rtept lat="52.260490" lon="4.541014"><ele>0.0</ele></rtept>
    <rtept lat="52.260539" lon="4.541215"><ele>0.0</ele></rtept>
    <rtept lat="52.260537" lon="4.541487"><ele>0.0</ele></rtept>
    <rtept lat="52.260504" lon="4.541614"><ele>0.0</ele></rtept>
    <rtept lat="52.259964" lon="4.543188"><ele>0.0</ele></rtept>
    <rtept lat="52.259857" lon="4.543501"><ele>0.0</ele></rtept>
    <rtept lat="52.259786" lon="4.543800"><ele>0.0</ele></rtept>
    <rtept lat="52.259774" lon="4.543979"><ele>0.0</ele></rtept>
    <rtept lat="52.259785" lon="4.544141"><ele>0.0</ele></rtept>
    <rtept lat="52.259812" lon="4.544274"><ele>0.0</ele></rtept>
    <rtept lat="52.259857" lon="4.544383"><ele>0.0</ele></rtept>
    <rtept lat="52.259917" lon="4.544470"><ele>0.0</ele></rtept>
    <rtept lat="52.260059" lon="4.544600"><ele>0.0</ele></rtept>
    <rtept lat="52.260138" lon="4.544633"><ele>0.0</ele></rtept>
    <rtept lat="52.260302" lon="4.544647"><ele>0.0</ele></rtept>
    <rtept lat="52.260391" lon="4.544589"><ele>0.0</ele></rtept>
    <rtept lat="52.260466" lon="4.544498"><ele>0.0</ele></rtept>
    <rtept lat="52.260590" lon="4.544277"><ele>0.0</ele></rtept>
    <rtept lat="52.260820" lon="4.543632"><ele>0.0</ele></rtept>
    <rtept lat="52.260876" lon="4.543526"><ele>0.0</ele></rtept>
    <rtept lat="52.261012" lon="4.543425"><ele>0.0</ele></rtept>
    <rtept lat="52.261195" lon="4.543405"><ele>0.0</ele></rtept>
    <rtept lat="52.261280" lon="4.543456"><ele>0.0</ele></rtept>
    <rtept lat="52.261762" lon="4.543864"><ele>0.0</ele></rtept>
    <rtept lat="52.262131" lon="4.544176"><ele>0.0</ele></rtept>
    <rtept lat="52.263689" lon="4.545596"><ele>0.0</ele></rtept>
    <rtept lat="52.264093" lon="4.545900"><ele>0.0</ele></rtept>
    <rtept lat="52.264495" lon="4.546142"><ele>0.0</ele></rtept>
    <rtept lat="52.264696" lon="4.546289"><ele>0.0</ele></rtept>
    <rtept lat="52.265307" lon="4.546948"><ele>0.0</ele></rtept>
    <rtept lat="52.265439" lon="4.547139"><ele>0.0</ele></rtept>
    <rtept lat="52.265530" lon="4.547265"><ele>0.0</ele></rtept>
    <rtept lat="52.265574" lon="4.547325"><ele>0.0</ele></rtept>
    <rtept lat="52.265607" lon="4.547371"><ele>0.0</ele></rtept>
    <rtept lat="52.265645" lon="4.547288"><ele>0.0</ele></rtept>
    <rtept lat="52.265744" lon="4.547186"><ele>0.0</ele></rtept>
    <rtept lat="52.265801" lon="4.547091"><ele>0.0</ele></rtept>
    <rtept lat="52.266004" lon="4.546675"><ele>0.0</ele></rtept>
    <rtept lat="52.266902" lon="4.544961"><ele>0.0</ele></rtept>
    <rtept lat="52.267690" lon="4.543501"><ele>0.0</ele></rtept>
    <rtept lat="52.267752" lon="4.543381"><ele>0.0</ele></rtept>
    <rtept lat="52.267909" lon="4.543164"><ele>0.0</ele></rtept>
    <rtept lat="52.268057" lon="4.542999"><ele>0.0</ele></rtept>
    <rtept lat="52.268272" lon="4.542822"><ele>0.0</ele></rtept>
    <rtept lat="52.268725" lon="4.542489"><ele>0.0</ele></rtept>
    <rtept lat="52.269064" lon="4.542351"><ele>0.0</ele></rtept>
    <rtept lat="52.269181" lon="4.542278"><ele>0.0</ele></rtept>
    <rtept lat="52.269319" lon="4.542492"><ele>0.0</ele></rtept>
    <rtept lat="52.269455" lon="4.542652"><ele>0.0</ele></rtept>
    <rtept lat="52.269593" lon="4.542868"><ele>0.0</ele></rtept>
    <rtept lat="52.269686" lon="4.543035"><ele>0.0</ele></rtept>
    <rtept lat="52.269791" lon="4.543148"><ele>0.0</ele></rtept>
    <rtept lat="52.269991" lon="4.543254"><ele>0.0</ele></rtept>
    <rtept lat="52.270098" lon="4.543264"><ele>0.0</ele></rtept>
    <rtept lat="52.270240" lon="4.543227"><ele>0.0</ele></rtept>
    <rtept lat="52.270604" lon="4.543063"><ele>0.0</ele></rtept>
    <rtept lat="52.270702" lon="4.543064"><ele>0.0</ele></rtept>
    <rtept lat="52.270795" lon="4.543108"><ele>0.0</ele></rtept>
    <rtept lat="52.271786" lon="4.544039"><ele>0.0</ele></rtept>
    <rtept lat="52.271990" lon="4.544235"><ele>0.0</ele></rtept>
    <rtept lat="52.272213" lon="4.544451"><ele>0.0</ele></rtept>
    <rtept lat="52.273000" lon="4.545204"><ele>0.0</ele></rtept>
    <rtept lat="52.273158" lon="4.545358"><ele>0.0</ele></rtept>
    <rtept lat="52.273740" lon="4.545910"><ele>0.0</ele></rtept>
    <rtept lat="52.273792" lon="4.545960"><ele>0.0</ele></rtept>
    <rtept lat="52.275784" lon="4.547917"><ele>0.0</ele></rtept>
    <rtept lat="52.275911" lon="4.548093"><ele>0.0</ele></rtept>
    <rtept lat="52.276298" lon="4.548801"><ele>0.0</ele></rtept>
    <rtept lat="52.276471" lon="4.549002"><ele>0.0</ele></rtept>
    <rtept lat="52.276703" lon="4.549192"><ele>0.0</ele></rtept>
    <rtept lat="52.277186" lon="4.549440"><ele>0.0</ele></rtept>
    <rtept lat="52.277499" lon="4.549624"><ele>0.0</ele></rtept>
    <rtept lat="52.277866" lon="4.549927"><ele>0.0</ele></rtept>
    <rtept lat="52.278183" lon="4.550216"><ele>0.0</ele></rtept>
    <rtept lat="52.278292" lon="4.550311"><ele>0.0</ele></rtept>
    <rtept lat="52.278595" lon="4.550730"><ele>0.0</ele></rtept>
    <rtept lat="52.278929" lon="4.551267"><ele>0.0</ele></rtept>
    <rtept lat="52.279130" lon="4.551564"><ele>0.0</ele></rtept>
    <rtept lat="52.279279" lon="4.551744"><ele>0.0</ele></rtept>
    <rtept lat="52.279432" lon="4.551890"><ele>0.0</ele></rtept>
    <rtept lat="52.280672" lon="4.552807"><ele>0.0</ele></rtept>
    <rtept lat="52.280735" lon="4.552854"><ele>0.0</ele></rtept>
    <rtept lat="52.282036" lon="4.553817"><ele>0.0</ele></rtept>
    <rtept lat="52.282395" lon="4.554019"><ele>0.0</ele></rtept>
    <rtept lat="52.283194" lon="4.554356"><ele>0.0</ele></rtept>
    <rtept lat="52.283314" lon="4.554437"><ele>0.0</ele></rtept>
    <rtept lat="52.283643" lon="4.554762"><ele>0.0</ele></rtept>
    <rtept lat="52.283785" lon="4.554918"><ele>0.0</ele></rtept>
    <rtept lat="52.284084" lon="4.555310"><ele>0.0</ele></rtept>
    <rtept lat="52.284175" lon="4.555459"><ele>0.0</ele></rtept>
    <rtept lat="52.284280" lon="4.555697"><ele>0.0</ele></rtept>
    <rtept lat="52.284597" lon="4.556540"><ele>0.0</ele></rtept>
    <rtept lat="52.284809" lon="4.557063"><ele>0.0</ele></rtept>
    <rtept lat="52.284919" lon="4.557258"><ele>0.0</ele></rtept>
    <rtept lat="52.285199" lon="4.557606"><ele>0.0</ele></rtept>
    <rtept lat="52.285765" lon="4.558250"><ele>0.0</ele></rtept>
    <rtept lat="52.285935" lon="4.558431"><ele>0.0</ele></rtept>
    <rtept lat="52.286082" lon="4.558687"><ele>0.0</ele></rtept>
    <rtept lat="52.286328" lon="4.559290"><ele>0.0</ele></rtept>
    <rtept lat="52.286689" lon="4.560325"><ele>0.0</ele></rtept>
    <rtept lat="52.286913" lon="4.560791"><ele>0.0</ele></rtept>
    <rtept lat="52.287027" lon="4.561013"><ele>0.0</ele></rtept>
    <rtept lat="52.287137" lon="4.561364"><ele>0.0</ele></rtept>
    <rtept lat="52.287341" lon="4.562430"><ele>0.0</ele></rtept>
    <rtept lat="52.287490" lon="4.563005"><ele>0.0</ele></rtept>
    <rtept lat="52.287988" lon="4.564437"><ele>0.0</ele></rtept>
    <rtept lat="52.288074" lon="4.564546"><ele>0.0</ele></rtept>
    <rtept lat="52.288092" lon="4.564701"><ele>0.0</ele></rtept>
    <rtept lat="52.288260" lon="4.565213"><ele>0.0</ele></rtept>
    <rtept lat="52.288333" lon="4.565555"><ele>0.0</ele></rtept>
    <rtept lat="52.288359" lon="4.565753"><ele>0.0</ele></rtept>
    <rtept lat="52.288375" lon="4.566069"><ele>0.0</ele></rtept>
    <rtept lat="52.288386" lon="4.567385"><ele>0.0</ele></rtept>
    <rtept lat="52.288406" lon="4.567606"><ele>0.0</ele></rtept>
    <rtept lat="52.288514" lon="4.568252"><ele>0.0</ele></rtept>
    <rtept lat="52.288548" lon="4.568547"><ele>0.0</ele></rtept>
    <rtept lat="52.288618" lon="4.569234"><ele>0.0</ele></rtept>
    <rtept lat="52.288639" lon="4.569638"><ele>0.0</ele></rtept>
    <rtept lat="52.288614" lon="4.570494"><ele>0.0</ele></rtept>
    <rtept lat="52.288518" lon="4.571683"><ele>0.0</ele></rtept>
    <rtept lat="52.288522" lon="4.571800"><ele>0.0</ele></rtept>
    <rtept lat="52.288546" lon="4.572361"><ele>0.0</ele></rtept>
    <rtept lat="52.288523" lon="4.572602"><ele>0.0</ele></rtept>
    <rtept lat="52.288440" lon="4.573122"><ele>0.0</ele></rtept>
    <rtept lat="52.288421" lon="4.573952"><ele>0.0</ele></rtept>
    <rtept lat="52.288439" lon="4.574103"><ele>0.0</ele></rtept>
    <rtept lat="52.288494" lon="4.574510"><ele>0.0</ele></rtept>
    <rtept lat="52.288710" lon="4.575696"><ele>0.0</ele></rtept>
    <rtept lat="52.288716" lon="4.575826"><ele>0.0</ele></rtept>
    <rtept lat="52.288638" lon="4.576253"><ele>0.0</ele></rtept>
    <rtept lat="52.288514" lon="4.576608"><ele>0.0</ele></rtept>
    <rtept lat="52.288342" lon="4.576486"><ele>0.0</ele></rtept>
    <rtept lat="52.288310" lon="4.576606"><ele>0.0</ele></rtept>
    <rtept lat="52.288273" lon="4.576760"><ele>0.0</ele></rtept>
    <rtept lat="52.288429" lon="4.576879"><ele>0.0</ele></rtept>
    <rtept lat="52.288650" lon="4.577039"><ele>0.0</ele></rtept>
    <rtept lat="52.288780" lon="4.577041"><ele>0.0</ele></rtept>
    <rtept lat="52.289051" lon="4.577203"><ele>0.0</ele></rtept>
    <rtept lat="52.289112" lon="4.577305"><ele>0.0</ele></rtept>
    <rtept lat="52.289175" lon="4.577367"><ele>0.0</ele></rtept>
    <rtept lat="52.289245" lon="4.577381"><ele>0.0</ele></rtept>
    <rtept lat="52.289309" lon="4.577342"><ele>0.0</ele></rtept>
    <rtept lat="52.289334" lon="4.577403"><ele>0.0</ele></rtept>
    <rtept lat="52.289386" lon="4.577529"><ele>0.0</ele></rtept>
    <rtept lat="52.289443" lon="4.577619"><ele>0.0</ele></rtept>
    <rtept lat="52.289477" lon="4.577649"><ele>0.0</ele></rtept>
    <rtept lat="52.289586" lon="4.577742"><ele>0.0</ele></rtept>
    <rtept lat="52.289645" lon="4.577817"><ele>0.0</ele></rtept>
    <rtept lat="52.290334" lon="4.578396"><ele>0.0</ele></rtept>
    <rtept lat="52.290557" lon="4.578543"><ele>0.0</ele></rtept>
    <rtept lat="52.290595" lon="4.578554"><ele>0.0</ele></rtept>
    <rtept lat="52.290675" lon="4.578587"><ele>0.0</ele></rtept>
    <rtept lat="52.290821" lon="4.578616"><ele>0.0</ele></rtept>
    <rtept lat="52.291028" lon="4.578657"><ele>0.0</ele></rtept>
    <rtept lat="52.291418" lon="4.578673"><ele>0.0</ele></rtept>
    <rtept lat="52.291483" lon="4.578920"><ele>0.0</ele></rtept>
    <rtept lat="52.291561" lon="4.579492"><ele>0.0</ele></rtept>
    <rtept lat="52.291536" lon="4.579664"><ele>0.0</ele></rtept>
    <rtept lat="52.291467" lon="4.579843"><ele>0.0</ele></rtept>
    <rtept lat="52.291186" lon="4.580692"><ele>0.0</ele></rtept>
    <rtept lat="52.290796" lon="4.581810"><ele>0.0</ele></rtept>
    <rtept lat="52.290770" lon="4.581962"><ele>0.0</ele></rtept>
    <rtept lat="52.291052" lon="4.582294"><ele>0.0</ele></rtept>
    <rtept lat="52.291136" lon="4.582351"><ele>0.0</ele></rtept>
    <rtept lat="52.290913" lon="4.582992"><ele>0.0</ele></rtept>
    <rtept lat="52.290839" lon="4.583184"><ele>0.0</ele></rtept>
    <rtept lat="52.290837" lon="4.583366"><ele>0.0</ele></rtept>
    <rtept lat="52.290857" lon="4.583419"><ele>0.0</ele></rtept>
    <rtept lat="52.290907" lon="4.583472"><ele>0.0</ele></rtept>
    <rtept lat="52.290994" lon="4.583526"><ele>0.0</ele></rtept>
    <rtept lat="52.291078" lon="4.583584"><ele>0.0</ele></rtept>
    <rtept lat="52.291176" lon="4.583651"><ele>0.0</ele></rtept>
    <rtept lat="52.291645" lon="4.584102"><ele>0.0</ele></rtept>
    <rtept lat="52.291763" lon="4.584224"><ele>0.0</ele></rtept>
    <rtept lat="52.291926" lon="4.584374"><ele>0.0</ele></rtept>
    <rtept lat="52.291897" lon="4.584496"><ele>0.0</ele></rtept>
    <rtept lat="52.291320" lon="4.586156"><ele>0.0</ele></rtept>
    <rtept lat="52.290917" lon="4.587350"><ele>0.0</ele></rtept>
    <rtept lat="52.290762" lon="4.587795"><ele>0.0</ele></rtept>
    <rtept lat="52.290428" lon="4.588732"><ele>0.0</ele></rtept>
    <rtept lat="52.290375" lon="4.588893"><ele>0.0</ele></rtept>
    <rtept lat="52.290315" lon="4.588949"><ele>0.0</ele></rtept>
    <rtept lat="52.290268" lon="4.589051"><ele>0.0</ele></rtept>
    <rtept lat="52.290226" lon="4.589152"><ele>0.0</ele></rtept>
    <rtept lat="52.290197" lon="4.589154"><ele>0.0</ele></rtept>
    <rtept lat="52.290127" lon="4.589200"><ele>0.0</ele></rtept>
    <rtept lat="52.290093" lon="4.589260"><ele>0.0</ele></rtept>
    <rtept lat="52.290068" lon="4.589406"><ele>0.0</ele></rtept>
    <rtept lat="52.290088" lon="4.589516"><ele>0.0</ele></rtept>
    <rtept lat="52.290068" lon="4.589651"><ele>0.0</ele></rtept>
    <rtept lat="52.290016" lon="4.589965"><ele>0.0</ele></rtept>
    <rtept lat="52.289886" lon="4.590307"><ele>0.0</ele></rtept>
    <rtept lat="52.289183" lon="4.592348"><ele>0.0</ele></rtept>
    <rtept lat="52.289114" lon="4.592549"><ele>0.0</ele></rtept>
    <rtept lat="52.288738" lon="4.593643"><ele>0.0</ele></rtept>
    <rtept lat="52.288698" lon="4.593750"><ele>0.0</ele></rtept>
    <rtept lat="52.288530" lon="4.594221"><ele>0.0</ele></rtept>
    <rtept lat="52.288519" lon="4.594302"><ele>0.0</ele></rtept>
    <rtept lat="52.288542" lon="4.594370"><ele>0.0</ele></rtept>
    <rtept lat="52.288569" lon="4.594391"><ele>0.0</ele></rtept>
    <rtept lat="52.288851" lon="4.594600"><ele>0.0</ele></rtept>
    <rtept lat="52.289410" lon="4.595103"><ele>0.0</ele></rtept>
    <rtept lat="52.291023" lon="4.596528"><ele>0.0</ele></rtept>
    <rtept lat="52.291343" lon="4.596710"><ele>0.0</ele></rtept>
    <rtept lat="52.291850" lon="4.596858"><ele>0.0</ele></rtept>
    <rtept lat="52.293725" lon="4.596917"><ele>0.0</ele></rtept>
    <rtept lat="52.294026" lon="4.596994"><ele>0.0</ele></rtept>
    <rtept lat="52.295386" lon="4.597477"><ele>0.0</ele></rtept>
    <rtept lat="52.295877" lon="4.597665"><ele>0.0</ele></rtept>
    <rtept lat="52.296114" lon="4.597807"><ele>0.0</ele></rtept>
    <rtept lat="52.297229" lon="4.598571"><ele>0.0</ele></rtept>
    <rtept lat="52.297707" lon="4.598944"><ele>0.0</ele></rtept>
    <rtept lat="52.300872" lon="4.601260"><ele>0.0</ele></rtept>
    <rtept lat="52.301865" lon="4.601988"><ele>0.0</ele></rtept>
    <rtept lat="52.303089" lon="4.602903"><ele>0.0</ele></rtept>
    <rtept lat="52.305356" lon="4.604584"><ele>0.0</ele></rtept>
    <rtept lat="52.305613" lon="4.604809"><ele>0.0</ele></rtept>
    <rtept lat="52.305830" lon="4.605000"><ele>0.0</ele></rtept>
    <rtept lat="52.306224" lon="4.605476"><ele>0.0</ele></rtept>
    <rtept lat="52.308254" lon="4.607942"><ele>0.0</ele></rtept>
    <rtept lat="52.308874" lon="4.608665"><ele>0.0</ele></rtept>
    <rtept lat="52.310101" lon="4.610181"><ele>0.0</ele></rtept>
    <rtept lat="52.310442" lon="4.610592"><ele>0.0</ele></rtept>
    <rtept lat="52.311054" lon="4.611326"><ele>0.0</ele></rtept>
    <rtept lat="52.311370" lon="4.611650"><ele>0.0</ele></rtept>
    <rtept lat="52.311750" lon="4.611940"><ele>0.0</ele></rtept>
    <rtept lat="52.312170" lon="4.612180"><ele>0.0</ele></rtept>
    <rtept lat="52.312352" lon="4.612246"><ele>0.0</ele></rtept>
    <rtept lat="52.312522" lon="4.612308"><ele>0.0</ele></rtept>
    <rtept lat="52.312632" lon="4.612330"><ele>0.0</ele></rtept>
    <rtept lat="52.312827" lon="4.612342"><ele>0.0</ele></rtept>
    <rtept lat="52.315203" lon="4.612286"><ele>0.0</ele></rtept>
    <rtept lat="52.317584" lon="4.612196"><ele>0.0</ele></rtept>
    <rtept lat="52.317844" lon="4.612205"><ele>0.0</ele></rtept>
    <rtept lat="52.317902" lon="4.612266"><ele>0.0</ele></rtept>
    <rtept lat="52.317970" lon="4.612276"><ele>0.0</ele></rtept>
    <rtept lat="52.318054" lon="4.612270"><ele>0.0</ele></rtept>
    <rtept lat="52.318123" lon="4.612247"><ele>0.0</ele></rtept>
    <rtept lat="52.318161" lon="4.612193"><ele>0.0</ele></rtept>
    <rtept lat="52.319166" lon="4.612132"><ele>0.0</ele></rtept>
    <rtept lat="52.322032" lon="4.612057"><ele>0.0</ele></rtept>
    <rtept lat="52.324000" lon="4.611990"><ele>0.0</ele></rtept>
    <rtept lat="52.324306" lon="4.612018"><ele>0.0</ele></rtept>
    <rtept lat="52.325024" lon="4.612179"><ele>0.0</ele></rtept>
    <rtept lat="52.325463" lon="4.612340"><ele>0.0</ele></rtept>
    <rtept lat="52.325927" lon="4.612545"><ele>0.0</ele></rtept>
    <rtept lat="52.326296" lon="4.612751"><ele>0.0</ele></rtept>
    <rtept lat="52.326440" lon="4.612832"><ele>0.0</ele></rtept>
    <rtept lat="52.326947" lon="4.613202"><ele>0.0</ele></rtept>
    <rtept lat="52.328372" lon="4.614470"><ele>0.0</ele></rtept>
    <rtept lat="52.330388" lon="4.616286"><ele>0.0</ele></rtept>
    <rtept lat="52.331180" lon="4.617010"><ele>0.0</ele></rtept>
    <rtept lat="52.331620" lon="4.617450"><ele>0.0</ele></rtept>
    <rtept lat="52.332002" lon="4.617907"><ele>0.0</ele></rtept>
    <rtept lat="52.332271" lon="4.618285"><ele>0.0</ele></rtept>
    <rtept lat="52.332729" lon="4.619023"><ele>0.0</ele></rtept>
    <rtept lat="52.332920" lon="4.619389"><ele>0.0</ele></rtept>
    <rtept lat="52.333249" lon="4.620091"><ele>0.0</ele></rtept>
    <rtept lat="52.333432" lon="4.620573"><ele>0.0</ele></rtept>
    <rtept lat="52.334268" lon="4.622801"><ele>0.0</ele></rtept>
    <rtept lat="52.336159" lon="4.627910"><ele>0.0</ele></rtept>
    <rtept lat="52.336358" lon="4.628444"><ele>0.0</ele></rtept>
    <rtept lat="52.336714" lon="4.629411"><ele>0.0</ele></rtept>
    <rtept lat="52.336871" lon="4.629851"><ele>0.0</ele></rtept>
    <rtept lat="52.337129" lon="4.630641"><ele>0.0</ele></rtept>
    <rtept lat="52.337145" lon="4.630795"><ele>0.0</ele></rtept>
    <rtept lat="52.337124" lon="4.631021"><ele>0.0</ele></rtept>
    <rtept lat="52.337250" lon="4.631100"><ele>0.0</ele></rtept>
    <rtept lat="52.337311" lon="4.631257"><ele>0.0</ele></rtept>
    <rtept lat="52.337353" lon="4.631453"><ele>0.0</ele></rtept>
    <rtept lat="52.337502" lon="4.632243"><ele>0.0</ele></rtept>
    <rtept lat="52.337578" lon="4.632876"><ele>0.0</ele></rtept>
    <rtept lat="52.337669" lon="4.633654"><ele>0.0</ele></rtept>
    <rtept lat="52.337970" lon="4.635910"><ele>0.0</ele></rtept>
    <rtept lat="52.337969" lon="4.636028"><ele>0.0</ele></rtept>
    <rtept lat="52.338054" lon="4.636067"><ele>0.0</ele></rtept>
    <rtept lat="52.338096" lon="4.636096"><ele>0.0</ele></rtept>
    <rtept lat="52.338137" lon="4.636161"><ele>0.0</ele></rtept>
    <rtept lat="52.338239" lon="4.636907"><ele>0.0</ele></rtept>
    <rtept lat="52.338334" lon="4.637602"><ele>0.0</ele></rtept>
    <rtept lat="52.338311" lon="4.637685"><ele>0.0</ele></rtept>
    <rtept lat="52.338283" lon="4.637723"><ele>0.0</ele></rtept>
    <rtept lat="52.338244" lon="4.637770"><ele>0.0</ele></rtept>
    <rtept lat="52.338384" lon="4.638759"><ele>0.0</ele></rtept>
    <rtept lat="52.338423" lon="4.639047"><ele>0.0</ele></rtept>
    <rtept lat="52.338428" lon="4.639077"><ele>0.0</ele></rtept>
    <rtept lat="52.338456" lon="4.639302"><ele>0.0</ele></rtept>
    <rtept lat="52.338595" lon="4.640349"><ele>0.0</ele></rtept>
    <rtept lat="52.338905" lon="4.642546"><ele>0.0</ele></rtept>
    <rtept lat="52.339171" lon="4.644426"><ele>0.0</ele></rtept>
    <rtept lat="52.339457" lon="4.646521"><ele>0.0</ele></rtept>
    <rtept lat="52.339474" lon="4.646640"><ele>0.0</ele></rtept>
    <rtept lat="52.339580" lon="4.647310"><ele>0.0</ele></rtept>
    <rtept lat="52.339680" lon="4.647815"><ele>0.0</ele></rtept>
    <rtept lat="52.339721" lon="4.647795"><ele>0.0</ele></rtept>
    <rtept lat="52.339712" lon="4.647744"><ele>0.0</ele></rtept>
    <rtept lat="52.339726" lon="4.647736"><ele>0.0</ele></rtept>
    <rtept lat="52.340053" lon="4.647559"><ele>0.0</ele></rtept>
    <rtept lat="52.340080" lon="4.647544"><ele>0.0</ele></rtept>
    <rtept lat="52.340255" lon="4.648278"><ele>0.0</ele></rtept>
    <rtept lat="52.340435" lon="4.648894"><ele>0.0</ele></rtept>
    <rtept lat="52.340674" lon="4.649522"><ele>0.0</ele></rtept>
    <rtept lat="52.341459" lon="4.651327"><ele>0.0</ele></rtept>
    <rtept lat="52.341595" lon="4.651586"><ele>0.0</ele></rtept>
    <rtept lat="52.341685" lon="4.651698"><ele>0.0</ele></rtept>
    <rtept lat="52.341754" lon="4.651698"><ele>0.0</ele></rtept>
    <rtept lat="52.341957" lon="4.651794"><ele>0.0</ele></rtept>
    <rtept lat="52.342013" lon="4.651801"><ele>0.0</ele></rtept>
    <rtept lat="52.342064" lon="4.651800"><ele>0.0</ele></rtept>
    <rtept lat="52.342335" lon="4.651730"><ele>0.0</ele></rtept>
    <rtept lat="52.342369" lon="4.651696"><ele>0.0</ele></rtept>
    <rtept lat="52.342425" lon="4.650730"><ele>0.0</ele></rtept>
    <rtept lat="52.342485" lon="4.650390"><ele>0.0</ele></rtept>
    <rtept lat="52.342556" lon="4.650180"><ele>0.0</ele></rtept>
    <rtept lat="52.342666" lon="4.649972"><ele>0.0</ele></rtept>
    <rtept lat="52.343001" lon="4.649581"><ele>0.0</ele></rtept>
    <rtept lat="52.343159" lon="4.649484"><ele>0.0</ele></rtept>
    <rtept lat="52.343416" lon="4.649421"><ele>0.0</ele></rtept>
    <rtept lat="52.343613" lon="4.649427"><ele>0.0</ele></rtept>
    <rtept lat="52.343773" lon="4.649476"><ele>0.0</ele></rtept>
    <rtept lat="52.343950" lon="4.649604"><ele>0.0</ele></rtept>
    <rtept lat="52.344176" lon="4.649928"><ele>0.0</ele></rtept>
    <rtept lat="52.344881" lon="4.651016"><ele>0.0</ele></rtept>
    <rtept lat="52.344940" lon="4.651020"><ele>0.0</ele></rtept>
    <rtept lat="52.345066" lon="4.650982"><ele>0.0</ele></rtept>
    <rtept lat="52.345236" lon="4.650922"><ele>0.0</ele></rtept>
    <rtept lat="52.345388" lon="4.651110"><ele>0.0</ele></rtept>
    <rtept lat="52.345436" lon="4.652011"><ele>0.0</ele></rtept>
    <rtept lat="52.345513" lon="4.652414"><ele>0.0</ele></rtept>
    <rtept lat="52.345667" lon="4.652911"><ele>0.0</ele></rtept>
    <rtept lat="52.346012" lon="4.653697"><ele>0.0</ele></rtept>
    <rtept lat="52.346234" lon="4.654221"><ele>0.0</ele></rtept>
    <rtept lat="52.346377" lon="4.654461"><ele>0.0</ele></rtept>
    <rtept lat="52.346476" lon="4.654604"><ele>0.0</ele></rtept>
    <rtept lat="52.346709" lon="4.654815"><ele>0.0</ele></rtept>
    <rtept lat="52.346819" lon="4.654898"><ele>0.0</ele></rtept>
    <rtept lat="52.347350" lon="4.655372"><ele>0.0</ele></rtept>
    <rtept lat="52.347802" lon="4.656989"><ele>0.0</ele></rtept>
    <rtept lat="52.347871" lon="4.657263"><ele>0.0</ele></rtept>
    <rtept lat="52.348028" lon="4.657212"><ele>0.0</ele></rtept>
    <rtept lat="52.348146" lon="4.657134"><ele>0.0</ele></rtept>
    <rtept lat="52.348360" lon="4.656988"><ele>0.0</ele></rtept>
    <rtept lat="52.348946" lon="4.656599"><ele>0.0</ele></rtept>
    <rtept lat="52.349204" lon="4.656432"><ele>0.0</ele></rtept>
    <rtept lat="52.349542" lon="4.656005"><ele>0.0</ele></rtept>
    <rtept lat="52.349598" lon="4.655934"><ele>0.0</ele></rtept>
    <rtept lat="52.349690" lon="4.655819"><ele>0.0</ele></rtept>
    <rtept lat="52.349725" lon="4.655773"><ele>0.0</ele></rtept>
    <rtept lat="52.349755" lon="4.655811"><ele>0.0</ele></rtept>
    <rtept lat="52.349959" lon="4.655751"><ele>0.0</ele></rtept>
    <rtept lat="52.350596" lon="4.655503"><ele>0.0</ele></rtept>
    <rtept lat="52.350713" lon="4.655459"><ele>0.0</ele></rtept>
    <rtept lat="52.350811" lon="4.655391"><ele>0.0</ele></rtept>
    <rtept lat="52.350866" lon="4.655353"><ele>0.0</ele></rtept>
    <rtept lat="52.350980" lon="4.655276"><ele>0.0</ele></rtept>
    <rtept lat="52.351047" lon="4.655272"><ele>0.0</ele></rtept>
    <rtept lat="52.351114" lon="4.655229"><ele>0.0</ele></rtept>
    <rtept lat="52.351185" lon="4.655180"><ele>0.0</ele></rtept>
    <rtept lat="52.351231" lon="4.655094"><ele>0.0</ele></rtept>
    <rtept lat="52.351301" lon="4.655048"><ele>0.0</ele></rtept>
    <rtept lat="52.351612" lon="4.654882"><ele>0.0</ele></rtept>
    <rtept lat="52.351732" lon="4.654852"><ele>0.0</ele></rtept>
    <rtept lat="52.351833" lon="4.654827"><ele>0.0</ele></rtept>
    <rtept lat="52.352156" lon="4.654831"><ele>0.0</ele></rtept>
    <rtept lat="52.352801" lon="4.654823"><ele>0.0</ele></rtept>
    <rtept lat="52.352927" lon="4.654821"><ele>0.0</ele></rtept>
    <rtept lat="52.353138" lon="4.654814"><ele>0.0</ele></rtept>
    <rtept lat="52.353194" lon="4.654813"><ele>0.0</ele></rtept>
    <rtept lat="52.353264" lon="4.654814"><ele>0.0</ele></rtept>
    <rtept lat="52.353325" lon="4.654862"><ele>0.0</ele></rtept>
    <rtept lat="52.353576" lon="4.654870"><ele>0.0</ele></rtept>
    <rtept lat="52.353647" lon="4.654847"><ele>0.0</ele></rtept>
    <rtept lat="52.354127" lon="4.654831"><ele>0.0</ele></rtept>
    <rtept lat="52.354181" lon="4.654880"><ele>0.0</ele></rtept>
    <rtept lat="52.354234" lon="4.654883"><ele>0.0</ele></rtept>
    <rtept lat="52.354286" lon="4.654875"><ele>0.0</ele></rtept>
    <rtept lat="52.354343" lon="4.654865"><ele>0.0</ele></rtept>
    <rtept lat="52.354383" lon="4.654791"><ele>0.0</ele></rtept>
    <rtept lat="52.354582" lon="4.654610"><ele>0.0</ele></rtept>
    <rtept lat="52.354857" lon="4.654336"><ele>0.0</ele></rtept>
    <rtept lat="52.355102" lon="4.654089"><ele>0.0</ele></rtept>
    <rtept lat="52.355348" lon="4.653602"><ele>0.0</ele></rtept>
    <rtept lat="52.355447" lon="4.653387"><ele>0.0</ele></rtept>
    <rtept lat="52.355506" lon="4.653269"><ele>0.0</ele></rtept>
    <rtept lat="52.355523" lon="4.653267"><ele>0.0</ele></rtept>
    <rtept lat="52.355619" lon="4.653326"><ele>0.0</ele></rtept>
    <rtept lat="52.355910" lon="4.653484"><ele>0.0</ele></rtept>
    <rtept lat="52.356053" lon="4.653510"><ele>0.0</ele></rtept>
    <rtept lat="52.356272" lon="4.653494"><ele>0.0</ele></rtept>
    <rtept lat="52.356404" lon="4.653460"><ele>0.0</ele></rtept>
    <rtept lat="52.356452" lon="4.653449"><ele>0.0</ele></rtept>
    <rtept lat="52.356813" lon="4.653357"><ele>0.0</ele></rtept>
    <rtept lat="52.356883" lon="4.653437"><ele>0.0</ele></rtept>
    <rtept lat="52.356955" lon="4.653484"><ele>0.0</ele></rtept>
    <rtept lat="52.357045" lon="4.653480"><ele>0.0</ele></rtept>
    <rtept lat="52.357132" lon="4.653378"><ele>0.0</ele></rtept>
    <rtept lat="52.357206" lon="4.653257"><ele>0.0</ele></rtept>
    <rtept lat="52.357489" lon="4.653170"><ele>0.0</ele></rtept>
    <rtept lat="52.357534" lon="4.653126"><ele>0.0</ele></rtept>
    <rtept lat="52.358212" lon="4.652945"><ele>0.0</ele></rtept>
    <rtept lat="52.358760" lon="4.652870"><ele>0.0</ele></rtept>
    <rtept lat="52.358933" lon="4.652817"><ele>0.0</ele></rtept>
    <rtept lat="52.359366" lon="4.652714"><ele>0.0</ele></rtept>
    <rtept lat="52.360114" lon="4.652458"><ele>0.0</ele></rtept>
    <rtept lat="52.360177" lon="4.652473"><ele>0.0</ele></rtept>
    <rtept lat="52.360202" lon="4.652505"><ele>0.0</ele></rtept>
    <rtept lat="52.360233" lon="4.652646"><ele>0.0</ele></rtept>
    <rtept lat="52.360253" lon="4.653322"><ele>0.0</ele></rtept>
    <rtept lat="52.360285" lon="4.653486"><ele>0.0</ele></rtept>
    <rtept lat="52.360367" lon="4.653773"><ele>0.0</ele></rtept>
    <rtept lat="52.360403" lon="4.654166"><ele>0.0</ele></rtept>
    <rtept lat="52.360461" lon="4.654152"><ele>0.0</ele></rtept>
    <rtept lat="52.360621" lon="4.654102"><ele>0.0</ele></rtept>
    <rtept lat="52.360711" lon="4.654127"><ele>0.0</ele></rtept>
    <rtept lat="52.360742" lon="4.654147"><ele>0.0</ele></rtept>
    <rtept lat="52.360844" lon="4.654168"><ele>0.0</ele></rtept>
    <rtept lat="52.361216" lon="4.654163"><ele>0.0</ele></rtept>
    <rtept lat="52.361326" lon="4.654162"><ele>0.0</ele></rtept>
    <rtept lat="52.361412" lon="4.654126"><ele>0.0</ele></rtept>
    <rtept lat="52.361570" lon="4.654125"><ele>0.0</ele></rtept>
    <rtept lat="52.361783" lon="4.654123"><ele>0.0</ele></rtept>
    <rtept lat="52.362071" lon="4.654118"><ele>0.0</ele></rtept>
    <rtept lat="52.362123" lon="4.654117"><ele>0.0</ele></rtept>
    <rtept lat="52.362590" lon="4.654102"><ele>0.0</ele></rtept>
    <rtept lat="52.362878" lon="4.654092"><ele>0.0</ele></rtept>
    <rtept lat="52.363395" lon="4.654083"><ele>0.0</ele></rtept>
    <rtept lat="52.364269" lon="4.654060"><ele>0.0</ele></rtept>
    <rtept lat="52.364322" lon="4.654021"><ele>0.0</ele></rtept>
    <rtept lat="52.364433" lon="4.653981"><ele>0.0</ele></rtept>
    <rtept lat="52.364513" lon="4.653978"><ele>0.0</ele></rtept>
    <rtept lat="52.364581" lon="4.653989"><ele>0.0</ele></rtept>
    <rtept lat="52.364782" lon="4.654057"><ele>0.0</ele></rtept>
    <rtept lat="52.365750" lon="4.654064"><ele>0.0</ele></rtept>
    <rtept lat="52.365789" lon="4.654064"><ele>0.0</ele></rtept>
    <rtept lat="52.366357" lon="4.654069"><ele>0.0</ele></rtept>
    <rtept lat="52.366848" lon="4.654073"><ele>0.0</ele></rtept>
    <rtept lat="52.367097" lon="4.654035"><ele>0.0</ele></rtept>
    <rtept lat="52.367538" lon="4.654010"><ele>0.0</ele></rtept>
    <rtept lat="52.367578" lon="4.653977"><ele>0.0</ele></rtept>
    <rtept lat="52.367619" lon="4.653893"><ele>0.0</ele></rtept>
    <rtept lat="52.367730" lon="4.653866"><ele>0.0</ele></rtept>
    <rtept lat="52.367835" lon="4.653868"><ele>0.0</ele></rtept>
    <rtept lat="52.367914" lon="4.653873"><ele>0.0</ele></rtept>
    <rtept lat="52.367956" lon="4.653903"><ele>0.0</ele></rtept>
    <rtept lat="52.368048" lon="4.653989"><ele>0.0</ele></rtept>
    <rtept lat="52.368746" lon="4.654020"><ele>0.0</ele></rtept>
    <rtept lat="52.368986" lon="4.654073"><ele>0.0</ele></rtept>
    <rtept lat="52.369718" lon="4.654141"><ele>0.0</ele></rtept>
    <rtept lat="52.369915" lon="4.654083"><ele>0.0</ele></rtept>
    <rtept lat="52.370021" lon="4.654058"><ele>0.0</ele></rtept>
    <rtept lat="52.370091" lon="4.654053"><ele>0.0</ele></rtept>
    <rtept lat="52.370213" lon="4.654051"><ele>0.0</ele></rtept>
    <rtept lat="52.370315" lon="4.654049"><ele>0.0</ele></rtept>
    <rtept lat="52.370383" lon="4.654046"><ele>0.0</ele></rtept>
    <rtept lat="52.370538" lon="4.654082"><ele>0.0</ele></rtept>
    <rtept lat="52.370725" lon="4.654174"><ele>0.0</ele></rtept>
    <rtept lat="52.370859" lon="4.654271"><ele>0.0</ele></rtept>
    <rtept lat="52.371236" lon="4.654599"><ele>0.0</ele></rtept>
    <rtept lat="52.371585" lon="4.654921"><ele>0.0</ele></rtept>
    <rtept lat="52.371732" lon="4.655058"><ele>0.0</ele></rtept>
    <rtept lat="52.371869" lon="4.655171"><ele>0.0</ele></rtept>
    <rtept lat="52.372940" lon="4.656054"><ele>0.0</ele></rtept>
    <rtept lat="52.374345" lon="4.657221"><ele>0.0</ele></rtept>
    <rtept lat="52.374305" lon="4.657341"><ele>0.0</ele></rtept>
    <rtept lat="52.374260" lon="4.657484"><ele>0.0</ele></rtept>
    <rtept lat="52.374222" lon="4.657609"><ele>0.0</ele></rtept>
    <rtept lat="52.374391" lon="4.657790"><ele>0.0</ele></rtept>
    <rtept lat="52.374640" lon="4.658034"><ele>0.0</ele></rtept>
    <rtept lat="52.374774" lon="4.658199"><ele>0.0</ele></rtept>
    <rtept lat="52.374903" lon="4.658355"><ele>0.0</ele></rtept>
    <rtept lat="52.375071" lon="4.658558"><ele>0.0</ele></rtept>
    <rtept lat="52.375174" lon="4.658688"><ele>0.0</ele></rtept>
    <rtept lat="52.375264" lon="4.658783"><ele>0.0</ele></rtept>
    <rtept lat="52.375299" lon="4.658822"><ele>0.0</ele></rtept>
    <rtept lat="52.375387" lon="4.658920"><ele>0.0</ele></rtept>
    <rtept lat="52.375939" lon="4.659321"><ele>0.0</ele></rtept>
    <rtept lat="52.376248" lon="4.659469"><ele>0.0</ele></rtept>
    <rtept lat="52.376416" lon="4.659550"><ele>0.0</ele></rtept>
    <rtept lat="52.376591" lon="4.659639"><ele>0.0</ele></rtept>
    <rtept lat="52.378107" lon="4.660341"><ele>0.0</ele></rtept>
    <rtept lat="52.378754" lon="4.660632"><ele>0.0</ele></rtept>
    <rtept lat="52.378835" lon="4.660666"><ele>0.0</ele></rtept>
    <rtept lat="52.378880" lon="4.660685"><ele>0.0</ele></rtept>
    <rtept lat="52.378915" lon="4.660505"><ele>0.0</ele></rtept>
    <rtept lat="52.378941" lon="4.660375"><ele>0.0</ele></rtept>
    <rtept lat="52.378971" lon="4.660226"><ele>0.0</ele></rtept>
    <rtept lat="52.378980" lon="4.659944"><ele>0.0</ele></rtept>
    <rtept lat="52.378994" lon="4.659805"><ele>0.0</ele></rtept>
    <rtept lat="52.379026" lon="4.659422"><ele>0.0</ele></rtept>
    <rtept lat="52.379447" lon="4.659520"><ele>0.0</ele></rtept>
    <rtept lat="52.379574" lon="4.657888"><ele>0.0</ele></rtept>
    <rtept lat="52.379804" lon="4.657899"><ele>0.0</ele></rtept>
    <rtept lat="52.380041" lon="4.657887"><ele>0.0</ele></rtept>
    <rtept lat="52.380029" lon="4.657510"><ele>0.0</ele></rtept>
  </rte>
</gpx>