<?xml version="1.0" encoding="UTF-8"?>
<gpx version="1.1" creator="WeeklyCyclingRoutes"
  xmlns="http://www.topografix.com/GPX/1/1"
  xmlns:xsi="http://www.w3.org/2001/XMLSchema-instance"
  xsi:schemaLocation="http://www.topografix.com/GPX/1/1 http://www.topografix.com/GPX/1/1/gpx.xsd">
  <metadata>
    <name>20km Route – August 24, 2026</name>
    <desc>Round trip from Cremerstraat, Haarlem. Actual: 18.3km</desc>
    <time>2026-08-24T06:43:00Z</time>
  </metadata>
  <rte>
    <name>20km Cycling Route – Haarlem</name>
    <rtept lat="52.380029" lon="4.657510"><ele>0.0</ele></rtept>
    <rtept lat="52.380041" lon="4.657887"><ele>0.0</ele></rtept>
    <rtept lat="52.380803" lon="4.657858"><ele>0.0</ele></rtept>
    <rtept lat="52.380868" lon="4.658723"><ele>0.0</ele></rtept>
    <rtept lat="52.380937" lon="4.659581"><ele>0.0</ele></rtept>
    <rtept lat="52.380949" lon="4.659839"><ele>0.0</ele></rtept>
    <rtept lat="52.381009" lon="4.660558"><ele>0.0</ele></rtept>
    <rtept lat="52.381028" lon="4.660835"><ele>0.0</ele></rtept>
    <rtept lat="52.381037" lon="4.661040"><ele>0.0</ele></rtept>
    <rtept lat="52.381073" lon="4.661219"><ele>0.0</ele></rtept>
    <rtept lat="52.381131" lon="4.661312"><ele>0.0</ele></rtept>
    <rtept lat="52.381231" lon="4.661355"><ele>0.0</ele></rtept>
    <rtept lat="52.381374" lon="4.661421"><ele>0.0</ele></rtept>
    <rtept lat="52.381476" lon="4.661472"><ele>0.0</ele></rtept>
    <rtept lat="52.381559" lon="4.661512"><ele>0.0</ele></rtept>
    <rtept lat="52.381630" lon="4.661848"><ele>0.0</ele></rtept>
    <rtept lat="52.381994" lon="4.666423"><ele>0.0</ele></rtept>
    <rtept lat="52.382083" lon="4.668033"><ele>0.0</ele></rtept>
    <rtept lat="52.382126" lon="4.668888"><ele>0.0</ele></rtept>
    <rtept lat="52.382081" lon="4.669001"><ele>0.0</ele></rtept>
    <rtept lat="52.381821" lon="4.669146"><ele>0.0</ele></rtept>
    <rtept lat="52.381681" lon="4.669329"><ele>0.0</ele></rtept>
    <rtept lat="52.381642" lon="4.669425"><ele>0.0</ele></rtept>
    <rtept lat="52.381600" lon="4.669560"><ele>0.0</ele></rtept>
    <rtept lat="52.381583" lon="4.669749"><ele>0.0</ele></rtept>
    <rtept lat="52.381603" lon="4.670462"><ele>0.0</ele></rtept>
    <rtept lat="52.381614" lon="4.670649"><ele>0.0</ele></rtept>
    <rtept lat="52.381628" lon="4.670879"><ele>0.0</ele></rtept>
    <rtept lat="52.381708" lon="4.670881"><ele>0.0</ele></rtept>
    <rtept lat="52.381803" lon="4.670848"><ele>0.0</ele></rtept>
    <rtept lat="52.381859" lon="4.670863"><ele>0.0</ele></rtept>
    <rtept lat="52.381862" lon="4.670918"><ele>0.0</ele></rtept>
    <rtept lat="52.381914" lon="4.671966"><ele>0.0</ele></rtept>
    <rtept lat="52.381969" lon="4.672783"><ele>0.0</ele></rtept>
    <rtept lat="52.381985" lon="4.672930"><ele>0.0</ele></rtept>
    <rtept lat="52.382043" lon="4.673157"><ele>0.0</ele></rtept>
    <rtept lat="52.382163" lon="4.673337"><ele>0.0</ele></rtept>
    <rtept lat="52.382280" lon="4.673401"><ele>0.0</ele></rtept>
    <rtept lat="52.382496" lon="4.673472"><ele>0.0</ele></rtept>
    <rtept lat="52.382577" lon="4.673476"><ele>0.0</ele></rtept>
    <rtept lat="52.382822" lon="4.673441"><ele>0.0</ele></rtept>
    <rtept lat="52.383290" lon="4.673323"><ele>0.0</ele></rtept>
    <rtept lat="52.383680" lon="4.673215"><ele>0.0</ele></rtept>
    <rtept lat="52.384451" lon="4.672836"><ele>0.0</ele></rtept>
    <rtept lat="52.385167" lon="4.672384"><ele>0.0</ele></rtept>
    <rtept lat="52.385449" lon="4.672156"><ele>0.0</ele></rtept>
    <rtept lat="52.385622" lon="4.671942"><ele>0.0</ele></rtept>
    <rtept lat="52.385670" lon="4.671909"><ele>0.0</ele></rtept>
    <rtept lat="52.385757" lon="4.671849"><ele>0.0</ele></rtept>
    <rtept lat="52.385877" lon="4.671773"><ele>0.0</ele></rtept>
    <rtept lat="52.386083" lon="4.671660"><ele>0.0</ele></rtept>
    <rtept lat="52.386950" lon="4.671068"><ele>0.0</ele></rtept>
    <rtept lat="52.387066" lon="4.670953"><ele>0.0</ele></rtept>
    <rtept lat="52.387140" lon="4.670849"><ele>0.0</ele></rtept>
    <rtept lat="52.387220" lon="4.670702"><ele>0.0</ele></rtept>
    <rtept lat="52.387281" lon="4.670480"><ele>0.0</ele></rtept>
    <rtept lat="52.387360" lon="4.670528"><ele>0.0</ele></rtept>
    <rtept lat="52.387464" lon="4.670573"><ele>0.0</ele></rtept>
    <rtept lat="52.387548" lon="4.670605"><ele>0.0</ele></rtept>
    <rtept lat="52.387584" lon="4.670595"><ele>0.0</ele></rtept>
    <rtept lat="52.387855" lon="4.670403"><ele>0.0</ele></rtept>
    <rtept lat="52.388018" lon="4.670162"><ele>0.0</ele></rtept>
    <rtept lat="52.388136" lon="4.670070"><ele>0.0</ele></rtept>
    <rtept lat="52.389070" lon="4.669500"><ele>0.0</ele></rtept>
    <rtept lat="52.390191" lon="4.668762"><ele>0.0</ele></rtept>
    <rtept lat="52.390632" lon="4.668486"><ele>0.0</ele></rtept>
    <rtept lat="52.390862" lon="4.668344"><ele>0.0</ele></rtept>
    <rtept lat="52.391671" lon="4.667828"><ele>0.0</ele></rtept>
    <rtept lat="52.392606" lon="4.667233"><ele>0.0</ele></rtept>
    <rtept lat="52.393683" lon="4.666547"><ele>0.0</ele></rtept>
    <rtept lat="52.394066" lon="4.666356"><ele>0.0</ele></rtept>
    <rtept lat="52.395323" lon="4.665847"><ele>0.0</ele></rtept>
    <rtept lat="52.397254" lon="4.665100"><ele>0.0</ele></rtept>
    <rtept lat="52.397747" lon="4.664870"><ele>0.0</ele></rtept>
    <rtept lat="52.398509" lon="4.664339"><ele>0.0</ele></rtept>
    <rtept lat="52.398788" lon="4.664125"><ele>0.0</ele></rtept>
    <rtept lat="52.399268" lon="4.663714"><ele>0.0</ele></rtept>
    <rtept lat="52.399316" lon="4.663607"><ele>0.0</ele></rtept>
    <rtept lat="52.399334" lon="4.663495"><ele>0.0</ele></rtept>
    <rtept lat="52.399325" lon="4.662584"><ele>0.0</ele></rtept>
    <rtept lat="52.399354" lon="4.662490"><ele>0.0</ele></rtept>
    <rtept lat="52.399382" lon="4.662230"><ele>0.0</ele></rtept>
    <rtept lat="52.399386" lon="4.661622"><ele>0.0</ele></rtept>
    <rtept lat="52.399424" lon="4.661463"><ele>0.0</ele></rtept>
    <rtept lat="52.399423" lon="4.661316"><ele>0.0</ele></rtept>
    <rtept lat="52.399422" lon="4.661146"><ele>0.0</ele></rtept>
    <rtept lat="52.399420" lon="4.661011"><ele>0.0</ele></rtept>
    <rtept lat="52.399716" lon="4.661001"><ele>0.0</ele></rtept>
    <rtept lat="52.399850" lon="4.660964"><ele>0.0</ele></rtept>
    <rtept lat="52.400049" lon="4.660845"><ele>0.0</ele></rtept>
    <rtept lat="52.400187" lon="4.660697"><ele>0.0</ele></rtept>
    <rtept lat="52.400296" lon="4.660512"><ele>0.0</ele></rtept>
    <rtept lat="52.400365" lon="4.660323"><ele>0.0</ele></rtept>
    <rtept lat="52.400558" lon="4.659434"><ele>0.0</ele></rtept>
    <rtept lat="52.400844" lon="4.658227"><ele>0.0</ele></rtept>
    <rtept lat="52.400966" lon="4.657917"><ele>0.0</ele></rtept>
    <rtept lat="52.401139" lon="4.657658"><ele>0.0</ele></rtept>
    <rtept lat="52.401338" lon="4.657483"><ele>0.0</ele></rtept>
    <rtept lat="52.401357" lon="4.657470"><ele>0.0</ele></rtept>
    <rtept lat="52.403555" lon="4.656105"><ele>0.0</ele></rtept>
    <rtept lat="52.403608" lon="4.656074"><ele>0.0</ele></rtept>
    <rtept lat="52.403863" lon="4.655918"><ele>0.0</ele></rtept>
    <rtept lat="52.403997" lon="4.655769"><ele>0.0</ele></rtept>
    <rtept lat="52.404073" lon="4.655699"><ele>0.0</ele></rtept>
    <rtept lat="52.404134" lon="4.655648"><ele>0.0</ele></rtept>
    <rtept lat="52.404354" lon="4.655498"><ele>0.0</ele></rtept>
    <rtept lat="52.404423" lon="4.655517"><ele>0.0</ele></rtept>
    <rtept lat="52.404665" lon="4.655604"><ele>0.0</ele></rtept>
    <rtept lat="52.405448" lon="4.656055"><ele>0.0</ele></rtept>
    <rtept lat="52.405481" lon="4.656080"><ele>0.0</ele></rtept>
    <rtept lat="52.405600" lon="4.656144"><ele>0.0</ele></rtept>
    <rtept lat="52.405769" lon="4.656241"><ele>0.0</ele></rtept>
    <rtept lat="52.405934" lon="4.656338"><ele>0.0</ele></rtept>
    <rtept lat="52.405954" lon="4.656236"><ele>0.0</ele></rtept>
    <rtept lat="52.406171" lon="4.655488"><ele>0.0</ele></rtept>
    <rtept lat="52.406361" lon="4.655046"><ele>0.0</ele></rtept>
    <rtept lat="52.406519" lon="4.654773"><ele>0.0</ele></rtept>
    <rtept lat="52.406673" lon="4.654571"><ele>0.0</ele></rtept>
    <rtept lat="52.406971" lon="4.654277"><ele>0.0</ele></rtept>
    <rtept lat="52.407079" lon="4.654173"><ele>0.0</ele></rtept>
    <rtept lat="52.408137" lon="4.653156"><ele>0.0</ele></rtept>
    <rtept lat="52.409203" lon="4.652127"><ele>0.0</ele></rtept>
    <rtept lat="52.409430" lon="4.651924"><ele>0.0</ele></rtept>
    <rtept lat="52.409482" lon="4.651912"><ele>0.0</ele></rtept>
    <rtept lat="52.409711" lon="4.651711"><ele>0.0</ele></rtept>
    <rtept lat="52.409777" lon="4.651633"><ele>0.0</ele></rtept>
    <rtept lat="52.409926" lon="4.651378"><ele>0.0</ele></rtept>
    <rtept lat="52.410078" lon="4.651288"><ele>0.0</ele></rtept>
    <rtept lat="52.410157" lon="4.651243"><ele>0.0</ele></rtept>
    <rtept lat="52.410165" lon="4.651243"><ele>0.0</ele></rtept>
    <rtept lat="52.410540" lon="4.651310"><ele>0.0</ele></rtept>
    <rtept lat="52.410919" lon="4.651331"><ele>0.0</ele></rtept>
    <rtept lat="52.411617" lon="4.651264"><ele>0.0</ele></rtept>
    <rtept lat="52.411690" lon="4.651247"><ele>0.0</ele></rtept>
    <rtept lat="52.412801" lon="4.650988"><ele>0.0</ele></rtept>
    <rtept lat="52.412950" lon="4.650942"><ele>0.0</ele></rtept>
    <rtept lat="52.413067" lon="4.650892"><ele>0.0</ele></rtept>
    <rtept lat="52.413116" lon="4.650870"><ele>0.0</ele></rtept>
    <rtept lat="52.413923" lon="4.650516"><ele>0.0</ele></rtept>
    <rtept lat="52.414364" lon="4.650355"><ele>0.0</ele></rtept>
    <rtept lat="52.414740" lon="4.650224"><ele>0.0</ele></rtept>
    <rtept lat="52.415538" lon="4.649896"><ele>0.0</ele></rtept>
    <rtept lat="52.416410" lon="4.649573"><ele>0.0</ele></rtept>
    <rtept lat="52.416520" lon="4.649591"><ele>0.0</ele></rtept>
    <rtept lat="52.416612" lon="4.649547"><ele>0.0</ele></rtept>
    <rtept lat="52.416663" lon="4.649522"><ele>0.0</ele></rtept>
    <rtept lat="52.416723" lon="4.649437"><ele>0.0</ele></rtept>
    <rtept lat="52.416788" lon="4.649388"><ele>0.0</ele></rtept>
    <rtept lat="52.417659" lon="4.649044"><ele>0.0</ele></rtept>
    <rtept lat="52.419209" lon="4.648435"><ele>0.0</ele></rtept>
    <rtept lat="52.419260" lon="4.648461"><ele>0.0</ele></rtept>
    <rtept lat="52.419318" lon="4.648457"><ele>0.0</ele></rtept>
    <rtept lat="52.419429" lon="4.648365"><ele>0.0</ele></rtept>
    <rtept lat="52.419464" lon="4.648320"><ele>0.0</ele></rtept>
    <rtept lat="52.419502" lon="4.648306"><ele>0.0</ele></rtept>
    <rtept lat="52.420067" lon="4.648079"><ele>0.0</ele></rtept>
    <rtept lat="52.420543" lon="4.647891"><ele>0.0</ele></rtept>
    <rtept lat="52.420638" lon="4.647841"><ele>0.0</ele></rtept>
    <rtept lat="52.421437" lon="4.647803"><ele>0.0</ele></rtept>
    <rtept lat="52.421431" lon="4.647505"><ele>0.0</ele></rtept>
    <rtept lat="52.421429" lon="4.647394"><ele>0.0</ele></rtept>
    <rtept lat="52.421816" lon="4.647376"><ele>0.0</ele></rtept>
    <rtept lat="52.421960" lon="4.647273"><ele>0.0</ele></rtept>
    <rtept lat="52.422430" lon="4.647002"><ele>0.0</ele></rtept>
    <rtept lat="52.422817" lon="4.646808"><ele>0.0</ele></rtept>
    <rtept lat="52.423291" lon="4.646619"><ele>0.0</ele></rtept>
    <rtept lat="52.423357" lon="4.646593"><ele>0.0</ele></rtept>
    <rtept lat="52.424437" lon="4.646162"><ele>0.0</ele></rtept>
    <rtept lat="52.424526" lon="4.646133"><ele>0.0</ele></rtept>
    <rtept lat="52.424602" lon="4.646186"><ele>0.0</ele></rtept>
    <rtept lat="52.424668" lon="4.646181"><ele>0.0</ele></rtept>
    <rtept lat="52.424874" lon="4.646052"><ele>0.0</ele></rtept>
    <rtept lat="52.425614" lon="4.644367"><ele>0.0</ele></rtept>
    <rtept lat="52.425630" lon="4.644339"><ele>0.0</ele></rtept>
    <rtept lat="52.425757" lon="4.644161"><ele>0.0</ele></rtept>
    <rtept lat="52.425893" lon="4.644081"><ele>0.0</ele></rtept>
    <rtept lat="52.426136" lon="4.643873"><ele>0.0</ele></rtept>
    <rtept lat="52.426242" lon="4.643790"><ele>0.0</ele></rtept>
    <rtept lat="52.426558" lon="4.643566"><ele>0.0</ele></rtept>
    <rtept lat="52.426697" lon="4.643505"><ele>0.0</ele></rtept>
    <rtept lat="52.426689" lon="4.643396"><ele>0.0</ele></rtept>
    <rtept lat="52.426903" lon="4.642877"><ele>0.0</ele></rtept>
    <rtept lat="52.427114" lon="4.642038"><ele>0.0</ele></rtept>
    <rtept lat="52.427014" lon="4.641874"><ele>0.0</ele></rtept>
    <rtept lat="52.427071" lon="4.641732"><ele>0.0</ele></rtept>
    <rtept lat="52.427226" lon="4.641006"><ele>0.0</ele></rtept>
    <rtept lat="52.427474" lon="4.639968"><ele>0.0</ele></rtept>
    <rtept lat="52.427530" lon="4.639736"><ele>0.0</ele></rtept>
    <rtept lat="52.427608" lon="4.639468"><ele>0.0</ele></rtept>
    <rtept lat="52.427837" lon="4.638876"><ele>0.0</ele></rtept>
    <rtept lat="52.427933" lon="4.638662"><ele>0.0</ele></rtept>
    <rtept lat="52.428155" lon="4.638207"><ele>0.0</ele></rtept>
    <rtept lat="52.428515" lon="4.637651"><ele>0.0</ele></rtept>
    <rtept lat="52.428702" lon="4.637417"><ele>0.0</ele></rtept>
    <rtept lat="52.428753" lon="4.637363"><ele>0.0</ele></rtept>
    <rtept lat="52.428735" lon="4.637025"><ele>0.0</ele></rtept>
    <rtept lat="52.428674" lon="4.635835"><ele>0.0</ele></rtept>
    <rtept lat="52.428620" lon="4.635398"><ele>0.0</ele></rtept>
    <rtept lat="52.428436" lon="4.634569"><ele>0.0</ele></rtept>
    <rtept lat="52.428341" lon="4.634008"><ele>0.0</ele></rtept>
    <rtept lat="52.428301" lon="4.633283"><ele>0.0</ele></rtept>
    <rtept lat="52.428330" lon="4.632813"><ele>0.0</ele></rtept>
    <rtept lat="52.428395" lon="4.632763"><ele>0.0</ele></rtept>
    <rtept lat="52.428416" lon="4.632681"><ele>0.0</ele></rtept>
    <rtept lat="52.428677" lon="4.632710"><ele>0.0</ele></rtept>
    <rtept lat="52.428854" lon="4.632703"><ele>0.0</ele></rtept>
    <rtept lat="52.428990" lon="4.632667"><ele>0.0</ele></rtept>
    <rtept lat="52.429662" lon="4.632313"><ele>0.0</ele></rtept>
    <rtept lat="52.429934" lon="4.632250"><ele>0.0</ele></rtept>
    <rtept lat="52.430275" lon="4.632262"><ele>0.0</ele></rtept>
    <rtept lat="52.431529" lon="4.632498"><ele>0.0</ele></rtept>
    <rtept lat="52.431534" lon="4.632405"><ele>0.0</ele></rtept>
    <rtept lat="52.432421" lon="4.632610"><ele>0.0</ele></rtept>
    <rtept lat="52.432543" lon="4.632471"><ele>0.0</ele></rtept>
    <rtept lat="52.432519" lon="4.632392"><ele>0.0</ele></rtept>
    <rtept lat="52.432561" lon="4.631993"><ele>0.0</ele></rtept>
    <rtept lat="52.432593" lon="4.631822"><ele>0.0</ele></rtept>
    <rtept lat="52.432709" lon="4.631587"><ele>0.0</ele></rtept>
    <rtept lat="52.432846" lon="4.631382"><ele>0.0</ele></rtept>
    <rtept lat="52.432891" lon="4.631253"><ele>0.0</ele></rtept>
    <rtept lat="52.432958" lon="4.631239"><ele>0.0</ele></rtept>
    <rtept lat="52.433001" lon="4.631270"><ele>0.0</ele></rtept>
    <rtept lat="52.433169" lon="4.631797"><ele>0.0</ele></rtept>
    <rtept lat="52.433215" lon="4.631852"><ele>0.0</ele></rtept>
    <rtept lat="52.433614" lon="4.631907"><ele>0.0</ele></rtept>
    <rtept lat="52.433976" lon="4.631927"><ele>0.0</ele></rtept>
    <rtept lat="52.434004" lon="4.631917"><ele>0.0</ele></rtept>
    <rtept lat="52.434087" lon="4.632158"><ele>0.0</ele></rtept>
    <rtept lat="52.434144" lon="4.632212"><ele>0.0</ele></rtept>
    <rtept lat="52.434590" lon="4.632291"><ele>0.0</ele></rtept>
    <rtept lat="52.434692" lon="4.632255"><ele>0.0</ele></rtept>
    <rtept lat="52.434753" lon="4.632126"><ele>0.0</ele></rtept>
    <rtept lat="52.434821" lon="4.632014"><ele>0.0</ele></rtept>
    <rtept lat="52.435123" lon="4.631953"><ele>0.0</ele></rtept>
    <rtept lat="52.435258" lon="4.631960"><ele>0.0</ele></rtept>
    <rtept lat="52.435546" lon="4.632045"><ele>0.0</ele></rtept>
    <rtept lat="52.435731" lon="4.632063"><ele>0.0</ele></rtept>
    <rtept lat="52.436984" lon="4.632045"><ele>0.0</ele></rtept>
    <rtept lat="52.437526" lon="4.632141"><ele>0.0</ele></rtept>
    <rtept lat="52.438133" lon="4.632104"><ele>0.0</ele></rtept>
    <rtept lat="52.438745" lon="4.632222"><ele>0.0</ele></rtept>
    <rtept lat="52.439134" lon="4.632213"><ele>0.0</ele></rtept>
    <rtept lat="52.439242" lon="4.632196"><ele>0.0</ele></rtept>
    <rtept lat="52.439239" lon="4.632066"><ele>0.0</ele></rtept>
    <rtept lat="52.439278" lon="4.631498"><ele>0.0</ele></rtept>
    <rtept lat="52.439333" lon="4.630872"><ele>0.0</ele></rtept>
    <rtept lat="52.439377" lon="4.630668"><ele>0.0</ele></rtept>
    <rtept lat="52.439324" lon="4.630619"><ele>0.0</ele></rtept>
    <rtept lat="52.439395" lon="4.630493"><ele>0.0</ele></rtept>
    <rtept lat="52.439324" lon="4.630619"><ele>0.0</ele></rtept>
    <rtept lat="52.438940" lon="4.630280"><ele>0.0</ele></rtept>
    <rtept lat="52.438770" lon="4.630160"><ele>0.0</ele></rtept>
    <rtept lat="52.437820" lon="4.629650"><ele>0.0</ele></rtept>
    <rtept lat="52.437373" lon="4.629310"><ele>0.0</ele></rtept>
    <rtept lat="52.437245" lon="4.629172"><ele>0.0</ele></rtept>
    <rtept lat="52.436750" lon="4.628554"><ele>0.0</ele></rtept>
    <rtept lat="52.436382" lon="4.627997"><ele>0.0</ele></rtept>
    <rtept lat="52.436069" lon="4.627402"><ele>0.0</ele></rtept>
    <rtept lat="52.435890" lon="4.627120"><ele>0.0</ele></rtept>
    <rtept lat="52.435780" lon="4.626990"><ele>0.0</ele></rtept>
    <rtept lat="52.435613" lon="4.626922"><ele>0.0</ele></rtept>
    <rtept lat="52.435480" lon="4.626977"><ele>0.0</ele></rtept>
    <rtept lat="52.435394" lon="4.627032"><ele>0.0</ele></rtept>
    <rtept lat="52.435222" lon="4.627199"><ele>0.0</ele></rtept>
    <rtept lat="52.435094" lon="4.627355"><ele>0.0</ele></rtept>
    <rtept lat="52.434640" lon="4.628130"><ele>0.0</ele></rtept>
    <rtept lat="52.434530" lon="4.628220"><ele>0.0</ele></rtept>
    <rtept lat="52.433930" lon="4.628180"><ele>0.0</ele></rtept>
    <rtept lat="52.433810" lon="4.628200"><ele>0.0</ele></rtept>
    <rtept lat="52.433680" lon="4.628260"><ele>0.0</ele></rtept>
    <rtept lat="52.433174" lon="4.628601"><ele>0.0</ele></rtept>
    <rtept lat="52.432507" lon="4.629031"><ele>0.0</ele></rtept>
    <rtept lat="52.432292" lon="4.629092"><ele>0.0</ele></rtept>
    <rtept lat="52.432254" lon="4.629139"><ele>0.0</ele></rtept>
    <rtept lat="52.432196" lon="4.629021"><ele>0.0</ele></rtept>
    <rtept lat="52.431978" lon="4.628794"><ele>0.0</ele></rtept>
    <rtept lat="52.431840" lon="4.628541"><ele>0.0</ele></rtept>
    <rtept lat="52.431511" lon="4.627748"><ele>0.0</ele></rtept>
    <rtept lat="52.431174" lon="4.626990"><ele>0.0</ele></rtept>
    <rtept lat="52.431019" lon="4.626814"><ele>0.0</ele></rtept>
    <rtept lat="52.430849" lon="4.626681"><ele>0.0</ele></rtept>
    <rtept lat="52.430340" lon="4.626461"><ele>0.0</ele></rtept>
    <rtept lat="52.430010" lon="4.626167"><ele>0.0</ele></rtept>
    <rtept lat="52.429602" lon="4.625754"><ele>0.0</ele></rtept>
    <rtept lat="52.429467" lon="4.625653"><ele>0.0</ele></rtept>
    <rtept lat="52.429322" lon="4.625591"><ele>0.0</ele></rtept>
    <rtept lat="52.429214" lon="4.625576"><ele>0.0</ele></rtept>
    <rtept lat="52.429082" lon="4.625603"><ele>0.0</ele></rtept>
    <rtept lat="52.428979" lon="4.625673"><ele>0.0</ele></rtept>
    <rtept lat="52.428906" lon="4.625771"><ele>0.0</ele></rtept>
    <rtept lat="52.428846" lon="4.625912"><ele>0.0</ele></rtept>
    <rtept lat="52.428717" lon="4.626429"><ele>0.0</ele></rtept>
    <rtept lat="52.428575" lon="4.627146"><ele>0.0</ele></rtept>
    <rtept lat="52.428481" lon="4.628782"><ele>0.0</ele></rtept>
    <rtept lat="52.428432" lon="4.629206"><ele>0.0</ele></rtept>
    <rtept lat="52.428332" lon="4.629789"><ele>0.0</ele></rtept>
    <rtept lat="52.428315" lon="4.630149"><ele>0.0</ele></rtept>
    <rtept lat="52.428267" lon="4.630122"><ele>0.0</ele></rtept>
    <rtept lat="52.427260" lon="4.630061"><ele>0.0</ele></rtept>
    <rtept lat="52.427050" lon="4.629979"><ele>0.0</ele></rtept>
    <rtept lat="52.426970" lon="4.629975"><ele>0.0</ele></rtept>
    <rtept lat="52.426673" lon="4.629986"><ele>0.0</ele></rtept>
    <rtept lat="52.426240" lon="4.630014"><ele>0.0</ele></rtept>
    <rtept lat="52.426004" lon="4.630068"><ele>0.0</ele></rtept>
    <rtept lat="52.426032" lon="4.630174"><ele>0.0</ele></rtept>
    <rtept lat="52.425458" lon="4.630386"><ele>0.0</ele></rtept>
    <rtept lat="52.425283" lon="4.630421"><ele>0.0</ele></rtept>
    <rtept lat="52.424431" lon="4.630494"><ele>0.0</ele></rtept>
    <rtept lat="52.422644" lon="4.630412"><ele>0.0</ele></rtept>
    <rtept lat="52.422190" lon="4.630382"><ele>0.0</ele></rtept>
    <rtept lat="52.420814" lon="4.630196"><ele>0.0</ele></rtept>
    <rtept lat="52.420514" lon="4.630175"><ele>0.0</ele></rtept>
    <rtept lat="52.420363" lon="4.630182"><ele>0.0</ele></rtept>
    <rtept lat="52.419767" lon="4.630278"><ele>0.0</ele></rtept>
    <rtept lat="52.419622" lon="4.630312"><ele>0.0</ele></rtept>
    <rtept lat="52.419543" lon="4.630331"><ele>0.0</ele></rtept>
    <rtept lat="52.419497" lon="4.630365"><ele>0.0</ele></rtept>
    <rtept lat="52.419414" lon="4.630510"><ele>0.0</ele></rtept>
    <rtept lat="52.419297" lon="4.630739"><ele>0.0</ele></rtept>
    <rtept lat="52.419241" lon="4.630804"><ele>0.0</ele></rtept>
    <rtept lat="52.419172" lon="4.630845"><ele>0.0</ele></rtept>
    <rtept lat="52.418991" lon="4.630847"><ele>0.0</ele></rtept>
    <rtept lat="52.418951" lon="4.630856"><ele>0.0</ele></rtept>
    <rtept lat="52.418722" lon="4.630909"><ele>0.0</ele></rtept>
    <rtept lat="52.418701" lon="4.630928"><ele>0.0</ele></rtept>
    <rtept lat="52.418667" lon="4.630970"><ele>0.0</ele></rtept>
    <rtept lat="52.418621" lon="4.631017"><ele>0.0</ele></rtept>
    <rtept lat="52.418562" lon="4.631057"><ele>0.0</ele></rtept>
    <rtept lat="52.418576" lon="4.631140"><ele>0.0</ele></rtept>
    <rtept lat="52.418679" lon="4.631417"><ele>0.0</ele></rtept>
    <rtept lat="52.418700" lon="4.631701"><ele>0.0</ele></rtept>
    <rtept lat="52.418726" lon="4.631764"><ele>0.0</ele></rtept>
    <rtept lat="52.418662" lon="4.631804"><ele>0.0</ele></rtept>
    <rtept lat="52.418569" lon="4.631880"><ele>0.0</ele></rtept>
    <rtept lat="52.418389" lon="4.631938"><ele>0.0</ele></rtept>
    <rtept lat="52.417926" lon="4.632022"><ele>0.0</ele></rtept>
    <rtept lat="52.417519" lon="4.632099"><ele>0.0</ele></rtept>
    <rtept lat="52.417426" lon="4.632089"><ele>0.0</ele></rtept>
    <rtept lat="52.417195" lon="4.631955"><ele>0.0</ele></rtept>
    <rtept lat="52.417151" lon="4.631961"><ele>0.0</ele></rtept>
    <rtept lat="52.417136" lon="4.632001"><ele>0.0</ele></rtept>
    <rtept lat="52.416985" lon="4.632397"><ele>0.0</ele></rtept>
    <rtept lat="52.416922" lon="4.632508"><ele>0.0</ele></rtept>
    <rtept lat="52.416909" lon="4.632601"><ele>0.0</ele></rtept>
    <rtept lat="52.416845" lon="4.632666"><ele>0.0</ele></rtept>
    <rtept lat="52.415769" lon="4.635526"><ele>0.0</ele></rtept>
    <rtept lat="52.415593" lon="4.635931"><ele>0.0</ele></rtept>
    <rtept lat="52.414758" lon="4.638263"><ele>0.0</ele></rtept>
    <rtept lat="52.414738" lon="4.638444"><ele>0.0</ele></rtept>
    <rtept lat="52.414753" lon="4.638607"><ele>0.0</ele></rtept>
    <rtept lat="52.414778" lon="4.638761"><ele>0.0</ele></rtept>
    <rtept lat="52.414761" lon="4.638933"><ele>0.0</ele></rtept>
    <rtept lat="52.414714" lon="4.639149"><ele>0.0</ele></rtept>
    <rtept lat="52.414649" lon="4.639475"><ele>0.0</ele></rtept>
    <rtept lat="52.414511" lon="4.640176"><ele>0.0</ele></rtept>
    <rtept lat="52.414415" lon="4.640636"><ele>0.0</ele></rtept>
    <rtept lat="52.414385" lon="4.640664"><ele>0.0</ele></rtept>
    <rtept lat="52.414293" lon="4.641089"><ele>0.0</ele></rtept>
    <rtept lat="52.414240" lon="4.641154"><ele>0.0</ele></rtept>
    <rtept lat="52.413956" lon="4.641400"><ele>0.0</ele></rtept>
    <rtept lat="52.413690" lon="4.641647"><ele>0.0</ele></rtept>
    <rtept lat="52.413267" lon="4.642015"><ele>0.0</ele></rtept>
    <rtept lat="52.412593" lon="4.642603"><ele>0.0</ele></rtept>
    <rtept lat="52.412493" lon="4.642738"><ele>0.0</ele></rtept>
    <rtept lat="52.412418" lon="4.642890"><ele>0.0</ele></rtept>
    <rtept lat="52.412079" lon="4.643769"><ele>0.0</ele></rtept>
    <rtept lat="52.411978" lon="4.644073"><ele>0.0</ele></rtept>
    <rtept lat="52.411906" lon="4.644274"><ele>0.0</ele></rtept>
    <rtept lat="52.411743" lon="4.644858"><ele>0.0</ele></rtept>
    <rtept lat="52.411705" lon="4.644925"><ele>0.0</ele></rtept>
    <rtept lat="52.411412" lon="4.645440"><ele>0.0</ele></rtept>
    <rtept lat="52.411018" lon="4.646073"><ele>0.0</ele></rtept>
    <rtept lat="52.410654" lon="4.646655"><ele>0.0</ele></rtept>
    <rtept lat="52.410450" lon="4.646978"><ele>0.0</ele></rtept>
    <rtept lat="52.410332" lon="4.647138"><ele>0.0</ele></rtept>
    <rtept lat="52.410126" lon="4.647331"><ele>0.0</ele></rtept>
    <rtept lat="52.410041" lon="4.647411"><ele>0.0</ele></rtept>
    <rtept lat="52.409754" lon="4.647742"><ele>0.0</ele></rtept>
    <rtept lat="52.409576" lon="4.647947"><ele>0.0</ele></rtept>
    <rtept lat="52.409468" lon="4.648071"><ele>0.0</ele></rtept>
    <rtept lat="52.409434" lon="4.648110"><ele>0.0</ele></rtept>
    <rtept lat="52.409284" lon="4.648282"><ele>0.0</ele></rtept>
    <rtept lat="52.409146" lon="4.648442"><ele>0.0</ele></rtept>
    <rtept lat="52.408980" lon="4.648618"><ele>0.0</ele></rtept>
    <rtept lat="52.408827" lon="4.648889"><ele>0.0</ele></rtept>
    <rtept lat="52.408760" lon="4.648939"><ele>0.0</ele></rtept>
    <rtept lat="52.408568" lon="4.649098"><ele>0.0</ele></rtept>
    <rtept lat="52.408487" lon="4.649164"><ele>0.0</ele></rtept>
    <rtept lat="52.408276" lon="4.649404"><ele>0.0</ele></rtept>
    <rtept lat="52.407985" lon="4.649786"><ele>0.0</ele></rtept>
    <rtept lat="52.407922" lon="4.649890"><ele>0.0</ele></rtept>
    <rtept lat="52.407667" lon="4.649781"><ele>0.0</ele></rtept>
    <rtept lat="52.407354" lon="4.649613"><ele>0.0</ele></rtept>
    <rtept lat="52.407056" lon="4.649457"><ele>0.0</ele></rtept>
    <rtept lat="52.406800" lon="4.649316"><ele>0.0</ele></rtept>
    <rtept lat="52.405843" lon="4.648859"><ele>0.0</ele></rtept>
    <rtept lat="52.405634" lon="4.648755"><ele>0.0</ele></rtept>
    <rtept lat="52.405266" lon="4.648562"><ele>0.0</ele></rtept>
    <rtept lat="52.404782" lon="4.648289"><ele>0.0</ele></rtept>
    <rtept lat="52.404658" lon="4.648154"><ele>0.0</ele></rtept>
    <rtept lat="52.404219" lon="4.647932"><ele>0.0</ele></rtept>
    <rtept lat="52.403817" lon="4.647653"><ele>0.0</ele></rtept>
    <rtept lat="52.403545" lon="4.647434"><ele>0.0</ele></rtept>
    <rtept lat="52.403023" lon="4.646756"><ele>0.0</ele></rtept>
    <rtept lat="52.402987" lon="4.646822"><ele>0.0</ele></rtept>
    <rtept lat="52.402942" lon="4.646904"><ele>0.0</ele></rtept>
    <rtept lat="52.402590" lon="4.647577"><ele>0.0</ele></rtept>
    <rtept lat="52.402593" lon="4.647658"><ele>0.0</ele></rtept>
    <rtept lat="52.402529" lon="4.647651"><ele>0.0</ele></rtept>
    <rtept lat="52.402523" lon="4.647727"><ele>0.0</ele></rtept>
    <rtept lat="52.402210" lon="4.648380"><ele>0.0</ele></rtept>
    <rtept lat="52.401862" lon="4.649062"><ele>0.0</ele></rtept>
    <rtept lat="52.401483" lon="4.648592"><ele>0.0</ele></rtept>
    <rtept lat="52.401194" lon="4.648297"><ele>0.0</ele></rtept>
    <rtept lat="52.400876" lon="4.648126"><ele>0.0</ele></rtept>
    <rtept lat="52.400809" lon="4.648086"><ele>0.0</ele></rtept>
    <rtept lat="52.400744" lon="4.648046"><ele>0.0</ele></rtept>
    <rtept lat="52.400661" lon="4.648467"><ele>0.0</ele></rtept>
    <rtept lat="52.400325" lon="4.650106"><ele>0.0</ele></rtept>
    <rtept lat="52.399834" lon="4.649835"><ele>0.0</ele></rtept>
    <rtept lat="52.399588" lon="4.651015"><ele>0.0</ele></rtept>
    <rtept lat="52.399481" lon="4.651528"><ele>0.0</ele></rtept>
    <rtept lat="52.399467" lon="4.651603"><ele>0.0</ele></rtept>
    <rtept lat="52.398432" lon="4.651084"><ele>0.0</ele></rtept>
    <rtept lat="52.397889" lon="4.650892"><ele>0.0</ele></rtept>
    <rtept lat="52.396855" lon="4.650644"><ele>0.0</ele></rtept>
    <rtept lat="52.395336" lon="4.650391"><ele>0.0</ele></rtept>
    <rtept lat="52.395216" lon="4.650371"><ele>0.0</ele></rtept>
    <rtept lat="52.394807" lon="4.650289"><ele>0.0</ele></rtept>
    <rtept lat="52.394603" lon="4.650251"><ele>0.0</ele></rtept>
    <rtept lat="52.393682" lon="4.650059"><ele>0.0</ele></rtept>
    <rtept lat="52.393023" lon="4.649916"><ele>0.0</ele></rtept>
    <rtept lat="52.392746" lon="4.649855"><ele>0.0</ele></rtept>
    <rtept lat="52.391566" lon="4.649554"><ele>0.0</ele></rtept>
    <rtept lat="52.391533" lon="4.649546"><ele>0.0</ele></rtept>
    <rtept lat="52.391481" lon="4.649535"><ele>0.0</ele></rtept>
    <rtept lat="52.390174" lon="4.649271"><ele>0.0</ele></rtept>
    <rtept lat="52.388475" lon="4.649039"><ele>0.0</ele></rtept>
    <rtept lat="52.388161" lon="4.648953"><ele>0.0</ele></rtept>
    <rtept lat="52.388013" lon="4.648887"><ele>0.0</ele></rtept>
    <rtept lat="52.387630" lon="4.648630"><ele>0.0</ele></rtept>
    <rtept lat="52.387276" lon="4.648283"><ele>0.0</ele></rtept>
    <rtept lat="52.387148" lon="4.648118"><ele>0.0</ele></rtept>
    <rtept lat="52.386941" lon="4.647819"><ele>0.0</ele></rtept>
    <rtept lat="52.386865" lon="4.647538"><ele>0.0</ele></rtept>
    <rtept lat="52.386833" lon="4.647415"><ele>0.0</ele></rtept>
    <rtept lat="52.386796" lon="4.647325"><ele>0.0</ele></rtept>
    <rtept lat="52.386617" lon="4.646951"><ele>0.0</ele></rtept>
    <rtept lat="52.386593" lon="4.646882"><ele>0.0</ele></rtept>
    <rtept lat="52.386555" lon="4.646795"><ele>0.0</ele></rtept>
    <rtept lat="52.386504" lon="4.646673"><ele>0.0</ele></rtept>
    <rtept lat="52.386459" lon="4.646569"><ele>0.0</ele></rtept>
    <rtept lat="52.386414" lon="4.646624"><ele>0.0</ele></rtept>
    <rtept lat="52.386368" lon="4.646725"><ele>0.0</ele></rtept>
    <rtept lat="52.386322" lon="4.646839"><ele>0.0</ele></rtept>
    <rtept lat="52.386294" lon="4.646908"><ele>0.0</ele></rtept>
    <rtept lat="52.386284" lon="4.646934"><ele>0.0</ele></rtept>
    <rtept lat="52.386260" lon="4.646997"><ele>0.0</ele></rtept>
    <rtept lat="52.385741" lon="4.647658"><ele>0.0</ele></rtept>
    <rtept lat="52.385224" lon="4.648163"><ele>0.0</ele></rtept>
    <rtept lat="52.385120" lon="4.648291"><ele>0.0</ele></rtept>
    <rtept lat="52.384908" lon="4.648580"><ele>0.0</ele></rtept>
    <rtept lat="52.384684" lon="4.648968"><ele>0.0</ele></rtept>
    <rtept lat="52.384654" lon="4.649014"><ele>0.0</ele></rtept>
    <rtept lat="52.384623" lon="4.648978"><ele>0.0</ele></rtept>
    <rtept lat="52.384473" lon="4.648823"><ele>0.0</ele></rtept>
    <rtept lat="52.384156" lon="4.648473"><ele>0.0</ele></rtept>
    <rtept lat="52.383750" lon="4.647968"><ele>0.0</ele></rtept>
    <rtept lat="52.383442" lon="4.647703"><ele>0.0</ele></rtept>
    <rtept lat="52.383049" lon="4.647439"><ele>0.0</ele></rtept>
    <rtept lat="52.382723" lon="4.647272"><ele>0.0</ele></rtept>
    <rtept lat="52.382498" lon="4.647094"><ele>0.0</ele></rtept>
    <rtept lat="52.382420" lon="4.647059"><ele>0.0</ele></rtept>
    <rtept lat="52.382364" lon="4.647251"><ele>0.0</ele></rtept>
    <rtept lat="52.382212" lon="4.647180"><ele>0.0</ele></rtept>
    <rtept lat="52.382181" lon="4.647363"><ele>0.0</ele></rtept>
    <rtept lat="52.382158" lon="4.647518"><ele>0.0</ele></rtept>
    <rtept lat="52.382126" lon="4.647505"><ele>0.0</ele></rtept>
    <rtept lat="52.381648" lon="4.647325"><ele>0.0</ele></rtept>
    <rtept lat="52.381191" lon="4.647236"><ele>0.0</ele></rtept>
    <rtept lat="52.381073" lon="4.647283"><ele>0.0</ele></rtept>
    <rtept lat="52.380975" lon="4.647286"><ele>0.0</ele></rtept>
    <rtept lat="52.380885" lon="4.647293"><ele>0.0</ele></rtept>
    <rtept lat="52.380732" lon="4.647268"><ele>0.0</ele></rtept>
    <rtept lat="52.380781" lon="4.647736"><ele>0.0</ele></rtept>
    <rtept lat="52.380897" lon="4.649517"><ele>0.0</ele></rtept>
    <rtept lat="52.380980" lon="4.650628"><ele>0.0</ele></rtept>
    <rtept lat="52.381040" lon="4.651485"><ele>0.0</ele></rtept>
    <rtept lat="52.381036" lon="4.651611"><ele>0.0</ele></rtept>
    <rtept lat="52.380997" lon="4.651700"><ele>0.0</ele></rtept>
    <rtept lat="52.380958" lon="4.651707"><ele>0.0</ele></rtept>
    <rtept lat="52.380829" lon="4.651727"><ele>0.0</ele></rtept>
    <rtept lat="52.380759" lon="4.651852"><ele>0.0</ele></rtept>
    <rtept lat="52.380708" lon="4.651959"><ele>0.0</ele></rtept>
    <rtept lat="52.380326" lon="4.653373"><ele>0.0</ele></rtept>
    <rtept lat="52.380132" lon="4.654088"><ele>0.0</ele></rtept>
    <rtept lat="52.379963" lon="4.654729"><ele>0.0</ele></rtept>
    <rtept lat="52.379947" lon="4.654788"><ele>0.0</ele></rtept>
    <rtept lat="52.379720" lon="4.655630"><ele>0.0</ele></rtept>
    <rtept lat="52.379484" lon="4.656332"><ele>0.0</ele></rtept>
    <rtept lat="52.379811" lon="4.656611"><ele>0.0</ele></rtept>
    <rtept lat="52.379890" lon="4.656860"><ele>0.0</ele></rtept>
    <rtept lat="52.379960" lon="4.657149"><ele>0.0</ele></rtept>
    <rtept lat="52.380029" lon="4.657505"><ele>0.0</ele></rtept>
    <rtept lat="52.380029" lon="4.657510"><ele>0.0</ele></rtept>
  </rte>
</gpx>