<?xml version="1.0" encoding="UTF-8"?>
<gpx version="1.1" creator="WeeklyCyclingRoutes"
  xmlns="http://www.topografix.com/GPX/1/1"
  xmlns:xsi="http://www.w3.org/2001/XMLSchema-instance"
  xsi:schemaLocation="http://www.topografix.com/GPX/1/1 http://www.topografix.com/GPX/1/1/gpx.xsd">
  <metadata>
    <name>20km Route – August 17, 2026</name>
    <desc>Round trip from Cremerstraat, Haarlem. Actual: 22.0km</desc>
    <time>2026-08-17T06:40:37Z</time>
  </metadata>
  <rte>
    <name>20km Cycling Route – Haarlem</name>
    <rtept lat="52.380029" lon="4.657510"><ele>0.0</ele></rtept>
    <rtept lat="52.380041" lon="4.657887"><ele>0.0</ele></rtept>
    <rtept lat="52.380803" lon="4.657858"><ele>0.0</ele></rtept>
    <rtept lat="52.380868" lon="4.658723"><ele>0.0</ele></rtept>
    <rtept lat="52.380937" lon="4.659581"><ele>0.0</ele></rtept>
    <rtept lat="52.380949" lon="4.659839"><ele>0.0</ele></rtept>
    <rtept lat="52.381009" lon="4.660558"><ele>0.0</ele></rtept>
    <rtept lat="52.381028" lon="4.660835"><ele>0.0</ele></rtept>
    <rtept lat="52.381037" lon="4.661040"><ele>0.0</ele></rtept>
    <rtept lat="52.381073" lon="4.661219"><ele>0.0</ele></rtept>
    <rtept lat="52.381131" lon="4.661312"><ele>0.0</ele></rtept>
    <rtept lat="52.381231" lon="4.661355"><ele>0.0</ele></rtept>
    <rtept lat="52.381374" lon="4.661421"><ele>0.0</ele></rtept>
    <rtept lat="52.381476" lon="4.661472"><ele>0.0</ele></rtept>
    <rtept lat="52.381559" lon="4.661512"><ele>0.0</ele></rtept>
    <rtept lat="52.381630" lon="4.661848"><ele>0.0</ele></rtept>
    <rtept lat="52.381994" lon="4.666423"><ele>0.0</ele></rtept>
    <rtept lat="52.382083" lon="4.668033"><ele>0.0</ele></rtept>
    <rtept lat="52.382126" lon="4.668888"><ele>0.0</ele></rtept>
    <rtept lat="52.382081" lon="4.669001"><ele>0.0</ele></rtept>
    <rtept lat="52.381821" lon="4.669146"><ele>0.0</ele></rtept>
    <rtept lat="52.381681" lon="4.669329"><ele>0.0</ele></rtept>
    <rtept lat="52.381642" lon="4.669425"><ele>0.0</ele></rtept>
    <rtept lat="52.381600" lon="4.669560"><ele>0.0</ele></rtept>
    <rtept lat="52.381583" lon="4.669749"><ele>0.0</ele></rtept>
    <rtept lat="52.381603" lon="4.670462"><ele>0.0</ele></rtept>
    <rtept lat="52.381614" lon="4.670649"><ele>0.0</ele></rtept>
    <rtept lat="52.381628" lon="4.670879"><ele>0.0</ele></rtept>
    <rtept lat="52.381708" lon="4.670881"><ele>0.0</ele></rtept>
    <rtept lat="52.381803" lon="4.670848"><ele>0.0</ele></rtept>
    <rtept lat="52.381859" lon="4.670863"><ele>0.0</ele></rtept>
    <rtept lat="52.381862" lon="4.670918"><ele>0.0</ele></rtept>
    <rtept lat="52.381914" lon="4.671966"><ele>0.0</ele></rtept>
    <rtept lat="52.381969" lon="4.672783"><ele>0.0</ele></rtept>
    <rtept lat="52.381985" lon="4.672930"><ele>0.0</ele></rtept>
    <rtept lat="52.382043" lon="4.673157"><ele>0.0</ele></rtept>
    <rtept lat="52.382163" lon="4.673337"><ele>0.0</ele></rtept>
    <rtept lat="52.382280" lon="4.673401"><ele>0.0</ele></rtept>
    <rtept lat="52.382496" lon="4.673472"><ele>0.0</ele></rtept>
    <rtept lat="52.382577" lon="4.673476"><ele>0.0</ele></rtept>
    <rtept lat="52.382822" lon="4.673441"><ele>0.0</ele></rtept>
    <rtept lat="52.383290" lon="4.673323"><ele>0.0</ele></rtept>
    <rtept lat="52.383680" lon="4.673215"><ele>0.0</ele></rtept>
    <rtept lat="52.384451" lon="4.672836"><ele>0.0</ele></rtept>
    <rtept lat="52.385167" lon="4.672384"><ele>0.0</ele></rtept>
    <rtept lat="52.385449" lon="4.672156"><ele>0.0</ele></rtept>
    <rtept lat="52.385622" lon="4.671942"><ele>0.0</ele></rtept>
    <rtept lat="52.385670" lon="4.671909"><ele>0.0</ele></rtept>
    <rtept lat="52.385757" lon="4.671849"><ele>0.0</ele></rtept>
    <rtept lat="52.385877" lon="4.671773"><ele>0.0</ele></rtept>
    <rtept lat="52.386083" lon="4.671660"><ele>0.0</ele></rtept>
    <rtept lat="52.386950" lon="4.671068"><ele>0.0</ele></rtept>
    <rtept lat="52.387066" lon="4.670953"><ele>0.0</ele></rtept>
    <rtept lat="52.387140" lon="4.670849"><ele>0.0</ele></rtept>
    <rtept lat="52.387220" lon="4.670702"><ele>0.0</ele></rtept>
    <rtept lat="52.387281" lon="4.670480"><ele>0.0</ele></rtept>
    <rtept lat="52.387360" lon="4.670528"><ele>0.0</ele></rtept>
    <rtept lat="52.387464" lon="4.670573"><ele>0.0</ele></rtept>
    <rtept lat="52.387548" lon="4.670605"><ele>0.0</ele></rtept>
    <rtept lat="52.387584" lon="4.670595"><ele>0.0</ele></rtept>
    <rtept lat="52.387855" lon="4.670403"><ele>0.0</ele></rtept>
    <rtept lat="52.388018" lon="4.670162"><ele>0.0</ele></rtept>
    <rtept lat="52.388136" lon="4.670070"><ele>0.0</ele></rtept>
    <rtept lat="52.389070" lon="4.669500"><ele>0.0</ele></rtept>
    <rtept lat="52.389212" lon="4.670118"><ele>0.0</ele></rtept>
    <rtept lat="52.389394" lon="4.670578"><ele>0.0</ele></rtept>
    <rtept lat="52.390024" lon="4.672147"><ele>0.0</ele></rtept>
    <rtept lat="52.390179" lon="4.672627"><ele>0.0</ele></rtept>
    <rtept lat="52.390208" lon="4.672710"><ele>0.0</ele></rtept>
    <rtept lat="52.390477" lon="4.673505"><ele>0.0</ele></rtept>
    <rtept lat="52.390494" lon="4.673535"><ele>0.0</ele></rtept>
    <rtept lat="52.390679" lon="4.673846"><ele>0.0</ele></rtept>
    <rtept lat="52.390813" lon="4.674139"><ele>0.0</ele></rtept>
    <rtept lat="52.390904" lon="4.674331"><ele>0.0</ele></rtept>
    <rtept lat="52.391016" lon="4.674587"><ele>0.0</ele></rtept>
    <rtept lat="52.391087" lon="4.674812"><ele>0.0</ele></rtept>
    <rtept lat="52.391132" lon="4.675031"><ele>0.0</ele></rtept>
    <rtept lat="52.391167" lon="4.675308"><ele>0.0</ele></rtept>
    <rtept lat="52.391171" lon="4.675549"><ele>0.0</ele></rtept>
    <rtept lat="52.391149" lon="4.676179"><ele>0.0</ele></rtept>
    <rtept lat="52.391181" lon="4.676329"><ele>0.0</ele></rtept>
    <rtept lat="52.391234" lon="4.676448"><ele>0.0</ele></rtept>
    <rtept lat="52.391326" lon="4.676499"><ele>0.0</ele></rtept>
    <rtept lat="52.391804" lon="4.676358"><ele>0.0</ele></rtept>
    <rtept lat="52.391943" lon="4.676382"><ele>0.0</ele></rtept>
    <rtept lat="52.392106" lon="4.676509"><ele>0.0</ele></rtept>
    <rtept lat="52.392530" lon="4.676983"><ele>0.0</ele></rtept>
    <rtept lat="52.392625" lon="4.677130"><ele>0.0</ele></rtept>
    <rtept lat="52.392676" lon="4.677233"><ele>0.0</ele></rtept>
    <rtept lat="52.392766" lon="4.677488"><ele>0.0</ele></rtept>
    <rtept lat="52.392941" lon="4.678318"><ele>0.0</ele></rtept>
    <rtept lat="52.393291" lon="4.678147"><ele>0.0</ele></rtept>
    <rtept lat="52.393600" lon="4.678098"><ele>0.0</ele></rtept>
    <rtept lat="52.393895" lon="4.678086"><ele>0.0</ele></rtept>
    <rtept lat="52.394125" lon="4.678130"><ele>0.0</ele></rtept>
    <rtept lat="52.394332" lon="4.678301"><ele>0.0</ele></rtept>
    <rtept lat="52.394431" lon="4.678409"><ele>0.0</ele></rtept>
    <rtept lat="52.394634" lon="4.678637"><ele>0.0</ele></rtept>
    <rtept lat="52.394744" lon="4.678685"><ele>0.0</ele></rtept>
    <rtept lat="52.395268" lon="4.678721"><ele>0.0</ele></rtept>
    <rtept lat="52.396324" lon="4.678903"><ele>0.0</ele></rtept>
    <rtept lat="52.397159" lon="4.678848"><ele>0.0</ele></rtept>
    <rtept lat="52.397181" lon="4.679199"><ele>0.0</ele></rtept>
    <rtept lat="52.397248" lon="4.679358"><ele>0.0</ele></rtept>
    <rtept lat="52.397327" lon="4.679457"><ele>0.0</ele></rtept>
    <rtept lat="52.397625" lon="4.679838"><ele>0.0</ele></rtept>
    <rtept lat="52.397965" lon="4.680327"><ele>0.0</ele></rtept>
    <rtept lat="52.398193" lon="4.680613"><ele>0.0</ele></rtept>
    <rtept lat="52.398291" lon="4.680735"><ele>0.0</ele></rtept>
    <rtept lat="52.398723" lon="4.681347"><ele>0.0</ele></rtept>
    <rtept lat="52.399804" lon="4.682774"><ele>0.0</ele></rtept>
    <rtept lat="52.401152" lon="4.680114"><ele>0.0</ele></rtept>
    <rtept lat="52.402438" lon="4.681694"><ele>0.0</ele></rtept>
    <rtept lat="52.402621" lon="4.681882"><ele>0.0</ele></rtept>
    <rtept lat="52.402725" lon="4.681885"><ele>0.0</ele></rtept>
    <rtept lat="52.402779" lon="4.681801"><ele>0.0</ele></rtept>
    <rtept lat="52.403060" lon="4.681133"><ele>0.0</ele></rtept>
    <rtept lat="52.403179" lon="4.680879"><ele>0.0</ele></rtept>
    <rtept lat="52.403241" lon="4.680825"><ele>0.0</ele></rtept>
    <rtept lat="52.403335" lon="4.680806"><ele>0.0</ele></rtept>
    <rtept lat="52.403535" lon="4.680825"><ele>0.0</ele></rtept>
    <rtept lat="52.404019" lon="4.680945"><ele>0.0</ele></rtept>
    <rtept lat="52.404854" lon="4.681148"><ele>0.0</ele></rtept>
    <rtept lat="52.405714" lon="4.681895"><ele>0.0</ele></rtept>
    <rtept lat="52.405771" lon="4.681926"><ele>0.0</ele></rtept>
    <rtept lat="52.405900" lon="4.681952"><ele>0.0</ele></rtept>
    <rtept lat="52.406439" lon="4.681862"><ele>0.0</ele></rtept>
    <rtept lat="52.406579" lon="4.681890"><ele>0.0</ele></rtept>
    <rtept lat="52.406639" lon="4.681901"><ele>0.0</ele></rtept>
    <rtept lat="52.406857" lon="4.681908"><ele>0.0</ele></rtept>
    <rtept lat="52.407038" lon="4.681875"><ele>0.0</ele></rtept>
    <rtept lat="52.407120" lon="4.681849"><ele>0.0</ele></rtept>
    <rtept lat="52.407201" lon="4.681787"><ele>0.0</ele></rtept>
    <rtept lat="52.407552" lon="4.681609"><ele>0.0</ele></rtept>
    <rtept lat="52.407639" lon="4.681598"><ele>0.0</ele></rtept>
    <rtept lat="52.407746" lon="4.681620"><ele>0.0</ele></rtept>
    <rtept lat="52.408182" lon="4.681784"><ele>0.0</ele></rtept>
    <rtept lat="52.408513" lon="4.681933"><ele>0.0</ele></rtept>
    <rtept lat="52.409341" lon="4.682684"><ele>0.0</ele></rtept>
    <rtept lat="52.409462" lon="4.682834"><ele>0.0</ele></rtept>
    <rtept lat="52.409690" lon="4.683340"><ele>0.0</ele></rtept>
    <rtept lat="52.409594" lon="4.683551"><ele>0.0</ele></rtept>
    <rtept lat="52.410201" lon="4.684197"><ele>0.0</ele></rtept>
    <rtept lat="52.410324" lon="4.684359"><ele>0.0</ele></rtept>
    <rtept lat="52.410450" lon="4.684631"><ele>0.0</ele></rtept>
    <rtept lat="52.411027" lon="4.686034"><ele>0.0</ele></rtept>
    <rtept lat="52.411176" lon="4.686310"><ele>0.0</ele></rtept>
    <rtept lat="52.411284" lon="4.686466"><ele>0.0</ele></rtept>
    <rtept lat="52.411314" lon="4.686496"><ele>0.0</ele></rtept>
    <rtept lat="52.411340" lon="4.686525"><ele>0.0</ele></rtept>
    <rtept lat="52.411601" lon="4.686099"><ele>0.0</ele></rtept>
    <rtept lat="52.411642" lon="4.686082"><ele>0.0</ele></rtept>
    <rtept lat="52.412069" lon="4.684785"><ele>0.0</ele></rtept>
    <rtept lat="52.412200" lon="4.684376"><ele>0.0</ele></rtept>
    <rtept lat="52.412450" lon="4.683575"><ele>0.0</ele></rtept>
    <rtept lat="52.412488" lon="4.683434"><ele>0.0</ele></rtept>
    <rtept lat="52.412975" lon="4.682621"><ele>0.0</ele></rtept>
    <rtept lat="52.413052" lon="4.682537"><ele>0.0</ele></rtept>
    <rtept lat="52.413145" lon="4.682589"><ele>0.0</ele></rtept>
    <rtept lat="52.413215" lon="4.682548"><ele>0.0</ele></rtept>
    <rtept lat="52.413276" lon="4.682497"><ele>0.0</ele></rtept>
    <rtept lat="52.413216" lon="4.682201"><ele>0.0</ele></rtept>
    <rtept lat="52.413189" lon="4.682132"><ele>0.0</ele></rtept>
    <rtept lat="52.413233" lon="4.682033"><ele>0.0</ele></rtept>
    <rtept lat="52.413354" lon="4.681780"><ele>0.0</ele></rtept>
    <rtept lat="52.413395" lon="4.681687"><ele>0.0</ele></rtept>
    <rtept lat="52.413412" lon="4.681613"><ele>0.0</ele></rtept>
    <rtept lat="52.413472" lon="4.681360"><ele>0.0</ele></rtept>
    <rtept lat="52.413515" lon="4.681158"><ele>0.0</ele></rtept>
    <rtept lat="52.413564" lon="4.680838"><ele>0.0</ele></rtept>
    <rtept lat="52.413563" lon="4.680731"><ele>0.0</ele></rtept>
    <rtept lat="52.413525" lon="4.680468"><ele>0.0</ele></rtept>
    <rtept lat="52.413416" lon="4.679952"><ele>0.0</ele></rtept>
    <rtept lat="52.413378" lon="4.679698"><ele>0.0</ele></rtept>
    <rtept lat="52.413385" lon="4.679499"><ele>0.0</ele></rtept>
    <rtept lat="52.413493" lon="4.679053"><ele>0.0</ele></rtept>
    <rtept lat="52.413559" lon="4.678863"><ele>0.0</ele></rtept>
    <rtept lat="52.413730" lon="4.678525"><ele>0.0</ele></rtept>
    <rtept lat="52.413889" lon="4.678300"><ele>0.0</ele></rtept>
    <rtept lat="52.414021" lon="4.678154"><ele>0.0</ele></rtept>
    <rtept lat="52.414121" lon="4.678047"><ele>0.0</ele></rtept>
    <rtept lat="52.414292" lon="4.677857"><ele>0.0</ele></rtept>
    <rtept lat="52.414304" lon="4.677840"><ele>0.0</ele></rtept>
    <rtept lat="52.414365" lon="4.677747"><ele>0.0</ele></rtept>
    <rtept lat="52.414386" lon="4.677715"><ele>0.0</ele></rtept>
    <rtept lat="52.414450" lon="4.677628"><ele>0.0</ele></rtept>
    <rtept lat="52.414463" lon="4.677611"><ele>0.0</ele></rtept>
    <rtept lat="52.414551" lon="4.677518"><ele>0.0</ele></rtept>
    <rtept lat="52.414797" lon="4.677277"><ele>0.0</ele></rtept>
    <rtept lat="52.414864" lon="4.677224"><ele>0.0</ele></rtept>
    <rtept lat="52.415059" lon="4.677050"><ele>0.0</ele></rtept>
    <rtept lat="52.415183" lon="4.676943"><ele>0.0</ele></rtept>
    <rtept lat="52.415300" lon="4.676853"><ele>0.0</ele></rtept>
    <rtept lat="52.415733" lon="4.676491"><ele>0.0</ele></rtept>
    <rtept lat="52.415836" lon="4.676410"><ele>0.0</ele></rtept>
    <rtept lat="52.415898" lon="4.676372"><ele>0.0</ele></rtept>
    <rtept lat="52.415938" lon="4.676349"><ele>0.0</ele></rtept>
    <rtept lat="52.416063" lon="4.676305"><ele>0.0</ele></rtept>
    <rtept lat="52.416266" lon="4.676228"><ele>0.0</ele></rtept>
    <rtept lat="52.416459" lon="4.676006"><ele>0.0</ele></rtept>
    <rtept lat="52.416573" lon="4.675847"><ele>0.0</ele></rtept>
    <rtept lat="52.416700" lon="4.676035"><ele>0.0</ele></rtept>
    <rtept lat="52.416857" lon="4.676305"><ele>0.0</ele></rtept>
    <rtept lat="52.416872" lon="4.676336"><ele>0.0</ele></rtept>
    <rtept lat="52.416961" lon="4.676516"><ele>0.0</ele></rtept>
    <rtept lat="52.417062" lon="4.676807"><ele>0.0</ele></rtept>
    <rtept lat="52.417301" lon="4.677710"><ele>0.0</ele></rtept>
    <rtept lat="52.417388" lon="4.677985"><ele>0.0</ele></rtept>
    <rtept lat="52.417520" lon="4.678240"><ele>0.0</ele></rtept>
    <rtept lat="52.417474" lon="4.678811"><ele>0.0</ele></rtept>
    <rtept lat="52.417409" lon="4.678899"><ele>0.0</ele></rtept>
    <rtept lat="52.417155" lon="4.679026"><ele>0.0</ele></rtept>
    <rtept lat="52.417093" lon="4.679143"><ele>0.0</ele></rtept>
    <rtept lat="52.417036" lon="4.679365"><ele>0.0</ele></rtept>
    <rtept lat="52.417020" lon="4.679510"><ele>0.0</ele></rtept>
    <rtept lat="52.417032" lon="4.679646"><ele>0.0</ele></rtept>
    <rtept lat="52.417062" lon="4.679746"><ele>0.0</ele></rtept>
    <rtept lat="52.417117" lon="4.679845"><ele>0.0</ele></rtept>
    <rtept lat="52.417275" lon="4.680043"><ele>0.0</ele></rtept>
    <rtept lat="52.418050" lon="4.680869"><ele>0.0</ele></rtept>
    <rtept lat="52.418339" lon="4.681065"><ele>0.0</ele></rtept>
    <rtept lat="52.418707" lon="4.681243"><ele>0.0</ele></rtept>
    <rtept lat="52.418701" lon="4.681447"><ele>0.0</ele></rtept>
    <rtept lat="52.418682" lon="4.682094"><ele>0.0</ele></rtept>
    <rtept lat="52.418661" lon="4.682709"><ele>0.0</ele></rtept>
    <rtept lat="52.418658" lon="4.682771"><ele>0.0</ele></rtept>
    <rtept lat="52.418655" lon="4.683002"><ele>0.0</ele></rtept>
    <rtept lat="52.419045" lon="4.682939"><ele>0.0</ele></rtept>
    <rtept lat="52.419559" lon="4.682758"><ele>0.0</ele></rtept>
    <rtept lat="52.421243" lon="4.682349"><ele>0.0</ele></rtept>
    <rtept lat="52.422279" lon="4.681969"><ele>0.0</ele></rtept>
    <rtept lat="52.422640" lon="4.681808"><ele>0.0</ele></rtept>
    <rtept lat="52.423208" lon="4.681514"><ele>0.0</ele></rtept>
    <rtept lat="52.424264" lon="4.680862"><ele>0.0</ele></rtept>
    <rtept lat="52.424885" lon="4.680426"><ele>0.0</ele></rtept>
    <rtept lat="52.425874" lon="4.679680"><ele>0.0</ele></rtept>
    <rtept lat="52.425923" lon="4.679791"><ele>0.0</ele></rtept>
    <rtept lat="52.426077" lon="4.680037"><ele>0.0</ele></rtept>
    <rtept lat="52.427132" lon="4.681539"><ele>0.0</ele></rtept>
    <rtept lat="52.427212" lon="4.681651"><ele>0.0</ele></rtept>
    <rtept lat="52.427411" lon="4.681932"><ele>0.0</ele></rtept>
    <rtept lat="52.427475" lon="4.682036"><ele>0.0</ele></rtept>
    <rtept lat="52.428149" lon="4.683048"><ele>0.0</ele></rtept>
    <rtept lat="52.428018" lon="4.683225"><ele>0.0</ele></rtept>
    <rtept lat="52.427947" lon="4.683380"><ele>0.0</ele></rtept>
    <rtept lat="52.427921" lon="4.683587"><ele>0.0</ele></rtept>
    <rtept lat="52.427927" lon="4.683870"><ele>0.0</ele></rtept>
    <rtept lat="52.427974" lon="4.684077"><ele>0.0</ele></rtept>
    <rtept lat="52.428043" lon="4.684217"><ele>0.0</ele></rtept>
    <rtept lat="52.428204" lon="4.684443"><ele>0.0</ele></rtept>
    <rtept lat="52.428353" lon="4.684613"><ele>0.0</ele></rtept>
    <rtept lat="52.428223" lon="4.685363"><ele>0.0</ele></rtept>
    <rtept lat="52.428162" lon="4.685613"><ele>0.0</ele></rtept>
    <rtept lat="52.428041" lon="4.685918"><ele>0.0</ele></rtept>
    <rtept lat="52.427631" lon="4.686646"><ele>0.0</ele></rtept>
    <rtept lat="52.427549" lon="4.686826"><ele>0.0</ele></rtept>
    <rtept lat="52.427354" lon="4.687547"><ele>0.0</ele></rtept>
    <rtept lat="52.427301" lon="4.687756"><ele>0.0</ele></rtept>
    <rtept lat="52.427242" lon="4.687908"><ele>0.0</ele></rtept>
    <rtept lat="52.427073" lon="4.688081"><ele>0.0</ele></rtept>
    <rtept lat="52.427001" lon="4.688211"><ele>0.0</ele></rtept>
    <rtept lat="52.426944" lon="4.688383"><ele>0.0</ele></rtept>
    <rtept lat="52.426869" lon="4.688720"><ele>0.0</ele></rtept>
    <rtept lat="52.426831" lon="4.689016"><ele>0.0</ele></rtept>
    <rtept lat="52.426825" lon="4.689235"><ele>0.0</ele></rtept>
    <rtept lat="52.426856" lon="4.689685"><ele>0.0</ele></rtept>
    <rtept lat="52.426929" lon="4.690299"><ele>0.0</ele></rtept>
    <rtept lat="52.426908" lon="4.690811"><ele>0.0</ele></rtept>
    <rtept lat="52.426876" lon="4.691029"><ele>0.0</ele></rtept>
    <rtept lat="52.426841" lon="4.691148"><ele>0.0</ele></rtept>
    <rtept lat="52.426666" lon="4.691490"><ele>0.0</ele></rtept>
    <rtept lat="52.426609" lon="4.691650"><ele>0.0</ele></rtept>
    <rtept lat="52.426594" lon="4.691732"><ele>0.0</ele></rtept>
    <rtept lat="52.426565" lon="4.691903"><ele>0.0</ele></rtept>
    <rtept lat="52.426507" lon="4.692205"><ele>0.0</ele></rtept>
    <rtept lat="52.426552" lon="4.692519"><ele>0.0</ele></rtept>
    <rtept lat="52.426945" lon="4.693625"><ele>0.0</ele></rtept>
    <rtept lat="52.427034" lon="4.693796"><ele>0.0</ele></rtept>
    <rtept lat="52.427092" lon="4.693870"><ele>0.0</ele></rtept>
    <rtept lat="52.427347" lon="4.694063"><ele>0.0</ele></rtept>
    <rtept lat="52.427510" lon="4.694217"><ele>0.0</ele></rtept>
    <rtept lat="52.427676" lon="4.694425"><ele>0.0</ele></rtept>
    <rtept lat="52.427770" lon="4.694577"><ele>0.0</ele></rtept>
    <rtept lat="52.427888" lon="4.694825"><ele>0.0</ele></rtept>
    <rtept lat="52.428294" lon="4.696075"><ele>0.0</ele></rtept>
    <rtept lat="52.428451" lon="4.696510"><ele>0.0</ele></rtept>
    <rtept lat="52.428600" lon="4.696743"><ele>0.0</ele></rtept>
    <rtept lat="52.428899" lon="4.697094"><ele>0.0</ele></rtept>
    <rtept lat="52.429300" lon="4.697415"><ele>0.0</ele></rtept>
    <rtept lat="52.429346" lon="4.697481"><ele>0.0</ele></rtept>
    <rtept lat="52.429745" lon="4.698351"><ele>0.0</ele></rtept>
    <rtept lat="52.429778" lon="4.698424"><ele>0.0</ele></rtept>
    <rtept lat="52.430068" lon="4.699055"><ele>0.0</ele></rtept>
    <rtept lat="52.430162" lon="4.699219"><ele>0.0</ele></rtept>
    <rtept lat="52.430306" lon="4.699409"><ele>0.0</ele></rtept>
    <rtept lat="52.430642" lon="4.699798"><ele>0.0</ele></rtept>
    <rtept lat="52.430830" lon="4.700070"><ele>0.0</ele></rtept>
    <rtept lat="52.430861" lon="4.700144"><ele>0.0</ele></rtept>
    <rtept lat="52.431260" lon="4.701153"><ele>0.0</ele></rtept>
    <rtept lat="52.431480" lon="4.701682"><ele>0.0</ele></rtept>
    <rtept lat="52.431667" lon="4.701965"><ele>0.0</ele></rtept>
    <rtept lat="52.431979" lon="4.702235"><ele>0.0</ele></rtept>
    <rtept lat="52.432401" lon="4.702493"><ele>0.0</ele></rtept>
    <rtept lat="52.432639" lon="4.702620"><ele>0.0</ele></rtept>
    <rtept lat="52.432754" lon="4.702715"><ele>0.0</ele></rtept>
    <rtept lat="52.432939" lon="4.702946"><ele>0.0</ele></rtept>
    <rtept lat="52.433062" lon="4.703151"><ele>0.0</ele></rtept>
    <rtept lat="52.433660" lon="4.704434"><ele>0.0</ele></rtept>
    <rtept lat="52.433720" lon="4.704684"><ele>0.0</ele></rtept>
    <rtept lat="52.433747" lon="4.705123"><ele>0.0</ele></rtept>
    <rtept lat="52.433774" lon="4.705932"><ele>0.0</ele></rtept>
    <rtept lat="52.433820" lon="4.706198"><ele>0.0</ele></rtept>
    <rtept lat="52.433964" lon="4.706820"><ele>0.0</ele></rtept>
    <rtept lat="52.434061" lon="4.707085"><ele>0.0</ele></rtept>
    <rtept lat="52.434148" lon="4.707219"><ele>0.0</ele></rtept>
    <rtept lat="52.433829" lon="4.707813"><ele>0.0</ele></rtept>
    <rtept lat="52.433798" lon="4.707911"><ele>0.0</ele></rtept>
    <rtept lat="52.433758" lon="4.708175"><ele>0.0</ele></rtept>
    <rtept lat="52.433691" lon="4.708385"><ele>0.0</ele></rtept>
    <rtept lat="52.432972" lon="4.710244"><ele>0.0</ele></rtept>
    <rtept lat="52.432856" lon="4.710512"><ele>0.0</ele></rtept>
    <rtept lat="52.432773" lon="4.710659"><ele>0.0</ele></rtept>
    <rtept lat="52.433170" lon="4.711458"><ele>0.0</ele></rtept>
    <rtept lat="52.433553" lon="4.712392"><ele>0.0</ele></rtept>
    <rtept lat="52.433721" lon="4.712482"><ele>0.0</ele></rtept>
    <rtept lat="52.433611" lon="4.712979"><ele>0.0</ele></rtept>
    <rtept lat="52.433339" lon="4.714372"><ele>0.0</ele></rtept>
    <rtept lat="52.433081" lon="4.715422"><ele>0.0</ele></rtept>
    <rtept lat="52.432833" lon="4.716132"><ele>0.0</ele></rtept>
    <rtept lat="52.432563" lon="4.716812"><ele>0.0</ele></rtept>
    <rtept lat="52.432139" lon="4.717699"><ele>0.0</ele></rtept>
    <rtept lat="52.432054" lon="4.717876"><ele>0.0</ele></rtept>
    <rtept lat="52.431103" lon="4.719923"><ele>0.0</ele></rtept>
    <rtept lat="52.430800" lon="4.720723"><ele>0.0</ele></rtept>
    <rtept lat="52.430655" lon="4.721243"><ele>0.0</ele></rtept>
    <rtept lat="52.430586" lon="4.721576"><ele>0.0</ele></rtept>
    <rtept lat="52.430531" lon="4.721947"><ele>0.0</ele></rtept>
    <rtept lat="52.430487" lon="4.722600"><ele>0.0</ele></rtept>
    <rtept lat="52.430802" lon="4.722576"><ele>0.0</ele></rtept>
    <rtept lat="52.430908" lon="4.722498"><ele>0.0</ele></rtept>
    <rtept lat="52.431052" lon="4.722331"><ele>0.0</ele></rtept>
    <rtept lat="52.431126" lon="4.722285"><ele>0.0</ele></rtept>
    <rtept lat="52.431232" lon="4.722267"><ele>0.0</ele></rtept>
    <rtept lat="52.431335" lon="4.722289"><ele>0.0</ele></rtept>
    <rtept lat="52.431402" lon="4.722336"><ele>0.0</ele></rtept>
    <rtept lat="52.431523" lon="4.722482"><ele>0.0</ele></rtept>
    <rtept lat="52.431563" lon="4.722487"><ele>0.0</ele></rtept>
    <rtept lat="52.431631" lon="4.722448"><ele>0.0</ele></rtept>
    <rtept lat="52.431656" lon="4.722453"><ele>0.0</ele></rtept>
    <rtept lat="52.431731" lon="4.722568"><ele>0.0</ele></rtept>
    <rtept lat="52.431821" lon="4.722703"><ele>0.0</ele></rtept>
    <rtept lat="52.431986" lon="4.722406"><ele>0.0</ele></rtept>
    <rtept lat="52.432090" lon="4.722067"><ele>0.0</ele></rtept>
    <rtept lat="52.432152" lon="4.721664"><ele>0.0</ele></rtept>
    <rtept lat="52.432159" lon="4.721473"><ele>0.0</ele></rtept>
    <rtept lat="52.432148" lon="4.721303"><ele>0.0</ele></rtept>
    <rtept lat="52.432095" lon="4.721010"><ele>0.0</ele></rtept>
    <rtept lat="52.432030" lon="4.720813"><ele>0.0</ele></rtept>
    <rtept lat="52.431448" lon="4.719674"><ele>0.0</ele></rtept>
    <rtept lat="52.431012" lon="4.718705"><ele>0.0</ele></rtept>
    <rtept lat="52.430617" lon="4.717794"><ele>0.0</ele></rtept>
    <rtept lat="52.428112" lon="4.712882"><ele>0.0</ele></rtept>
    <rtept lat="52.427659" lon="4.711896"><ele>0.0</ele></rtept>
    <rtept lat="52.427194" lon="4.710697"><ele>0.0</ele></rtept>
    <rtept lat="52.426762" lon="4.709417"><ele>0.0</ele></rtept>
    <rtept lat="52.426549" lon="4.708698"><ele>0.0</ele></rtept>
    <rtept lat="52.426311" lon="4.707746"><ele>0.0</ele></rtept>
    <rtept lat="52.426044" lon="4.706461"><ele>0.0</ele></rtept>
    <rtept lat="52.425287" lon="4.702531"><ele>0.0</ele></rtept>
    <rtept lat="52.425179" lon="4.702024"><ele>0.0</ele></rtept>
    <rtept lat="52.425044" lon="4.701503"><ele>0.0</ele></rtept>
    <rtept lat="52.424953" lon="4.701228"><ele>0.0</ele></rtept>
    <rtept lat="52.424747" lon="4.700708"><ele>0.0</ele></rtept>
    <rtept lat="52.424408" lon="4.700016"><ele>0.0</ele></rtept>
    <rtept lat="52.424196" lon="4.699674"><ele>0.0</ele></rtept>
    <rtept lat="52.423777" lon="4.699112"><ele>0.0</ele></rtept>
    <rtept lat="52.423495" lon="4.698687"><ele>0.0</ele></rtept>
    <rtept lat="52.423011" lon="4.698070"><ele>0.0</ele></rtept>
    <rtept lat="52.422692" lon="4.697713"><ele>0.0</ele></rtept>
    <rtept lat="52.420471" lon="4.694874"><ele>0.0</ele></rtept>
    <rtept lat="52.420418" lon="4.694970"><ele>0.0</ele></rtept>
    <rtept lat="52.420356" lon="4.695027"><ele>0.0</ele></rtept>
    <rtept lat="52.419930" lon="4.695498"><ele>0.0</ele></rtept>
    <rtept lat="52.419242" lon="4.696173"><ele>0.0</ele></rtept>
    <rtept lat="52.417833" lon="4.697475"><ele>0.0</ele></rtept>
    <rtept lat="52.417703" lon="4.697595"><ele>0.0</ele></rtept>
    <rtept lat="52.415867" lon="4.699306"><ele>0.0</ele></rtept>
    <rtept lat="52.415680" lon="4.699490"><ele>0.0</ele></rtept>
    <rtept lat="52.415185" lon="4.699959"><ele>0.0</ele></rtept>
    <rtept lat="52.414786" lon="4.700399"><ele>0.0</ele></rtept>
    <rtept lat="52.414650" lon="4.700499"><ele>0.0</ele></rtept>
    <rtept lat="52.410395" lon="4.701286"><ele>0.0</ele></rtept>
    <rtept lat="52.410223" lon="4.701354"><ele>0.0</ele></rtept>
    <rtept lat="52.410070" lon="4.701390"><ele>0.0</ele></rtept>
    <rtept lat="52.409371" lon="4.701760"><ele>0.0</ele></rtept>
    <rtept lat="52.408717" lon="4.702155"><ele>0.0</ele></rtept>
    <rtept lat="52.407907" lon="4.702623"><ele>0.0</ele></rtept>
    <rtept lat="52.407499" lon="4.702856"><ele>0.0</ele></rtept>
    <rtept lat="52.407054" lon="4.703105"><ele>0.0</ele></rtept>
    <rtept lat="52.407010" lon="4.702920"><ele>0.0</ele></rtept>
    <rtept lat="52.406987" lon="4.702818"><ele>0.0</ele></rtept>
    <rtept lat="52.406905" lon="4.702387"><ele>0.0</ele></rtept>
    <rtept lat="52.406857" lon="4.702239"><ele>0.0</ele></rtept>
    <rtept lat="52.406673" lon="4.701895"><ele>0.0</ele></rtept>
    <rtept lat="52.406470" lon="4.701573"><ele>0.0</ele></rtept>
    <rtept lat="52.406529" lon="4.701400"><ele>0.0</ele></rtept>
    <rtept lat="52.405833" lon="4.700193"><ele>0.0</ele></rtept>
    <rtept lat="52.405217" lon="4.698284"><ele>0.0</ele></rtept>
    <rtept lat="52.405117" lon="4.698034"><ele>0.0</ele></rtept>
    <rtept lat="52.404934" lon="4.697680"><ele>0.0</ele></rtept>
    <rtept lat="52.404489" lon="4.696691"><ele>0.0</ele></rtept>
    <rtept lat="52.404204" lon="4.696155"><ele>0.0</ele></rtept>
    <rtept lat="52.403989" lon="4.695757"><ele>0.0</ele></rtept>
    <rtept lat="52.403869" lon="4.695577"><ele>0.0</ele></rtept>
    <rtept lat="52.403720" lon="4.695490"><ele>0.0</ele></rtept>
    <rtept lat="52.403405" lon="4.695492"><ele>0.0</ele></rtept>
    <rtept lat="52.403403" lon="4.695537"><ele>0.0</ele></rtept>
    <rtept lat="52.403398" lon="4.695636"><ele>0.0</ele></rtept>
    <rtept lat="52.403396" lon="4.695727"><ele>0.0</ele></rtept>
    <rtept lat="52.403450" lon="4.695761"><ele>0.0</ele></rtept>
    <rtept lat="52.403495" lon="4.695937"><ele>0.0</ele></rtept>
    <rtept lat="52.403483" lon="4.696002"><ele>0.0</ele></rtept>
    <rtept lat="52.402554" lon="4.697120"><ele>0.0</ele></rtept>
    <rtept lat="52.401579" lon="4.698277"><ele>0.0</ele></rtept>
    <rtept lat="52.400827" lon="4.698986"><ele>0.0</ele></rtept>
    <rtept lat="52.400735" lon="4.699050"><ele>0.0</ele></rtept>
    <rtept lat="52.400451" lon="4.699157"><ele>0.0</ele></rtept>
    <rtept lat="52.400317" lon="4.699168"><ele>0.0</ele></rtept>
    <rtept lat="52.400171" lon="4.699111"><ele>0.0</ele></rtept>
    <rtept lat="52.400048" lon="4.699020"><ele>0.0</ele></rtept>
    <rtept lat="52.399936" lon="4.698891"><ele>0.0</ele></rtept>
    <rtept lat="52.399555" lon="4.698150"><ele>0.0</ele></rtept>
    <rtept lat="52.399380" lon="4.697956"><ele>0.0</ele></rtept>
    <rtept lat="52.395901" lon="4.701805"><ele>0.0</ele></rtept>
    <rtept lat="52.395774" lon="4.701856"><ele>0.0</ele></rtept>
    <rtept lat="52.395297" lon="4.701918"><ele>0.0</ele></rtept>
    <rtept lat="52.395244" lon="4.701903"><ele>0.0</ele></rtept>
    <rtept lat="52.395139" lon="4.701781"><ele>0.0</ele></rtept>
    <rtept lat="52.395033" lon="4.701508"><ele>0.0</ele></rtept>
    <rtept lat="52.394790" lon="4.701055"><ele>0.0</ele></rtept>
    <rtept lat="52.394692" lon="4.700756"><ele>0.0</ele></rtept>
    <rtept lat="52.394120" lon="4.699301"><ele>0.0</ele></rtept>
    <rtept lat="52.393930" lon="4.698952"><ele>0.0</ele></rtept>
    <rtept lat="52.393700" lon="4.698711"><ele>0.0</ele></rtept>
    <rtept lat="52.393595" lon="4.698658"><ele>0.0</ele></rtept>
    <rtept lat="52.393320" lon="4.698578"><ele>0.0</ele></rtept>
    <rtept lat="52.392766" lon="4.698315"><ele>0.0</ele></rtept>
    <rtept lat="52.392359" lon="4.698023"><ele>0.0</ele></rtept>
    <rtept lat="52.391996" lon="4.697504"><ele>0.0</ele></rtept>
    <rtept lat="52.391728" lon="4.697200"><ele>0.0</ele></rtept>
    <rtept lat="52.391514" lon="4.696778"><ele>0.0</ele></rtept>
    <rtept lat="52.391501" lon="4.696751"><ele>0.0</ele></rtept>
    <rtept lat="52.391444" lon="4.696620"><ele>0.0</ele></rtept>
    <rtept lat="52.391320" lon="4.696306"><ele>0.0</ele></rtept>
    <rtept lat="52.391299" lon="4.696174"><ele>0.0</ele></rtept>
    <rtept lat="52.391261" lon="4.695477"><ele>0.0</ele></rtept>
    <rtept lat="52.391195" lon="4.695199"><ele>0.0</ele></rtept>
    <rtept lat="52.390509" lon="4.693483"><ele>0.0</ele></rtept>
    <rtept lat="52.390348" lon="4.693115"><ele>0.0</ele></rtept>
    <rtept lat="52.390237" lon="4.692794"><ele>0.0</ele></rtept>
    <rtept lat="52.389954" lon="4.692249"><ele>0.0</ele></rtept>
    <rtept lat="52.389500" lon="4.691227"><ele>0.0</ele></rtept>
    <rtept lat="52.389117" lon="4.690395"><ele>0.0</ele></rtept>
    <rtept lat="52.389050" lon="4.690288"><ele>0.0</ele></rtept>
    <rtept lat="52.388864" lon="4.690121"><ele>0.0</ele></rtept>
    <rtept lat="52.388794" lon="4.690032"><ele>0.0</ele></rtept>
    <rtept lat="52.388662" lon="4.689675"><ele>0.0</ele></rtept>
    <rtept lat="52.388533" lon="4.689775"><ele>0.0</ele></rtept>
    <rtept lat="52.388370" lon="4.689865"><ele>0.0</ele></rtept>
    <rtept lat="52.387878" lon="4.690005"><ele>0.0</ele></rtept>
    <rtept lat="52.387361" lon="4.690070"><ele>0.0</ele></rtept>
    <rtept lat="52.387159" lon="4.689955"><ele>0.0</ele></rtept>
    <rtept lat="52.386704" lon="4.689642"><ele>0.0</ele></rtept>
    <rtept lat="52.385818" lon="4.689128"><ele>0.0</ele></rtept>
    <rtept lat="52.384872" lon="4.688607"><ele>0.0</ele></rtept>
    <rtept lat="52.384559" lon="4.688483"><ele>0.0</ele></rtept>
    <rtept lat="52.384373" lon="4.688449"><ele>0.0</ele></rtept>
    <rtept lat="52.384124" lon="4.688398"><ele>0.0</ele></rtept>
    <rtept lat="52.383819" lon="4.688425"><ele>0.0</ele></rtept>
    <rtept lat="52.383572" lon="4.688479"><ele>0.0</ele></rtept>
    <rtept lat="52.383439" lon="4.688509"><ele>0.0</ele></rtept>
    <rtept lat="52.383362" lon="4.688525"><ele>0.0</ele></rtept>
    <rtept lat="52.383324" lon="4.688063"><ele>0.0</ele></rtept>
    <rtept lat="52.383293" lon="4.687046"><ele>0.0</ele></rtept>
    <rtept lat="52.383273" lon="4.686379"><ele>0.0</ele></rtept>
    <rtept lat="52.383222" lon="4.685672"><ele>0.0</ele></rtept>
    <rtept lat="52.383033" lon="4.683302"><ele>0.0</ele></rtept>
    <rtept lat="52.382992" lon="4.683096"><ele>0.0</ele></rtept>
    <rtept lat="52.382875" lon="4.682698"><ele>0.0</ele></rtept>
    <rtept lat="52.382810" lon="4.682410"><ele>0.0</ele></rtept>
    <rtept lat="52.382770" lon="4.682133"><ele>0.0</ele></rtept>
    <rtept lat="52.382747" lon="4.681843"><ele>0.0</ele></rtept>
    <rtept lat="52.382746" lon="4.681586"><ele>0.0</ele></rtept>
    <rtept lat="52.382791" lon="4.681123"><ele>0.0</ele></rtept>
    <rtept lat="52.382828" lon="4.680840"><ele>0.0</ele></rtept>
    <rtept lat="52.382870" lon="4.680472"><ele>0.0</ele></rtept>
    <rtept lat="52.382884" lon="4.680313"><ele>0.0</ele></rtept>
    <rtept lat="52.382873" lon="4.679976"><ele>0.0</ele></rtept>
    <rtept lat="52.382742" lon="4.678856"><ele>0.0</ele></rtept>
    <rtept lat="52.382526" lon="4.677270"><ele>0.0</ele></rtept>
    <rtept lat="52.382460" lon="4.676615"><ele>0.0</ele></rtept>
    <rtept lat="52.382414" lon="4.675667"><ele>0.0</ele></rtept>
    <rtept lat="52.382415" lon="4.674893"><ele>0.0</ele></rtept>
    <rtept lat="52.382439" lon="4.674017"><ele>0.0</ele></rtept>
    <rtept lat="52.382403" lon="4.673346"><ele>0.0</ele></rtept>
    <rtept lat="52.382359" lon="4.672730"><ele>0.0</ele></rtept>
    <rtept lat="52.382322" lon="4.672671"><ele>0.0</ele></rtept>
    <rtept lat="52.382158" lon="4.672706"><ele>0.0</ele></rtept>
    <rtept lat="52.382112" lon="4.672675"><ele>0.0</ele></rtept>
    <rtept lat="52.382102" lon="4.672635"><ele>0.0</ele></rtept>
    <rtept lat="52.382061" lon="4.672121"><ele>0.0</ele></rtept>
    <rtept lat="52.382021" lon="4.672080"><ele>0.0</ele></rtept>
    <rtept lat="52.381725" lon="4.672127"><ele>0.0</ele></rtept>
    <rtept lat="52.381694" lon="4.672099"><ele>0.0</ele></rtept>
    <rtept lat="52.381680" lon="4.672064"><ele>0.0</ele></rtept>
    <rtept lat="52.381643" lon="4.671069"><ele>0.0</ele></rtept>
    <rtept lat="52.381633" lon="4.670943"><ele>0.0</ele></rtept>
    <rtept lat="52.381628" lon="4.670879"><ele>0.0</ele></rtept>
    <rtept lat="52.381593" lon="4.670847"><ele>0.0</ele></rtept>
    <rtept lat="52.381288" lon="4.670876"><ele>0.0</ele></rtept>
    <rtept lat="52.381203" lon="4.670825"><ele>0.0</ele></rtept>
    <rtept lat="52.381121" lon="4.670776"><ele>0.0</ele></rtept>
    <rtept lat="52.381034" lon="4.670775"><ele>0.0</ele></rtept>
    <rtept lat="52.380936" lon="4.670778"><ele>0.0</ele></rtept>
    <rtept lat="52.380865" lon="4.670782"><ele>0.0</ele></rtept>
    <rtept lat="52.380855" lon="4.670704"><ele>0.0</ele></rtept>
    <rtept lat="52.380811" lon="4.670591"><ele>0.0</ele></rtept>
    <rtept lat="52.380717" lon="4.670519"><ele>0.0</ele></rtept>
    <rtept lat="52.380678" lon="4.670495"><ele>0.0</ele></rtept>
    <rtept lat="52.380602" lon="4.670450"><ele>0.0</ele></rtept>
    <rtept lat="52.380566" lon="4.670429"><ele>0.0</ele></rtept>
    <rtept lat="52.380549" lon="4.670522"><ele>0.0</ele></rtept>
    <rtept lat="52.379439" lon="4.669870"><ele>0.0</ele></rtept>
    <rtept lat="52.378273" lon="4.669179"><ele>0.0</ele></rtept>
    <rtept lat="52.378371" lon="4.668727"><ele>0.0</ele></rtept>
    <rtept lat="52.378463" lon="4.668303"><ele>0.0</ele></rtept>
    <rtept lat="52.378546" lon="4.667926"><ele>0.0</ele></rtept>
    <rtept lat="52.378571" lon="4.667899"><ele>0.0</ele></rtept>
    <rtept lat="52.378609" lon="4.667723"><ele>0.0</ele></rtept>
    <rtept lat="52.378636" lon="4.667596"><ele>0.0</ele></rtept>
    <rtept lat="52.378670" lon="4.667441"><ele>0.0</ele></rtept>
    <rtept lat="52.378742" lon="4.667100"><ele>0.0</ele></rtept>
    <rtept lat="52.378831" lon="4.666714"><ele>0.0</ele></rtept>
    <rtept lat="52.378341" lon="4.666574"><ele>0.0</ele></rtept>
    <rtept lat="52.378280" lon="4.666555"><ele>0.0</ele></rtept>
    <rtept lat="52.378204" lon="4.666478"><ele>0.0</ele></rtept>
    <rtept lat="52.378151" lon="4.666361"><ele>0.0</ele></rtept>
    <rtept lat="52.378137" lon="4.666259"><ele>0.0</ele></rtept>
    <rtept lat="52.378156" lon="4.665901"><ele>0.0</ele></rtept>
    <rtept lat="52.378191" lon="4.665554"><ele>0.0</ele></rtept>
    <rtept lat="52.378227" lon="4.665130"><ele>0.0</ele></rtept>
    <rtept lat="52.378236" lon="4.665024"><ele>0.0</ele></rtept>
    <rtept lat="52.378264" lon="4.664720"><ele>0.0</ele></rtept>
    <rtept lat="52.378294" lon="4.664365"><ele>0.0</ele></rtept>
    <rtept lat="52.378329" lon="4.663933"><ele>0.0</ele></rtept>
    <rtept lat="52.378359" lon="4.663621"><ele>0.0</ele></rtept>
    <rtept lat="52.378392" lon="4.662997"><ele>0.0</ele></rtept>
    <rtept lat="52.378520" lon="4.662294"><ele>0.0</ele></rtept>
    <rtept lat="52.378728" lon="4.661290"><ele>0.0</ele></rtept>
    <rtept lat="52.378748" lon="4.661213"><ele>0.0</ele></rtept>
    <rtept lat="52.378773" lon="4.661104"><ele>0.0</ele></rtept>
    <rtept lat="52.378820" lon="4.660866"><ele>0.0</ele></rtept>
    <rtept lat="52.378855" lon="4.660810"><ele>0.0</ele></rtept>
    <rtept lat="52.378880" lon="4.660685"><ele>0.0</ele></rtept>
    <rtept lat="52.378915" lon="4.660505"><ele>0.0</ele></rtept>
    <rtept lat="52.378941" lon="4.660375"><ele>0.0</ele></rtept>
    <rtept lat="52.378971" lon="4.660226"><ele>0.0</ele></rtept>
    <rtept lat="52.378980" lon="4.659944"><ele>0.0</ele></rtept>
    <rtept lat="52.378994" lon="4.659805"><ele>0.0</ele></rtept>
    <rtept lat="52.379026" lon="4.659422"><ele>0.0</ele></rtept>
    <rtept lat="52.379447" lon="4.659520"><ele>0.0</ele></rtept>
    <rtept lat="52.379574" lon="4.657888"><ele>0.0</ele></rtept>
    <rtept lat="52.379804" lon="4.657899"><ele>0.0</ele></rtept>
    <rtept lat="52.380041" lon="4.657887"><ele>0.0</ele></rtept>
    <rtept lat="52.380029" lon="4.657510"><ele>0.0</ele></rtept>
  </rte>
</gpx>