<?xml version="1.0" encoding="UTF-8"?>
<gpx version="1.1" creator="WeeklyCyclingRoutes"
  xmlns="http://www.topografix.com/GPX/1/1"
  xmlns:xsi="http://www.w3.org/2001/XMLSchema-instance"
  xsi:schemaLocation="http://www.topografix.com/GPX/1/1 http://www.topografix.com/GPX/1/1/gpx.xsd">
  <metadata>
    <name>50km Route – August 17, 2026</name>
    <desc>Round trip from Cremerstraat, Haarlem. Actual: 47.4km</desc>
    <time>2026-08-17T06:40:57Z</time>
  </metadata>
  <rte>
    <name>50km Cycling Route – Haarlem</name>
    <rtept lat="52.380029" lon="4.657510"><ele>0.0</ele></rtept>
    <rtept lat="52.380041" lon="4.657887"><ele>0.0</ele></rtept>
    <rtept lat="52.379804" lon="4.657899"><ele>0.0</ele></rtept>
    <rtept lat="52.379574" lon="4.657888"><ele>0.0</ele></rtept>
    <rtept lat="52.379447" lon="4.659520"><ele>0.0</ele></rtept>
    <rtept lat="52.379026" lon="4.659422"><ele>0.0</ele></rtept>
    <rtept lat="52.378994" lon="4.659805"><ele>0.0</ele></rtept>
    <rtept lat="52.378980" lon="4.659944"><ele>0.0</ele></rtept>
    <rtept lat="52.378919" lon="4.660207"><ele>0.0</ele></rtept>
    <rtept lat="52.378892" lon="4.660355"><ele>0.0</ele></rtept>
    <rtept lat="52.378869" lon="4.660481"><ele>0.0</ele></rtept>
    <rtept lat="52.378835" lon="4.660666"><ele>0.0</ele></rtept>
    <rtept lat="52.378754" lon="4.660632"><ele>0.0</ele></rtept>
    <rtept lat="52.378107" lon="4.660341"><ele>0.0</ele></rtept>
    <rtept lat="52.376591" lon="4.659639"><ele>0.0</ele></rtept>
    <rtept lat="52.376416" lon="4.659550"><ele>0.0</ele></rtept>
    <rtept lat="52.376248" lon="4.659469"><ele>0.0</ele></rtept>
    <rtept lat="52.375939" lon="4.659321"><ele>0.0</ele></rtept>
    <rtept lat="52.375387" lon="4.658920"><ele>0.0</ele></rtept>
    <rtept lat="52.375299" lon="4.658822"><ele>0.0</ele></rtept>
    <rtept lat="52.375264" lon="4.658783"><ele>0.0</ele></rtept>
    <rtept lat="52.375174" lon="4.658688"><ele>0.0</ele></rtept>
    <rtept lat="52.375071" lon="4.658558"><ele>0.0</ele></rtept>
    <rtept lat="52.374903" lon="4.658355"><ele>0.0</ele></rtept>
    <rtept lat="52.374774" lon="4.658199"><ele>0.0</ele></rtept>
    <rtept lat="52.374640" lon="4.658034"><ele>0.0</ele></rtept>
    <rtept lat="52.374391" lon="4.657790"><ele>0.0</ele></rtept>
    <rtept lat="52.374222" lon="4.657609"><ele>0.0</ele></rtept>
    <rtept lat="52.372821" lon="4.656439"><ele>0.0</ele></rtept>
    <rtept lat="52.371743" lon="4.655569"><ele>0.0</ele></rtept>
    <rtept lat="52.371644" lon="4.655494"><ele>0.0</ele></rtept>
    <rtept lat="52.371432" lon="4.655322"><ele>0.0</ele></rtept>
    <rtept lat="52.370928" lon="4.654930"><ele>0.0</ele></rtept>
    <rtept lat="52.370723" lon="4.654874"><ele>0.0</ele></rtept>
    <rtept lat="52.370389" lon="4.654836"><ele>0.0</ele></rtept>
    <rtept lat="52.370283" lon="4.654833"><ele>0.0</ele></rtept>
    <rtept lat="52.370075" lon="4.654826"><ele>0.0</ele></rtept>
    <rtept lat="52.369981" lon="4.654809"><ele>0.0</ele></rtept>
    <rtept lat="52.369938" lon="4.654772"><ele>0.0</ele></rtept>
    <rtept lat="52.369824" lon="4.654648"><ele>0.0</ele></rtept>
    <rtept lat="52.368957" lon="4.654543"><ele>0.0</ele></rtept>
    <rtept lat="52.368663" lon="4.654470"><ele>0.0</ele></rtept>
    <rtept lat="52.368353" lon="4.654479"><ele>0.0</ele></rtept>
    <rtept lat="52.368337" lon="4.654479"><ele>0.0</ele></rtept>
    <rtept lat="52.368020" lon="4.654482"><ele>0.0</ele></rtept>
    <rtept lat="52.367966" lon="4.654499"><ele>0.0</ele></rtept>
    <rtept lat="52.367813" lon="4.654557"><ele>0.0</ele></rtept>
    <rtept lat="52.367800" lon="4.654688"><ele>0.0</ele></rtept>
    <rtept lat="52.367802" lon="4.655012"><ele>0.0</ele></rtept>
    <rtept lat="52.367801" lon="4.656505"><ele>0.0</ele></rtept>
    <rtept lat="52.367811" lon="4.657704"><ele>0.0</ele></rtept>
    <rtept lat="52.367821" lon="4.659432"><ele>0.0</ele></rtept>
    <rtept lat="52.367829" lon="4.660912"><ele>0.0</ele></rtept>
    <rtept lat="52.367827" lon="4.662490"><ele>0.0</ele></rtept>
    <rtept lat="52.367872" lon="4.663787"><ele>0.0</ele></rtept>
    <rtept lat="52.367879" lon="4.664269"><ele>0.0</ele></rtept>
    <rtept lat="52.367889" lon="4.666109"><ele>0.0</ele></rtept>
    <rtept lat="52.367838" lon="4.666112"><ele>0.0</ele></rtept>
    <rtept lat="52.367782" lon="4.666114"><ele>0.0</ele></rtept>
    <rtept lat="52.367674" lon="4.666133"><ele>0.0</ele></rtept>
    <rtept lat="52.367549" lon="4.666157"><ele>0.0</ele></rtept>
    <rtept lat="52.366772" lon="4.666360"><ele>0.0</ele></rtept>
    <rtept lat="52.366728" lon="4.666376"><ele>0.0</ele></rtept>
    <rtept lat="52.366226" lon="4.666499"><ele>0.0</ele></rtept>
    <rtept lat="52.364616" lon="4.666862"><ele>0.0</ele></rtept>
    <rtept lat="52.364555" lon="4.666877"><ele>0.0</ele></rtept>
    <rtept lat="52.364252" lon="4.666958"><ele>0.0</ele></rtept>
    <rtept lat="52.362877" lon="4.667285"><ele>0.0</ele></rtept>
    <rtept lat="52.362158" lon="4.667456"><ele>0.0</ele></rtept>
    <rtept lat="52.362034" lon="4.667495"><ele>0.0</ele></rtept>
    <rtept lat="52.361115" lon="4.667716"><ele>0.0</ele></rtept>
    <rtept lat="52.360741" lon="4.667804"><ele>0.0</ele></rtept>
    <rtept lat="52.360693" lon="4.668029"><ele>0.0</ele></rtept>
    <rtept lat="52.360581" lon="4.668367"><ele>0.0</ele></rtept>
    <rtept lat="52.360467" lon="4.668618"><ele>0.0</ele></rtept>
    <rtept lat="52.360332" lon="4.668884"><ele>0.0</ele></rtept>
    <rtept lat="52.360291" lon="4.668924"><ele>0.0</ele></rtept>
    <rtept lat="52.360156" lon="4.669100"><ele>0.0</ele></rtept>
    <rtept lat="52.359958" lon="4.669296"><ele>0.0</ele></rtept>
    <rtept lat="52.359637" lon="4.669464"><ele>0.0</ele></rtept>
    <rtept lat="52.359469" lon="4.669519"><ele>0.0</ele></rtept>
    <rtept lat="52.359365" lon="4.669522"><ele>0.0</ele></rtept>
    <rtept lat="52.358102" lon="4.669544"><ele>0.0</ele></rtept>
    <rtept lat="52.357541" lon="4.669577"><ele>0.0</ele></rtept>
    <rtept lat="52.356571" lon="4.669792"><ele>0.0</ele></rtept>
    <rtept lat="52.356332" lon="4.669868"><ele>0.0</ele></rtept>
    <rtept lat="52.355799" lon="4.670115"><ele>0.0</ele></rtept>
    <rtept lat="52.355744" lon="4.670136"><ele>0.0</ele></rtept>
    <rtept lat="52.355673" lon="4.670170"><ele>0.0</ele></rtept>
    <rtept lat="52.355736" lon="4.670631"><ele>0.0</ele></rtept>
    <rtept lat="52.355992" lon="4.672205"><ele>0.0</ele></rtept>
    <rtept lat="52.356103" lon="4.673000"><ele>0.0</ele></rtept>
    <rtept lat="52.356060" lon="4.673244"><ele>0.0</ele></rtept>
    <rtept lat="52.355980" lon="4.673417"><ele>0.0</ele></rtept>
    <rtept lat="52.355766" lon="4.673762"><ele>0.0</ele></rtept>
    <rtept lat="52.354878" lon="4.674952"><ele>0.0</ele></rtept>
    <rtept lat="52.354134" lon="4.675928"><ele>0.0</ele></rtept>
    <rtept lat="52.354027" lon="4.676138"><ele>0.0</ele></rtept>
    <rtept lat="52.354006" lon="4.676245"><ele>0.0</ele></rtept>
    <rtept lat="52.353924" lon="4.676809"><ele>0.0</ele></rtept>
    <rtept lat="52.353909" lon="4.676910"><ele>0.0</ele></rtept>
    <rtept lat="52.353525" lon="4.676767"><ele>0.0</ele></rtept>
    <rtept lat="52.352686" lon="4.676218"><ele>0.0</ele></rtept>
    <rtept lat="52.352414" lon="4.676000"><ele>0.0</ele></rtept>
    <rtept lat="52.351765" lon="4.675341"><ele>0.0</ele></rtept>
    <rtept lat="52.351536" lon="4.675076"><ele>0.0</ele></rtept>
    <rtept lat="52.351073" lon="4.674468"><ele>0.0</ele></rtept>
    <rtept lat="52.350937" lon="4.674255"><ele>0.0</ele></rtept>
    <rtept lat="52.350570" lon="4.673550"><ele>0.0</ele></rtept>
    <rtept lat="52.349416" lon="4.670958"><ele>0.0</ele></rtept>
    <rtept lat="52.349319" lon="4.671047"><ele>0.0</ele></rtept>
    <rtept lat="52.348940" lon="4.671303"><ele>0.0</ele></rtept>
    <rtept lat="52.348565" lon="4.671474"><ele>0.0</ele></rtept>
    <rtept lat="52.348137" lon="4.671580"><ele>0.0</ele></rtept>
    <rtept lat="52.347251" lon="4.671674"><ele>0.0</ele></rtept>
    <rtept lat="52.347037" lon="4.671690"><ele>0.0</ele></rtept>
    <rtept lat="52.346890" lon="4.671700"><ele>0.0</ele></rtept>
    <rtept lat="52.346472" lon="4.671729"><ele>0.0</ele></rtept>
    <rtept lat="52.346320" lon="4.671657"><ele>0.0</ele></rtept>
    <rtept lat="52.346288" lon="4.671669"><ele>0.0</ele></rtept>
    <rtept lat="52.346274" lon="4.671698"><ele>0.0</ele></rtept>
    <rtept lat="52.346253" lon="4.671740"><ele>0.0</ele></rtept>
    <rtept lat="52.346236" lon="4.671775"><ele>0.0</ele></rtept>
    <rtept lat="52.346208" lon="4.671801"><ele>0.0</ele></rtept>
    <rtept lat="52.346099" lon="4.671824"><ele>0.0</ele></rtept>
    <rtept lat="52.346064" lon="4.671865"><ele>0.0</ele></rtept>
    <rtept lat="52.346041" lon="4.671887"><ele>0.0</ele></rtept>
    <rtept lat="52.345250" lon="4.672126"><ele>0.0</ele></rtept>
    <rtept lat="52.345076" lon="4.672242"><ele>0.0</ele></rtept>
    <rtept lat="52.344572" lon="4.672383"><ele>0.0</ele></rtept>
    <rtept lat="52.344355" lon="4.672373"><ele>0.0</ele></rtept>
    <rtept lat="52.343553" lon="4.672596"><ele>0.0</ele></rtept>
    <rtept lat="52.343522" lon="4.672605"><ele>0.0</ele></rtept>
    <rtept lat="52.343406" lon="4.672650"><ele>0.0</ele></rtept>
    <rtept lat="52.343232" lon="4.672765"><ele>0.0</ele></rtept>
    <rtept lat="52.342456" lon="4.672992"><ele>0.0</ele></rtept>
    <rtept lat="52.342132" lon="4.673000"><ele>0.0</ele></rtept>
    <rtept lat="52.341895" lon="4.673064"><ele>0.0</ele></rtept>
    <rtept lat="52.339506" lon="4.673740"><ele>0.0</ele></rtept>
    <rtept lat="52.339330" lon="4.673743"><ele>0.0</ele></rtept>
    <rtept lat="52.338432" lon="4.673864"><ele>0.0</ele></rtept>
    <rtept lat="52.338064" lon="4.673973"><ele>0.0</ele></rtept>
    <rtept lat="52.337773" lon="4.674005"><ele>0.0</ele></rtept>
    <rtept lat="52.336415" lon="4.674412"><ele>0.0</ele></rtept>
    <rtept lat="52.336239" lon="4.674488"><ele>0.0</ele></rtept>
    <rtept lat="52.335163" lon="4.674789"><ele>0.0</ele></rtept>
    <rtept lat="52.334916" lon="4.674863"><ele>0.0</ele></rtept>
    <rtept lat="52.334850" lon="4.674881"><ele>0.0</ele></rtept>
    <rtept lat="52.334561" lon="4.674958"><ele>0.0</ele></rtept>
    <rtept lat="52.334141" lon="4.675025"><ele>0.0</ele></rtept>
    <rtept lat="52.333495" lon="4.675123"><ele>0.0</ele></rtept>
    <rtept lat="52.333059" lon="4.675149"><ele>0.0</ele></rtept>
    <rtept lat="52.329442" lon="4.676183"><ele>0.0</ele></rtept>
    <rtept lat="52.329411" lon="4.676192"><ele>0.0</ele></rtept>
    <rtept lat="52.324001" lon="4.677735"><ele>0.0</ele></rtept>
    <rtept lat="52.323922" lon="4.677682"><ele>0.0</ele></rtept>
    <rtept lat="52.323778" lon="4.677457"><ele>0.0</ele></rtept>
    <rtept lat="52.323647" lon="4.677378"><ele>0.0</ele></rtept>
    <rtept lat="52.323527" lon="4.677397"><ele>0.0</ele></rtept>
    <rtept lat="52.323453" lon="4.677527"><ele>0.0</ele></rtept>
    <rtept lat="52.323383" lon="4.677735"><ele>0.0</ele></rtept>
    <rtept lat="52.323270" lon="4.678009"><ele>0.0</ele></rtept>
    <rtept lat="52.323221" lon="4.678099"><ele>0.0</ele></rtept>
    <rtept lat="52.323179" lon="4.678185"><ele>0.0</ele></rtept>
    <rtept lat="52.323069" lon="4.678349"><ele>0.0</ele></rtept>
    <rtept lat="52.322978" lon="4.678431"><ele>0.0</ele></rtept>
    <rtept lat="52.318071" lon="4.680272"><ele>0.0</ele></rtept>
    <rtept lat="52.317106" lon="4.680641"><ele>0.0</ele></rtept>
    <rtept lat="52.317032" lon="4.680676"><ele>0.0</ele></rtept>
    <rtept lat="52.316816" lon="4.680786"><ele>0.0</ele></rtept>
    <rtept lat="52.316541" lon="4.680892"><ele>0.0</ele></rtept>
    <rtept lat="52.316281" lon="4.680986"><ele>0.0</ele></rtept>
    <rtept lat="52.316009" lon="4.681085"><ele>0.0</ele></rtept>
    <rtept lat="52.315765" lon="4.681138"><ele>0.0</ele></rtept>
    <rtept lat="52.315717" lon="4.681151"><ele>0.0</ele></rtept>
    <rtept lat="52.314498" lon="4.681614"><ele>0.0</ele></rtept>
    <rtept lat="52.314416" lon="4.681646"><ele>0.0</ele></rtept>
    <rtept lat="52.314367" lon="4.681654"><ele>0.0</ele></rtept>
    <rtept lat="52.314092" lon="4.681384"><ele>0.0</ele></rtept>
    <rtept lat="52.314020" lon="4.681404"><ele>0.0</ele></rtept>
    <rtept lat="52.313964" lon="4.681423"><ele>0.0</ele></rtept>
    <rtept lat="52.312199" lon="4.682078"><ele>0.0</ele></rtept>
    <rtept lat="52.312158" lon="4.682050"><ele>0.0</ele></rtept>
    <rtept lat="52.311961" lon="4.682044"><ele>0.0</ele></rtept>
    <rtept lat="52.311942" lon="4.681964"><ele>0.0</ele></rtept>
    <rtept lat="52.311901" lon="4.681944"><ele>0.0</ele></rtept>
    <rtept lat="52.311501" lon="4.682140"><ele>0.0</ele></rtept>
    <rtept lat="52.311281" lon="4.682226"><ele>0.0</ele></rtept>
    <rtept lat="52.311221" lon="4.682210"><ele>0.0</ele></rtept>
    <rtept lat="52.311101" lon="4.682063"><ele>0.0</ele></rtept>
    <rtept lat="52.311073" lon="4.682099"><ele>0.0</ele></rtept>
    <rtept lat="52.310267" lon="4.682425"><ele>0.0</ele></rtept>
    <rtept lat="52.310195" lon="4.682554"><ele>0.0</ele></rtept>
    <rtept lat="52.310165" lon="4.682607"><ele>0.0</ele></rtept>
    <rtept lat="52.310104" lon="4.682643"><ele>0.0</ele></rtept>
    <rtept lat="52.310029" lon="4.682669"><ele>0.0</ele></rtept>
    <rtept lat="52.309972" lon="4.682735"><ele>0.0</ele></rtept>
    <rtept lat="52.309914" lon="4.682801"><ele>0.0</ele></rtept>
    <rtept lat="52.309896" lon="4.682829"><ele>0.0</ele></rtept>
    <rtept lat="52.309805" lon="4.682955"><ele>0.0</ele></rtept>
    <rtept lat="52.307083" lon="4.683992"><ele>0.0</ele></rtept>
    <rtept lat="52.307013" lon="4.684035"><ele>0.0</ele></rtept>
    <rtept lat="52.306957" lon="4.684078"><ele>0.0</ele></rtept>
    <rtept lat="52.306886" lon="4.684134"><ele>0.0</ele></rtept>
    <rtept lat="52.306818" lon="4.684145"><ele>0.0</ele></rtept>
    <rtept lat="52.306759" lon="4.684125"><ele>0.0</ele></rtept>
    <rtept lat="52.306701" lon="4.684116"><ele>0.0</ele></rtept>
    <rtept lat="52.304362" lon="4.685013"><ele>0.0</ele></rtept>
    <rtept lat="52.303243" lon="4.685068"><ele>0.0</ele></rtept>
    <rtept lat="52.303071" lon="4.685109"><ele>0.0</ele></rtept>
    <rtept lat="52.302965" lon="4.684759"><ele>0.0</ele></rtept>
    <rtept lat="52.302893" lon="4.684609"><ele>0.0</ele></rtept>
    <rtept lat="52.302827" lon="4.684519"><ele>0.0</ele></rtept>
    <rtept lat="52.302712" lon="4.684443"><ele>0.0</ele></rtept>
    <rtept lat="52.302282" lon="4.684276"><ele>0.0</ele></rtept>
    <rtept lat="52.302159" lon="4.684176"><ele>0.0</ele></rtept>
    <rtept lat="52.302099" lon="4.684059"><ele>0.0</ele></rtept>
    <rtept lat="52.302070" lon="4.683965"><ele>0.0</ele></rtept>
    <rtept lat="52.302055" lon="4.683660"><ele>0.0</ele></rtept>
    <rtept lat="52.302043" lon="4.683440"><ele>0.0</ele></rtept>
    <rtept lat="52.302031" lon="4.683330"><ele>0.0</ele></rtept>
    <rtept lat="52.301984" lon="4.683212"><ele>0.0</ele></rtept>
    <rtept lat="52.301826" lon="4.682965"><ele>0.0</ele></rtept>
    <rtept lat="52.301776" lon="4.682833"><ele>0.0</ele></rtept>
    <rtept lat="52.301796" lon="4.682762"><ele>0.0</ele></rtept>
    <rtept lat="52.301788" lon="4.682618"><ele>0.0</ele></rtept>
    <rtept lat="52.301726" lon="4.682509"><ele>0.0</ele></rtept>
    <rtept lat="52.301627" lon="4.682362"><ele>0.0</ele></rtept>
    <rtept lat="52.301577" lon="4.682286"><ele>0.0</ele></rtept>
    <rtept lat="52.301536" lon="4.682350"><ele>0.0</ele></rtept>
    <rtept lat="52.301473" lon="4.682543"><ele>0.0</ele></rtept>
    <rtept lat="52.301230" lon="4.683090"><ele>0.0</ele></rtept>
    <rtept lat="52.301040" lon="4.683429"><ele>0.0</ele></rtept>
    <rtept lat="52.300983" lon="4.683525"><ele>0.0</ele></rtept>
    <rtept lat="52.300726" lon="4.683163"><ele>0.0</ele></rtept>
    <rtept lat="52.300636" lon="4.683328"><ele>0.0</ele></rtept>
    <rtept lat="52.300409" lon="4.683751"><ele>0.0</ele></rtept>
    <rtept lat="52.300280" lon="4.683567"><ele>0.0</ele></rtept>
    <rtept lat="52.299966" lon="4.683115"><ele>0.0</ele></rtept>
    <rtept lat="52.299881" lon="4.682994"><ele>0.0</ele></rtept>
    <rtept lat="52.299802" lon="4.683080"><ele>0.0</ele></rtept>
    <rtept lat="52.298985" lon="4.681908"><ele>0.0</ele></rtept>
    <rtept lat="52.298940" lon="4.681896"><ele>0.0</ele></rtept>
    <rtept lat="52.298790" lon="4.681971"><ele>0.0</ele></rtept>
    <rtept lat="52.298734" lon="4.681917"><ele>0.0</ele></rtept>
    <rtept lat="52.298511" lon="4.682062"><ele>0.0</ele></rtept>
    <rtept lat="52.298451" lon="4.682164"><ele>0.0</ele></rtept>
    <rtept lat="52.297827" lon="4.681260"><ele>0.0</ele></rtept>
    <rtept lat="52.297565" lon="4.680749"><ele>0.0</ele></rtept>
    <rtept lat="52.297442" lon="4.680582"><ele>0.0</ele></rtept>
    <rtept lat="52.297295" lon="4.680370"><ele>0.0</ele></rtept>
    <rtept lat="52.296989" lon="4.679925"><ele>0.0</ele></rtept>
    <rtept lat="52.296838" lon="4.679710"><ele>0.0</ele></rtept>
    <rtept lat="52.296689" lon="4.679500"><ele>0.0</ele></rtept>
    <rtept lat="52.296586" lon="4.679348"><ele>0.0</ele></rtept>
    <rtept lat="52.296457" lon="4.679266"><ele>0.0</ele></rtept>
    <rtept lat="52.296259" lon="4.678989"><ele>0.0</ele></rtept>
    <rtept lat="52.295460" lon="4.677860"><ele>0.0</ele></rtept>
    <rtept lat="52.293807" lon="4.675449"><ele>0.0</ele></rtept>
    <rtept lat="52.292932" lon="4.674212"><ele>0.0</ele></rtept>
    <rtept lat="52.292892" lon="4.674084"><ele>0.0</ele></rtept>
    <rtept lat="52.292813" lon="4.673966"><ele>0.0</ele></rtept>
    <rtept lat="52.292054" lon="4.672896"><ele>0.0</ele></rtept>
    <rtept lat="52.291431" lon="4.671975"><ele>0.0</ele></rtept>
    <rtept lat="52.291282" lon="4.671772"><ele>0.0</ele></rtept>
    <rtept lat="52.291136" lon="4.671505"><ele>0.0</ele></rtept>
    <rtept lat="52.291069" lon="4.671290"><ele>0.0</ele></rtept>
    <rtept lat="52.290959" lon="4.671059"><ele>0.0</ele></rtept>
    <rtept lat="52.290902" lon="4.670971"><ele>0.0</ele></rtept>
    <rtept lat="52.290854" lon="4.670913"><ele>0.0</ele></rtept>
    <rtept lat="52.290805" lon="4.670846"><ele>0.0</ele></rtept>
    <rtept lat="52.290697" lon="4.670700"><ele>0.0</ele></rtept>
    <rtept lat="52.290543" lon="4.670527"><ele>0.0</ele></rtept>
    <rtept lat="52.290377" lon="4.670453"><ele>0.0</ele></rtept>
    <rtept lat="52.290220" lon="4.670252"><ele>0.0</ele></rtept>
    <rtept lat="52.289154" lon="4.668718"><ele>0.0</ele></rtept>
    <rtept lat="52.289123" lon="4.668672"><ele>0.0</ele></rtept>
    <rtept lat="52.289090" lon="4.668611"><ele>0.0</ele></rtept>
    <rtept lat="52.288987" lon="4.668593"><ele>0.0</ele></rtept>
    <rtept lat="52.287714" lon="4.666766"><ele>0.0</ele></rtept>
    <rtept lat="52.286086" lon="4.664428"><ele>0.0</ele></rtept>
    <rtept lat="52.285880" lon="4.664129"><ele>0.0</ele></rtept>
    <rtept lat="52.285374" lon="4.663400"><ele>0.0</ele></rtept>
    <rtept lat="52.285297" lon="4.663288"><ele>0.0</ele></rtept>
    <rtept lat="52.285234" lon="4.663201"><ele>0.0</ele></rtept>
    <rtept lat="52.285171" lon="4.663107"><ele>0.0</ele></rtept>
    <rtept lat="52.285076" lon="4.662959"><ele>0.0</ele></rtept>
    <rtept lat="52.284781" lon="4.662533"><ele>0.0</ele></rtept>
    <rtept lat="52.284565" lon="4.662226"><ele>0.0</ele></rtept>
    <rtept lat="52.283556" lon="4.660781"><ele>0.0</ele></rtept>
    <rtept lat="52.283365" lon="4.660502"><ele>0.0</ele></rtept>
    <rtept lat="52.283040" lon="4.660033"><ele>0.0</ele></rtept>
    <rtept lat="52.282845" lon="4.659793"><ele>0.0</ele></rtept>
    <rtept lat="52.282098" lon="4.658732"><ele>0.0</ele></rtept>
    <rtept lat="52.281490" lon="4.657820"><ele>0.0</ele></rtept>
    <rtept lat="52.279800" lon="4.655406"><ele>0.0</ele></rtept>
    <rtept lat="52.279297" lon="4.654687"><ele>0.0</ele></rtept>
    <rtept lat="52.278384" lon="4.653383"><ele>0.0</ele></rtept>
    <rtept lat="52.275663" lon="4.649491"><ele>0.0</ele></rtept>
    <rtept lat="52.273902" lon="4.646967"><ele>0.0</ele></rtept>
    <rtept lat="52.273690" lon="4.646662"><ele>0.0</ele></rtept>
    <rtept lat="52.272968" lon="4.645656"><ele>0.0</ele></rtept>
    <rtept lat="52.272618" lon="4.645117"><ele>0.0</ele></rtept>
    <rtept lat="52.272474" lon="4.644907"><ele>0.0</ele></rtept>
    <rtept lat="52.271433" lon="4.643448"><ele>0.0</ele></rtept>
    <rtept lat="52.269897" lon="4.641271"><ele>0.0</ele></rtept>
    <rtept lat="52.269872" lon="4.641236"><ele>0.0</ele></rtept>
    <rtept lat="52.269849" lon="4.641202"><ele>0.0</ele></rtept>
    <rtept lat="52.269272" lon="4.640370"><ele>0.0</ele></rtept>
    <rtept lat="52.268357" lon="4.639052"><ele>0.0</ele></rtept>
    <rtept lat="52.268303" lon="4.638972"><ele>0.0</ele></rtept>
    <rtept lat="52.268231" lon="4.638866"><ele>0.0</ele></rtept>
    <rtept lat="52.268129" lon="4.638716"><ele>0.0</ele></rtept>
    <rtept lat="52.267763" lon="4.638183"><ele>0.0</ele></rtept>
    <rtept lat="52.267742" lon="4.638152"><ele>0.0</ele></rtept>
    <rtept lat="52.266493" lon="4.636372"><ele>0.0</ele></rtept>
    <rtept lat="52.266118" lon="4.635820"><ele>0.0</ele></rtept>
    <rtept lat="52.265656" lon="4.635161"><ele>0.0</ele></rtept>
    <rtept lat="52.265573" lon="4.635037"><ele>0.0</ele></rtept>
    <rtept lat="52.264834" lon="4.633987"><ele>0.0</ele></rtept>
    <rtept lat="52.264796" lon="4.633943"><ele>0.0</ele></rtept>
    <rtept lat="52.264660" lon="4.633754"><ele>0.0</ele></rtept>
    <rtept lat="52.264623" lon="4.633700"><ele>0.0</ele></rtept>
    <rtept lat="52.263811" lon="4.632518"><ele>0.0</ele></rtept>
    <rtept lat="52.263727" lon="4.632396"><ele>0.0</ele></rtept>
    <rtept lat="52.263684" lon="4.632333"><ele>0.0</ele></rtept>
    <rtept lat="52.263644" lon="4.632266"><ele>0.0</ele></rtept>
    <rtept lat="52.262935" lon="4.631247"><ele>0.0</ele></rtept>
    <rtept lat="52.262725" lon="4.630947"><ele>0.0</ele></rtept>
    <rtept lat="52.262102" lon="4.630060"><ele>0.0</ele></rtept>
    <rtept lat="52.261935" lon="4.629816"><ele>0.0</ele></rtept>
    <rtept lat="52.260831" lon="4.628246"><ele>0.0</ele></rtept>
    <rtept lat="52.260750" lon="4.628138"><ele>0.0</ele></rtept>
    <rtept lat="52.260697" lon="4.628067"><ele>0.0</ele></rtept>
    <rtept lat="52.260659" lon="4.628016"><ele>0.0</ele></rtept>
    <rtept lat="52.260582" lon="4.627910"><ele>0.0</ele></rtept>
    <rtept lat="52.258274" lon="4.624605"><ele>0.0</ele></rtept>
    <rtept lat="52.257185" lon="4.623042"><ele>0.0</ele></rtept>
    <rtept lat="52.257178" lon="4.623030"><ele>0.0</ele></rtept>
    <rtept lat="52.257164" lon="4.623009"><ele>0.0</ele></rtept>
    <rtept lat="52.256937" lon="4.622693"><ele>0.0</ele></rtept>
    <rtept lat="52.256793" lon="4.622484"><ele>0.0</ele></rtept>
    <rtept lat="52.256702" lon="4.622353"><ele>0.0</ele></rtept>
    <rtept lat="52.256490" lon="4.622050"><ele>0.0</ele></rtept>
    <rtept lat="52.255964" lon="4.621282"><ele>0.0</ele></rtept>
    <rtept lat="52.254944" lon="4.619836"><ele>0.0</ele></rtept>
    <rtept lat="52.254693" lon="4.619477"><ele>0.0</ele></rtept>
    <rtept lat="52.254668" lon="4.619442"><ele>0.0</ele></rtept>
    <rtept lat="52.254264" lon="4.618863"><ele>0.0</ele></rtept>
    <rtept lat="52.254152" lon="4.618701"><ele>0.0</ele></rtept>
    <rtept lat="52.253144" lon="4.617258"><ele>0.0</ele></rtept>
    <rtept lat="52.253008" lon="4.617064"><ele>0.0</ele></rtept>
    <rtept lat="52.252640" lon="4.616543"><ele>0.0</ele></rtept>
    <rtept lat="52.252446" lon="4.616265"><ele>0.0</ele></rtept>
    <rtept lat="52.250199" lon="4.613070"><ele>0.0</ele></rtept>
    <rtept lat="52.249831" lon="4.612520"><ele>0.0</ele></rtept>
    <rtept lat="52.248483" lon="4.610619"><ele>0.0</ele></rtept>
    <rtept lat="52.244729" lon="4.605246"><ele>0.0</ele></rtept>
    <rtept lat="52.244692" lon="4.605195"><ele>0.0</ele></rtept>
    <rtept lat="52.244647" lon="4.605053"><ele>0.0</ele></rtept>
    <rtept lat="52.244590" lon="4.604945"><ele>0.0</ele></rtept>
    <rtept lat="52.244578" lon="4.605044"><ele>0.0</ele></rtept>
    <rtept lat="52.244552" lon="4.605150"><ele>0.0</ele></rtept>
    <rtept lat="52.244527" lon="4.605213"><ele>0.0</ele></rtept>
    <rtept lat="52.244413" lon="4.605399"><ele>0.0</ele></rtept>
    <rtept lat="52.244289" lon="4.605482"><ele>0.0</ele></rtept>
    <rtept lat="52.244201" lon="4.605396"><ele>0.0</ele></rtept>
    <rtept lat="52.244159" lon="4.605399"><ele>0.0</ele></rtept>
    <rtept lat="52.244104" lon="4.605463"><ele>0.0</ele></rtept>
    <rtept lat="52.243973" lon="4.605279"><ele>0.0</ele></rtept>
    <rtept lat="52.243983" lon="4.605133"><ele>0.0</ele></rtept>
    <rtept lat="52.243970" lon="4.605053"><ele>0.0</ele></rtept>
    <rtept lat="52.243956" lon="4.605003"><ele>0.0</ele></rtept>
    <rtept lat="52.243878" lon="4.604889"><ele>0.0</ele></rtept>
    <rtept lat="52.243627" lon="4.604545"><ele>0.0</ele></rtept>
    <rtept lat="52.243304" lon="4.604088"><ele>0.0</ele></rtept>
    <rtept lat="52.242629" lon="4.603146"><ele>0.0</ele></rtept>
    <rtept lat="52.241473" lon="4.601500"><ele>0.0</ele></rtept>
    <rtept lat="52.239451" lon="4.598626"><ele>0.0</ele></rtept>
    <rtept lat="52.238938" lon="4.597897"><ele>0.0</ele></rtept>
    <rtept lat="52.237013" lon="4.595154"><ele>0.0</ele></rtept>
    <rtept lat="52.236796" lon="4.594846"><ele>0.0</ele></rtept>
    <rtept lat="52.236690" lon="4.594698"><ele>0.0</ele></rtept>
    <rtept lat="52.236495" lon="4.594426"><ele>0.0</ele></rtept>
    <rtept lat="52.236240" lon="4.594064"><ele>0.0</ele></rtept>
    <rtept lat="52.236099" lon="4.593875"><ele>0.0</ele></rtept>
    <rtept lat="52.236005" lon="4.593748"><ele>0.0</ele></rtept>
    <rtept lat="52.235677" lon="4.593231"><ele>0.0</ele></rtept>
    <rtept lat="52.235198" lon="4.592558"><ele>0.0</ele></rtept>
    <rtept lat="52.234775" lon="4.591926"><ele>0.0</ele></rtept>
    <rtept lat="52.234370" lon="4.591019"><ele>0.0</ele></rtept>
    <rtept lat="52.234269" lon="4.590802"><ele>0.0</ele></rtept>
    <rtept lat="52.234129" lon="4.590471"><ele>0.0</ele></rtept>
    <rtept lat="52.234083" lon="4.590368"><ele>0.0</ele></rtept>
    <rtept lat="52.234085" lon="4.590220"><ele>0.0</ele></rtept>
    <rtept lat="52.234054" lon="4.590143"><ele>0.0</ele></rtept>
    <rtept lat="52.234019" lon="4.590057"><ele>0.0</ele></rtept>
    <rtept lat="52.233947" lon="4.590139"><ele>0.0</ele></rtept>
    <rtept lat="52.233463" lon="4.590679"><ele>0.0</ele></rtept>
    <rtept lat="52.233375" lon="4.590777"><ele>0.0</ele></rtept>
    <rtept lat="52.233301" lon="4.590845"><ele>0.0</ele></rtept>
    <rtept lat="52.233217" lon="4.590882"><ele>0.0</ele></rtept>
    <rtept lat="52.232554" lon="4.590961"><ele>0.0</ele></rtept>
    <rtept lat="52.232303" lon="4.590989"><ele>0.0</ele></rtept>
    <rtept lat="52.232087" lon="4.591017"><ele>0.0</ele></rtept>
    <rtept lat="52.231851" lon="4.591056"><ele>0.0</ele></rtept>
    <rtept lat="52.231648" lon="4.591078"><ele>0.0</ele></rtept>
    <rtept lat="52.231016" lon="4.591162"><ele>0.0</ele></rtept>
    <rtept lat="52.230993" lon="4.590890"><ele>0.0</ele></rtept>
    <rtept lat="52.230956" lon="4.590823"><ele>0.0</ele></rtept>
    <rtept lat="52.230862" lon="4.590771"><ele>0.0</ele></rtept>
    <rtept lat="52.230780" lon="4.590776"><ele>0.0</ele></rtept>
    <rtept lat="52.230684" lon="4.590786"><ele>0.0</ele></rtept>
    <rtept lat="52.230602" lon="4.590793"><ele>0.0</ele></rtept>
    <rtept lat="52.230237" lon="4.590831"><ele>0.0</ele></rtept>
    <rtept lat="52.229983" lon="4.590797"><ele>0.0</ele></rtept>
    <rtept lat="52.229846" lon="4.590755"><ele>0.0</ele></rtept>
    <rtept lat="52.229366" lon="4.590517"><ele>0.0</ele></rtept>
    <rtept lat="52.228757" lon="4.590411"><ele>0.0</ele></rtept>
    <rtept lat="52.228688" lon="4.590399"><ele>0.0</ele></rtept>
    <rtept lat="52.227936" lon="4.590289"><ele>0.0</ele></rtept>
    <rtept lat="52.227866" lon="4.590275"><ele>0.0</ele></rtept>
    <rtept lat="52.227666" lon="4.590210"><ele>0.0</ele></rtept>
    <rtept lat="52.227370" lon="4.590010"><ele>0.0</ele></rtept>
    <rtept lat="52.227005" lon="4.589636"><ele>0.0</ele></rtept>
    <rtept lat="52.226799" lon="4.589479"><ele>0.0</ele></rtept>
    <rtept lat="52.226583" lon="4.589358"><ele>0.0</ele></rtept>
    <rtept lat="52.226327" lon="4.589254"><ele>0.0</ele></rtept>
    <rtept lat="52.225810" lon="4.589168"><ele>0.0</ele></rtept>
    <rtept lat="52.225057" lon="4.589102"><ele>0.0</ele></rtept>
    <rtept lat="52.225007" lon="4.589097"><ele>0.0</ele></rtept>
    <rtept lat="52.223219" lon="4.588928"><ele>0.0</ele></rtept>
    <rtept lat="52.218497" lon="4.588481"><ele>0.0</ele></rtept>
    <rtept lat="52.218327" lon="4.588449"><ele>0.0</ele></rtept>
    <rtept lat="52.218260" lon="4.588414"><ele>0.0</ele></rtept>
    <rtept lat="52.218920" lon="4.585588"><ele>0.0</ele></rtept>
    <rtept lat="52.219138" lon="4.584582"><ele>0.0</ele></rtept>
    <rtept lat="52.219219" lon="4.584009"><ele>0.0</ele></rtept>
    <rtept lat="52.219251" lon="4.583653"><ele>0.0</ele></rtept>
    <rtept lat="52.219280" lon="4.583118"><ele>0.0</ele></rtept>
    <rtept lat="52.219281" lon="4.582670"><ele>0.0</ele></rtept>
    <rtept lat="52.219263" lon="4.582169"><ele>0.0</ele></rtept>
    <rtept lat="52.219185" lon="4.581546"><ele>0.0</ele></rtept>
    <rtept lat="52.218049" lon="4.575770"><ele>0.0</ele></rtept>
    <rtept lat="52.217587" lon="4.573388"><ele>0.0</ele></rtept>
    <rtept lat="52.217459" lon="4.572586"><ele>0.0</ele></rtept>
    <rtept lat="52.217394" lon="4.572046"><ele>0.0</ele></rtept>
    <rtept lat="52.217367" lon="4.571617"><ele>0.0</ele></rtept>
    <rtept lat="52.217370" lon="4.571023"><ele>0.0</ele></rtept>
    <rtept lat="52.217412" lon="4.570524"><ele>0.0</ele></rtept>
    <rtept lat="52.217551" lon="4.569514"><ele>0.0</ele></rtept>
    <rtept lat="52.217814" lon="4.567780"><ele>0.0</ele></rtept>
    <rtept lat="52.218349" lon="4.564243"><ele>0.0</ele></rtept>
    <rtept lat="52.218852" lon="4.560894"><ele>0.0</ele></rtept>
    <rtept lat="52.218873" lon="4.560823"><ele>0.0</ele></rtept>
    <rtept lat="52.218901" lon="4.560792"><ele>0.0</ele></rtept>
    <rtept lat="52.218883" lon="4.560645"><ele>0.0</ele></rtept>
    <rtept lat="52.218954" lon="4.560172"><ele>0.0</ele></rtept>
    <rtept lat="52.218979" lon="4.560016"><ele>0.0</ele></rtept>
    <rtept lat="52.219058" lon="4.559437"><ele>0.0</ele></rtept>
    <rtept lat="52.219227" lon="4.558407"><ele>0.0</ele></rtept>
    <rtept lat="52.219278" lon="4.558066"><ele>0.0</ele></rtept>
    <rtept lat="52.219339" lon="4.557731"><ele>0.0</ele></rtept>
    <rtept lat="52.219453" lon="4.557373"><ele>0.0</ele></rtept>
    <rtept lat="52.219501" lon="4.557262"><ele>0.0</ele></rtept>
    <rtept lat="52.219631" lon="4.557049"><ele>0.0</ele></rtept>
    <rtept lat="52.219824" lon="4.556821"><ele>0.0</ele></rtept>
    <rtept lat="52.220092" lon="4.556574"><ele>0.0</ele></rtept>
    <rtept lat="52.220473" lon="4.556249"><ele>0.0</ele></rtept>
    <rtept lat="52.220749" lon="4.555995"><ele>0.0</ele></rtept>
    <rtept lat="52.221214" lon="4.555572"><ele>0.0</ele></rtept>
    <rtept lat="52.223413" lon="4.553558"><ele>0.0</ele></rtept>
    <rtept lat="52.223939" lon="4.553082"><ele>0.0</ele></rtept>
    <rtept lat="52.224412" lon="4.552648"><ele>0.0</ele></rtept>
    <rtept lat="52.225505" lon="4.551641"><ele>0.0</ele></rtept>
    <rtept lat="52.225808" lon="4.551385"><ele>0.0</ele></rtept>
    <rtept lat="52.226099" lon="4.551223"><ele>0.0</ele></rtept>
    <rtept lat="52.226365" lon="4.551165"><ele>0.0</ele></rtept>
    <rtept lat="52.226681" lon="4.551157"><ele>0.0</ele></rtept>
    <rtept lat="52.227056" lon="4.551243"><ele>0.0</ele></rtept>
    <rtept lat="52.227490" lon="4.551510"><ele>0.0</ele></rtept>
    <rtept lat="52.228370" lon="4.552199"><ele>0.0</ele></rtept>
    <rtept lat="52.230500" lon="4.553890"><ele>0.0</ele></rtept>
    <rtept lat="52.230970" lon="4.554420"><ele>0.0</ele></rtept>
    <rtept lat="52.231300" lon="4.554930"><ele>0.0</ele></rtept>
    <rtept lat="52.231490" lon="4.555390"><ele>0.0</ele></rtept>
    <rtept lat="52.231660" lon="4.555860"><ele>0.0</ele></rtept>
    <rtept lat="52.232564" lon="4.560403"><ele>0.0</ele></rtept>
    <rtept lat="52.232706" lon="4.560991"><ele>0.0</ele></rtept>
    <rtept lat="52.232933" lon="4.561606"><ele>0.0</ele></rtept>
    <rtept lat="52.233200" lon="4.562150"><ele>0.0</ele></rtept>
    <rtept lat="52.233460" lon="4.562590"><ele>0.0</ele></rtept>
    <rtept lat="52.233900" lon="4.563030"><ele>0.0</ele></rtept>
    <rtept lat="52.234250" lon="4.563290"><ele>0.0</ele></rtept>
    <rtept lat="52.234542" lon="4.563461"><ele>0.0</ele></rtept>
    <rtept lat="52.234822" lon="4.563569"><ele>0.0</ele></rtept>
    <rtept lat="52.235348" lon="4.563721"><ele>0.0</ele></rtept>
    <rtept lat="52.236071" lon="4.563955"><ele>0.0</ele></rtept>
    <rtept lat="52.236204" lon="4.563998"><ele>0.0</ele></rtept>
    <rtept lat="52.236958" lon="4.564244"><ele>0.0</ele></rtept>
    <rtept lat="52.240395" lon="4.565363"><ele>0.0</ele></rtept>
    <rtept lat="52.240480" lon="4.565393"><ele>0.0</ele></rtept>
    <rtept lat="52.243239" lon="4.566287"><ele>0.0</ele></rtept>
    <rtept lat="52.245154" lon="4.566901"><ele>0.0</ele></rtept>
    <rtept lat="52.248931" lon="4.568111"><ele>0.0</ele></rtept>
    <rtept lat="52.249486" lon="4.568251"><ele>0.0</ele></rtept>
    <rtept lat="52.254129" lon="4.569131"><ele>0.0</ele></rtept>
    <rtept lat="52.254562" lon="4.569219"><ele>0.0</ele></rtept>
    <rtept lat="52.255541" lon="4.569389"><ele>0.0</ele></rtept>
    <rtept lat="52.255648" lon="4.569401"><ele>0.0</ele></rtept>
    <rtept lat="52.255728" lon="4.569413"><ele>0.0</ele></rtept>
    <rtept lat="52.256378" lon="4.569543"><ele>0.0</ele></rtept>
    <rtept lat="52.257820" lon="4.569816"><ele>0.0</ele></rtept>
    <rtept lat="52.258951" lon="4.570020"><ele>0.0</ele></rtept>
    <rtept lat="52.259478" lon="4.570151"><ele>0.0</ele></rtept>
    <rtept lat="52.259635" lon="4.570179"><ele>0.0</ele></rtept>
    <rtept lat="52.259907" lon="4.570193"><ele>0.0</ele></rtept>
    <rtept lat="52.260177" lon="4.570165"><ele>0.0</ele></rtept>
    <rtept lat="52.262494" lon="4.569616"><ele>0.0</ele></rtept>
    <rtept lat="52.262800" lon="4.569541"><ele>0.0</ele></rtept>
    <rtept lat="52.265039" lon="4.568993"><ele>0.0</ele></rtept>
    <rtept lat="52.266792" lon="4.568581"><ele>0.0</ele></rtept>
    <rtept lat="52.267389" lon="4.568465"><ele>0.0</ele></rtept>
    <rtept lat="52.267706" lon="4.568483"><ele>0.0</ele></rtept>
    <rtept lat="52.267883" lon="4.568538"><ele>0.0</ele></rtept>
    <rtept lat="52.268056" lon="4.568625"><ele>0.0</ele></rtept>
    <rtept lat="52.268238" lon="4.568764"><ele>0.0</ele></rtept>
    <rtept lat="52.268482" lon="4.569017"><ele>0.0</ele></rtept>
    <rtept lat="52.268700" lon="4.569312"><ele>0.0</ele></rtept>
    <rtept lat="52.269084" lon="4.569951"><ele>0.0</ele></rtept>
    <rtept lat="52.271619" lon="4.574315"><ele>0.0</ele></rtept>
    <rtept lat="52.271993" lon="4.574957"><ele>0.0</ele></rtept>
    <rtept lat="52.272557" lon="4.575930"><ele>0.0</ele></rtept>
    <rtept lat="52.272726" lon="4.576303"><ele>0.0</ele></rtept>
    <rtept lat="52.272976" lon="4.576969"><ele>0.0</ele></rtept>
    <rtept lat="52.273321" lon="4.577666"><ele>0.0</ele></rtept>
    <rtept lat="52.273579" lon="4.578080"><ele>0.0</ele></rtept>
    <rtept lat="52.273882" lon="4.578555"><ele>0.0</ele></rtept>
    <rtept lat="52.274436" lon="4.579180"><ele>0.0</ele></rtept>
    <rtept lat="52.274645" lon="4.579504"><ele>0.0</ele></rtept>
    <rtept lat="52.278870" lon="4.586735"><ele>0.0</ele></rtept>
    <rtept lat="52.279904" lon="4.588494"><ele>0.0</ele></rtept>
    <rtept lat="52.280122" lon="4.588788"><ele>0.0</ele></rtept>
    <rtept lat="52.280404" lon="4.589077"><ele>0.0</ele></rtept>
    <rtept lat="52.280996" lon="4.589485"><ele>0.0</ele></rtept>
    <rtept lat="52.281943" lon="4.589941"><ele>0.0</ele></rtept>
    <rtept lat="52.282415" lon="4.590171"><ele>0.0</ele></rtept>
    <rtept lat="52.285607" lon="4.591745"><ele>0.0</ele></rtept>
    <rtept lat="52.286151" lon="4.592199"><ele>0.0</ele></rtept>
    <rtept lat="52.286521" lon="4.592540"><ele>0.0</ele></rtept>
    <rtept lat="52.286710" lon="4.592737"><ele>0.0</ele></rtept>
    <rtept lat="52.286781" lon="4.592943"><ele>0.0</ele></rtept>
    <rtept lat="52.286835" lon="4.592926"><ele>0.0</ele></rtept>
    <rtept lat="52.286916" lon="4.592925"><ele>0.0</ele></rtept>
    <rtept lat="52.287004" lon="4.592977"><ele>0.0</ele></rtept>
    <rtept lat="52.287096" lon="4.593059"><ele>0.0</ele></rtept>
    <rtept lat="52.288296" lon="4.594131"><ele>0.0</ele></rtept>
    <rtept lat="52.288342" lon="4.594315"><ele>0.0</ele></rtept>
    <rtept lat="52.288504" lon="4.594472"><ele>0.0</ele></rtept>
    <rtept lat="52.288519" lon="4.594302"><ele>0.0</ele></rtept>
    <rtept lat="52.288542" lon="4.594370"><ele>0.0</ele></rtept>
    <rtept lat="52.288569" lon="4.594391"><ele>0.0</ele></rtept>
    <rtept lat="52.288851" lon="4.594600"><ele>0.0</ele></rtept>
    <rtept lat="52.289410" lon="4.595103"><ele>0.0</ele></rtept>
    <rtept lat="52.291023" lon="4.596528"><ele>0.0</ele></rtept>
    <rtept lat="52.291343" lon="4.596710"><ele>0.0</ele></rtept>
    <rtept lat="52.291850" lon="4.596858"><ele>0.0</ele></rtept>
    <rtept lat="52.293725" lon="4.596917"><ele>0.0</ele></rtept>
    <rtept lat="52.294026" lon="4.596994"><ele>0.0</ele></rtept>
    <rtept lat="52.295386" lon="4.597477"><ele>0.0</ele></rtept>
    <rtept lat="52.295877" lon="4.597665"><ele>0.0</ele></rtept>
    <rtept lat="52.296114" lon="4.597807"><ele>0.0</ele></rtept>
    <rtept lat="52.297229" lon="4.598571"><ele>0.0</ele></rtept>
    <rtept lat="52.297707" lon="4.598944"><ele>0.0</ele></rtept>
    <rtept lat="52.300872" lon="4.601260"><ele>0.0</ele></rtept>
    <rtept lat="52.301865" lon="4.601988"><ele>0.0</ele></rtept>
    <rtept lat="52.303089" lon="4.602903"><ele>0.0</ele></rtept>
    <rtept lat="52.305356" lon="4.604584"><ele>0.0</ele></rtept>
    <rtept lat="52.305613" lon="4.604809"><ele>0.0</ele></rtept>
    <rtept lat="52.305830" lon="4.605000"><ele>0.0</ele></rtept>
    <rtept lat="52.306224" lon="4.605476"><ele>0.0</ele></rtept>
    <rtept lat="52.308254" lon="4.607942"><ele>0.0</ele></rtept>
    <rtept lat="52.308874" lon="4.608665"><ele>0.0</ele></rtept>
    <rtept lat="52.310101" lon="4.610181"><ele>0.0</ele></rtept>
    <rtept lat="52.310442" lon="4.610592"><ele>0.0</ele></rtept>
    <rtept lat="52.311054" lon="4.611326"><ele>0.0</ele></rtept>
    <rtept lat="52.311370" lon="4.611650"><ele>0.0</ele></rtept>
    <rtept lat="52.311750" lon="4.611940"><ele>0.0</ele></rtept>
    <rtept lat="52.312170" lon="4.612180"><ele>0.0</ele></rtept>
    <rtept lat="52.312352" lon="4.612246"><ele>0.0</ele></rtept>
    <rtept lat="52.312522" lon="4.612308"><ele>0.0</ele></rtept>
    <rtept lat="52.312632" lon="4.612330"><ele>0.0</ele></rtept>
    <rtept lat="52.312827" lon="4.612342"><ele>0.0</ele></rtept>
    <rtept lat="52.315203" lon="4.612286"><ele>0.0</ele></rtept>
    <rtept lat="52.317584" lon="4.612196"><ele>0.0</ele></rtept>
    <rtept lat="52.317844" lon="4.612205"><ele>0.0</ele></rtept>
    <rtept lat="52.317902" lon="4.612266"><ele>0.0</ele></rtept>
    <rtept lat="52.317970" lon="4.612276"><ele>0.0</ele></rtept>
    <rtept lat="52.318054" lon="4.612270"><ele>0.0</ele></rtept>
    <rtept lat="52.318123" lon="4.612247"><ele>0.0</ele></rtept>
    <rtept lat="52.318161" lon="4.612193"><ele>0.0</ele></rtept>
    <rtept lat="52.319166" lon="4.612132"><ele>0.0</ele></rtept>
    <rtept lat="52.322032" lon="4.612057"><ele>0.0</ele></rtept>
    <rtept lat="52.324000" lon="4.611990"><ele>0.0</ele></rtept>
    <rtept lat="52.324306" lon="4.612018"><ele>0.0</ele></rtept>
    <rtept lat="52.325024" lon="4.612179"><ele>0.0</ele></rtept>
    <rtept lat="52.325463" lon="4.612340"><ele>0.0</ele></rtept>
    <rtept lat="52.325927" lon="4.612545"><ele>0.0</ele></rtept>
    <rtept lat="52.326296" lon="4.612751"><ele>0.0</ele></rtept>
    <rtept lat="52.326440" lon="4.612832"><ele>0.0</ele></rtept>
    <rtept lat="52.326947" lon="4.613202"><ele>0.0</ele></rtept>
    <rtept lat="52.328372" lon="4.614470"><ele>0.0</ele></rtept>
    <rtept lat="52.330388" lon="4.616286"><ele>0.0</ele></rtept>
    <rtept lat="52.331180" lon="4.617010"><ele>0.0</ele></rtept>
    <rtept lat="52.331620" lon="4.617450"><ele>0.0</ele></rtept>
    <rtept lat="52.332002" lon="4.617907"><ele>0.0</ele></rtept>
    <rtept lat="52.332271" lon="4.618285"><ele>0.0</ele></rtept>
    <rtept lat="52.332729" lon="4.619023"><ele>0.0</ele></rtept>
    <rtept lat="52.332920" lon="4.619389"><ele>0.0</ele></rtept>
    <rtept lat="52.333249" lon="4.620091"><ele>0.0</ele></rtept>
    <rtept lat="52.333432" lon="4.620573"><ele>0.0</ele></rtept>
    <rtept lat="52.334268" lon="4.622801"><ele>0.0</ele></rtept>
    <rtept lat="52.336159" lon="4.627910"><ele>0.0</ele></rtept>
    <rtept lat="52.336358" lon="4.628444"><ele>0.0</ele></rtept>
    <rtept lat="52.336714" lon="4.629411"><ele>0.0</ele></rtept>
    <rtept lat="52.336871" lon="4.629851"><ele>0.0</ele></rtept>
    <rtept lat="52.337129" lon="4.630641"><ele>0.0</ele></rtept>
    <rtept lat="52.337145" lon="4.630795"><ele>0.0</ele></rtept>
    <rtept lat="52.337124" lon="4.631021"><ele>0.0</ele></rtept>
    <rtept lat="52.337250" lon="4.631100"><ele>0.0</ele></rtept>
    <rtept lat="52.337311" lon="4.631257"><ele>0.0</ele></rtept>
    <rtept lat="52.337353" lon="4.631453"><ele>0.0</ele></rtept>
    <rtept lat="52.337502" lon="4.632243"><ele>0.0</ele></rtept>
    <rtept lat="52.337578" lon="4.632876"><ele>0.0</ele></rtept>
    <rtept lat="52.337669" lon="4.633654"><ele>0.0</ele></rtept>
    <rtept lat="52.337970" lon="4.635910"><ele>0.0</ele></rtept>
    <rtept lat="52.337969" lon="4.636028"><ele>0.0</ele></rtept>
    <rtept lat="52.338054" lon="4.636067"><ele>0.0</ele></rtept>
    <rtept lat="52.338096" lon="4.636096"><ele>0.0</ele></rtept>
    <rtept lat="52.338137" lon="4.636161"><ele>0.0</ele></rtept>
    <rtept lat="52.338239" lon="4.636907"><ele>0.0</ele></rtept>
    <rtept lat="52.338334" lon="4.637602"><ele>0.0</ele></rtept>
    <rtept lat="52.338311" lon="4.637685"><ele>0.0</ele></rtept>
    <rtept lat="52.338283" lon="4.637723"><ele>0.0</ele></rtept>
    <rtept lat="52.338244" lon="4.637770"><ele>0.0</ele></rtept>
    <rtept lat="52.338384" lon="4.638759"><ele>0.0</ele></rtept>
    <rtept lat="52.338423" lon="4.639047"><ele>0.0</ele></rtept>
    <rtept lat="52.338428" lon="4.639077"><ele>0.0</ele></rtept>
    <rtept lat="52.338456" lon="4.639302"><ele>0.0</ele></rtept>
    <rtept lat="52.338595" lon="4.640349"><ele>0.0</ele></rtept>
    <rtept lat="52.338905" lon="4.642546"><ele>0.0</ele></rtept>
    <rtept lat="52.339171" lon="4.644426"><ele>0.0</ele></rtept>
    <rtept lat="52.339457" lon="4.646521"><ele>0.0</ele></rtept>
    <rtept lat="52.339474" lon="4.646640"><ele>0.0</ele></rtept>
    <rtept lat="52.339580" lon="4.647310"><ele>0.0</ele></rtept>
    <rtept lat="52.339680" lon="4.647815"><ele>0.0</ele></rtept>
    <rtept lat="52.339721" lon="4.647795"><ele>0.0</ele></rtept>
    <rtept lat="52.339712" lon="4.647744"><ele>0.0</ele></rtept>
    <rtept lat="52.339726" lon="4.647736"><ele>0.0</ele></rtept>
    <rtept lat="52.340053" lon="4.647559"><ele>0.0</ele></rtept>
    <rtept lat="52.340080" lon="4.647544"><ele>0.0</ele></rtept>
    <rtept lat="52.339962" lon="4.646937"><ele>0.0</ele></rtept>
    <rtept lat="52.339869" lon="4.646303"><ele>0.0</ele></rtept>
    <rtept lat="52.339871" lon="4.645940"><ele>0.0</ele></rtept>
    <rtept lat="52.339884" lon="4.645917"><ele>0.0</ele></rtept>
    <rtept lat="52.339914" lon="4.645841"><ele>0.0</ele></rtept>
    <rtept lat="52.339918" lon="4.645777"><ele>0.0</ele></rtept>
    <rtept lat="52.339708" lon="4.644243"><ele>0.0</ele></rtept>
    <rtept lat="52.339735" lon="4.643958"><ele>0.0</ele></rtept>
    <rtept lat="52.339842" lon="4.643715"><ele>0.0</ele></rtept>
    <rtept lat="52.339824" lon="4.643563"><ele>0.0</ele></rtept>
    <rtept lat="52.340806" lon="4.642965"><ele>0.0</ele></rtept>
    <rtept lat="52.341150" lon="4.642757"><ele>0.0</ele></rtept>
    <rtept lat="52.341490" lon="4.642574"><ele>0.0</ele></rtept>
    <rtept lat="52.341549" lon="4.642541"><ele>0.0</ele></rtept>
    <rtept lat="52.341582" lon="4.642523"><ele>0.0</ele></rtept>
    <rtept lat="52.341672" lon="4.642474"><ele>0.0</ele></rtept>
    <rtept lat="52.341738" lon="4.642469"><ele>0.0</ele></rtept>
    <rtept lat="52.341780" lon="4.642466"><ele>0.0</ele></rtept>
    <rtept lat="52.341852" lon="4.642506"><ele>0.0</ele></rtept>
    <rtept lat="52.342119" lon="4.642756"><ele>0.0</ele></rtept>
    <rtept lat="52.342162" lon="4.642800"><ele>0.0</ele></rtept>
    <rtept lat="52.342299" lon="4.642938"><ele>0.0</ele></rtept>
    <rtept lat="52.342400" lon="4.643000"><ele>0.0</ele></rtept>
    <rtept lat="52.342462" lon="4.642993"><ele>0.0</ele></rtept>
    <rtept lat="52.342539" lon="4.642984"><ele>0.0</ele></rtept>
    <rtept lat="52.342709" lon="4.642964"><ele>0.0</ele></rtept>
    <rtept lat="52.342725" lon="4.642963"><ele>0.0</ele></rtept>
    <rtept lat="52.342897" lon="4.642922"><ele>0.0</ele></rtept>
    <rtept lat="52.343513" lon="4.642782"><ele>0.0</ele></rtept>
    <rtept lat="52.344148" lon="4.642688"><ele>0.0</ele></rtept>
    <rtept lat="52.344431" lon="4.642656"><ele>0.0</ele></rtept>
    <rtept lat="52.344512" lon="4.642624"><ele>0.0</ele></rtept>
    <rtept lat="52.345034" lon="4.642537"><ele>0.0</ele></rtept>
    <rtept lat="52.345126" lon="4.642519"><ele>0.0</ele></rtept>
    <rtept lat="52.345339" lon="4.642477"><ele>0.0</ele></rtept>
    <rtept lat="52.345615" lon="4.642431"><ele>0.0</ele></rtept>
    <rtept lat="52.345980" lon="4.642346"><ele>0.0</ele></rtept>
    <rtept lat="52.346074" lon="4.642324"><ele>0.0</ele></rtept>
    <rtept lat="52.346247" lon="4.642283"><ele>0.0</ele></rtept>
    <rtept lat="52.346334" lon="4.642262"><ele>0.0</ele></rtept>
    <rtept lat="52.346347" lon="4.642259"><ele>0.0</ele></rtept>
    <rtept lat="52.346708" lon="4.642228"><ele>0.0</ele></rtept>
    <rtept lat="52.346877" lon="4.642213"><ele>0.0</ele></rtept>
    <rtept lat="52.346927" lon="4.642208"><ele>0.0</ele></rtept>
    <rtept lat="52.347318" lon="4.642174"><ele>0.0</ele></rtept>
    <rtept lat="52.347667" lon="4.642101"><ele>0.0</ele></rtept>
    <rtept lat="52.348440" lon="4.641960"><ele>0.0</ele></rtept>
    <rtept lat="52.348613" lon="4.641939"><ele>0.0</ele></rtept>
    <rtept lat="52.348913" lon="4.641902"><ele>0.0</ele></rtept>
    <rtept lat="52.349011" lon="4.641892"><ele>0.0</ele></rtept>
    <rtept lat="52.349219" lon="4.641864"><ele>0.0</ele></rtept>
    <rtept lat="52.349246" lon="4.641858"><ele>0.0</ele></rtept>
    <rtept lat="52.349296" lon="4.641865"><ele>0.0</ele></rtept>
    <rtept lat="52.349855" lon="4.641812"><ele>0.0</ele></rtept>
    <rtept lat="52.349932" lon="4.641805"><ele>0.0</ele></rtept>
    <rtept lat="52.349964" lon="4.641799"><ele>0.0</ele></rtept>
    <rtept lat="52.350115" lon="4.641772"><ele>0.0</ele></rtept>
    <rtept lat="52.350287" lon="4.641741"><ele>0.0</ele></rtept>
    <rtept lat="52.350320" lon="4.641735"><ele>0.0</ele></rtept>
    <rtept lat="52.350788" lon="4.641667"><ele>0.0</ele></rtept>
    <rtept lat="52.351091" lon="4.641627"><ele>0.0</ele></rtept>
    <rtept lat="52.351359" lon="4.641584"><ele>0.0</ele></rtept>
    <rtept lat="52.351501" lon="4.641541"><ele>0.0</ele></rtept>
    <rtept lat="52.351570" lon="4.641461"><ele>0.0</ele></rtept>
    <rtept lat="52.351670" lon="4.641352"><ele>0.0</ele></rtept>
    <rtept lat="52.351835" lon="4.640822"><ele>0.0</ele></rtept>
    <rtept lat="52.351862" lon="4.640681"><ele>0.0</ele></rtept>
    <rtept lat="52.351871" lon="4.640633"><ele>0.0</ele></rtept>
    <rtept lat="52.351902" lon="4.640467"><ele>0.0</ele></rtept>
    <rtept lat="52.351950" lon="4.640338"><ele>0.0</ele></rtept>
    <rtept lat="52.352015" lon="4.640268"><ele>0.0</ele></rtept>
    <rtept lat="52.352272" lon="4.640181"><ele>0.0</ele></rtept>
    <rtept lat="52.352333" lon="4.640168"><ele>0.0</ele></rtept>
    <rtept lat="52.352392" lon="4.640155"><ele>0.0</ele></rtept>
    <rtept lat="52.352900" lon="4.640055"><ele>0.0</ele></rtept>
    <rtept lat="52.353757" lon="4.640024"><ele>0.0</ele></rtept>
    <rtept lat="52.353842" lon="4.640021"><ele>0.0</ele></rtept>
    <rtept lat="52.354276" lon="4.640005"><ele>0.0</ele></rtept>
    <rtept lat="52.354346" lon="4.639999"><ele>0.0</ele></rtept>
    <rtept lat="52.354659" lon="4.640006"><ele>0.0</ele></rtept>
    <rtept lat="52.354923" lon="4.640146"><ele>0.0</ele></rtept>
    <rtept lat="52.355030" lon="4.640266"><ele>0.0</ele></rtept>
    <rtept lat="52.355220" lon="4.640542"><ele>0.0</ele></rtept>
    <rtept lat="52.355299" lon="4.640687"><ele>0.0</ele></rtept>
    <rtept lat="52.355407" lon="4.640841"><ele>0.0</ele></rtept>
    <rtept lat="52.355608" lon="4.641028"><ele>0.0</ele></rtept>
    <rtept lat="52.355674" lon="4.641091"><ele>0.0</ele></rtept>
    <rtept lat="52.355869" lon="4.641189"><ele>0.0</ele></rtept>
    <rtept lat="52.355957" lon="4.641233"><ele>0.0</ele></rtept>
    <rtept lat="52.356100" lon="4.641305"><ele>0.0</ele></rtept>
    <rtept lat="52.356410" lon="4.641375"><ele>0.0</ele></rtept>
    <rtept lat="52.356646" lon="4.641340"><ele>0.0</ele></rtept>
    <rtept lat="52.356970" lon="4.641200"><ele>0.0</ele></rtept>
    <rtept lat="52.357108" lon="4.641067"><ele>0.0</ele></rtept>
    <rtept lat="52.357381" lon="4.641029"><ele>0.0</ele></rtept>
    <rtept lat="52.357620" lon="4.641040"><ele>0.0</ele></rtept>
    <rtept lat="52.357755" lon="4.640920"><ele>0.0</ele></rtept>
    <rtept lat="52.357802" lon="4.640865"><ele>0.0</ele></rtept>
    <rtept lat="52.358230" lon="4.640357"><ele>0.0</ele></rtept>
    <rtept lat="52.358397" lon="4.640159"><ele>0.0</ele></rtept>
    <rtept lat="52.358460" lon="4.640084"><ele>0.0</ele></rtept>
    <rtept lat="52.358527" lon="4.640005"><ele>0.0</ele></rtept>
    <rtept lat="52.358670" lon="4.639836"><ele>0.0</ele></rtept>
    <rtept lat="52.358979" lon="4.639469"><ele>0.0</ele></rtept>
    <rtept lat="52.359205" lon="4.639196"><ele>0.0</ele></rtept>
    <rtept lat="52.359496" lon="4.638877"><ele>0.0</ele></rtept>
    <rtept lat="52.359607" lon="4.638753"><ele>0.0</ele></rtept>
    <rtept lat="52.359648" lon="4.638706"><ele>0.0</ele></rtept>
    <rtept lat="52.359876" lon="4.638477"><ele>0.0</ele></rtept>
    <rtept lat="52.360045" lon="4.638349"><ele>0.0</ele></rtept>
    <rtept lat="52.360291" lon="4.638228"><ele>0.0</ele></rtept>
    <rtept lat="52.360657" lon="4.638089"><ele>0.0</ele></rtept>
    <rtept lat="52.361056" lon="4.638007"><ele>0.0</ele></rtept>
    <rtept lat="52.361559" lon="4.637869"><ele>0.0</ele></rtept>
    <rtept lat="52.362380" lon="4.637590"><ele>0.0</ele></rtept>
    <rtept lat="52.362577" lon="4.637492"><ele>0.0</ele></rtept>
    <rtept lat="52.362700" lon="4.637430"><ele>0.0</ele></rtept>
    <rtept lat="52.363258" lon="4.637243"><ele>0.0</ele></rtept>
    <rtept lat="52.363828" lon="4.637270"><ele>0.0</ele></rtept>
    <rtept lat="52.364472" lon="4.637375"><ele>0.0</ele></rtept>
    <rtept lat="52.364550" lon="4.637390"><ele>0.0</ele></rtept>
    <rtept lat="52.364714" lon="4.637418"><ele>0.0</ele></rtept>
    <rtept lat="52.365524" lon="4.637580"><ele>0.0</ele></rtept>
    <rtept lat="52.365779" lon="4.637607"><ele>0.0</ele></rtept>
    <rtept lat="52.366052" lon="4.637574"><ele>0.0</ele></rtept>
    <rtept lat="52.367037" lon="4.637328"><ele>0.0</ele></rtept>
    <rtept lat="52.367224" lon="4.637265"><ele>0.0</ele></rtept>
    <rtept lat="52.367757" lon="4.637002"><ele>0.0</ele></rtept>
    <rtept lat="52.367976" lon="4.636890"><ele>0.0</ele></rtept>
    <rtept lat="52.368214" lon="4.636807"><ele>0.0</ele></rtept>
    <rtept lat="52.369148" lon="4.636555"><ele>0.0</ele></rtept>
    <rtept lat="52.369258" lon="4.636536"><ele>0.0</ele></rtept>
    <rtept lat="52.369349" lon="4.636523"><ele>0.0</ele></rtept>
    <rtept lat="52.369535" lon="4.636602"><ele>0.0</ele></rtept>
    <rtept lat="52.369702" lon="4.636781"><ele>0.0</ele></rtept>
    <rtept lat="52.369851" lon="4.636996"><ele>0.0</ele></rtept>
    <rtept lat="52.369973" lon="4.637230"><ele>0.0</ele></rtept>
    <rtept lat="52.370144" lon="4.637706"><ele>0.0</ele></rtept>
    <rtept lat="52.370270" lon="4.638061"><ele>0.0</ele></rtept>
    <rtept lat="52.370412" lon="4.638542"><ele>0.0</ele></rtept>
    <rtept lat="52.370702" lon="4.639521"><ele>0.0</ele></rtept>
    <rtept lat="52.370789" lon="4.639744"><ele>0.0</ele></rtept>
    <rtept lat="52.370855" lon="4.639911"><ele>0.0</ele></rtept>
    <rtept lat="52.370878" lon="4.639885"><ele>0.0</ele></rtept>
    <rtept lat="52.370979" lon="4.639909"><ele>0.0</ele></rtept>
    <rtept lat="52.371085" lon="4.639996"><ele>0.0</ele></rtept>
    <rtept lat="52.371435" lon="4.640556"><ele>0.0</ele></rtept>
    <rtept lat="52.371507" lon="4.640757"><ele>0.0</ele></rtept>
    <rtept lat="52.371533" lon="4.640985"><ele>0.0</ele></rtept>
    <rtept lat="52.371530" lon="4.641052"><ele>0.0</ele></rtept>
    <rtept lat="52.371916" lon="4.641663"><ele>0.0</ele></rtept>
    <rtept lat="52.372468" lon="4.642417"><ele>0.0</ele></rtept>
    <rtept lat="52.372544" lon="4.642493"><ele>0.0</ele></rtept>
    <rtept lat="52.373028" lon="4.642867"><ele>0.0</ele></rtept>
    <rtept lat="52.373346" lon="4.643068"><ele>0.0</ele></rtept>
    <rtept lat="52.373649" lon="4.643191"><ele>0.0</ele></rtept>
    <rtept lat="52.373635" lon="4.643324"><ele>0.0</ele></rtept>
    <rtept lat="52.373626" lon="4.643460"><ele>0.0</ele></rtept>
    <rtept lat="52.373649" lon="4.644390"><ele>0.0</ele></rtept>
    <rtept lat="52.373716" lon="4.646253"><ele>0.0</ele></rtept>
    <rtept lat="52.373741" lon="4.647203"><ele>0.0</ele></rtept>
    <rtept lat="52.373807" lon="4.648893"><ele>0.0</ele></rtept>
    <rtept lat="52.374260" lon="4.648870"><ele>0.0</ele></rtept>
    <rtept lat="52.374570" lon="4.648850"><ele>0.0</ele></rtept>
    <rtept lat="52.374726" lon="4.648878"><ele>0.0</ele></rtept>
    <rtept lat="52.374852" lon="4.648931"><ele>0.0</ele></rtept>
    <rtept lat="52.375431" lon="4.649330"><ele>0.0</ele></rtept>
    <rtept lat="52.375644" lon="4.649501"><ele>0.0</ele></rtept>
    <rtept lat="52.375810" lon="4.649550"><ele>0.0</ele></rtept>
    <rtept lat="52.376065" lon="4.649522"><ele>0.0</ele></rtept>
    <rtept lat="52.376626" lon="4.649419"><ele>0.0</ele></rtept>
    <rtept lat="52.376792" lon="4.649386"><ele>0.0</ele></rtept>
    <rtept lat="52.376935" lon="4.649362"><ele>0.0</ele></rtept>
    <rtept lat="52.376986" lon="4.649354"><ele>0.0</ele></rtept>
    <rtept lat="52.377378" lon="4.649321"><ele>0.0</ele></rtept>
    <rtept lat="52.377874" lon="4.649547"><ele>0.0</ele></rtept>
    <rtept lat="52.378273" lon="4.649729"><ele>0.0</ele></rtept>
    <rtept lat="52.378359" lon="4.649800"><ele>0.0</ele></rtept>
    <rtept lat="52.379260" lon="4.650511"><ele>0.0</ele></rtept>
    <rtept lat="52.379725" lon="4.650899"><ele>0.0</ele></rtept>
    <rtept lat="52.380262" lon="4.651351"><ele>0.0</ele></rtept>
    <rtept lat="52.380685" lon="4.651734"><ele>0.0</ele></rtept>
    <rtept lat="52.380737" lon="4.651796"><ele>0.0</ele></rtept>
    <rtept lat="52.380759" lon="4.651852"><ele>0.0</ele></rtept>
    <rtept lat="52.380708" lon="4.651959"><ele>0.0</ele></rtept>
    <rtept lat="52.380326" lon="4.653373"><ele>0.0</ele></rtept>
    <rtept lat="52.380132" lon="4.654088"><ele>0.0</ele></rtept>
    <rtept lat="52.379963" lon="4.654729"><ele>0.0</ele></rtept>
    <rtept lat="52.379947" lon="4.654788"><ele>0.0</ele></rtept>
    <rtept lat="52.379720" lon="4.655630"><ele>0.0</ele></rtept>
    <rtept lat="52.379484" lon="4.656332"><ele>0.0</ele></rtept>
    <rtept lat="52.379811" lon="4.656611"><ele>0.0</ele></rtept>
    <rtept lat="52.379890" lon="4.656860"><ele>0.0</ele></rtept>
    <rtept lat="52.379960" lon="4.657149"><ele>0.0</ele></rtept>
    <rtept lat="52.380029" lon="4.657505"><ele>0.0</ele></rtept>
    <rtept lat="52.380029" lon="4.657510"><ele>0.0</ele></rtept>
  </rte>
</gpx>