<?xml version="1.0" encoding="UTF-8"?>
<gpx version="1.1" creator="WeeklyCyclingRoutes"
  xmlns="http://www.topografix.com/GPX/1/1"
  xmlns:xsi="http://www.w3.org/2001/XMLSchema-instance"
  xsi:schemaLocation="http://www.topografix.com/GPX/1/1 http://www.topografix.com/GPX/1/1/gpx.xsd">
  <metadata>
    <name>70km Route – July 27, 2026</name>
    <desc>Round trip from Cremerstraat, Haarlem. Actual: 60.9km</desc>
    <time>2026-07-27T09:39:05Z</time>
  </metadata>
  <rte>
    <name>70km Cycling Route – Haarlem</name>
    <rtept lat="52.380029" lon="4.657510"><ele>0.0</ele></rtept>
    <rtept lat="52.380041" lon="4.657887"><ele>0.0</ele></rtept>
    <rtept lat="52.379804" lon="4.657899"><ele>0.0</ele></rtept>
    <rtept lat="52.379574" lon="4.657888"><ele>0.0</ele></rtept>
    <rtept lat="52.379447" lon="4.659520"><ele>0.0</ele></rtept>
    <rtept lat="52.379026" lon="4.659422"><ele>0.0</ele></rtept>
    <rtept lat="52.378994" lon="4.659805"><ele>0.0</ele></rtept>
    <rtept lat="52.378980" lon="4.659944"><ele>0.0</ele></rtept>
    <rtept lat="52.378919" lon="4.660207"><ele>0.0</ele></rtept>
    <rtept lat="52.378892" lon="4.660355"><ele>0.0</ele></rtept>
    <rtept lat="52.378869" lon="4.660481"><ele>0.0</ele></rtept>
    <rtept lat="52.378835" lon="4.660666"><ele>0.0</ele></rtept>
    <rtept lat="52.378754" lon="4.660632"><ele>0.0</ele></rtept>
    <rtept lat="52.378107" lon="4.660341"><ele>0.0</ele></rtept>
    <rtept lat="52.376591" lon="4.659639"><ele>0.0</ele></rtept>
    <rtept lat="52.376416" lon="4.659550"><ele>0.0</ele></rtept>
    <rtept lat="52.376248" lon="4.659469"><ele>0.0</ele></rtept>
    <rtept lat="52.375939" lon="4.659321"><ele>0.0</ele></rtept>
    <rtept lat="52.375387" lon="4.658920"><ele>0.0</ele></rtept>
    <rtept lat="52.375299" lon="4.658822"><ele>0.0</ele></rtept>
    <rtept lat="52.375264" lon="4.658783"><ele>0.0</ele></rtept>
    <rtept lat="52.375174" lon="4.658688"><ele>0.0</ele></rtept>
    <rtept lat="52.375071" lon="4.658558"><ele>0.0</ele></rtept>
    <rtept lat="52.374903" lon="4.658355"><ele>0.0</ele></rtept>
    <rtept lat="52.374774" lon="4.658199"><ele>0.0</ele></rtept>
    <rtept lat="52.374640" lon="4.658034"><ele>0.0</ele></rtept>
    <rtept lat="52.374391" lon="4.657790"><ele>0.0</ele></rtept>
    <rtept lat="52.374222" lon="4.657609"><ele>0.0</ele></rtept>
    <rtept lat="52.372821" lon="4.656439"><ele>0.0</ele></rtept>
    <rtept lat="52.371743" lon="4.655569"><ele>0.0</ele></rtept>
    <rtept lat="52.371644" lon="4.655494"><ele>0.0</ele></rtept>
    <rtept lat="52.371432" lon="4.655322"><ele>0.0</ele></rtept>
    <rtept lat="52.370928" lon="4.654930"><ele>0.0</ele></rtept>
    <rtept lat="52.370723" lon="4.654874"><ele>0.0</ele></rtept>
    <rtept lat="52.370389" lon="4.654836"><ele>0.0</ele></rtept>
    <rtept lat="52.370283" lon="4.654833"><ele>0.0</ele></rtept>
    <rtept lat="52.370075" lon="4.654826"><ele>0.0</ele></rtept>
    <rtept lat="52.369981" lon="4.654809"><ele>0.0</ele></rtept>
    <rtept lat="52.369938" lon="4.654772"><ele>0.0</ele></rtept>
    <rtept lat="52.369824" lon="4.654648"><ele>0.0</ele></rtept>
    <rtept lat="52.368957" lon="4.654543"><ele>0.0</ele></rtept>
    <rtept lat="52.368663" lon="4.654470"><ele>0.0</ele></rtept>
    <rtept lat="52.368353" lon="4.654479"><ele>0.0</ele></rtept>
    <rtept lat="52.368337" lon="4.654479"><ele>0.0</ele></rtept>
    <rtept lat="52.368020" lon="4.654482"><ele>0.0</ele></rtept>
    <rtept lat="52.367966" lon="4.654499"><ele>0.0</ele></rtept>
    <rtept lat="52.367813" lon="4.654557"><ele>0.0</ele></rtept>
    <rtept lat="52.367800" lon="4.654688"><ele>0.0</ele></rtept>
    <rtept lat="52.367802" lon="4.655012"><ele>0.0</ele></rtept>
    <rtept lat="52.367801" lon="4.656505"><ele>0.0</ele></rtept>
    <rtept lat="52.367811" lon="4.657704"><ele>0.0</ele></rtept>
    <rtept lat="52.367821" lon="4.659432"><ele>0.0</ele></rtept>
    <rtept lat="52.367829" lon="4.660912"><ele>0.0</ele></rtept>
    <rtept lat="52.367827" lon="4.662490"><ele>0.0</ele></rtept>
    <rtept lat="52.367872" lon="4.663787"><ele>0.0</ele></rtept>
    <rtept lat="52.367879" lon="4.664269"><ele>0.0</ele></rtept>
    <rtept lat="52.367889" lon="4.666109"><ele>0.0</ele></rtept>
    <rtept lat="52.367838" lon="4.666112"><ele>0.0</ele></rtept>
    <rtept lat="52.367782" lon="4.666114"><ele>0.0</ele></rtept>
    <rtept lat="52.367674" lon="4.666133"><ele>0.0</ele></rtept>
    <rtept lat="52.367549" lon="4.666157"><ele>0.0</ele></rtept>
    <rtept lat="52.366772" lon="4.666360"><ele>0.0</ele></rtept>
    <rtept lat="52.366728" lon="4.666376"><ele>0.0</ele></rtept>
    <rtept lat="52.366226" lon="4.666499"><ele>0.0</ele></rtept>
    <rtept lat="52.364616" lon="4.666862"><ele>0.0</ele></rtept>
    <rtept lat="52.364555" lon="4.666877"><ele>0.0</ele></rtept>
    <rtept lat="52.364252" lon="4.666958"><ele>0.0</ele></rtept>
    <rtept lat="52.362877" lon="4.667285"><ele>0.0</ele></rtept>
    <rtept lat="52.362158" lon="4.667456"><ele>0.0</ele></rtept>
    <rtept lat="52.362034" lon="4.667495"><ele>0.0</ele></rtept>
    <rtept lat="52.361115" lon="4.667716"><ele>0.0</ele></rtept>
    <rtept lat="52.360741" lon="4.667804"><ele>0.0</ele></rtept>
    <rtept lat="52.360693" lon="4.668029"><ele>0.0</ele></rtept>
    <rtept lat="52.360581" lon="4.668367"><ele>0.0</ele></rtept>
    <rtept lat="52.360467" lon="4.668618"><ele>0.0</ele></rtept>
    <rtept lat="52.360332" lon="4.668884"><ele>0.0</ele></rtept>
    <rtept lat="52.360291" lon="4.668924"><ele>0.0</ele></rtept>
    <rtept lat="52.360156" lon="4.669100"><ele>0.0</ele></rtept>
    <rtept lat="52.359958" lon="4.669296"><ele>0.0</ele></rtept>
    <rtept lat="52.359637" lon="4.669464"><ele>0.0</ele></rtept>
    <rtept lat="52.359469" lon="4.669519"><ele>0.0</ele></rtept>
    <rtept lat="52.359365" lon="4.669522"><ele>0.0</ele></rtept>
    <rtept lat="52.358102" lon="4.669544"><ele>0.0</ele></rtept>
    <rtept lat="52.357541" lon="4.669577"><ele>0.0</ele></rtept>
    <rtept lat="52.356571" lon="4.669792"><ele>0.0</ele></rtept>
    <rtept lat="52.356332" lon="4.669868"><ele>0.0</ele></rtept>
    <rtept lat="52.355799" lon="4.670115"><ele>0.0</ele></rtept>
    <rtept lat="52.355744" lon="4.670136"><ele>0.0</ele></rtept>
    <rtept lat="52.355673" lon="4.670170"><ele>0.0</ele></rtept>
    <rtept lat="52.355736" lon="4.670631"><ele>0.0</ele></rtept>
    <rtept lat="52.355992" lon="4.672205"><ele>0.0</ele></rtept>
    <rtept lat="52.356103" lon="4.673000"><ele>0.0</ele></rtept>
    <rtept lat="52.356060" lon="4.673244"><ele>0.0</ele></rtept>
    <rtept lat="52.355980" lon="4.673417"><ele>0.0</ele></rtept>
    <rtept lat="52.355766" lon="4.673762"><ele>0.0</ele></rtept>
    <rtept lat="52.354878" lon="4.674952"><ele>0.0</ele></rtept>
    <rtept lat="52.354134" lon="4.675928"><ele>0.0</ele></rtept>
    <rtept lat="52.354027" lon="4.676138"><ele>0.0</ele></rtept>
    <rtept lat="52.354006" lon="4.676245"><ele>0.0</ele></rtept>
    <rtept lat="52.353924" lon="4.676809"><ele>0.0</ele></rtept>
    <rtept lat="52.353909" lon="4.676910"><ele>0.0</ele></rtept>
    <rtept lat="52.353525" lon="4.676767"><ele>0.0</ele></rtept>
    <rtept lat="52.352686" lon="4.676218"><ele>0.0</ele></rtept>
    <rtept lat="52.352414" lon="4.676000"><ele>0.0</ele></rtept>
    <rtept lat="52.351765" lon="4.675341"><ele>0.0</ele></rtept>
    <rtept lat="52.351536" lon="4.675076"><ele>0.0</ele></rtept>
    <rtept lat="52.351073" lon="4.674468"><ele>0.0</ele></rtept>
    <rtept lat="52.350937" lon="4.674255"><ele>0.0</ele></rtept>
    <rtept lat="52.350570" lon="4.673550"><ele>0.0</ele></rtept>
    <rtept lat="52.349416" lon="4.670958"><ele>0.0</ele></rtept>
    <rtept lat="52.349319" lon="4.671047"><ele>0.0</ele></rtept>
    <rtept lat="52.348940" lon="4.671303"><ele>0.0</ele></rtept>
    <rtept lat="52.348565" lon="4.671474"><ele>0.0</ele></rtept>
    <rtept lat="52.348137" lon="4.671580"><ele>0.0</ele></rtept>
    <rtept lat="52.347251" lon="4.671674"><ele>0.0</ele></rtept>
    <rtept lat="52.347037" lon="4.671690"><ele>0.0</ele></rtept>
    <rtept lat="52.346890" lon="4.671700"><ele>0.0</ele></rtept>
    <rtept lat="52.346472" lon="4.671729"><ele>0.0</ele></rtept>
    <rtept lat="52.346320" lon="4.671657"><ele>0.0</ele></rtept>
    <rtept lat="52.346288" lon="4.671669"><ele>0.0</ele></rtept>
    <rtept lat="52.346274" lon="4.671698"><ele>0.0</ele></rtept>
    <rtept lat="52.346253" lon="4.671740"><ele>0.0</ele></rtept>
    <rtept lat="52.346236" lon="4.671775"><ele>0.0</ele></rtept>
    <rtept lat="52.346208" lon="4.671801"><ele>0.0</ele></rtept>
    <rtept lat="52.346099" lon="4.671824"><ele>0.0</ele></rtept>
    <rtept lat="52.346064" lon="4.671865"><ele>0.0</ele></rtept>
    <rtept lat="52.346041" lon="4.671887"><ele>0.0</ele></rtept>
    <rtept lat="52.345250" lon="4.672126"><ele>0.0</ele></rtept>
    <rtept lat="52.345076" lon="4.672242"><ele>0.0</ele></rtept>
    <rtept lat="52.344572" lon="4.672383"><ele>0.0</ele></rtept>
    <rtept lat="52.344355" lon="4.672373"><ele>0.0</ele></rtept>
    <rtept lat="52.343553" lon="4.672596"><ele>0.0</ele></rtept>
    <rtept lat="52.343522" lon="4.672605"><ele>0.0</ele></rtept>
    <rtept lat="52.343406" lon="4.672650"><ele>0.0</ele></rtept>
    <rtept lat="52.343232" lon="4.672765"><ele>0.0</ele></rtept>
    <rtept lat="52.342456" lon="4.672992"><ele>0.0</ele></rtept>
    <rtept lat="52.342132" lon="4.673000"><ele>0.0</ele></rtept>
    <rtept lat="52.341895" lon="4.673064"><ele>0.0</ele></rtept>
    <rtept lat="52.339506" lon="4.673740"><ele>0.0</ele></rtept>
    <rtept lat="52.339330" lon="4.673743"><ele>0.0</ele></rtept>
    <rtept lat="52.338432" lon="4.673864"><ele>0.0</ele></rtept>
    <rtept lat="52.338064" lon="4.673973"><ele>0.0</ele></rtept>
    <rtept lat="52.337773" lon="4.674005"><ele>0.0</ele></rtept>
    <rtept lat="52.336415" lon="4.674412"><ele>0.0</ele></rtept>
    <rtept lat="52.336239" lon="4.674488"><ele>0.0</ele></rtept>
    <rtept lat="52.335163" lon="4.674789"><ele>0.0</ele></rtept>
    <rtept lat="52.334916" lon="4.674863"><ele>0.0</ele></rtept>
    <rtept lat="52.334850" lon="4.674881"><ele>0.0</ele></rtept>
    <rtept lat="52.334561" lon="4.674958"><ele>0.0</ele></rtept>
    <rtept lat="52.334141" lon="4.675025"><ele>0.0</ele></rtept>
    <rtept lat="52.333495" lon="4.675123"><ele>0.0</ele></rtept>
    <rtept lat="52.333059" lon="4.675149"><ele>0.0</ele></rtept>
    <rtept lat="52.329442" lon="4.676183"><ele>0.0</ele></rtept>
    <rtept lat="52.329411" lon="4.676192"><ele>0.0</ele></rtept>
    <rtept lat="52.324001" lon="4.677735"><ele>0.0</ele></rtept>
    <rtept lat="52.323922" lon="4.677682"><ele>0.0</ele></rtept>
    <rtept lat="52.323778" lon="4.677457"><ele>0.0</ele></rtept>
    <rtept lat="52.323647" lon="4.677378"><ele>0.0</ele></rtept>
    <rtept lat="52.323527" lon="4.677397"><ele>0.0</ele></rtept>
    <rtept lat="52.323453" lon="4.677527"><ele>0.0</ele></rtept>
    <rtept lat="52.323383" lon="4.677735"><ele>0.0</ele></rtept>
    <rtept lat="52.323270" lon="4.678009"><ele>0.0</ele></rtept>
    <rtept lat="52.323221" lon="4.678099"><ele>0.0</ele></rtept>
    <rtept lat="52.323179" lon="4.678185"><ele>0.0</ele></rtept>
    <rtept lat="52.323069" lon="4.678349"><ele>0.0</ele></rtept>
    <rtept lat="52.322978" lon="4.678431"><ele>0.0</ele></rtept>
    <rtept lat="52.318071" lon="4.680272"><ele>0.0</ele></rtept>
    <rtept lat="52.317106" lon="4.680641"><ele>0.0</ele></rtept>
    <rtept lat="52.317032" lon="4.680676"><ele>0.0</ele></rtept>
    <rtept lat="52.316816" lon="4.680786"><ele>0.0</ele></rtept>
    <rtept lat="52.316541" lon="4.680892"><ele>0.0</ele></rtept>
    <rtept lat="52.316281" lon="4.680986"><ele>0.0</ele></rtept>
    <rtept lat="52.316009" lon="4.681085"><ele>0.0</ele></rtept>
    <rtept lat="52.315765" lon="4.681138"><ele>0.0</ele></rtept>
    <rtept lat="52.315717" lon="4.681151"><ele>0.0</ele></rtept>
    <rtept lat="52.314498" lon="4.681614"><ele>0.0</ele></rtept>
    <rtept lat="52.314416" lon="4.681646"><ele>0.0</ele></rtept>
    <rtept lat="52.314367" lon="4.681654"><ele>0.0</ele></rtept>
    <rtept lat="52.314092" lon="4.681384"><ele>0.0</ele></rtept>
    <rtept lat="52.314020" lon="4.681404"><ele>0.0</ele></rtept>
    <rtept lat="52.313964" lon="4.681423"><ele>0.0</ele></rtept>
    <rtept lat="52.312199" lon="4.682078"><ele>0.0</ele></rtept>
    <rtept lat="52.312158" lon="4.682050"><ele>0.0</ele></rtept>
    <rtept lat="52.311961" lon="4.682044"><ele>0.0</ele></rtept>
    <rtept lat="52.311942" lon="4.681964"><ele>0.0</ele></rtept>
    <rtept lat="52.311901" lon="4.681944"><ele>0.0</ele></rtept>
    <rtept lat="52.311501" lon="4.682140"><ele>0.0</ele></rtept>
    <rtept lat="52.311281" lon="4.682226"><ele>0.0</ele></rtept>
    <rtept lat="52.311221" lon="4.682210"><ele>0.0</ele></rtept>
    <rtept lat="52.311101" lon="4.682063"><ele>0.0</ele></rtept>
    <rtept lat="52.311073" lon="4.682099"><ele>0.0</ele></rtept>
    <rtept lat="52.310267" lon="4.682425"><ele>0.0</ele></rtept>
    <rtept lat="52.310195" lon="4.682554"><ele>0.0</ele></rtept>
    <rtept lat="52.310165" lon="4.682607"><ele>0.0</ele></rtept>
    <rtept lat="52.310104" lon="4.682643"><ele>0.0</ele></rtept>
    <rtept lat="52.310029" lon="4.682669"><ele>0.0</ele></rtept>
    <rtept lat="52.309972" lon="4.682735"><ele>0.0</ele></rtept>
    <rtept lat="52.309914" lon="4.682801"><ele>0.0</ele></rtept>
    <rtept lat="52.309896" lon="4.682829"><ele>0.0</ele></rtept>
    <rtept lat="52.309805" lon="4.682955"><ele>0.0</ele></rtept>
    <rtept lat="52.307083" lon="4.683992"><ele>0.0</ele></rtept>
    <rtept lat="52.307013" lon="4.684035"><ele>0.0</ele></rtept>
    <rtept lat="52.306957" lon="4.684078"><ele>0.0</ele></rtept>
    <rtept lat="52.306886" lon="4.684134"><ele>0.0</ele></rtept>
    <rtept lat="52.306818" lon="4.684145"><ele>0.0</ele></rtept>
    <rtept lat="52.306759" lon="4.684125"><ele>0.0</ele></rtept>
    <rtept lat="52.306701" lon="4.684116"><ele>0.0</ele></rtept>
    <rtept lat="52.304362" lon="4.685013"><ele>0.0</ele></rtept>
    <rtept lat="52.303243" lon="4.685068"><ele>0.0</ele></rtept>
    <rtept lat="52.303071" lon="4.685109"><ele>0.0</ele></rtept>
    <rtept lat="52.302771" lon="4.685520"><ele>0.0</ele></rtept>
    <rtept lat="52.302540" lon="4.685804"><ele>0.0</ele></rtept>
    <rtept lat="52.302423" lon="4.685960"><ele>0.0</ele></rtept>
    <rtept lat="52.302372" lon="4.686068"><ele>0.0</ele></rtept>
    <rtept lat="52.302331" lon="4.686119"><ele>0.0</ele></rtept>
    <rtept lat="52.302256" lon="4.686265"><ele>0.0</ele></rtept>
    <rtept lat="52.302219" lon="4.686402"><ele>0.0</ele></rtept>
    <rtept lat="52.302041" lon="4.686756"><ele>0.0</ele></rtept>
    <rtept lat="52.301971" lon="4.686838"><ele>0.0</ele></rtept>
    <rtept lat="52.301874" lon="4.687020"><ele>0.0</ele></rtept>
    <rtept lat="52.301477" lon="4.686454"><ele>0.0</ele></rtept>
    <rtept lat="52.301411" lon="4.686587"><ele>0.0</ele></rtept>
    <rtept lat="52.301330" lon="4.686744"><ele>0.0</ele></rtept>
    <rtept lat="52.301293" lon="4.686820"><ele>0.0</ele></rtept>
    <rtept lat="52.301258" lon="4.686885"><ele>0.0</ele></rtept>
    <rtept lat="52.301226" lon="4.686947"><ele>0.0</ele></rtept>
    <rtept lat="52.301193" lon="4.687015"><ele>0.0</ele></rtept>
    <rtept lat="52.301133" lon="4.687138"><ele>0.0</ele></rtept>
    <rtept lat="52.301131" lon="4.687142"><ele>0.0</ele></rtept>
    <rtept lat="52.301099" lon="4.687205"><ele>0.0</ele></rtept>
    <rtept lat="52.300396" lon="4.688473"><ele>0.0</ele></rtept>
    <rtept lat="52.299756" lon="4.689222"><ele>0.0</ele></rtept>
    <rtept lat="52.299440" lon="4.689733"><ele>0.0</ele></rtept>
    <rtept lat="52.299361" lon="4.689818"><ele>0.0</ele></rtept>
    <rtept lat="52.299165" lon="4.689902"><ele>0.0</ele></rtept>
    <rtept lat="52.299064" lon="4.689992"><ele>0.0</ele></rtept>
    <rtept lat="52.298248" lon="4.690911"><ele>0.0</ele></rtept>
    <rtept lat="52.297939" lon="4.691299"><ele>0.0</ele></rtept>
    <rtept lat="52.297919" lon="4.691329"><ele>0.0</ele></rtept>
    <rtept lat="52.297868" lon="4.691422"><ele>0.0</ele></rtept>
    <rtept lat="52.297711" lon="4.691189"><ele>0.0</ele></rtept>
    <rtept lat="52.297463" lon="4.690810"><ele>0.0</ele></rtept>
    <rtept lat="52.297441" lon="4.690851"><ele>0.0</ele></rtept>
    <rtept lat="52.297400" lon="4.690929"><ele>0.0</ele></rtept>
    <rtept lat="52.297348" lon="4.691000"><ele>0.0</ele></rtept>
    <rtept lat="52.297173" lon="4.691003"><ele>0.0</ele></rtept>
    <rtept lat="52.296882" lon="4.691457"><ele>0.0</ele></rtept>
    <rtept lat="52.296353" lon="4.692078"><ele>0.0</ele></rtept>
    <rtept lat="52.295576" lon="4.692934"><ele>0.0</ele></rtept>
    <rtept lat="52.295390" lon="4.693139"><ele>0.0</ele></rtept>
    <rtept lat="52.294822" lon="4.693808"><ele>0.0</ele></rtept>
    <rtept lat="52.294293" lon="4.694405"><ele>0.0</ele></rtept>
    <rtept lat="52.293865" lon="4.694892"><ele>0.0</ele></rtept>
    <rtept lat="52.293624" lon="4.695212"><ele>0.0</ele></rtept>
    <rtept lat="52.293605" lon="4.695252"><ele>0.0</ele></rtept>
    <rtept lat="52.293602" lon="4.695606"><ele>0.0</ele></rtept>
    <rtept lat="52.293432" lon="4.695684"><ele>0.0</ele></rtept>
    <rtept lat="52.293143" lon="4.695992"><ele>0.0</ele></rtept>
    <rtept lat="52.293025" lon="4.696131"><ele>0.0</ele></rtept>
    <rtept lat="52.292732" lon="4.696472"><ele>0.0</ele></rtept>
    <rtept lat="52.292631" lon="4.696606"><ele>0.0</ele></rtept>
    <rtept lat="52.292614" lon="4.696670"><ele>0.0</ele></rtept>
    <rtept lat="52.292613" lon="4.696804"><ele>0.0</ele></rtept>
    <rtept lat="52.292642" lon="4.696911"><ele>0.0</ele></rtept>
    <rtept lat="52.292674" lon="4.696982"><ele>0.0</ele></rtept>
    <rtept lat="52.292979" lon="4.697717"><ele>0.0</ele></rtept>
    <rtept lat="52.293002" lon="4.697972"><ele>0.0</ele></rtept>
    <rtept lat="52.292795" lon="4.698310"><ele>0.0</ele></rtept>
    <rtept lat="52.292718" lon="4.698456"><ele>0.0</ele></rtept>
    <rtept lat="52.292632" lon="4.698598"><ele>0.0</ele></rtept>
    <rtept lat="52.292476" lon="4.698873"><ele>0.0</ele></rtept>
    <rtept lat="52.292427" lon="4.698955"><ele>0.0</ele></rtept>
    <rtept lat="52.292327" lon="4.699132"><ele>0.0</ele></rtept>
    <rtept lat="52.292215" lon="4.699307"><ele>0.0</ele></rtept>
    <rtept lat="52.291991" lon="4.699724"><ele>0.0</ele></rtept>
    <rtept lat="52.291837" lon="4.700004"><ele>0.0</ele></rtept>
    <rtept lat="52.291787" lon="4.700180"><ele>0.0</ele></rtept>
    <rtept lat="52.291680" lon="4.700136"><ele>0.0</ele></rtept>
    <rtept lat="52.291571" lon="4.700103"><ele>0.0</ele></rtept>
    <rtept lat="52.291473" lon="4.700086"><ele>0.0</ele></rtept>
    <rtept lat="52.291419" lon="4.700110"><ele>0.0</ele></rtept>
    <rtept lat="52.291178" lon="4.700557"><ele>0.0</ele></rtept>
    <rtept lat="52.291132" lon="4.700646"><ele>0.0</ele></rtept>
    <rtept lat="52.290954" lon="4.700388"><ele>0.0</ele></rtept>
    <rtept lat="52.290726" lon="4.700063"><ele>0.0</ele></rtept>
    <rtept lat="52.290506" lon="4.699745"><ele>0.0</ele></rtept>
    <rtept lat="52.290476" lon="4.699712"><ele>0.0</ele></rtept>
    <rtept lat="52.286669" lon="4.703980"><ele>0.0</ele></rtept>
    <rtept lat="52.286129" lon="4.704584"><ele>0.0</ele></rtept>
    <rtept lat="52.286082" lon="4.704686"><ele>0.0</ele></rtept>
    <rtept lat="52.285961" lon="4.704908"><ele>0.0</ele></rtept>
    <rtept lat="52.285291" lon="4.706187"><ele>0.0</ele></rtept>
    <rtept lat="52.285079" lon="4.706529"><ele>0.0</ele></rtept>
    <rtept lat="52.284752" lon="4.707171"><ele>0.0</ele></rtept>
    <rtept lat="52.283687" lon="4.709146"><ele>0.0</ele></rtept>
    <rtept lat="52.280982" lon="4.714133"><ele>0.0</ele></rtept>
    <rtept lat="52.280808" lon="4.714449"><ele>0.0</ele></rtept>
    <rtept lat="52.280730" lon="4.714599"><ele>0.0</ele></rtept>
    <rtept lat="52.280735" lon="4.714676"><ele>0.0</ele></rtept>
    <rtept lat="52.280850" lon="4.714832"><ele>0.0</ele></rtept>
    <rtept lat="52.280950" lon="4.714861"><ele>0.0</ele></rtept>
    <rtept lat="52.281013" lon="4.714832"><ele>0.0</ele></rtept>
    <rtept lat="52.281057" lon="4.714782"><ele>0.0</ele></rtept>
    <rtept lat="52.281262" lon="4.714396"><ele>0.0</ele></rtept>
    <rtept lat="52.281387" lon="4.714150"><ele>0.0</ele></rtept>
    <rtept lat="52.281275" lon="4.713971"><ele>0.0</ele></rtept>
    <rtept lat="52.281228" lon="4.713950"><ele>0.0</ele></rtept>
    <rtept lat="52.279989" lon="4.716243"><ele>0.0</ele></rtept>
    <rtept lat="52.279531" lon="4.717096"><ele>0.0</ele></rtept>
    <rtept lat="52.279538" lon="4.717156"><ele>0.0</ele></rtept>
    <rtept lat="52.279646" lon="4.717310"><ele>0.0</ele></rtept>
    <rtept lat="52.279680" lon="4.717329"><ele>0.0</ele></rtept>
    <rtept lat="52.279803" lon="4.717098"><ele>0.0</ele></rtept>
    <rtept lat="52.280011" lon="4.716705"><ele>0.0</ele></rtept>
    <rtept lat="52.280025" lon="4.716603"><ele>0.0</ele></rtept>
    <rtept lat="52.280019" lon="4.716504"><ele>0.0</ele></rtept>
    <rtept lat="52.279995" lon="4.716419"><ele>0.0</ele></rtept>
    <rtept lat="52.279953" lon="4.716344"><ele>0.0</ele></rtept>
    <rtept lat="52.279871" lon="4.716238"><ele>0.0</ele></rtept>
    <rtept lat="52.279839" lon="4.716236"><ele>0.0</ele></rtept>
    <rtept lat="52.279747" lon="4.716401"><ele>0.0</ele></rtept>
    <rtept lat="52.279735" lon="4.716423"><ele>0.0</ele></rtept>
    <rtept lat="52.279171" lon="4.717497"><ele>0.0</ele></rtept>
    <rtept lat="52.278718" lon="4.718316"><ele>0.0</ele></rtept>
    <rtept lat="52.277281" lon="4.720979"><ele>0.0</ele></rtept>
    <rtept lat="52.274257" lon="4.726584"><ele>0.0</ele></rtept>
    <rtept lat="52.274196" lon="4.726701"><ele>0.0</ele></rtept>
    <rtept lat="52.274151" lon="4.726789"><ele>0.0</ele></rtept>
    <rtept lat="52.274113" lon="4.726852"><ele>0.0</ele></rtept>
    <rtept lat="52.273499" lon="4.727987"><ele>0.0</ele></rtept>
    <rtept lat="52.273450" lon="4.728009"><ele>0.0</ele></rtept>
    <rtept lat="52.273304" lon="4.727825"><ele>0.0</ele></rtept>
    <rtept lat="52.273280" lon="4.727816"><ele>0.0</ele></rtept>
    <rtept lat="52.270553" lon="4.732874"><ele>0.0</ele></rtept>
    <rtept lat="52.270492" lon="4.733023"><ele>0.0</ele></rtept>
    <rtept lat="52.270458" lon="4.733053"><ele>0.0</ele></rtept>
    <rtept lat="52.270432" lon="4.733041"><ele>0.0</ele></rtept>
    <rtept lat="52.270174" lon="4.732894"><ele>0.0</ele></rtept>
    <rtept lat="52.270073" lon="4.732871"><ele>0.0</ele></rtept>
    <rtept lat="52.270048" lon="4.732866"><ele>0.0</ele></rtept>
    <rtept lat="52.269133" lon="4.732712"><ele>0.0</ele></rtept>
    <rtept lat="52.268057" lon="4.732623"><ele>0.0</ele></rtept>
    <rtept lat="52.267954" lon="4.732637"><ele>0.0</ele></rtept>
    <rtept lat="52.267873" lon="4.732703"><ele>0.0</ele></rtept>
    <rtept lat="52.267817" lon="4.732790"><ele>0.0</ele></rtept>
    <rtept lat="52.267002" lon="4.734307"><ele>0.0</ele></rtept>
    <rtept lat="52.266914" lon="4.734395"><ele>0.0</ele></rtept>
    <rtept lat="52.267150" lon="4.735286"><ele>0.0</ele></rtept>
    <rtept lat="52.267310" lon="4.736010"><ele>0.0</ele></rtept>
    <rtept lat="52.267539" lon="4.737103"><ele>0.0</ele></rtept>
    <rtept lat="52.267594" lon="4.737493"><ele>0.0</ele></rtept>
    <rtept lat="52.267747" lon="4.738210"><ele>0.0</ele></rtept>
    <rtept lat="52.267957" lon="4.738940"><ele>0.0</ele></rtept>
    <rtept lat="52.268036" lon="4.739140"><ele>0.0</ele></rtept>
    <rtept lat="52.268636" lon="4.740363"><ele>0.0</ele></rtept>
    <rtept lat="52.268912" lon="4.740927"><ele>0.0</ele></rtept>
    <rtept lat="52.269380" lon="4.741869"><ele>0.0</ele></rtept>
    <rtept lat="52.270087" lon="4.743284"><ele>0.0</ele></rtept>
    <rtept lat="52.270251" lon="4.743484"><ele>0.0</ele></rtept>
    <rtept lat="52.270542" lon="4.743772"><ele>0.0</ele></rtept>
    <rtept lat="52.271039" lon="4.744233"><ele>0.0</ele></rtept>
    <rtept lat="52.271524" lon="4.744740"><ele>0.0</ele></rtept>
    <rtept lat="52.271961" lon="4.745259"><ele>0.0</ele></rtept>
    <rtept lat="52.272194" lon="4.745619"><ele>0.0</ele></rtept>
    <rtept lat="52.272401" lon="4.746002"><ele>0.0</ele></rtept>
    <rtept lat="52.272601" lon="4.746451"><ele>0.0</ele></rtept>
    <rtept lat="52.272787" lon="4.746993"><ele>0.0</ele></rtept>
    <rtept lat="52.273770" lon="4.750100"><ele>0.0</ele></rtept>
    <rtept lat="52.273731" lon="4.750136"><ele>0.0</ele></rtept>
    <rtept lat="52.273709" lon="4.750157"><ele>0.0</ele></rtept>
    <rtept lat="52.273678" lon="4.750193"><ele>0.0</ele></rtept>
    <rtept lat="52.273674" lon="4.750237"><ele>0.0</ele></rtept>
    <rtept lat="52.273883" lon="4.751365"><ele>0.0</ele></rtept>
    <rtept lat="52.273926" lon="4.751701"><ele>0.0</ele></rtept>
    <rtept lat="52.273936" lon="4.751728"><ele>0.0</ele></rtept>
    <rtept lat="52.273972" lon="4.751736"><ele>0.0</ele></rtept>
    <rtept lat="52.274036" lon="4.751724"><ele>0.0</ele></rtept>
    <rtept lat="52.274044" lon="4.751412"><ele>0.0</ele></rtept>
    <rtept lat="52.274048" lon="4.751137"><ele>0.0</ele></rtept>
    <rtept lat="52.273976" lon="4.751132"><ele>0.0</ele></rtept>
    <rtept lat="52.273881" lon="4.751165"><ele>0.0</ele></rtept>
    <rtept lat="52.273534" lon="4.751345"><ele>0.0</ele></rtept>
    <rtept lat="52.272657" lon="4.751779"><ele>0.0</ele></rtept>
    <rtept lat="52.272438" lon="4.751925"><ele>0.0</ele></rtept>
    <rtept lat="52.272186" lon="4.752133"><ele>0.0</ele></rtept>
    <rtept lat="52.272029" lon="4.752321"><ele>0.0</ele></rtept>
    <rtept lat="52.271895" lon="4.752388"><ele>0.0</ele></rtept>
    <rtept lat="52.271823" lon="4.752468"><ele>0.0</ele></rtept>
    <rtept lat="52.271761" lon="4.752527"><ele>0.0</ele></rtept>
    <rtept lat="52.271725" lon="4.752562"><ele>0.0</ele></rtept>
    <rtept lat="52.270060" lon="4.754152"><ele>0.0</ele></rtept>
    <rtept lat="52.269737" lon="4.754384"><ele>0.0</ele></rtept>
    <rtept lat="52.269523" lon="4.754505"><ele>0.0</ele></rtept>
    <rtept lat="52.269481" lon="4.754674"><ele>0.0</ele></rtept>
    <rtept lat="52.269418" lon="4.754775"><ele>0.0</ele></rtept>
    <rtept lat="52.269378" lon="4.754806"><ele>0.0</ele></rtept>
    <rtept lat="52.269314" lon="4.754822"><ele>0.0</ele></rtept>
    <rtept lat="52.269267" lon="4.754815"><ele>0.0</ele></rtept>
    <rtept lat="52.269182" lon="4.754763"><ele>0.0</ele></rtept>
    <rtept lat="52.269046" lon="4.754881"><ele>0.0</ele></rtept>
    <rtept lat="52.268993" lon="4.754984"><ele>0.0</ele></rtept>
    <rtept lat="52.268935" lon="4.755042"><ele>0.0</ele></rtept>
    <rtept lat="52.268795" lon="4.755118"><ele>0.0</ele></rtept>
    <rtept lat="52.268141" lon="4.755768"><ele>0.0</ele></rtept>
    <rtept lat="52.268108" lon="4.755812"><ele>0.0</ele></rtept>
    <rtept lat="52.268054" lon="4.756041"><ele>0.0</ele></rtept>
    <rtept lat="52.268013" lon="4.756135"><ele>0.0</ele></rtept>
    <rtept lat="52.267974" lon="4.756179"><ele>0.0</ele></rtept>
    <rtept lat="52.267915" lon="4.756225"><ele>0.0</ele></rtept>
    <rtept lat="52.267853" lon="4.756242"><ele>0.0</ele></rtept>
    <rtept lat="52.267800" lon="4.756238"><ele>0.0</ele></rtept>
    <rtept lat="52.267707" lon="4.756183"><ele>0.0</ele></rtept>
    <rtept lat="52.267666" lon="4.756188"><ele>0.0</ele></rtept>
    <rtept lat="52.267495" lon="4.756286"><ele>0.0</ele></rtept>
    <rtept lat="52.267321" lon="4.756340"><ele>0.0</ele></rtept>
    <rtept lat="52.266688" lon="4.756928"><ele>0.0</ele></rtept>
    <rtept lat="52.265959" lon="4.757598"><ele>0.0</ele></rtept>
    <rtept lat="52.265803" lon="4.757819"><ele>0.0</ele></rtept>
    <rtept lat="52.263876" lon="4.759696"><ele>0.0</ele></rtept>
    <rtept lat="52.263834" lon="4.759930"><ele>0.0</ele></rtept>
    <rtept lat="52.263777" lon="4.760030"><ele>0.0</ele></rtept>
    <rtept lat="52.263718" lon="4.760085"><ele>0.0</ele></rtept>
    <rtept lat="52.263659" lon="4.760110"><ele>0.0</ele></rtept>
    <rtept lat="52.263563" lon="4.760094"><ele>0.0</ele></rtept>
    <rtept lat="52.263475" lon="4.760027"><ele>0.0</ele></rtept>
    <rtept lat="52.262273" lon="4.761176"><ele>0.0</ele></rtept>
    <rtept lat="52.262235" lon="4.761240"><ele>0.0</ele></rtept>
    <rtept lat="52.262210" lon="4.761413"><ele>0.0</ele></rtept>
    <rtept lat="52.262186" lon="4.761481"><ele>0.0</ele></rtept>
    <rtept lat="52.262065" lon="4.761620"><ele>0.0</ele></rtept>
    <rtept lat="52.261979" lon="4.761705"><ele>0.0</ele></rtept>
    <rtept lat="52.261825" lon="4.761279"><ele>0.0</ele></rtept>
    <rtept lat="52.261602" lon="4.761574"><ele>0.0</ele></rtept>
    <rtept lat="52.261343" lon="4.761849"><ele>0.0</ele></rtept>
    <rtept lat="52.261079" lon="4.762133"><ele>0.0</ele></rtept>
    <rtept lat="52.260634" lon="4.762669"><ele>0.0</ele></rtept>
    <rtept lat="52.260338" lon="4.763077"><ele>0.0</ele></rtept>
    <rtept lat="52.260106" lon="4.763465"><ele>0.0</ele></rtept>
    <rtept lat="52.259716" lon="4.764257"><ele>0.0</ele></rtept>
    <rtept lat="52.259527" lon="4.764683"><ele>0.0</ele></rtept>
    <rtept lat="52.259183" lon="4.765696"><ele>0.0</ele></rtept>
    <rtept lat="52.259122" lon="4.765930"><ele>0.0</ele></rtept>
    <rtept lat="52.259059" lon="4.765957"><ele>0.0</ele></rtept>
    <rtept lat="52.258964" lon="4.766070"><ele>0.0</ele></rtept>
    <rtept lat="52.258914" lon="4.766215"><ele>0.0</ele></rtept>
    <rtept lat="52.258903" lon="4.766335"><ele>0.0</ele></rtept>
    <rtept lat="52.258909" lon="4.766431"><ele>0.0</ele></rtept>
    <rtept lat="52.258929" lon="4.766521"><ele>0.0</ele></rtept>
    <rtept lat="52.259003" lon="4.766668"><ele>0.0</ele></rtept>
    <rtept lat="52.259105" lon="4.766743"><ele>0.0</ele></rtept>
    <rtept lat="52.259177" lon="4.766747"><ele>0.0</ele></rtept>
    <rtept lat="52.259169" lon="4.766829"><ele>0.0</ele></rtept>
    <rtept lat="52.259007" lon="4.767511"><ele>0.0</ele></rtept>
    <rtept lat="52.259014" lon="4.767636"><ele>0.0</ele></rtept>
    <rtept lat="52.259068" lon="4.767777"><ele>0.0</ele></rtept>
    <rtept lat="52.259109" lon="4.767875"><ele>0.0</ele></rtept>
    <rtept lat="52.259186" lon="4.768097"><ele>0.0</ele></rtept>
    <rtept lat="52.259197" lon="4.768175"><ele>0.0</ele></rtept>
    <rtept lat="52.259192" lon="4.768409"><ele>0.0</ele></rtept>
    <rtept lat="52.259099" lon="4.768649"><ele>0.0</ele></rtept>
    <rtept lat="52.258628" lon="4.769561"><ele>0.0</ele></rtept>
    <rtept lat="52.258084" lon="4.770787"><ele>0.0</ele></rtept>
    <rtept lat="52.258031" lon="4.770901"><ele>0.0</ele></rtept>
    <rtept lat="52.257937" lon="4.771078"><ele>0.0</ele></rtept>
    <rtept lat="52.257284" lon="4.772506"><ele>0.0</ele></rtept>
    <rtept lat="52.255263" lon="4.777050"><ele>0.0</ele></rtept>
    <rtept lat="52.255217" lon="4.777149"><ele>0.0</ele></rtept>
    <rtept lat="52.254987" lon="4.777495"><ele>0.0</ele></rtept>
    <rtept lat="52.254740" lon="4.778205"><ele>0.0</ele></rtept>
    <rtept lat="52.254429" lon="4.779188"><ele>0.0</ele></rtept>
    <rtept lat="52.254300" lon="4.779591"><ele>0.0</ele></rtept>
    <rtept lat="52.254156" lon="4.780041"><ele>0.0</ele></rtept>
    <rtept lat="52.253928" lon="4.780877"><ele>0.0</ele></rtept>
    <rtept lat="52.253845" lon="4.781177"><ele>0.0</ele></rtept>
    <rtept lat="52.253209" lon="4.783589"><ele>0.0</ele></rtept>
    <rtept lat="52.252707" lon="4.785681"><ele>0.0</ele></rtept>
    <rtept lat="52.252073" lon="4.789084"><ele>0.0</ele></rtept>
    <rtept lat="52.251926" lon="4.790019"><ele>0.0</ele></rtept>
    <rtept lat="52.251585" lon="4.792124"><ele>0.0</ele></rtept>
    <rtept lat="52.251505" lon="4.792546"><ele>0.0</ele></rtept>
    <rtept lat="52.251321" lon="4.792551"><ele>0.0</ele></rtept>
    <rtept lat="52.251275" lon="4.792531"><ele>0.0</ele></rtept>
    <rtept lat="52.251252" lon="4.792607"><ele>0.0</ele></rtept>
    <rtept lat="52.251222" lon="4.792707"><ele>0.0</ele></rtept>
    <rtept lat="52.251184" lon="4.792843"><ele>0.0</ele></rtept>
    <rtept lat="52.251136" lon="4.792915"><ele>0.0</ele></rtept>
    <rtept lat="52.251088" lon="4.793006"><ele>0.0</ele></rtept>
    <rtept lat="52.250955" lon="4.793404"><ele>0.0</ele></rtept>
    <rtept lat="52.250602" lon="4.794709"><ele>0.0</ele></rtept>
    <rtept lat="52.250384" lon="4.795413"><ele>0.0</ele></rtept>
    <rtept lat="52.249736" lon="4.797836"><ele>0.0</ele></rtept>
    <rtept lat="52.249450" lon="4.799041"><ele>0.0</ele></rtept>
    <rtept lat="52.249227" lon="4.800128"><ele>0.0</ele></rtept>
    <rtept lat="52.248881" lon="4.801470"><ele>0.0</ele></rtept>
    <rtept lat="52.248636" lon="4.802225"><ele>0.0</ele></rtept>
    <rtept lat="52.248068" lon="4.803900"><ele>0.0</ele></rtept>
    <rtept lat="52.247655" lon="4.804854"><ele>0.0</ele></rtept>
    <rtept lat="52.247384" lon="4.805399"><ele>0.0</ele></rtept>
    <rtept lat="52.246198" lon="4.807529"><ele>0.0</ele></rtept>
    <rtept lat="52.246076" lon="4.807927"><ele>0.0</ele></rtept>
    <rtept lat="52.245973" lon="4.808135"><ele>0.0</ele></rtept>
    <rtept lat="52.245970" lon="4.808472"><ele>0.0</ele></rtept>
    <rtept lat="52.245950" lon="4.808535"><ele>0.0</ele></rtept>
    <rtept lat="52.245933" lon="4.808565"><ele>0.0</ele></rtept>
    <rtept lat="52.245884" lon="4.808650"><ele>0.0</ele></rtept>
    <rtept lat="52.245832" lon="4.808741"><ele>0.0</ele></rtept>
    <rtept lat="52.245661" lon="4.808689"><ele>0.0</ele></rtept>
    <rtept lat="52.245521" lon="4.808890"><ele>0.0</ele></rtept>
    <rtept lat="52.245295" lon="4.809127"><ele>0.0</ele></rtept>
    <rtept lat="52.244878" lon="4.810082"><ele>0.0</ele></rtept>
    <rtept lat="52.244244" lon="4.810944"><ele>0.0</ele></rtept>
    <rtept lat="52.243410" lon="4.812407"><ele>0.0</ele></rtept>
    <rtept lat="52.243153" lon="4.812862"><ele>0.0</ele></rtept>
    <rtept lat="52.243120" lon="4.813010"><ele>0.0</ele></rtept>
    <rtept lat="52.243114" lon="4.813138"><ele>0.0</ele></rtept>
    <rtept lat="52.243055" lon="4.813349"><ele>0.0</ele></rtept>
    <rtept lat="52.243025" lon="4.813408"><ele>0.0</ele></rtept>
    <rtept lat="52.242958" lon="4.813487"><ele>0.0</ele></rtept>
    <rtept lat="52.242860" lon="4.813522"><ele>0.0</ele></rtept>
    <rtept lat="52.242769" lon="4.813603"><ele>0.0</ele></rtept>
    <rtept lat="52.242440" lon="4.814191"><ele>0.0</ele></rtept>
    <rtept lat="52.242133" lon="4.814669"><ele>0.0</ele></rtept>
    <rtept lat="52.241906" lon="4.815122"><ele>0.0</ele></rtept>
    <rtept lat="52.241568" lon="4.815880"><ele>0.0</ele></rtept>
    <rtept lat="52.241529" lon="4.815962"><ele>0.0</ele></rtept>
    <rtept lat="52.241447" lon="4.816116"><ele>0.0</ele></rtept>
    <rtept lat="52.241383" lon="4.816228"><ele>0.0</ele></rtept>
    <rtept lat="52.241262" lon="4.816427"><ele>0.0</ele></rtept>
    <rtept lat="52.241318" lon="4.816500"><ele>0.0</ele></rtept>
    <rtept lat="52.241290" lon="4.816569"><ele>0.0</ele></rtept>
    <rtept lat="52.241256" lon="4.816610"><ele>0.0</ele></rtept>
    <rtept lat="52.241180" lon="4.816536"><ele>0.0</ele></rtept>
    <rtept lat="52.240752" lon="4.817109"><ele>0.0</ele></rtept>
    <rtept lat="52.240605" lon="4.817335"><ele>0.0</ele></rtept>
    <rtept lat="52.236452" lon="4.824411"><ele>0.0</ele></rtept>
    <rtept lat="52.236295" lon="4.824651"><ele>0.0</ele></rtept>
    <rtept lat="52.236227" lon="4.824759"><ele>0.0</ele></rtept>
    <rtept lat="52.236179" lon="4.824876"><ele>0.0</ele></rtept>
    <rtept lat="52.236164" lon="4.825039"><ele>0.0</ele></rtept>
    <rtept lat="52.236186" lon="4.825303"><ele>0.0</ele></rtept>
    <rtept lat="52.236161" lon="4.825383"><ele>0.0</ele></rtept>
    <rtept lat="52.236120" lon="4.825463"><ele>0.0</ele></rtept>
    <rtept lat="52.236056" lon="4.825505"><ele>0.0</ele></rtept>
    <rtept lat="52.235908" lon="4.825460"><ele>0.0</ele></rtept>
    <rtept lat="52.235846" lon="4.825490"><ele>0.0</ele></rtept>
    <rtept lat="52.235711" lon="4.825610"><ele>0.0</ele></rtept>
    <rtept lat="52.234517" lon="4.827561"><ele>0.0</ele></rtept>
    <rtept lat="52.234258" lon="4.828011"><ele>0.0</ele></rtept>
    <rtept lat="52.234125" lon="4.828177"><ele>0.0</ele></rtept>
    <rtept lat="52.234090" lon="4.828215"><ele>0.0</ele></rtept>
    <rtept lat="52.233706" lon="4.828681"><ele>0.0</ele></rtept>
    <rtept lat="52.233690" lon="4.828603"><ele>0.0</ele></rtept>
    <rtept lat="52.233640" lon="4.828519"><ele>0.0</ele></rtept>
    <rtept lat="52.233600" lon="4.828481"><ele>0.0</ele></rtept>
    <rtept lat="52.233505" lon="4.828468"><ele>0.0</ele></rtept>
    <rtept lat="52.233416" lon="4.828550"><ele>0.0</ele></rtept>
    <rtept lat="52.233388" lon="4.828608"><ele>0.0</ele></rtept>
    <rtept lat="52.233372" lon="4.828701"><ele>0.0</ele></rtept>
    <rtept lat="52.233376" lon="4.828797"><ele>0.0</ele></rtept>
    <rtept lat="52.233404" lon="4.828896"><ele>0.0</ele></rtept>
    <rtept lat="52.233085" lon="4.829155"><ele>0.0</ele></rtept>
    <rtept lat="52.232516" lon="4.829566"><ele>0.0</ele></rtept>
    <rtept lat="52.232480" lon="4.829592"><ele>0.0</ele></rtept>
    <rtept lat="52.232444" lon="4.829624"><ele>0.0</ele></rtept>
    <rtept lat="52.232068" lon="4.829972"><ele>0.0</ele></rtept>
    <rtept lat="52.232023" lon="4.830073"><ele>0.0</ele></rtept>
    <rtept lat="52.231954" lon="4.830144"><ele>0.0</ele></rtept>
    <rtept lat="52.231792" lon="4.830381"><ele>0.0</ele></rtept>
    <rtept lat="52.231707" lon="4.830438"><ele>0.0</ele></rtept>
    <rtept lat="52.231660" lon="4.830514"><ele>0.0</ele></rtept>
    <rtept lat="52.231617" lon="4.830587"><ele>0.0</ele></rtept>
    <rtept lat="52.231357" lon="4.831039"><ele>0.0</ele></rtept>
    <rtept lat="52.231171" lon="4.831365"><ele>0.0</ele></rtept>
    <rtept lat="52.230822" lon="4.831957"><ele>0.0</ele></rtept>
    <rtept lat="52.230726" lon="4.832136"><ele>0.0</ele></rtept>
    <rtept lat="52.230482" lon="4.832736"><ele>0.0</ele></rtept>
    <rtept lat="52.230401" lon="4.832986"><ele>0.0</ele></rtept>
    <rtept lat="52.230355" lon="4.833055"><ele>0.0</ele></rtept>
    <rtept lat="52.230246" lon="4.833145"><ele>0.0</ele></rtept>
    <rtept lat="52.230133" lon="4.833223"><ele>0.0</ele></rtept>
    <rtept lat="52.230135" lon="4.833245"><ele>0.0</ele></rtept>
    <rtept lat="52.230085" lon="4.833486"><ele>0.0</ele></rtept>
    <rtept lat="52.230033" lon="4.833704"><ele>0.0</ele></rtept>
    <rtept lat="52.229710" lon="4.834885"><ele>0.0</ele></rtept>
    <rtept lat="52.229616" lon="4.835126"><ele>0.0</ele></rtept>
    <rtept lat="52.229494" lon="4.835369"><ele>0.0</ele></rtept>
    <rtept lat="52.229445" lon="4.835518"><ele>0.0</ele></rtept>
    <rtept lat="52.229421" lon="4.835742"><ele>0.0</ele></rtept>
    <rtept lat="52.229450" lon="4.836014"><ele>0.0</ele></rtept>
    <rtept lat="52.229446" lon="4.836057"><ele>0.0</ele></rtept>
    <rtept lat="52.229411" lon="4.836102"><ele>0.0</ele></rtept>
    <rtept lat="52.229359" lon="4.836168"><ele>0.0</ele></rtept>
    <rtept lat="52.229308" lon="4.836255"><ele>0.0</ele></rtept>
    <rtept lat="52.229390" lon="4.836475"><ele>0.0</ele></rtept>
    <rtept lat="52.229422" lon="4.836613"><ele>0.0</ele></rtept>
    <rtept lat="52.229435" lon="4.836738"><ele>0.0</ele></rtept>
    <rtept lat="52.229430" lon="4.836882"><ele>0.0</ele></rtept>
    <rtept lat="52.229406" lon="4.837041"><ele>0.0</ele></rtept>
    <rtept lat="52.229292" lon="4.837523"><ele>0.0</ele></rtept>
    <rtept lat="52.229025" lon="4.838461"><ele>0.0</ele></rtept>
    <rtept lat="52.228982" lon="4.838794"><ele>0.0</ele></rtept>
    <rtept lat="52.228772" lon="4.839681"><ele>0.0</ele></rtept>
    <rtept lat="52.228729" lon="4.839959"><ele>0.0</ele></rtept>
    <rtept lat="52.228690" lon="4.840406"><ele>0.0</ele></rtept>
    <rtept lat="52.228642" lon="4.840714"><ele>0.0</ele></rtept>
    <rtept lat="52.228469" lon="4.841433"><ele>0.0</ele></rtept>
    <rtept lat="52.227957" lon="4.843532"><ele>0.0</ele></rtept>
    <rtept lat="52.228034" lon="4.843602"><ele>0.0</ele></rtept>
    <rtept lat="52.228099" lon="4.843696"><ele>0.0</ele></rtept>
    <rtept lat="52.228299" lon="4.844252"><ele>0.0</ele></rtept>
    <rtept lat="52.228460" lon="4.844696"><ele>0.0</ele></rtept>
    <rtept lat="52.228544" lon="4.844880"><ele>0.0</ele></rtept>
    <rtept lat="52.228744" lon="4.845069"><ele>0.0</ele></rtept>
    <rtept lat="52.228813" lon="4.845599"><ele>0.0</ele></rtept>
    <rtept lat="52.228849" lon="4.845787"><ele>0.0</ele></rtept>
    <rtept lat="52.228921" lon="4.846027"><ele>0.0</ele></rtept>
    <rtept lat="52.229088" lon="4.846399"><ele>0.0</ele></rtept>
    <rtept lat="52.229419" lon="4.847062"><ele>0.0</ele></rtept>
    <rtept lat="52.230981" lon="4.850262"><ele>0.0</ele></rtept>
    <rtept lat="52.232791" lon="4.853949"><ele>0.0</ele></rtept>
    <rtept lat="52.233304" lon="4.854994"><ele>0.0</ele></rtept>
    <rtept lat="52.233619" lon="4.855634"><ele>0.0</ele></rtept>
    <rtept lat="52.233699" lon="4.855798"><ele>0.0</ele></rtept>
    <rtept lat="52.234007" lon="4.856422"><ele>0.0</ele></rtept>
    <rtept lat="52.234251" lon="4.856919"><ele>0.0</ele></rtept>
    <rtept lat="52.234899" lon="4.858234"><ele>0.0</ele></rtept>
    <rtept lat="52.235743" lon="4.859948"><ele>0.0</ele></rtept>
    <rtept lat="52.236142" lon="4.860759"><ele>0.0</ele></rtept>
    <rtept lat="52.237146" lon="4.862797"><ele>0.0</ele></rtept>
    <rtept lat="52.238234" lon="4.864987"><ele>0.0</ele></rtept>
    <rtept lat="52.238357" lon="4.865236"><ele>0.0</ele></rtept>
    <rtept lat="52.238517" lon="4.865557"><ele>0.0</ele></rtept>
    <rtept lat="52.239160" lon="4.866850"><ele>0.0</ele></rtept>
    <rtept lat="52.239444" lon="4.867421"><ele>0.0</ele></rtept>
    <rtept lat="52.242276" lon="4.873229"><ele>0.0</ele></rtept>
    <rtept lat="52.241517" lon="4.873904"><ele>0.0</ele></rtept>
    <rtept lat="52.241394" lon="4.873952"><ele>0.0</ele></rtept>
    <rtept lat="52.241067" lon="4.873866"><ele>0.0</ele></rtept>
    <rtept lat="52.240945" lon="4.873896"><ele>0.0</ele></rtept>
    <rtept lat="52.238532" lon="4.874847"><ele>0.0</ele></rtept>
    <rtept lat="52.237466" lon="4.875268"><ele>0.0</ele></rtept>
    <rtept lat="52.237326" lon="4.875363"><ele>0.0</ele></rtept>
    <rtept lat="52.234899" lon="4.877466"><ele>0.0</ele></rtept>
    <rtept lat="52.234614" lon="4.877724"><ele>0.0</ele></rtept>
    <rtept lat="52.234518" lon="4.877902"><ele>0.0</ele></rtept>
    <rtept lat="52.234454" lon="4.878229"><ele>0.0</ele></rtept>
    <rtept lat="52.234418" lon="4.879699"><ele>0.0</ele></rtept>
    <rtept lat="52.234454" lon="4.878229"><ele>0.0</ele></rtept>
    <rtept lat="52.234518" lon="4.877902"><ele>0.0</ele></rtept>
    <rtept lat="52.234614" lon="4.877724"><ele>0.0</ele></rtept>
    <rtept lat="52.234899" lon="4.877466"><ele>0.0</ele></rtept>
    <rtept lat="52.234498" lon="4.876623"><ele>0.0</ele></rtept>
    <rtept lat="52.232194" lon="4.871975"><ele>0.0</ele></rtept>
    <rtept lat="52.228239" lon="4.864001"><ele>0.0</ele></rtept>
    <rtept lat="52.227505" lon="4.862526"><ele>0.0</ele></rtept>
    <rtept lat="52.227467" lon="4.862455"><ele>0.0</ele></rtept>
    <rtept lat="52.225656" lon="4.858805"><ele>0.0</ele></rtept>
    <rtept lat="52.225403" lon="4.858291"><ele>0.0</ele></rtept>
    <rtept lat="52.224849" lon="4.857137"><ele>0.0</ele></rtept>
    <rtept lat="52.224665" lon="4.856792"><ele>0.0</ele></rtept>
    <rtept lat="52.224605" lon="4.856714"><ele>0.0</ele></rtept>
    <rtept lat="52.224480" lon="4.856607"><ele>0.0</ele></rtept>
    <rtept lat="52.224498" lon="4.856550"><ele>0.0</ele></rtept>
    <rtept lat="52.224447" lon="4.856487"><ele>0.0</ele></rtept>
    <rtept lat="52.224477" lon="4.856378"><ele>0.0</ele></rtept>
    <rtept lat="52.224530" lon="4.856220"><ele>0.0</ele></rtept>
    <rtept lat="52.224819" lon="4.855305"><ele>0.0</ele></rtept>
    <rtept lat="52.225470" lon="4.853042"><ele>0.0</ele></rtept>
    <rtept lat="52.226065" lon="4.850796"><ele>0.0</ele></rtept>
    <rtept lat="52.227473" lon="4.845414"><ele>0.0</ele></rtept>
    <rtept lat="52.227650" lon="4.844540"><ele>0.0</ele></rtept>
    <rtept lat="52.227957" lon="4.843532"><ele>0.0</ele></rtept>
    <rtept lat="52.228469" lon="4.841433"><ele>0.0</ele></rtept>
    <rtept lat="52.228539" lon="4.841480"><ele>0.0</ele></rtept>
    <rtept lat="52.228611" lon="4.841529"><ele>0.0</ele></rtept>
    <rtept lat="52.228627" lon="4.841348"><ele>0.0</ele></rtept>
    <rtept lat="52.229033" lon="4.839708"><ele>0.0</ele></rtept>
    <rtept lat="52.229548" lon="4.837522"><ele>0.0</ele></rtept>
    <rtept lat="52.229751" lon="4.836764"><ele>0.0</ele></rtept>
    <rtept lat="52.229775" lon="4.836610"><ele>0.0</ele></rtept>
    <rtept lat="52.229727" lon="4.836506"><ele>0.0</ele></rtept>
    <rtept lat="52.229732" lon="4.836370"><ele>0.0</ele></rtept>
    <rtept lat="52.229772" lon="4.836174"><ele>0.0</ele></rtept>
    <rtept lat="52.229906" lon="4.835437"><ele>0.0</ele></rtept>
    <rtept lat="52.230038" lon="4.834714"><ele>0.0</ele></rtept>
    <rtept lat="52.230233" lon="4.833833"><ele>0.0</ele></rtept>
    <rtept lat="52.230284" lon="4.833621"><ele>0.0</ele></rtept>
    <rtept lat="52.230347" lon="4.833387"><ele>0.0</ele></rtept>
    <rtept lat="52.230433" lon="4.833061"><ele>0.0</ele></rtept>
    <rtept lat="52.230603" lon="4.832549"><ele>0.0</ele></rtept>
    <rtept lat="52.230754" lon="4.832321"><ele>0.0</ele></rtept>
    <rtept lat="52.230798" lon="4.832228"><ele>0.0</ele></rtept>
    <rtept lat="52.230850" lon="4.832294"><ele>0.0</ele></rtept>
    <rtept lat="52.231007" lon="4.831891"><ele>0.0</ele></rtept>
    <rtept lat="52.231233" lon="4.831460"><ele>0.0</ele></rtept>
    <rtept lat="52.231414" lon="4.831144"><ele>0.0</ele></rtept>
    <rtept lat="52.231682" lon="4.830678"><ele>0.0</ele></rtept>
    <rtept lat="52.231757" lon="4.830545"><ele>0.0</ele></rtept>
    <rtept lat="52.231792" lon="4.830381"><ele>0.0</ele></rtept>
    <rtept lat="52.231954" lon="4.830144"><ele>0.0</ele></rtept>
    <rtept lat="52.232023" lon="4.830073"><ele>0.0</ele></rtept>
    <rtept lat="52.232217" lon="4.829980"><ele>0.0</ele></rtept>
    <rtept lat="52.232492" lon="4.829788"><ele>0.0</ele></rtept>
    <rtept lat="52.232525" lon="4.829764"><ele>0.0</ele></rtept>
    <rtept lat="52.232562" lon="4.829739"><ele>0.0</ele></rtept>
    <rtept lat="52.232701" lon="4.829631"><ele>0.0</ele></rtept>
    <rtept lat="52.233377" lon="4.829135"><ele>0.0</ele></rtept>
    <rtept lat="52.233491" lon="4.828989"><ele>0.0</ele></rtept>
    <rtept lat="52.233554" lon="4.829003"><ele>0.0</ele></rtept>
    <rtept lat="52.233632" lon="4.828965"><ele>0.0</ele></rtept>
    <rtept lat="52.233730" lon="4.829128"><ele>0.0</ele></rtept>
    <rtept lat="52.233943" lon="4.829576"><ele>0.0</ele></rtept>
    <rtept lat="52.233973" lon="4.829647"><ele>0.0</ele></rtept>
    <rtept lat="52.234004" lon="4.829719"><ele>0.0</ele></rtept>
    <rtept lat="52.234095" lon="4.829619"><ele>0.0</ele></rtept>
    <rtept lat="52.234060" lon="4.829547"><ele>0.0</ele></rtept>
    <rtept lat="52.234431" lon="4.829135"><ele>0.0</ele></rtept>
    <rtept lat="52.234508" lon="4.829067"><ele>0.0</ele></rtept>
    <rtept lat="52.234537" lon="4.829068"><ele>0.0</ele></rtept>
    <rtept lat="52.234562" lon="4.828887"><ele>0.0</ele></rtept>
    <rtept lat="52.235001" lon="4.828149"><ele>0.0</ele></rtept>
    <rtept lat="52.235426" lon="4.827436"><ele>0.0</ele></rtept>
    <rtept lat="52.235647" lon="4.827068"><ele>0.0</ele></rtept>
    <rtept lat="52.235907" lon="4.826636"><ele>0.0</ele></rtept>
    <rtept lat="52.236018" lon="4.826479"><ele>0.0</ele></rtept>
    <rtept lat="52.236117" lon="4.826352"><ele>0.0</ele></rtept>
    <rtept lat="52.236202" lon="4.826244"><ele>0.0</ele></rtept>
    <rtept lat="52.236292" lon="4.826130"><ele>0.0</ele></rtept>
    <rtept lat="52.236448" lon="4.825931"><ele>0.0</ele></rtept>
    <rtept lat="52.236834" lon="4.825436"><ele>0.0</ele></rtept>
    <rtept lat="52.236999" lon="4.825230"><ele>0.0</ele></rtept>
    <rtept lat="52.237232" lon="4.824933"><ele>0.0</ele></rtept>
    <rtept lat="52.237749" lon="4.824276"><ele>0.0</ele></rtept>
    <rtept lat="52.238151" lon="4.823761"><ele>0.0</ele></rtept>
    <rtept lat="52.238202" lon="4.823695"><ele>0.0</ele></rtept>
    <rtept lat="52.238317" lon="4.823789"><ele>0.0</ele></rtept>
    <rtept lat="52.238623" lon="4.823439"><ele>0.0</ele></rtept>
    <rtept lat="52.238853" lon="4.823178"><ele>0.0</ele></rtept>
    <rtept lat="52.238848" lon="4.822835"><ele>0.0</ele></rtept>
    <rtept lat="52.238984" lon="4.822628"><ele>0.0</ele></rtept>
    <rtept lat="52.239433" lon="4.821866"><ele>0.0</ele></rtept>
    <rtept lat="52.239481" lon="4.821784"><ele>0.0</ele></rtept>
    <rtept lat="52.239713" lon="4.821390"><ele>0.0</ele></rtept>
    <rtept lat="52.239848" lon="4.821158"><ele>0.0</ele></rtept>
    <rtept lat="52.240220" lon="4.820521"><ele>0.0</ele></rtept>
    <rtept lat="52.240237" lon="4.820491"><ele>0.0</ele></rtept>
    <rtept lat="52.240640" lon="4.819800"><ele>0.0</ele></rtept>
    <rtept lat="52.240712" lon="4.819665"><ele>0.0</ele></rtept>
    <rtept lat="52.240766" lon="4.819656"><ele>0.0</ele></rtept>
    <rtept lat="52.240946" lon="4.819406"><ele>0.0</ele></rtept>
    <rtept lat="52.241065" lon="4.819255"><ele>0.0</ele></rtept>
    <rtept lat="52.241123" lon="4.819198"><ele>0.0</ele></rtept>
    <rtept lat="52.241167" lon="4.819154"><ele>0.0</ele></rtept>
    <rtept lat="52.241230" lon="4.819054"><ele>0.0</ele></rtept>
    <rtept lat="52.241230" lon="4.818940"><ele>0.0</ele></rtept>
    <rtept lat="52.241249" lon="4.818877"><ele>0.0</ele></rtept>
    <rtept lat="52.241544" lon="4.818364"><ele>0.0</ele></rtept>
    <rtept lat="52.241579" lon="4.818302"><ele>0.0</ele></rtept>
    <rtept lat="52.241844" lon="4.817851"><ele>0.0</ele></rtept>
    <rtept lat="52.241904" lon="4.817748"><ele>0.0</ele></rtept>
    <rtept lat="52.241961" lon="4.817691"><ele>0.0</ele></rtept>
    <rtept lat="52.242055" lon="4.817574"><ele>0.0</ele></rtept>
    <rtept lat="52.242163" lon="4.817353"><ele>0.0</ele></rtept>
    <rtept lat="52.242216" lon="4.817244"><ele>0.0</ele></rtept>
    <rtept lat="52.242292" lon="4.817201"><ele>0.0</ele></rtept>
    <rtept lat="52.242325" lon="4.817089"><ele>0.0</ele></rtept>
    <rtept lat="52.242352" lon="4.816995"><ele>0.0</ele></rtept>
    <rtept lat="52.242387" lon="4.816877"><ele>0.0</ele></rtept>
    <rtept lat="52.242920" lon="4.817268"><ele>0.0</ele></rtept>
    <rtept lat="52.243919" lon="4.818034"><ele>0.0</ele></rtept>
    <rtept lat="52.244000" lon="4.817995"><ele>0.0</ele></rtept>
    <rtept lat="52.244050" lon="4.818004"><ele>0.0</ele></rtept>
    <rtept lat="52.244314" lon="4.818205"><ele>0.0</ele></rtept>
    <rtept lat="52.244470" lon="4.817688"><ele>0.0</ele></rtept>
    <rtept lat="52.244545" lon="4.817663"><ele>0.0</ele></rtept>
    <rtept lat="52.244845" lon="4.816573"><ele>0.0</ele></rtept>
    <rtept lat="52.245353" lon="4.814727"><ele>0.0</ele></rtept>
    <rtept lat="52.245951" lon="4.812629"><ele>0.0</ele></rtept>
    <rtept lat="52.246692" lon="4.809976"><ele>0.0</ele></rtept>
    <rtept lat="52.246817" lon="4.809520"><ele>0.0</ele></rtept>
    <rtept lat="52.246796" lon="4.809371"><ele>0.0</ele></rtept>
    <rtept lat="52.246838" lon="4.809221"><ele>0.0</ele></rtept>
    <rtept lat="52.246863" lon="4.809131"><ele>0.0</ele></rtept>
    <rtept lat="52.247021" lon="4.809248"><ele>0.0</ele></rtept>
    <rtept lat="52.247170" lon="4.809380"><ele>0.0</ele></rtept>
    <rtept lat="52.247221" lon="4.809426"><ele>0.0</ele></rtept>
    <rtept lat="52.247275" lon="4.809368"><ele>0.0</ele></rtept>
    <rtept lat="52.247257" lon="4.809283"><ele>0.0</ele></rtept>
    <rtept lat="52.247514" lon="4.808362"><ele>0.0</ele></rtept>
    <rtept lat="52.247584" lon="4.808124"><ele>0.0</ele></rtept>
    <rtept lat="52.247859" lon="4.807144"><ele>0.0</ele></rtept>
    <rtept lat="52.247916" lon="4.806925"><ele>0.0</ele></rtept>
    <rtept lat="52.248107" lon="4.806238"><ele>0.0</ele></rtept>
    <rtept lat="52.248363" lon="4.805369"><ele>0.0</ele></rtept>
    <rtept lat="52.248569" lon="4.804624"><ele>0.0</ele></rtept>
    <rtept lat="52.248663" lon="4.804413"><ele>0.0</ele></rtept>
    <rtept lat="52.248809" lon="4.803892"><ele>0.0</ele></rtept>
    <rtept lat="52.249110" lon="4.802824"><ele>0.0</ele></rtept>
    <rtept lat="52.249399" lon="4.801817"><ele>0.0</ele></rtept>
    <rtept lat="52.249424" lon="4.801725"><ele>0.0</ele></rtept>
    <rtept lat="52.249250" lon="4.801596"><ele>0.0</ele></rtept>
    <rtept lat="52.249215" lon="4.801590"><ele>0.0</ele></rtept>
    <rtept lat="52.249003" lon="4.801450"><ele>0.0</ele></rtept>
    <rtept lat="52.248957" lon="4.801457"><ele>0.0</ele></rtept>
    <rtept lat="52.248881" lon="4.801470"><ele>0.0</ele></rtept>
    <rtept lat="52.248652" lon="4.801301"><ele>0.0</ele></rtept>
    <rtept lat="52.248581" lon="4.801124"><ele>0.0</ele></rtept>
    <rtept lat="52.248476" lon="4.800993"><ele>0.0</ele></rtept>
    <rtept lat="52.248041" lon="4.800657"><ele>0.0</ele></rtept>
    <rtept lat="52.247015" lon="4.799903"><ele>0.0</ele></rtept>
    <rtept lat="52.246926" lon="4.799871"><ele>0.0</ele></rtept>
    <rtept lat="52.246851" lon="4.799784"><ele>0.0</ele></rtept>
    <rtept lat="52.246553" lon="4.799558"><ele>0.0</ele></rtept>
    <rtept lat="52.246477" lon="4.799536"><ele>0.0</ele></rtept>
    <rtept lat="52.246391" lon="4.799441"><ele>0.0</ele></rtept>
    <rtept lat="52.246232" lon="4.799353"><ele>0.0</ele></rtept>
    <rtept lat="52.246126" lon="4.799347"><ele>0.0</ele></rtept>
    <rtept lat="52.245884" lon="4.799044"><ele>0.0</ele></rtept>
    <rtept lat="52.245204" lon="4.798532"><ele>0.0</ele></rtept>
    <rtept lat="52.245064" lon="4.798487"><ele>0.0</ele></rtept>
    <rtept lat="52.244925" lon="4.798322"><ele>0.0</ele></rtept>
    <rtept lat="52.244457" lon="4.797988"><ele>0.0</ele></rtept>
    <rtept lat="52.244471" lon="4.797928"><ele>0.0</ele></rtept>
    <rtept lat="52.244491" lon="4.797860"><ele>0.0</ele></rtept>
    <rtept lat="52.245426" lon="4.794522"><ele>0.0</ele></rtept>
    <rtept lat="52.246425" lon="4.790926"><ele>0.0</ele></rtept>
    <rtept lat="52.246911" lon="4.789176"><ele>0.0</ele></rtept>
    <rtept lat="52.246076" lon="4.788557"><ele>0.0</ele></rtept>
    <rtept lat="52.245129" lon="4.787857"><ele>0.0</ele></rtept>
    <rtept lat="52.244957" lon="4.787755"><ele>0.0</ele></rtept>
    <rtept lat="52.244997" lon="4.787532"><ele>0.0</ele></rtept>
    <rtept lat="52.245034" lon="4.787320"><ele>0.0</ele></rtept>
    <rtept lat="52.245854" lon="4.782568"><ele>0.0</ele></rtept>
    <rtept lat="52.247395" lon="4.773591"><ele>0.0</ele></rtept>
    <rtept lat="52.247927" lon="4.770475"><ele>0.0</ele></rtept>
    <rtept lat="52.248004" lon="4.770331"><ele>0.0</ele></rtept>
    <rtept lat="52.248207" lon="4.770168"><ele>0.0</ele></rtept>
    <rtept lat="52.248288" lon="4.769981"><ele>0.0</ele></rtept>
    <rtept lat="52.248504" lon="4.769371"><ele>0.0</ele></rtept>
    <rtept lat="52.248561" lon="4.769258"><ele>0.0</ele></rtept>
    <rtept lat="52.248697" lon="4.768998"><ele>0.0</ele></rtept>
    <rtept lat="52.248746" lon="4.768912"><ele>0.0</ele></rtept>
    <rtept lat="52.248828" lon="4.768778"><ele>0.0</ele></rtept>
    <rtept lat="52.248877" lon="4.768834"><ele>0.0</ele></rtept>
    <rtept lat="52.248962" lon="4.768817"><ele>0.0</ele></rtept>
    <rtept lat="52.249291" lon="4.768600"><ele>0.0</ele></rtept>
    <rtept lat="52.249416" lon="4.768425"><ele>0.0</ele></rtept>
    <rtept lat="52.249457" lon="4.768369"><ele>0.0</ele></rtept>
    <rtept lat="52.249561" lon="4.768195"><ele>0.0</ele></rtept>
    <rtept lat="52.249589" lon="4.768032"><ele>0.0</ele></rtept>
    <rtept lat="52.250070" lon="4.764993"><ele>0.0</ele></rtept>
    <rtept lat="52.250086" lon="4.764894"><ele>0.0</ele></rtept>
    <rtept lat="52.250227" lon="4.764019"><ele>0.0</ele></rtept>
    <rtept lat="52.250395" lon="4.762968"><ele>0.0</ele></rtept>
    <rtept lat="52.250576" lon="4.761843"><ele>0.0</ele></rtept>
    <rtept lat="52.250703" lon="4.761052"><ele>0.0</ele></rtept>
    <rtept lat="52.250837" lon="4.760190"><ele>0.0</ele></rtept>
    <rtept lat="52.250859" lon="4.759914"><ele>0.0</ele></rtept>
    <rtept lat="52.250858" lon="4.759539"><ele>0.0</ele></rtept>
    <rtept lat="52.250915" lon="4.759293"><ele>0.0</ele></rtept>
    <rtept lat="52.250970" lon="4.759325"><ele>0.0</ele></rtept>
    <rtept lat="52.251093" lon="4.759388"><ele>0.0</ele></rtept>
    <rtept lat="52.251200" lon="4.759091"><ele>0.0</ele></rtept>
    <rtept lat="52.251254" lon="4.758995"><ele>0.0</ele></rtept>
    <rtept lat="52.251324" lon="4.758922"><ele>0.0</ele></rtept>
    <rtept lat="52.251422" lon="4.758872"><ele>0.0</ele></rtept>
    <rtept lat="52.252209" lon="4.758701"><ele>0.0</ele></rtept>
    <rtept lat="52.252331" lon="4.758696"><ele>0.0</ele></rtept>
    <rtept lat="52.252712" lon="4.758645"><ele>0.0</ele></rtept>
    <rtept lat="52.252848" lon="4.758607"><ele>0.0</ele></rtept>
    <rtept lat="52.252924" lon="4.758538"><ele>0.0</ele></rtept>
    <rtept lat="52.252984" lon="4.758521"><ele>0.0</ele></rtept>
    <rtept lat="52.254458" lon="4.758202"><ele>0.0</ele></rtept>
    <rtept lat="52.255208" lon="4.758029"><ele>0.0</ele></rtept>
    <rtept lat="52.256448" lon="4.757728"><ele>0.0</ele></rtept>
    <rtept lat="52.256819" lon="4.757642"><ele>0.0</ele></rtept>
    <rtept lat="52.256930" lon="4.757596"><ele>0.0</ele></rtept>
    <rtept lat="52.257063" lon="4.757506"><ele>0.0</ele></rtept>
    <rtept lat="52.257238" lon="4.757459"><ele>0.0</ele></rtept>
    <rtept lat="52.257846" lon="4.757346"><ele>0.0</ele></rtept>
    <rtept lat="52.258116" lon="4.757140"><ele>0.0</ele></rtept>
    <rtept lat="52.258416" lon="4.756854"><ele>0.0</ele></rtept>
    <rtept lat="52.259693" lon="4.755690"><ele>0.0</ele></rtept>
    <rtept lat="52.259772" lon="4.755602"><ele>0.0</ele></rtept>
    <rtept lat="52.259876" lon="4.755485"><ele>0.0</ele></rtept>
    <rtept lat="52.259960" lon="4.755390"><ele>0.0</ele></rtept>
    <rtept lat="52.260220" lon="4.755120"><ele>0.0</ele></rtept>
    <rtept lat="52.260946" lon="4.754480"><ele>0.0</ele></rtept>
    <rtept lat="52.261560" lon="4.753898"><ele>0.0</ele></rtept>
    <rtept lat="52.261869" lon="4.753619"><ele>0.0</ele></rtept>
    <rtept lat="52.262825" lon="4.752726"><ele>0.0</ele></rtept>
    <rtept lat="52.262894" lon="4.752660"><ele>0.0</ele></rtept>
    <rtept lat="52.263278" lon="4.752291"><ele>0.0</ele></rtept>
    <rtept lat="52.263472" lon="4.752106"><ele>0.0</ele></rtept>
    <rtept lat="52.263602" lon="4.751982"><ele>0.0</ele></rtept>
    <rtept lat="52.263714" lon="4.751876"><ele>0.0</ele></rtept>
    <rtept lat="52.263836" lon="4.751761"><ele>0.0</ele></rtept>
    <rtept lat="52.264016" lon="4.751590"><ele>0.0</ele></rtept>
    <rtept lat="52.264162" lon="4.751450"><ele>0.0</ele></rtept>
    <rtept lat="52.264629" lon="4.750987"><ele>0.0</ele></rtept>
    <rtept lat="52.264674" lon="4.750934"><ele>0.0</ele></rtept>
    <rtept lat="52.264708" lon="4.750898"><ele>0.0</ele></rtept>
    <rtept lat="52.264763" lon="4.750840"><ele>0.0</ele></rtept>
    <rtept lat="52.264817" lon="4.750776"><ele>0.0</ele></rtept>
    <rtept lat="52.264940" lon="4.750648"><ele>0.0</ele></rtept>
    <rtept lat="52.265342" lon="4.750276"><ele>0.0</ele></rtept>
    <rtept lat="52.265503" lon="4.750130"><ele>0.0</ele></rtept>
    <rtept lat="52.265693" lon="4.749959"><ele>0.0</ele></rtept>
    <rtept lat="52.266263" lon="4.749403"><ele>0.0</ele></rtept>
    <rtept lat="52.266355" lon="4.749321"><ele>0.0</ele></rtept>
    <rtept lat="52.266513" lon="4.749181"><ele>0.0</ele></rtept>
    <rtept lat="52.266562" lon="4.749142"><ele>0.0</ele></rtept>
    <rtept lat="52.266642" lon="4.749078"><ele>0.0</ele></rtept>
    <rtept lat="52.266740" lon="4.748997"><ele>0.0</ele></rtept>
    <rtept lat="52.266865" lon="4.748888"><ele>0.0</ele></rtept>
    <rtept lat="52.266921" lon="4.748897"><ele>0.0</ele></rtept>
    <rtept lat="52.267033" lon="4.749145"><ele>0.0</ele></rtept>
    <rtept lat="52.267142" lon="4.749417"><ele>0.0</ele></rtept>
    <rtept lat="52.267308" lon="4.749820"><ele>0.0</ele></rtept>
    <rtept lat="52.267335" lon="4.749884"><ele>0.0</ele></rtept>
    <rtept lat="52.267538" lon="4.750315"><ele>0.0</ele></rtept>
    <rtept lat="52.267620" lon="4.750500"><ele>0.0</ele></rtept>
    <rtept lat="52.267821" lon="4.750958"><ele>0.0</ele></rtept>
    <rtept lat="52.267887" lon="4.750896"><ele>0.0</ele></rtept>
    <rtept lat="52.268212" lon="4.750591"><ele>0.0</ele></rtept>
    <rtept lat="52.268915" lon="4.749931"><ele>0.0</ele></rtept>
    <rtept lat="52.269047" lon="4.749808"><ele>0.0</ele></rtept>
    <rtept lat="52.269070" lon="4.749786"><ele>0.0</ele></rtept>
    <rtept lat="52.269114" lon="4.749745"><ele>0.0</ele></rtept>
    <rtept lat="52.269260" lon="4.750162"><ele>0.0</ele></rtept>
    <rtept lat="52.269334" lon="4.750104"><ele>0.0</ele></rtept>
    <rtept lat="52.269510" lon="4.749953"><ele>0.0</ele></rtept>
    <rtept lat="52.269760" lon="4.749725"><ele>0.0</ele></rtept>
    <rtept lat="52.270088" lon="4.749422"><ele>0.0</ele></rtept>
    <rtept lat="52.270142" lon="4.749372"><ele>0.0</ele></rtept>
    <rtept lat="52.270372" lon="4.749158"><ele>0.0</ele></rtept>
    <rtept lat="52.270454" lon="4.749088"><ele>0.0</ele></rtept>
    <rtept lat="52.270746" lon="4.748837"><ele>0.0</ele></rtept>
    <rtept lat="52.270783" lon="4.748806"><ele>0.0</ele></rtept>
    <rtept lat="52.270953" lon="4.749274"><ele>0.0</ele></rtept>
    <rtept lat="52.271176" lon="4.749899"><ele>0.0</ele></rtept>
    <rtept lat="52.271218" lon="4.750017"><ele>0.0</ele></rtept>
    <rtept lat="52.271253" lon="4.750106"><ele>0.0</ele></rtept>
    <rtept lat="52.271322" lon="4.750308"><ele>0.0</ele></rtept>
    <rtept lat="52.271411" lon="4.750502"><ele>0.0</ele></rtept>
    <rtept lat="52.271633" lon="4.751159"><ele>0.0</ele></rtept>
    <rtept lat="52.271661" lon="4.751237"><ele>0.0</ele></rtept>
    <rtept lat="52.271772" lon="4.751565"><ele>0.0</ele></rtept>
    <rtept lat="52.271789" lon="4.751614"><ele>0.0</ele></rtept>
    <rtept lat="52.271782" lon="4.751799"><ele>0.0</ele></rtept>
    <rtept lat="52.271743" lon="4.752004"><ele>0.0</ele></rtept>
    <rtept lat="52.271745" lon="4.752080"><ele>0.0</ele></rtept>
    <rtept lat="52.271776" lon="4.752200"><ele>0.0</ele></rtept>
    <rtept lat="52.271821" lon="4.752281"><ele>0.0</ele></rtept>
    <rtept lat="52.271901" lon="4.752207"><ele>0.0</ele></rtept>
    <rtept lat="52.271950" lon="4.752222"><ele>0.0</ele></rtept>
    <rtept lat="52.271998" lon="4.752207"><ele>0.0</ele></rtept>
    <rtept lat="52.272029" lon="4.752321"><ele>0.0</ele></rtept>
    <rtept lat="52.272186" lon="4.752133"><ele>0.0</ele></rtept>
    <rtept lat="52.272438" lon="4.751925"><ele>0.0</ele></rtept>
    <rtept lat="52.272657" lon="4.751779"><ele>0.0</ele></rtept>
    <rtept lat="52.273534" lon="4.751345"><ele>0.0</ele></rtept>
    <rtept lat="52.273881" lon="4.751165"><ele>0.0</ele></rtept>
    <rtept lat="52.273976" lon="4.751132"><ele>0.0</ele></rtept>
    <rtept lat="52.274048" lon="4.751137"><ele>0.0</ele></rtept>
    <rtept lat="52.274121" lon="4.751126"><ele>0.0</ele></rtept>
    <rtept lat="52.274185" lon="4.751079"><ele>0.0</ele></rtept>
    <rtept lat="52.274270" lon="4.750944"><ele>0.0</ele></rtept>
    <rtept lat="52.274305" lon="4.750811"><ele>0.0</ele></rtept>
    <rtept lat="52.274335" lon="4.750577"><ele>0.0</ele></rtept>
    <rtept lat="52.274364" lon="4.750508"><ele>0.0</ele></rtept>
    <rtept lat="52.275535" lon="4.748404"><ele>0.0</ele></rtept>
    <rtept lat="52.276348" lon="4.747039"><ele>0.0</ele></rtept>
    <rtept lat="52.276509" lon="4.746841"><ele>0.0</ele></rtept>
    <rtept lat="52.276556" lon="4.746780"><ele>0.0</ele></rtept>
    <rtept lat="52.276676" lon="4.746602"><ele>0.0</ele></rtept>
    <rtept lat="52.276843" lon="4.746299"><ele>0.0</ele></rtept>
    <rtept lat="52.277036" lon="4.745943"><ele>0.0</ele></rtept>
    <rtept lat="52.277260" lon="4.745527"><ele>0.0</ele></rtept>
    <rtept lat="52.277619" lon="4.744857"><ele>0.0</ele></rtept>
    <rtept lat="52.277771" lon="4.744680"><ele>0.0</ele></rtept>
    <rtept lat="52.277933" lon="4.744379"><ele>0.0</ele></rtept>
    <rtept lat="52.278028" lon="4.744202"><ele>0.0</ele></rtept>
    <rtept lat="52.278042" lon="4.744076"><ele>0.0</ele></rtept>
    <rtept lat="52.278561" lon="4.743122"><ele>0.0</ele></rtept>
    <rtept lat="52.278530" lon="4.743078"><ele>0.0</ele></rtept>
    <rtept lat="52.281238" lon="4.738065"><ele>0.0</ele></rtept>
    <rtept lat="52.281559" lon="4.737437"><ele>0.0</ele></rtept>
    <rtept lat="52.281640" lon="4.737214"><ele>0.0</ele></rtept>
    <rtept lat="52.281897" lon="4.736707"><ele>0.0</ele></rtept>
    <rtept lat="52.283443" lon="4.733841"><ele>0.0</ele></rtept>
    <rtept lat="52.283672" lon="4.733418"><ele>0.0</ele></rtept>
    <rtept lat="52.283860" lon="4.733388"><ele>0.0</ele></rtept>
    <rtept lat="52.283928" lon="4.733340"><ele>0.0</ele></rtept>
    <rtept lat="52.283936" lon="4.733131"><ele>0.0</ele></rtept>
    <rtept lat="52.283993" lon="4.732820"><ele>0.0</ele></rtept>
    <rtept lat="52.284022" lon="4.732762"><ele>0.0</ele></rtept>
    <rtept lat="52.284128" lon="4.732565"><ele>0.0</ele></rtept>
    <rtept lat="52.284329" lon="4.732194"><ele>0.0</ele></rtept>
    <rtept lat="52.284371" lon="4.732116"><ele>0.0</ele></rtept>
    <rtept lat="52.284453" lon="4.731964"><ele>0.0</ele></rtept>
    <rtept lat="52.284543" lon="4.731797"><ele>0.0</ele></rtept>
    <rtept lat="52.284756" lon="4.731399"><ele>0.0</ele></rtept>
    <rtept lat="52.284970" lon="4.731006"><ele>0.0</ele></rtept>
    <rtept lat="52.286171" lon="4.728794"><ele>0.0</ele></rtept>
    <rtept lat="52.286672" lon="4.727900"><ele>0.0</ele></rtept>
    <rtept lat="52.286792" lon="4.727693"><ele>0.0</ele></rtept>
    <rtept lat="52.287097" lon="4.727222"><ele>0.0</ele></rtept>
    <rtept lat="52.287224" lon="4.727208"><ele>0.0</ele></rtept>
    <rtept lat="52.287225" lon="4.727090"><ele>0.0</ele></rtept>
    <rtept lat="52.287229" lon="4.726998"><ele>0.0</ele></rtept>
    <rtept lat="52.287329" lon="4.726830"><ele>0.0</ele></rtept>
    <rtept lat="52.287634" lon="4.726329"><ele>0.0</ele></rtept>
    <rtept lat="52.288123" lon="4.725426"><ele>0.0</ele></rtept>
    <rtept lat="52.288201" lon="4.725232"><ele>0.0</ele></rtept>
    <rtept lat="52.288384" lon="4.724839"><ele>0.0</ele></rtept>
    <rtept lat="52.288465" lon="4.724677"><ele>0.0</ele></rtept>
    <rtept lat="52.288789" lon="4.724017"><ele>0.0</ele></rtept>
    <rtept lat="52.288940" lon="4.723750"><ele>0.0</ele></rtept>
    <rtept lat="52.288994" lon="4.723651"><ele>0.0</ele></rtept>
    <rtept lat="52.289075" lon="4.723509"><ele>0.0</ele></rtept>
    <rtept lat="52.289156" lon="4.723289"><ele>0.0</ele></rtept>
    <rtept lat="52.289485" lon="4.722645"><ele>0.0</ele></rtept>
    <rtept lat="52.289836" lon="4.721980"><ele>0.0</ele></rtept>
    <rtept lat="52.290044" lon="4.721592"><ele>0.0</ele></rtept>
    <rtept lat="52.290173" lon="4.721356"><ele>0.0</ele></rtept>
    <rtept lat="52.290426" lon="4.720899"><ele>0.0</ele></rtept>
    <rtept lat="52.290520" lon="4.720725"><ele>0.0</ele></rtept>
    <rtept lat="52.291047" lon="4.719743"><ele>0.0</ele></rtept>
    <rtept lat="52.291380" lon="4.719127"><ele>0.0</ele></rtept>
    <rtept lat="52.291566" lon="4.718786"><ele>0.0</ele></rtept>
    <rtept lat="52.291656" lon="4.718621"><ele>0.0</ele></rtept>
    <rtept lat="52.292099" lon="4.717796"><ele>0.0</ele></rtept>
    <rtept lat="52.292417" lon="4.717209"><ele>0.0</ele></rtept>
    <rtept lat="52.292605" lon="4.716867"><ele>0.0</ele></rtept>
    <rtept lat="52.292826" lon="4.716465"><ele>0.0</ele></rtept>
    <rtept lat="52.292955" lon="4.716312"><ele>0.0</ele></rtept>
    <rtept lat="52.293244" lon="4.715786"><ele>0.0</ele></rtept>
    <rtept lat="52.293402" lon="4.715662"><ele>0.0</ele></rtept>
    <rtept lat="52.293469" lon="4.715536"><ele>0.0</ele></rtept>
    <rtept lat="52.293639" lon="4.715219"><ele>0.0</ele></rtept>
    <rtept lat="52.293673" lon="4.715136"><ele>0.0</ele></rtept>
    <rtept lat="52.293705" lon="4.714877"><ele>0.0</ele></rtept>
    <rtept lat="52.293837" lon="4.714619"><ele>0.0</ele></rtept>
    <rtept lat="52.294881" lon="4.712698"><ele>0.0</ele></rtept>
    <rtept lat="52.295762" lon="4.711083"><ele>0.0</ele></rtept>
    <rtept lat="52.296139" lon="4.710463"><ele>0.0</ele></rtept>
    <rtept lat="52.296297" lon="4.710278"><ele>0.0</ele></rtept>
    <rtept lat="52.296460" lon="4.710123"><ele>0.0</ele></rtept>
    <rtept lat="52.296551" lon="4.710091"><ele>0.0</ele></rtept>
    <rtept lat="52.296654" lon="4.710087"><ele>0.0</ele></rtept>
    <rtept lat="52.297037" lon="4.710201"><ele>0.0</ele></rtept>
    <rtept lat="52.297091" lon="4.710203"><ele>0.0</ele></rtept>
    <rtept lat="52.297202" lon="4.710158"><ele>0.0</ele></rtept>
    <rtept lat="52.297263" lon="4.710104"><ele>0.0</ele></rtept>
    <rtept lat="52.297362" lon="4.709942"><ele>0.0</ele></rtept>
    <rtept lat="52.297410" lon="4.709761"><ele>0.0</ele></rtept>
    <rtept lat="52.297419" lon="4.709565"><ele>0.0</ele></rtept>
    <rtept lat="52.297375" lon="4.708946"><ele>0.0</ele></rtept>
    <rtept lat="52.297164" lon="4.707757"><ele>0.0</ele></rtept>
    <rtept lat="52.297777" lon="4.707277"><ele>0.0</ele></rtept>
    <rtept lat="52.298031" lon="4.706992"><ele>0.0</ele></rtept>
    <rtept lat="52.298083" lon="4.706901"><ele>0.0</ele></rtept>
    <rtept lat="52.298791" lon="4.705578"><ele>0.0</ele></rtept>
    <rtept lat="52.298954" lon="4.705293"><ele>0.0</ele></rtept>
    <rtept lat="52.299405" lon="4.704427"><ele>0.0</ele></rtept>
    <rtept lat="52.299430" lon="4.704320"><ele>0.0</ele></rtept>
    <rtept lat="52.299463" lon="4.704216"><ele>0.0</ele></rtept>
    <rtept lat="52.299529" lon="4.704082"><ele>0.0</ele></rtept>
    <rtept lat="52.299548" lon="4.704034"><ele>0.0</ele></rtept>
    <rtept lat="52.299855" lon="4.703466"><ele>0.0</ele></rtept>
    <rtept lat="52.300140" lon="4.703023"><ele>0.0</ele></rtept>
    <rtept lat="52.300212" lon="4.702901"><ele>0.0</ele></rtept>
    <rtept lat="52.300305" lon="4.702754"><ele>0.0</ele></rtept>
    <rtept lat="52.300393" lon="4.702583"><ele>0.0</ele></rtept>
    <rtept lat="52.300679" lon="4.702034"><ele>0.0</ele></rtept>
    <rtept lat="52.301287" lon="4.700918"><ele>0.0</ele></rtept>
    <rtept lat="52.301613" lon="4.700321"><ele>0.0</ele></rtept>
    <rtept lat="52.301630" lon="4.700293"><ele>0.0</ele></rtept>
    <rtept lat="52.301737" lon="4.700085"><ele>0.0</ele></rtept>
    <rtept lat="52.302438" lon="4.698783"><ele>0.0</ele></rtept>
    <rtept lat="52.302527" lon="4.698623"><ele>0.0</ele></rtept>
    <rtept lat="52.303101" lon="4.697556"><ele>0.0</ele></rtept>
    <rtept lat="52.303134" lon="4.697491"><ele>0.0</ele></rtept>
    <rtept lat="52.303239" lon="4.697326"><ele>0.0</ele></rtept>
    <rtept lat="52.303564" lon="4.696707"><ele>0.0</ele></rtept>
    <rtept lat="52.303716" lon="4.696438"><ele>0.0</ele></rtept>
    <rtept lat="52.303926" lon="4.696029"><ele>0.0</ele></rtept>
    <rtept lat="52.304705" lon="4.694612"><ele>0.0</ele></rtept>
    <rtept lat="52.305240" lon="4.693619"><ele>0.0</ele></rtept>
    <rtept lat="52.305505" lon="4.693122"><ele>0.0</ele></rtept>
    <rtept lat="52.305519" lon="4.693059"><ele>0.0</ele></rtept>
    <rtept lat="52.305589" lon="4.693036"><ele>0.0</ele></rtept>
    <rtept lat="52.305638" lon="4.693003"><ele>0.0</ele></rtept>
    <rtept lat="52.305709" lon="4.692912"><ele>0.0</ele></rtept>
    <rtept lat="52.305744" lon="4.692831"><ele>0.0</ele></rtept>
    <rtept lat="52.305769" lon="4.692690"><ele>0.0</ele></rtept>
    <rtept lat="52.305844" lon="4.692685"><ele>0.0</ele></rtept>
    <rtept lat="52.305843" lon="4.692610"><ele>0.0</ele></rtept>
    <rtept lat="52.305868" lon="4.692513"><ele>0.0</ele></rtept>
    <rtept lat="52.305991" lon="4.692274"><ele>0.0</ele></rtept>
    <rtept lat="52.306069" lon="4.692137"><ele>0.0</ele></rtept>
    <rtept lat="52.306188" lon="4.691911"><ele>0.0</ele></rtept>
    <rtept lat="52.306661" lon="4.691029"><ele>0.0</ele></rtept>
    <rtept lat="52.307353" lon="4.689737"><ele>0.0</ele></rtept>
    <rtept lat="52.307617" lon="4.689253"><ele>0.0</ele></rtept>
    <rtept lat="52.307707" lon="4.689086"><ele>0.0</ele></rtept>
    <rtept lat="52.308431" lon="4.687746"><ele>0.0</ele></rtept>
    <rtept lat="52.308510" lon="4.687595"><ele>0.0</ele></rtept>
    <rtept lat="52.308533" lon="4.687541"><ele>0.0</ele></rtept>
    <rtept lat="52.308604" lon="4.687407"><ele>0.0</ele></rtept>
    <rtept lat="52.309348" lon="4.686022"><ele>0.0</ele></rtept>
    <rtept lat="52.309377" lon="4.685969"><ele>0.0</ele></rtept>
    <rtept lat="52.309491" lon="4.685756"><ele>0.0</ele></rtept>
    <rtept lat="52.309519" lon="4.685704"><ele>0.0</ele></rtept>
    <rtept lat="52.309651" lon="4.685459"><ele>0.0</ele></rtept>
    <rtept lat="52.309845" lon="4.685098"><ele>0.0</ele></rtept>
    <rtept lat="52.310511" lon="4.683956"><ele>0.0</ele></rtept>
    <rtept lat="52.310557" lon="4.683897"><ele>0.0</ele></rtept>
    <rtept lat="52.310591" lon="4.683877"><ele>0.0</ele></rtept>
    <rtept lat="52.310629" lon="4.683791"><ele>0.0</ele></rtept>
    <rtept lat="52.310696" lon="4.683689"><ele>0.0</ele></rtept>
    <rtept lat="52.310736" lon="4.683621"><ele>0.0</ele></rtept>
    <rtept lat="52.310828" lon="4.683468"><ele>0.0</ele></rtept>
    <rtept lat="52.310969" lon="4.683194"><ele>0.0</ele></rtept>
    <rtept lat="52.311093" lon="4.682862"><ele>0.0</ele></rtept>
    <rtept lat="52.311275" lon="4.682530"><ele>0.0</ele></rtept>
    <rtept lat="52.311360" lon="4.682337"><ele>0.0</ele></rtept>
    <rtept lat="52.311431" lon="4.682198"><ele>0.0</ele></rtept>
    <rtept lat="52.311510" lon="4.682053"><ele>0.0</ele></rtept>
    <rtept lat="52.311926" lon="4.681317"><ele>0.0</ele></rtept>
    <rtept lat="52.312442" lon="4.680348"><ele>0.0</ele></rtept>
    <rtept lat="52.312930" lon="4.679452"><ele>0.0</ele></rtept>
    <rtept lat="52.313301" lon="4.678772"><ele>0.0</ele></rtept>
    <rtept lat="52.313446" lon="4.678564"><ele>0.0</ele></rtept>
    <rtept lat="52.313535" lon="4.678398"><ele>0.0</ele></rtept>
    <rtept lat="52.313628" lon="4.678219"><ele>0.0</ele></rtept>
    <rtept lat="52.313729" lon="4.677965"><ele>0.0</ele></rtept>
    <rtept lat="52.314085" lon="4.677312"><ele>0.0</ele></rtept>
    <rtept lat="52.314095" lon="4.677293"><ele>0.0</ele></rtept>
    <rtept lat="52.314531" lon="4.676496"><ele>0.0</ele></rtept>
    <rtept lat="52.314760" lon="4.676338"><ele>0.0</ele></rtept>
    <rtept lat="52.314847" lon="4.676288"><ele>0.0</ele></rtept>
    <rtept lat="52.315034" lon="4.676073"><ele>0.0</ele></rtept>
    <rtept lat="52.315070" lon="4.676151"><ele>0.0</ele></rtept>
    <rtept lat="52.315110" lon="4.676187"><ele>0.0</ele></rtept>
    <rtept lat="52.315653" lon="4.676314"><ele>0.0</ele></rtept>
    <rtept lat="52.316017" lon="4.676298"><ele>0.0</ele></rtept>
    <rtept lat="52.316606" lon="4.676027"><ele>0.0</ele></rtept>
    <rtept lat="52.316810" lon="4.675921"><ele>0.0</ele></rtept>
    <rtept lat="52.316870" lon="4.675853"><ele>0.0</ele></rtept>
    <rtept lat="52.317003" lon="4.675585"><ele>0.0</ele></rtept>
    <rtept lat="52.317025" lon="4.675538"><ele>0.0</ele></rtept>
    <rtept lat="52.317210" lon="4.675193"><ele>0.0</ele></rtept>
    <rtept lat="52.317303" lon="4.675019"><ele>0.0</ele></rtept>
    <rtept lat="52.317405" lon="4.674905"><ele>0.0</ele></rtept>
    <rtept lat="52.317615" lon="4.674763"><ele>0.0</ele></rtept>
    <rtept lat="52.317800" lon="4.674647"><ele>0.0</ele></rtept>
    <rtept lat="52.317922" lon="4.674626"><ele>0.0</ele></rtept>
    <rtept lat="52.317976" lon="4.674592"><ele>0.0</ele></rtept>
    <rtept lat="52.318052" lon="4.674542"><ele>0.0</ele></rtept>
    <rtept lat="52.318116" lon="4.674500"><ele>0.0</ele></rtept>
    <rtept lat="52.318207" lon="4.674403"><ele>0.0</ele></rtept>
    <rtept lat="52.318504" lon="4.674212"><ele>0.0</ele></rtept>
    <rtept lat="52.318560" lon="4.674159"><ele>0.0</ele></rtept>
    <rtept lat="52.319223" lon="4.672942"><ele>0.0</ele></rtept>
    <rtept lat="52.319302" lon="4.672851"><ele>0.0</ele></rtept>
    <rtept lat="52.319400" lon="4.672667"><ele>0.0</ele></rtept>
    <rtept lat="52.319445" lon="4.672591"><ele>0.0</ele></rtept>
    <rtept lat="52.319540" lon="4.672419"><ele>0.0</ele></rtept>
    <rtept lat="52.319592" lon="4.672510"><ele>0.0</ele></rtept>
    <rtept lat="52.319656" lon="4.672806"><ele>0.0</ele></rtept>
    <rtept lat="52.319832" lon="4.673072"><ele>0.0</ele></rtept>
    <rtept lat="52.320410" lon="4.673895"><ele>0.0</ele></rtept>
    <rtept lat="52.320973" lon="4.674710"><ele>0.0</ele></rtept>
    <rtept lat="52.321197" lon="4.675030"><ele>0.0</ele></rtept>
    <rtept lat="52.321303" lon="4.675143"><ele>0.0</ele></rtept>
    <rtept lat="52.321478" lon="4.674828"><ele>0.0</ele></rtept>
    <rtept lat="52.321511" lon="4.674794"><ele>0.0</ele></rtept>
    <rtept lat="52.321627" lon="4.674741"><ele>0.0</ele></rtept>
    <rtept lat="52.321759" lon="4.674719"><ele>0.0</ele></rtept>
    <rtept lat="52.321861" lon="4.674390"><ele>0.0</ele></rtept>
    <rtept lat="52.321970" lon="4.674220"><ele>0.0</ele></rtept>
    <rtept lat="52.322043" lon="4.674141"><ele>0.0</ele></rtept>
    <rtept lat="52.322150" lon="4.674106"><ele>0.0</ele></rtept>
    <rtept lat="52.322197" lon="4.674157"><ele>0.0</ele></rtept>
    <rtept lat="52.322223" lon="4.674245"><ele>0.0</ele></rtept>
    <rtept lat="52.322577" lon="4.674151"><ele>0.0</ele></rtept>
    <rtept lat="52.322741" lon="4.674136"><ele>0.0</ele></rtept>
    <rtept lat="52.322903" lon="4.674161"><ele>0.0</ele></rtept>
    <rtept lat="52.323058" lon="4.674233"><ele>0.0</ele></rtept>
    <rtept lat="52.323139" lon="4.674263"><ele>0.0</ele></rtept>
    <rtept lat="52.323194" lon="4.673896"><ele>0.0</ele></rtept>
    <rtept lat="52.323200" lon="4.673826"><ele>0.0</ele></rtept>
    <rtept lat="52.323208" lon="4.673713"><ele>0.0</ele></rtept>
    <rtept lat="52.323245" lon="4.673476"><ele>0.0</ele></rtept>
    <rtept lat="52.323455" lon="4.672941"><ele>0.0</ele></rtept>
    <rtept lat="52.323527" lon="4.672704"><ele>0.0</ele></rtept>
    <rtept lat="52.323694" lon="4.672230"><ele>0.0</ele></rtept>
    <rtept lat="52.323765" lon="4.671981"><ele>0.0</ele></rtept>
    <rtept lat="52.323897" lon="4.671353"><ele>0.0</ele></rtept>
    <rtept lat="52.324135" lon="4.670675"><ele>0.0</ele></rtept>
    <rtept lat="52.324271" lon="4.670404"><ele>0.0</ele></rtept>
    <rtept lat="52.324422" lon="4.670134"><ele>0.0</ele></rtept>
    <rtept lat="52.324605" lon="4.669899"><ele>0.0</ele></rtept>
    <rtept lat="52.324761" lon="4.669725"><ele>0.0</ele></rtept>
    <rtept lat="52.324876" lon="4.669621"><ele>0.0</ele></rtept>
    <rtept lat="52.325229" lon="4.669228"><ele>0.0</ele></rtept>
    <rtept lat="52.325375" lon="4.669155"><ele>0.0</ele></rtept>
    <rtept lat="52.325487" lon="4.669050"><ele>0.0</ele></rtept>
    <rtept lat="52.325529" lon="4.668962"><ele>0.0</ele></rtept>
    <rtept lat="52.325699" lon="4.668401"><ele>0.0</ele></rtept>
    <rtept lat="52.325842" lon="4.667832"><ele>0.0</ele></rtept>
    <rtept lat="52.325980" lon="4.667515"><ele>0.0</ele></rtept>
    <rtept lat="52.325998" lon="4.667489"><ele>0.0</ele></rtept>
    <rtept lat="52.326441" lon="4.667245"><ele>0.0</ele></rtept>
    <rtept lat="52.326646" lon="4.667029"><ele>0.0</ele></rtept>
    <rtept lat="52.326705" lon="4.666923"><ele>0.0</ele></rtept>
    <rtept lat="52.326862" lon="4.666520"><ele>0.0</ele></rtept>
    <rtept lat="52.326891" lon="4.666440"><ele>0.0</ele></rtept>
    <rtept lat="52.326994" lon="4.666317"><ele>0.0</ele></rtept>
    <rtept lat="52.327245" lon="4.666208"><ele>0.0</ele></rtept>
    <rtept lat="52.327460" lon="4.666142"><ele>0.0</ele></rtept>
    <rtept lat="52.327669" lon="4.665743"><ele>0.0</ele></rtept>
    <rtept lat="52.327732" lon="4.665623"><ele>0.0</ele></rtept>
    <rtept lat="52.327847" lon="4.665403"><ele>0.0</ele></rtept>
    <rtept lat="52.327873" lon="4.665354"><ele>0.0</ele></rtept>
    <rtept lat="52.327981" lon="4.665150"><ele>0.0</ele></rtept>
    <rtept lat="52.328025" lon="4.665071"><ele>0.0</ele></rtept>
    <rtept lat="52.328117" lon="4.664893"><ele>0.0</ele></rtept>
    <rtept lat="52.328383" lon="4.664442"><ele>0.0</ele></rtept>
    <rtept lat="52.328516" lon="4.664281"><ele>0.0</ele></rtept>
    <rtept lat="52.328658" lon="4.664138"><ele>0.0</ele></rtept>
    <rtept lat="52.329032" lon="4.663892"><ele>0.0</ele></rtept>
    <rtept lat="52.329106" lon="4.663757"><ele>0.0</ele></rtept>
    <rtept lat="52.329182" lon="4.663665"><ele>0.0</ele></rtept>
    <rtept lat="52.329356" lon="4.663671"><ele>0.0</ele></rtept>
    <rtept lat="52.329425" lon="4.663651"><ele>0.0</ele></rtept>
    <rtept lat="52.329751" lon="4.663456"><ele>0.0</ele></rtept>
    <rtept lat="52.330127" lon="4.663227"><ele>0.0</ele></rtept>
    <rtept lat="52.330399" lon="4.663079"><ele>0.0</ele></rtept>
    <rtept lat="52.330788" lon="4.662873"><ele>0.0</ele></rtept>
    <rtept lat="52.330809" lon="4.662862"><ele>0.0</ele></rtept>
    <rtept lat="52.330974" lon="4.662770"><ele>0.0</ele></rtept>
    <rtept lat="52.331095" lon="4.662699"><ele>0.0</ele></rtept>
    <rtept lat="52.330676" lon="4.660698"><ele>0.0</ele></rtept>
    <rtept lat="52.330668" lon="4.660661"><ele>0.0</ele></rtept>
    <rtept lat="52.330632" lon="4.660507"><ele>0.0</ele></rtept>
    <rtept lat="52.330628" lon="4.660482"><ele>0.0</ele></rtept>
    <rtept lat="52.330585" lon="4.660281"><ele>0.0</ele></rtept>
    <rtept lat="52.330598" lon="4.660138"><ele>0.0</ele></rtept>
    <rtept lat="52.331189" lon="4.659050"><ele>0.0</ele></rtept>
    <rtept lat="52.333187" lon="4.655387"><ele>0.0</ele></rtept>
    <rtept lat="52.333224" lon="4.655307"><ele>0.0</ele></rtept>
    <rtept lat="52.333845" lon="4.655259"><ele>0.0</ele></rtept>
    <rtept lat="52.334082" lon="4.654797"><ele>0.0</ele></rtept>
    <rtept lat="52.334239" lon="4.654503"><ele>0.0</ele></rtept>
    <rtept lat="52.334341" lon="4.654314"><ele>0.0</ele></rtept>
    <rtept lat="52.334472" lon="4.654075"><ele>0.0</ele></rtept>
    <rtept lat="52.334616" lon="4.654284"><ele>0.0</ele></rtept>
    <rtept lat="52.335240" lon="4.653117"><ele>0.0</ele></rtept>
    <rtept lat="52.335329" lon="4.652958"><ele>0.0</ele></rtept>
    <rtept lat="52.335480" lon="4.652674"><ele>0.0</ele></rtept>
    <rtept lat="52.335770" lon="4.652129"><ele>0.0</ele></rtept>
    <rtept lat="52.336089" lon="4.651531"><ele>0.0</ele></rtept>
    <rtept lat="52.336316" lon="4.651106"><ele>0.0</ele></rtept>
    <rtept lat="52.336413" lon="4.650926"><ele>0.0</ele></rtept>
    <rtept lat="52.336640" lon="4.650501"><ele>0.0</ele></rtept>
    <rtept lat="52.336879" lon="4.650054"><ele>0.0</ele></rtept>
    <rtept lat="52.336898" lon="4.650018"><ele>0.0</ele></rtept>
    <rtept lat="52.337156" lon="4.649537"><ele>0.0</ele></rtept>
    <rtept lat="52.337442" lon="4.649002"><ele>0.0</ele></rtept>
    <rtept lat="52.337525" lon="4.648846"><ele>0.0</ele></rtept>
    <rtept lat="52.337857" lon="4.648242"><ele>0.0</ele></rtept>
    <rtept lat="52.338066" lon="4.647864"><ele>0.0</ele></rtept>
    <rtept lat="52.338343" lon="4.647357"><ele>0.0</ele></rtept>
    <rtept lat="52.338416" lon="4.647218"><ele>0.0</ele></rtept>
    <rtept lat="52.338585" lon="4.646916"><ele>0.0</ele></rtept>
    <rtept lat="52.338598" lon="4.646848"><ele>0.0</ele></rtept>
    <rtept lat="52.338609" lon="4.646795"><ele>0.0</ele></rtept>
    <rtept lat="52.338687" lon="4.646762"><ele>0.0</ele></rtept>
    <rtept lat="52.338729" lon="4.646795"><ele>0.0</ele></rtept>
    <rtept lat="52.338939" lon="4.646973"><ele>0.0</ele></rtept>
    <rtept lat="52.338980" lon="4.647058"><ele>0.0</ele></rtept>
    <rtept lat="52.339474" lon="4.646640"><ele>0.0</ele></rtept>
    <rtept lat="52.339580" lon="4.647310"><ele>0.0</ele></rtept>
    <rtept lat="52.339680" lon="4.647815"><ele>0.0</ele></rtept>
    <rtept lat="52.339721" lon="4.647795"><ele>0.0</ele></rtept>
    <rtept lat="52.339712" lon="4.647744"><ele>0.0</ele></rtept>
    <rtept lat="52.339726" lon="4.647736"><ele>0.0</ele></rtept>
    <rtept lat="52.340053" lon="4.647559"><ele>0.0</ele></rtept>
    <rtept lat="52.340080" lon="4.647544"><ele>0.0</ele></rtept>
    <rtept lat="52.340255" lon="4.648278"><ele>0.0</ele></rtept>
    <rtept lat="52.340435" lon="4.648894"><ele>0.0</ele></rtept>
    <rtept lat="52.340674" lon="4.649522"><ele>0.0</ele></rtept>
    <rtept lat="52.341459" lon="4.651327"><ele>0.0</ele></rtept>
    <rtept lat="52.341595" lon="4.651586"><ele>0.0</ele></rtept>
    <rtept lat="52.341685" lon="4.651698"><ele>0.0</ele></rtept>
    <rtept lat="52.341754" lon="4.651698"><ele>0.0</ele></rtept>
    <rtept lat="52.341957" lon="4.651794"><ele>0.0</ele></rtept>
    <rtept lat="52.342013" lon="4.651801"><ele>0.0</ele></rtept>
    <rtept lat="52.342064" lon="4.651800"><ele>0.0</ele></rtept>
    <rtept lat="52.342335" lon="4.651730"><ele>0.0</ele></rtept>
    <rtept lat="52.342369" lon="4.651696"><ele>0.0</ele></rtept>
    <rtept lat="52.342425" lon="4.650730"><ele>0.0</ele></rtept>
    <rtept lat="52.342485" lon="4.650390"><ele>0.0</ele></rtept>
    <rtept lat="52.342556" lon="4.650180"><ele>0.0</ele></rtept>
    <rtept lat="52.342666" lon="4.649972"><ele>0.0</ele></rtept>
    <rtept lat="52.343001" lon="4.649581"><ele>0.0</ele></rtept>
    <rtept lat="52.343159" lon="4.649484"><ele>0.0</ele></rtept>
    <rtept lat="52.343416" lon="4.649421"><ele>0.0</ele></rtept>
    <rtept lat="52.343613" lon="4.649427"><ele>0.0</ele></rtept>
    <rtept lat="52.343773" lon="4.649476"><ele>0.0</ele></rtept>
    <rtept lat="52.343950" lon="4.649604"><ele>0.0</ele></rtept>
    <rtept lat="52.344176" lon="4.649928"><ele>0.0</ele></rtept>
    <rtept lat="52.344881" lon="4.651016"><ele>0.0</ele></rtept>
    <rtept lat="52.344940" lon="4.651020"><ele>0.0</ele></rtept>
    <rtept lat="52.345066" lon="4.650982"><ele>0.0</ele></rtept>
    <rtept lat="52.345236" lon="4.650922"><ele>0.0</ele></rtept>
    <rtept lat="52.345388" lon="4.651110"><ele>0.0</ele></rtept>
    <rtept lat="52.345436" lon="4.652011"><ele>0.0</ele></rtept>
    <rtept lat="52.345513" lon="4.652414"><ele>0.0</ele></rtept>
    <rtept lat="52.345667" lon="4.652911"><ele>0.0</ele></rtept>
    <rtept lat="52.346012" lon="4.653697"><ele>0.0</ele></rtept>
    <rtept lat="52.346234" lon="4.654221"><ele>0.0</ele></rtept>
    <rtept lat="52.346377" lon="4.654461"><ele>0.0</ele></rtept>
    <rtept lat="52.346476" lon="4.654604"><ele>0.0</ele></rtept>
    <rtept lat="52.346709" lon="4.654815"><ele>0.0</ele></rtept>
    <rtept lat="52.346869" lon="4.654046"><ele>0.0</ele></rtept>
    <rtept lat="52.346961" lon="4.653876"><ele>0.0</ele></rtept>
    <rtept lat="52.347176" lon="4.653688"><ele>0.0</ele></rtept>
    <rtept lat="52.347279" lon="4.653493"><ele>0.0</ele></rtept>
    <rtept lat="52.347391" lon="4.653248"><ele>0.0</ele></rtept>
    <rtept lat="52.347746" lon="4.653002"><ele>0.0</ele></rtept>
    <rtept lat="52.347985" lon="4.652836"><ele>0.0</ele></rtept>
    <rtept lat="52.348089" lon="4.652693"><ele>0.0</ele></rtept>
    <rtept lat="52.348270" lon="4.652910"><ele>0.0</ele></rtept>
    <rtept lat="52.348290" lon="4.652992"><ele>0.0</ele></rtept>
    <rtept lat="52.348297" lon="4.653023"><ele>0.0</ele></rtept>
    <rtept lat="52.348352" lon="4.653248"><ele>0.0</ele></rtept>
    <rtept lat="52.348402" lon="4.653382"><ele>0.0</ele></rtept>
    <rtept lat="52.348447" lon="4.653505"><ele>0.0</ele></rtept>
    <rtept lat="52.348468" lon="4.653590"><ele>0.0</ele></rtept>
    <rtept lat="52.348523" lon="4.653802"><ele>0.0</ele></rtept>
    <rtept lat="52.348562" lon="4.653957"><ele>0.0</ele></rtept>
    <rtept lat="52.348582" lon="4.654032"><ele>0.0</ele></rtept>
    <rtept lat="52.348666" lon="4.654361"><ele>0.0</ele></rtept>
    <rtept lat="52.349011" lon="4.654121"><ele>0.0</ele></rtept>
    <rtept lat="52.349091" lon="4.654064"><ele>0.0</ele></rtept>
    <rtept lat="52.349108" lon="4.654053"><ele>0.0</ele></rtept>
    <rtept lat="52.349219" lon="4.654473"><ele>0.0</ele></rtept>
    <rtept lat="52.349241" lon="4.654557"><ele>0.0</ele></rtept>
    <rtept lat="52.349681" lon="4.655607"><ele>0.0</ele></rtept>
    <rtept lat="52.349760" lon="4.655728"><ele>0.0</ele></rtept>
    <rtept lat="52.349952" lon="4.655703"><ele>0.0</ele></rtept>
    <rtept lat="52.350589" lon="4.655454"><ele>0.0</ele></rtept>
    <rtept lat="52.350702" lon="4.655411"><ele>0.0</ele></rtept>
    <rtept lat="52.350800" lon="4.655348"><ele>0.0</ele></rtept>
    <rtept lat="52.350856" lon="4.655312"><ele>0.0</ele></rtept>
    <rtept lat="52.350969" lon="4.655236"><ele>0.0</ele></rtept>
    <rtept lat="52.351292" lon="4.655017"><ele>0.0</ele></rtept>
    <rtept lat="52.351590" lon="4.654813"><ele>0.0</ele></rtept>
    <rtept lat="52.351731" lon="4.654793"><ele>0.0</ele></rtept>
    <rtept lat="52.352156" lon="4.654786"><ele>0.0</ele></rtept>
    <rtept lat="52.352156" lon="4.654831"><ele>0.0</ele></rtept>
    <rtept lat="52.352801" lon="4.654823"><ele>0.0</ele></rtept>
    <rtept lat="52.352927" lon="4.654821"><ele>0.0</ele></rtept>
    <rtept lat="52.353138" lon="4.654814"><ele>0.0</ele></rtept>
    <rtept lat="52.353194" lon="4.654813"><ele>0.0</ele></rtept>
    <rtept lat="52.353264" lon="4.654814"><ele>0.0</ele></rtept>
    <rtept lat="52.353325" lon="4.654862"><ele>0.0</ele></rtept>
    <rtept lat="52.353576" lon="4.654870"><ele>0.0</ele></rtept>
    <rtept lat="52.353647" lon="4.654847"><ele>0.0</ele></rtept>
    <rtept lat="52.354127" lon="4.654831"><ele>0.0</ele></rtept>
    <rtept lat="52.354181" lon="4.654880"><ele>0.0</ele></rtept>
    <rtept lat="52.354234" lon="4.654883"><ele>0.0</ele></rtept>
    <rtept lat="52.354286" lon="4.654875"><ele>0.0</ele></rtept>
    <rtept lat="52.354343" lon="4.654865"><ele>0.0</ele></rtept>
    <rtept lat="52.354383" lon="4.654791"><ele>0.0</ele></rtept>
    <rtept lat="52.354353" lon="4.654683"><ele>0.0</ele></rtept>
    <rtept lat="52.354814" lon="4.654214"><ele>0.0</ele></rtept>
    <rtept lat="52.355082" lon="4.653855"><ele>0.0</ele></rtept>
    <rtept lat="52.355350" lon="4.653253"><ele>0.0</ele></rtept>
    <rtept lat="52.355376" lon="4.653194"><ele>0.0</ele></rtept>
    <rtept lat="52.355506" lon="4.653269"><ele>0.0</ele></rtept>
    <rtept lat="52.355523" lon="4.653267"><ele>0.0</ele></rtept>
    <rtept lat="52.355619" lon="4.653326"><ele>0.0</ele></rtept>
    <rtept lat="52.355910" lon="4.653484"><ele>0.0</ele></rtept>
    <rtept lat="52.356053" lon="4.653510"><ele>0.0</ele></rtept>
    <rtept lat="52.356272" lon="4.653494"><ele>0.0</ele></rtept>
    <rtept lat="52.356404" lon="4.653460"><ele>0.0</ele></rtept>
    <rtept lat="52.356452" lon="4.653449"><ele>0.0</ele></rtept>
    <rtept lat="52.356813" lon="4.653357"><ele>0.0</ele></rtept>
    <rtept lat="52.356883" lon="4.653437"><ele>0.0</ele></rtept>
    <rtept lat="52.356955" lon="4.653484"><ele>0.0</ele></rtept>
    <rtept lat="52.357045" lon="4.653480"><ele>0.0</ele></rtept>
    <rtept lat="52.357132" lon="4.653378"><ele>0.0</ele></rtept>
    <rtept lat="52.357206" lon="4.653257"><ele>0.0</ele></rtept>
    <rtept lat="52.357489" lon="4.653170"><ele>0.0</ele></rtept>
    <rtept lat="52.357534" lon="4.653126"><ele>0.0</ele></rtept>
    <rtept lat="52.358212" lon="4.652945"><ele>0.0</ele></rtept>
    <rtept lat="52.358760" lon="4.652870"><ele>0.0</ele></rtept>
    <rtept lat="52.358933" lon="4.652817"><ele>0.0</ele></rtept>
    <rtept lat="52.359366" lon="4.652714"><ele>0.0</ele></rtept>
    <rtept lat="52.360114" lon="4.652458"><ele>0.0</ele></rtept>
    <rtept lat="52.360177" lon="4.652473"><ele>0.0</ele></rtept>
    <rtept lat="52.360202" lon="4.652505"><ele>0.0</ele></rtept>
    <rtept lat="52.360233" lon="4.652646"><ele>0.0</ele></rtept>
    <rtept lat="52.360253" lon="4.653322"><ele>0.0</ele></rtept>
    <rtept lat="52.360285" lon="4.653486"><ele>0.0</ele></rtept>
    <rtept lat="52.360367" lon="4.653773"><ele>0.0</ele></rtept>
    <rtept lat="52.360403" lon="4.654166"><ele>0.0</ele></rtept>
    <rtept lat="52.360461" lon="4.654152"><ele>0.0</ele></rtept>
    <rtept lat="52.360621" lon="4.654102"><ele>0.0</ele></rtept>
    <rtept lat="52.360711" lon="4.654127"><ele>0.0</ele></rtept>
    <rtept lat="52.360742" lon="4.654147"><ele>0.0</ele></rtept>
    <rtept lat="52.360844" lon="4.654168"><ele>0.0</ele></rtept>
    <rtept lat="52.361216" lon="4.654163"><ele>0.0</ele></rtept>
    <rtept lat="52.361326" lon="4.654162"><ele>0.0</ele></rtept>
    <rtept lat="52.361412" lon="4.654126"><ele>0.0</ele></rtept>
    <rtept lat="52.361570" lon="4.654125"><ele>0.0</ele></rtept>
    <rtept lat="52.361783" lon="4.654123"><ele>0.0</ele></rtept>
    <rtept lat="52.362071" lon="4.654118"><ele>0.0</ele></rtept>
    <rtept lat="52.362123" lon="4.654117"><ele>0.0</ele></rtept>
    <rtept lat="52.362590" lon="4.654102"><ele>0.0</ele></rtept>
    <rtept lat="52.362878" lon="4.654092"><ele>0.0</ele></rtept>
    <rtept lat="52.363395" lon="4.654083"><ele>0.0</ele></rtept>
    <rtept lat="52.364269" lon="4.654060"><ele>0.0</ele></rtept>
    <rtept lat="52.364322" lon="4.654021"><ele>0.0</ele></rtept>
    <rtept lat="52.364433" lon="4.653981"><ele>0.0</ele></rtept>
    <rtept lat="52.364513" lon="4.653978"><ele>0.0</ele></rtept>
    <rtept lat="52.364581" lon="4.653989"><ele>0.0</ele></rtept>
    <rtept lat="52.364782" lon="4.654057"><ele>0.0</ele></rtept>
    <rtept lat="52.365750" lon="4.654064"><ele>0.0</ele></rtept>
    <rtept lat="52.365789" lon="4.654064"><ele>0.0</ele></rtept>
    <rtept lat="52.366357" lon="4.654069"><ele>0.0</ele></rtept>
    <rtept lat="52.366848" lon="4.654073"><ele>0.0</ele></rtept>
    <rtept lat="52.367097" lon="4.654035"><ele>0.0</ele></rtept>
    <rtept lat="52.367538" lon="4.654010"><ele>0.0</ele></rtept>
    <rtept lat="52.367578" lon="4.653977"><ele>0.0</ele></rtept>
    <rtept lat="52.367619" lon="4.653893"><ele>0.0</ele></rtept>
    <rtept lat="52.367730" lon="4.653866"><ele>0.0</ele></rtept>
    <rtept lat="52.367835" lon="4.653868"><ele>0.0</ele></rtept>
    <rtept lat="52.367914" lon="4.653873"><ele>0.0</ele></rtept>
    <rtept lat="52.367956" lon="4.653903"><ele>0.0</ele></rtept>
    <rtept lat="52.368048" lon="4.653989"><ele>0.0</ele></rtept>
    <rtept lat="52.368746" lon="4.654020"><ele>0.0</ele></rtept>
    <rtept lat="52.368986" lon="4.654073"><ele>0.0</ele></rtept>
    <rtept lat="52.369718" lon="4.654141"><ele>0.0</ele></rtept>
    <rtept lat="52.369915" lon="4.654083"><ele>0.0</ele></rtept>
    <rtept lat="52.370021" lon="4.654058"><ele>0.0</ele></rtept>
    <rtept lat="52.370091" lon="4.654053"><ele>0.0</ele></rtept>
    <rtept lat="52.370213" lon="4.654051"><ele>0.0</ele></rtept>
    <rtept lat="52.370315" lon="4.654049"><ele>0.0</ele></rtept>
    <rtept lat="52.370383" lon="4.654046"><ele>0.0</ele></rtept>
    <rtept lat="52.370538" lon="4.654082"><ele>0.0</ele></rtept>
    <rtept lat="52.370725" lon="4.654174"><ele>0.0</ele></rtept>
    <rtept lat="52.370859" lon="4.654271"><ele>0.0</ele></rtept>
    <rtept lat="52.371236" lon="4.654599"><ele>0.0</ele></rtept>
    <rtept lat="52.371585" lon="4.654921"><ele>0.0</ele></rtept>
    <rtept lat="52.371732" lon="4.655058"><ele>0.0</ele></rtept>
    <rtept lat="52.371869" lon="4.655171"><ele>0.0</ele></rtept>
    <rtept lat="52.372940" lon="4.656054"><ele>0.0</ele></rtept>
    <rtept lat="52.374345" lon="4.657221"><ele>0.0</ele></rtept>
    <rtept lat="52.374521" lon="4.657375"><ele>0.0</ele></rtept>
    <rtept lat="52.374915" lon="4.657845"><ele>0.0</ele></rtept>
    <rtept lat="52.375156" lon="4.658134"><ele>0.0</ele></rtept>
    <rtept lat="52.375240" lon="4.658240"><ele>0.0</ele></rtept>
    <rtept lat="52.375421" lon="4.658427"><ele>0.0</ele></rtept>
    <rtept lat="52.375447" lon="4.658454"><ele>0.0</ele></rtept>
    <rtept lat="52.375661" lon="4.658648"><ele>0.0</ele></rtept>
    <rtept lat="52.376522" lon="4.659138"><ele>0.0</ele></rtept>
    <rtept lat="52.376692" lon="4.659214"><ele>0.0</ele></rtept>
    <rtept lat="52.377331" lon="4.659496"><ele>0.0</ele></rtept>
    <rtept lat="52.378160" lon="4.659899"><ele>0.0</ele></rtept>
    <rtept lat="52.378179" lon="4.659797"><ele>0.0</ele></rtept>
    <rtept lat="52.378203" lon="4.659657"><ele>0.0</ele></rtept>
    <rtept lat="52.378241" lon="4.659432"><ele>0.0</ele></rtept>
    <rtept lat="52.378255" lon="4.659351"><ele>0.0</ele></rtept>
    <rtept lat="52.378439" lon="4.658196"><ele>0.0</ele></rtept>
    <rtept lat="52.378633" lon="4.658301"><ele>0.0</ele></rtept>
    <rtept lat="52.378896" lon="4.657371"><ele>0.0</ele></rtept>
    <rtept lat="52.379010" lon="4.657010"><ele>0.0</ele></rtept>
    <rtept lat="52.379172" lon="4.656914"><ele>0.0</ele></rtept>
    <rtept lat="52.379265" lon="4.656910"><ele>0.0</ele></rtept>
    <rtept lat="52.379322" lon="4.656758"><ele>0.0</ele></rtept>
    <rtept lat="52.379484" lon="4.656332"><ele>0.0</ele></rtept>
    <rtept lat="52.379811" lon="4.656611"><ele>0.0</ele></rtept>
    <rtept lat="52.379890" lon="4.656860"><ele>0.0</ele></rtept>
    <rtept lat="52.379960" lon="4.657149"><ele>0.0</ele></rtept>
    <rtept lat="52.380029" lon="4.657505"><ele>0.0</ele></rtept>
    <rtept lat="52.380029" lon="4.657510"><ele>0.0</ele></rtept>
  </rte>
</gpx>