<?xml version="1.0" encoding="UTF-8"?>
<gpx version="1.1" creator="WeeklyCyclingRoutes"
  xmlns="http://www.topografix.com/GPX/1/1"
  xmlns:xsi="http://www.w3.org/2001/XMLSchema-instance"
  xsi:schemaLocation="http://www.topografix.com/GPX/1/1 http://www.topografix.com/GPX/1/1/gpx.xsd">
  <metadata>
    <name>30km Route – July 27, 2026</name>
    <desc>Round trip from Cremerstraat, Haarlem. Actual: 22.4km</desc>
    <time>2026-07-27T09:38:56Z</time>
  </metadata>
  <rte>
    <name>30km Cycling Route – Haarlem</name>
    <rtept lat="52.380029" lon="4.657510"><ele>0.0</ele></rtept>
    <rtept lat="52.380029" lon="4.657505"><ele>0.0</ele></rtept>
    <rtept lat="52.379960" lon="4.657149"><ele>0.0</ele></rtept>
    <rtept lat="52.379890" lon="4.656860"><ele>0.0</ele></rtept>
    <rtept lat="52.379811" lon="4.656611"><ele>0.0</ele></rtept>
    <rtept lat="52.379484" lon="4.656332"><ele>0.0</ele></rtept>
    <rtept lat="52.379720" lon="4.655630"><ele>0.0</ele></rtept>
    <rtept lat="52.379947" lon="4.654788"><ele>0.0</ele></rtept>
    <rtept lat="52.379963" lon="4.654729"><ele>0.0</ele></rtept>
    <rtept lat="52.380132" lon="4.654088"><ele>0.0</ele></rtept>
    <rtept lat="52.380326" lon="4.653373"><ele>0.0</ele></rtept>
    <rtept lat="52.380708" lon="4.651959"><ele>0.0</ele></rtept>
    <rtept lat="52.380759" lon="4.651852"><ele>0.0</ele></rtept>
    <rtept lat="52.380830" lon="4.651897"><ele>0.0</ele></rtept>
    <rtept lat="52.380924" lon="4.651884"><ele>0.0</ele></rtept>
    <rtept lat="52.381029" lon="4.651870"><ele>0.0</ele></rtept>
    <rtept lat="52.381088" lon="4.651857"><ele>0.0</ele></rtept>
    <rtept lat="52.381077" lon="4.651687"><ele>0.0</ele></rtept>
    <rtept lat="52.381072" lon="4.651605"><ele>0.0</ele></rtept>
    <rtept lat="52.381040" lon="4.651485"><ele>0.0</ele></rtept>
    <rtept lat="52.380980" lon="4.650628"><ele>0.0</ele></rtept>
    <rtept lat="52.380897" lon="4.649517"><ele>0.0</ele></rtept>
    <rtept lat="52.380781" lon="4.647736"><ele>0.0</ele></rtept>
    <rtept lat="52.380732" lon="4.647268"><ele>0.0</ele></rtept>
    <rtept lat="52.380661" lon="4.647204"><ele>0.0</ele></rtept>
    <rtept lat="52.380640" lon="4.647194"><ele>0.0</ele></rtept>
    <rtept lat="52.380520" lon="4.647127"><ele>0.0</ele></rtept>
    <rtept lat="52.380357" lon="4.646948"><ele>0.0</ele></rtept>
    <rtept lat="52.380227" lon="4.646733"><ele>0.0</ele></rtept>
    <rtept lat="52.380151" lon="4.646527"><ele>0.0</ele></rtept>
    <rtept lat="52.380116" lon="4.646366"><ele>0.0</ele></rtept>
    <rtept lat="52.380098" lon="4.646273"><ele>0.0</ele></rtept>
    <rtept lat="52.380083" lon="4.646212"><ele>0.0</ele></rtept>
    <rtept lat="52.380030" lon="4.646089"><ele>0.0</ele></rtept>
    <rtept lat="52.379996" lon="4.646014"><ele>0.0</ele></rtept>
    <rtept lat="52.379913" lon="4.645916"><ele>0.0</ele></rtept>
    <rtept lat="52.379859" lon="4.645889"><ele>0.0</ele></rtept>
    <rtept lat="52.379514" lon="4.645479"><ele>0.0</ele></rtept>
    <rtept lat="52.379406" lon="4.645413"><ele>0.0</ele></rtept>
    <rtept lat="52.379073" lon="4.645010"><ele>0.0</ele></rtept>
    <rtept lat="52.378668" lon="4.644518"><ele>0.0</ele></rtept>
    <rtept lat="52.378469" lon="4.644264"><ele>0.0</ele></rtept>
    <rtept lat="52.377671" lon="4.643291"><ele>0.0</ele></rtept>
    <rtept lat="52.377605" lon="4.643211"><ele>0.0</ele></rtept>
    <rtept lat="52.377305" lon="4.642858"><ele>0.0</ele></rtept>
    <rtept lat="52.377250" lon="4.642716"><ele>0.0</ele></rtept>
    <rtept lat="52.376696" lon="4.642032"><ele>0.0</ele></rtept>
    <rtept lat="52.376654" lon="4.641984"><ele>0.0</ele></rtept>
    <rtept lat="52.376589" lon="4.641908"><ele>0.0</ele></rtept>
    <rtept lat="52.376524" lon="4.641840"><ele>0.0</ele></rtept>
    <rtept lat="52.376545" lon="4.641791"><ele>0.0</ele></rtept>
    <rtept lat="52.376608" lon="4.641650"><ele>0.0</ele></rtept>
    <rtept lat="52.376619" lon="4.641629"><ele>0.0</ele></rtept>
    <rtept lat="52.376775" lon="4.641220"><ele>0.0</ele></rtept>
    <rtept lat="52.376868" lon="4.640911"><ele>0.0</ele></rtept>
    <rtept lat="52.376885" lon="4.640861"><ele>0.0</ele></rtept>
    <rtept lat="52.376921" lon="4.640746"><ele>0.0</ele></rtept>
    <rtept lat="52.376929" lon="4.640610"><ele>0.0</ele></rtept>
    <rtept lat="52.376903" lon="4.640469"><ele>0.0</ele></rtept>
    <rtept lat="52.376800" lon="4.640108"><ele>0.0</ele></rtept>
    <rtept lat="52.376748" lon="4.640006"><ele>0.0</ele></rtept>
    <rtept lat="52.376705" lon="4.639883"><ele>0.0</ele></rtept>
    <rtept lat="52.376679" lon="4.639726"><ele>0.0</ele></rtept>
    <rtept lat="52.376686" lon="4.639592"><ele>0.0</ele></rtept>
    <rtept lat="52.376739" lon="4.639414"><ele>0.0</ele></rtept>
    <rtept lat="52.376774" lon="4.639333"><ele>0.0</ele></rtept>
    <rtept lat="52.376813" lon="4.639244"><ele>0.0</ele></rtept>
    <rtept lat="52.376889" lon="4.639094"><ele>0.0</ele></rtept>
    <rtept lat="52.376937" lon="4.638990"><ele>0.0</ele></rtept>
    <rtept lat="52.376802" lon="4.638734"><ele>0.0</ele></rtept>
    <rtept lat="52.376617" lon="4.638156"><ele>0.0</ele></rtept>
    <rtept lat="52.376551" lon="4.637991"><ele>0.0</ele></rtept>
    <rtept lat="52.376427" lon="4.637589"><ele>0.0</ele></rtept>
    <rtept lat="52.376277" lon="4.637073"><ele>0.0</ele></rtept>
    <rtept lat="52.376176" lon="4.636710"><ele>0.0</ele></rtept>
    <rtept lat="52.376111" lon="4.636365"><ele>0.0</ele></rtept>
    <rtept lat="52.376098" lon="4.636105"><ele>0.0</ele></rtept>
    <rtept lat="52.376127" lon="4.635288"><ele>0.0</ele></rtept>
    <rtept lat="52.376131" lon="4.635187"><ele>0.0</ele></rtept>
    <rtept lat="52.376131" lon="4.635072"><ele>0.0</ele></rtept>
    <rtept lat="52.376160" lon="4.633635"><ele>0.0</ele></rtept>
    <rtept lat="52.376191" lon="4.632337"><ele>0.0</ele></rtept>
    <rtept lat="52.376230" lon="4.631314"><ele>0.0</ele></rtept>
    <rtept lat="52.376241" lon="4.631096"><ele>0.0</ele></rtept>
    <rtept lat="52.376201" lon="4.631077"><ele>0.0</ele></rtept>
    <rtept lat="52.376091" lon="4.631024"><ele>0.0</ele></rtept>
    <rtept lat="52.375972" lon="4.630980"><ele>0.0</ele></rtept>
    <rtept lat="52.375892" lon="4.630958"><ele>0.0</ele></rtept>
    <rtept lat="52.375773" lon="4.630932"><ele>0.0</ele></rtept>
    <rtept lat="52.375623" lon="4.630864"><ele>0.0</ele></rtept>
    <rtept lat="52.375389" lon="4.630746"><ele>0.0</ele></rtept>
    <rtept lat="52.375231" lon="4.630667"><ele>0.0</ele></rtept>
    <rtept lat="52.374998" lon="4.630541"><ele>0.0</ele></rtept>
    <rtept lat="52.374807" lon="4.630403"><ele>0.0</ele></rtept>
    <rtept lat="52.374721" lon="4.630321"><ele>0.0</ele></rtept>
    <rtept lat="52.374596" lon="4.630202"><ele>0.0</ele></rtept>
    <rtept lat="52.374559" lon="4.630167"><ele>0.0</ele></rtept>
    <rtept lat="52.374431" lon="4.630030"><ele>0.0</ele></rtept>
    <rtept lat="52.374358" lon="4.629949"><ele>0.0</ele></rtept>
    <rtept lat="52.374265" lon="4.629824"><ele>0.0</ele></rtept>
    <rtept lat="52.374087" lon="4.629584"><ele>0.0</ele></rtept>
    <rtept lat="52.373939" lon="4.629327"><ele>0.0</ele></rtept>
    <rtept lat="52.373807" lon="4.629027"><ele>0.0</ele></rtept>
    <rtept lat="52.373624" lon="4.628453"><ele>0.0</ele></rtept>
    <rtept lat="52.373567" lon="4.628143"><ele>0.0</ele></rtept>
    <rtept lat="52.373535" lon="4.628052"><ele>0.0</ele></rtept>
    <rtept lat="52.373519" lon="4.628009"><ele>0.0</ele></rtept>
    <rtept lat="52.373499" lon="4.627954"><ele>0.0</ele></rtept>
    <rtept lat="52.373145" lon="4.626954"><ele>0.0</ele></rtept>
    <rtept lat="52.373038" lon="4.626690"><ele>0.0</ele></rtept>
    <rtept lat="52.372979" lon="4.626594"><ele>0.0</ele></rtept>
    <rtept lat="52.372589" lon="4.625749"><ele>0.0</ele></rtept>
    <rtept lat="52.372402" lon="4.625426"><ele>0.0</ele></rtept>
    <rtept lat="52.372319" lon="4.625297"><ele>0.0</ele></rtept>
    <rtept lat="52.372111" lon="4.624970"><ele>0.0</ele></rtept>
    <rtept lat="52.371737" lon="4.624498"><ele>0.0</ele></rtept>
    <rtept lat="52.371214" lon="4.623862"><ele>0.0</ele></rtept>
    <rtept lat="52.370932" lon="4.623535"><ele>0.0</ele></rtept>
    <rtept lat="52.370690" lon="4.623274"><ele>0.0</ele></rtept>
    <rtept lat="52.370153" lon="4.622794"><ele>0.0</ele></rtept>
    <rtept lat="52.370043" lon="4.622646"><ele>0.0</ele></rtept>
    <rtept lat="52.369906" lon="4.622495"><ele>0.0</ele></rtept>
    <rtept lat="52.369793" lon="4.622420"><ele>0.0</ele></rtept>
    <rtept lat="52.369520" lon="4.622213"><ele>0.0</ele></rtept>
    <rtept lat="52.368746" lon="4.621506"><ele>0.0</ele></rtept>
    <rtept lat="52.368540" lon="4.621337"><ele>0.0</ele></rtept>
    <rtept lat="52.367883" lon="4.620839"><ele>0.0</ele></rtept>
    <rtept lat="52.367409" lon="4.620519"><ele>0.0</ele></rtept>
    <rtept lat="52.367289" lon="4.620428"><ele>0.0</ele></rtept>
    <rtept lat="52.366754" lon="4.620096"><ele>0.0</ele></rtept>
    <rtept lat="52.365831" lon="4.619395"><ele>0.0</ele></rtept>
    <rtept lat="52.365795" lon="4.619356"><ele>0.0</ele></rtept>
    <rtept lat="52.365640" lon="4.619291"><ele>0.0</ele></rtept>
    <rtept lat="52.365300" lon="4.619075"><ele>0.0</ele></rtept>
    <rtept lat="52.364846" lon="4.618781"><ele>0.0</ele></rtept>
    <rtept lat="52.364795" lon="4.618717"><ele>0.0</ele></rtept>
    <rtept lat="52.364754" lon="4.618666"><ele>0.0</ele></rtept>
    <rtept lat="52.364707" lon="4.618619"><ele>0.0</ele></rtept>
    <rtept lat="52.364526" lon="4.618609"><ele>0.0</ele></rtept>
    <rtept lat="52.363771" lon="4.618307"><ele>0.0</ele></rtept>
    <rtept lat="52.363477" lon="4.618024"><ele>0.0</ele></rtept>
    <rtept lat="52.363420" lon="4.617930"><ele>0.0</ele></rtept>
    <rtept lat="52.363386" lon="4.617812"><ele>0.0</ele></rtept>
    <rtept lat="52.363338" lon="4.617722"><ele>0.0</ele></rtept>
    <rtept lat="52.363281" lon="4.617693"><ele>0.0</ele></rtept>
    <rtept lat="52.362905" lon="4.617658"><ele>0.0</ele></rtept>
    <rtept lat="52.362561" lon="4.617691"><ele>0.0</ele></rtept>
    <rtept lat="52.362191" lon="4.617554"><ele>0.0</ele></rtept>
    <rtept lat="52.361960" lon="4.617593"><ele>0.0</ele></rtept>
    <rtept lat="52.361717" lon="4.617683"><ele>0.0</ele></rtept>
    <rtept lat="52.361532" lon="4.617707"><ele>0.0</ele></rtept>
    <rtept lat="52.361478" lon="4.617699"><ele>0.0</ele></rtept>
    <rtept lat="52.361244" lon="4.617652"><ele>0.0</ele></rtept>
    <rtept lat="52.360308" lon="4.617426"><ele>0.0</ele></rtept>
    <rtept lat="52.360123" lon="4.617353"><ele>0.0</ele></rtept>
    <rtept lat="52.360100" lon="4.617338"><ele>0.0</ele></rtept>
    <rtept lat="52.360089" lon="4.617313"><ele>0.0</ele></rtept>
    <rtept lat="52.360032" lon="4.617286"><ele>0.0</ele></rtept>
    <rtept lat="52.359966" lon="4.617273"><ele>0.0</ele></rtept>
    <rtept lat="52.359937" lon="4.617268"><ele>0.0</ele></rtept>
    <rtept lat="52.359824" lon="4.617285"><ele>0.0</ele></rtept>
    <rtept lat="52.359643" lon="4.617238"><ele>0.0</ele></rtept>
    <rtept lat="52.359450" lon="4.617138"><ele>0.0</ele></rtept>
    <rtept lat="52.359140" lon="4.616774"><ele>0.0</ele></rtept>
    <rtept lat="52.358859" lon="4.616393"><ele>0.0</ele></rtept>
    <rtept lat="52.358787" lon="4.616300"><ele>0.0</ele></rtept>
    <rtept lat="52.358740" lon="4.616237"><ele>0.0</ele></rtept>
    <rtept lat="52.358685" lon="4.616164"><ele>0.0</ele></rtept>
    <rtept lat="52.357863" lon="4.615130"><ele>0.0</ele></rtept>
    <rtept lat="52.357834" lon="4.615097"><ele>0.0</ele></rtept>
    <rtept lat="52.357735" lon="4.614978"><ele>0.0</ele></rtept>
    <rtept lat="52.357403" lon="4.614630"><ele>0.0</ele></rtept>
    <rtept lat="52.357226" lon="4.614431"><ele>0.0</ele></rtept>
    <rtept lat="52.357199" lon="4.614409"><ele>0.0</ele></rtept>
    <rtept lat="52.357050" lon="4.614293"><ele>0.0</ele></rtept>
    <rtept lat="52.356433" lon="4.613907"><ele>0.0</ele></rtept>
    <rtept lat="52.355368" lon="4.613351"><ele>0.0</ele></rtept>
    <rtept lat="52.355195" lon="4.613260"><ele>0.0</ele></rtept>
    <rtept lat="52.355083" lon="4.613199"><ele>0.0</ele></rtept>
    <rtept lat="52.354049" lon="4.612658"><ele>0.0</ele></rtept>
    <rtept lat="52.353532" lon="4.612373"><ele>0.0</ele></rtept>
    <rtept lat="52.353509" lon="4.612360"><ele>0.0</ele></rtept>
    <rtept lat="52.353126" lon="4.612156"><ele>0.0</ele></rtept>
    <rtept lat="52.352860" lon="4.611980"><ele>0.0</ele></rtept>
    <rtept lat="52.352800" lon="4.611938"><ele>0.0</ele></rtept>
    <rtept lat="52.352141" lon="4.611464"><ele>0.0</ele></rtept>
    <rtept lat="52.352115" lon="4.611323"><ele>0.0</ele></rtept>
    <rtept lat="52.352038" lon="4.611199"><ele>0.0</ele></rtept>
    <rtept lat="52.351967" lon="4.611161"><ele>0.0</ele></rtept>
    <rtept lat="52.351901" lon="4.611165"><ele>0.0</ele></rtept>
    <rtept lat="52.351799" lon="4.611257"><ele>0.0</ele></rtept>
    <rtept lat="52.351231" lon="4.611042"><ele>0.0</ele></rtept>
    <rtept lat="52.350945" lon="4.610946"><ele>0.0</ele></rtept>
    <rtept lat="52.350810" lon="4.610923"><ele>0.0</ele></rtept>
    <rtept lat="52.350565" lon="4.610802"><ele>0.0</ele></rtept>
    <rtept lat="52.350416" lon="4.610702"><ele>0.0</ele></rtept>
    <rtept lat="52.349742" lon="4.610370"><ele>0.0</ele></rtept>
    <rtept lat="52.348467" lon="4.609732"><ele>0.0</ele></rtept>
    <rtept lat="52.348322" lon="4.609676"><ele>0.0</ele></rtept>
    <rtept lat="52.347237" lon="4.609133"><ele>0.0</ele></rtept>
    <rtept lat="52.346042" lon="4.608555"><ele>0.0</ele></rtept>
    <rtept lat="52.345528" lon="4.608302"><ele>0.0</ele></rtept>
    <rtept lat="52.345294" lon="4.608188"><ele>0.0</ele></rtept>
    <rtept lat="52.344736" lon="4.607886"><ele>0.0</ele></rtept>
    <rtept lat="52.344693" lon="4.607863"><ele>0.0</ele></rtept>
    <rtept lat="52.344596" lon="4.607820"><ele>0.0</ele></rtept>
    <rtept lat="52.344528" lon="4.607789"><ele>0.0</ele></rtept>
    <rtept lat="52.343562" lon="4.607330"><ele>0.0</ele></rtept>
    <rtept lat="52.343347" lon="4.607260"><ele>0.0</ele></rtept>
    <rtept lat="52.342720" lon="4.606862"><ele>0.0</ele></rtept>
    <rtept lat="52.342523" lon="4.606726"><ele>0.0</ele></rtept>
    <rtept lat="52.342487" lon="4.606679"><ele>0.0</ele></rtept>
    <rtept lat="52.342236" lon="4.606513"><ele>0.0</ele></rtept>
    <rtept lat="52.341444" lon="4.606000"><ele>0.0</ele></rtept>
    <rtept lat="52.341097" lon="4.605791"><ele>0.0</ele></rtept>
    <rtept lat="52.340795" lon="4.605637"><ele>0.0</ele></rtept>
    <rtept lat="52.340659" lon="4.605591"><ele>0.0</ele></rtept>
    <rtept lat="52.340460" lon="4.605571"><ele>0.0</ele></rtept>
    <rtept lat="52.339999" lon="4.605406"><ele>0.0</ele></rtept>
    <rtept lat="52.339896" lon="4.605329"><ele>0.0</ele></rtept>
    <rtept lat="52.339478" lon="4.605155"><ele>0.0</ele></rtept>
    <rtept lat="52.338763" lon="4.604877"><ele>0.0</ele></rtept>
    <rtept lat="52.337821" lon="4.604277"><ele>0.0</ele></rtept>
    <rtept lat="52.336506" lon="4.603285"><ele>0.0</ele></rtept>
    <rtept lat="52.335194" lon="4.602258"><ele>0.0</ele></rtept>
    <rtept lat="52.334895" lon="4.602002"><ele>0.0</ele></rtept>
    <rtept lat="52.334326" lon="4.601595"><ele>0.0</ele></rtept>
    <rtept lat="52.333927" lon="4.601248"><ele>0.0</ele></rtept>
    <rtept lat="52.333589" lon="4.600911"><ele>0.0</ele></rtept>
    <rtept lat="52.333450" lon="4.600774"><ele>0.0</ele></rtept>
    <rtept lat="52.332962" lon="4.600437"><ele>0.0</ele></rtept>
    <rtept lat="52.331386" lon="4.599463"><ele>0.0</ele></rtept>
    <rtept lat="52.329920" lon="4.598582"><ele>0.0</ele></rtept>
    <rtept lat="52.329195" lon="4.598149"><ele>0.0</ele></rtept>
    <rtept lat="52.328190" lon="4.597538"><ele>0.0</ele></rtept>
    <rtept lat="52.327848" lon="4.597325"><ele>0.0</ele></rtept>
    <rtept lat="52.327416" lon="4.597011"><ele>0.0</ele></rtept>
    <rtept lat="52.327277" lon="4.596865"><ele>0.0</ele></rtept>
    <rtept lat="52.326991" lon="4.596687"><ele>0.0</ele></rtept>
    <rtept lat="52.326772" lon="4.596517"><ele>0.0</ele></rtept>
    <rtept lat="52.326660" lon="4.596400"><ele>0.0</ele></rtept>
    <rtept lat="52.326094" lon="4.595999"><ele>0.0</ele></rtept>
    <rtept lat="52.325943" lon="4.595892"><ele>0.0</ele></rtept>
    <rtept lat="52.325826" lon="4.595875"><ele>0.0</ele></rtept>
    <rtept lat="52.325694" lon="4.595781"><ele>0.0</ele></rtept>
    <rtept lat="52.325555" lon="4.595759"><ele>0.0</ele></rtept>
    <rtept lat="52.325513" lon="4.595725"><ele>0.0</ele></rtept>
    <rtept lat="52.325379" lon="4.595620"><ele>0.0</ele></rtept>
    <rtept lat="52.324847" lon="4.595243"><ele>0.0</ele></rtept>
    <rtept lat="52.324768" lon="4.595099"><ele>0.0</ele></rtept>
    <rtept lat="52.324730" lon="4.595016"><ele>0.0</ele></rtept>
    <rtept lat="52.324738" lon="4.594898"><ele>0.0</ele></rtept>
    <rtept lat="52.324725" lon="4.594748"><ele>0.0</ele></rtept>
    <rtept lat="52.324892" lon="4.594132"><ele>0.0</ele></rtept>
    <rtept lat="52.324951" lon="4.593846"><ele>0.0</ele></rtept>
    <rtept lat="52.325351" lon="4.592736"><ele>0.0</ele></rtept>
    <rtept lat="52.325556" lon="4.592228"><ele>0.0</ele></rtept>
    <rtept lat="52.325672" lon="4.591929"><ele>0.0</ele></rtept>
    <rtept lat="52.325698" lon="4.591863"><ele>0.0</ele></rtept>
    <rtept lat="52.326016" lon="4.591005"><ele>0.0</ele></rtept>
    <rtept lat="52.326282" lon="4.590309"><ele>0.0</ele></rtept>
    <rtept lat="52.326310" lon="4.590236"><ele>0.0</ele></rtept>
    <rtept lat="52.326411" lon="4.589955"><ele>0.0</ele></rtept>
    <rtept lat="52.326429" lon="4.589904"><ele>0.0</ele></rtept>
    <rtept lat="52.326454" lon="4.589827"><ele>0.0</ele></rtept>
    <rtept lat="52.324886" lon="4.588580"><ele>0.0</ele></rtept>
    <rtept lat="52.324535" lon="4.588279"><ele>0.0</ele></rtept>
    <rtept lat="52.324500" lon="4.588237"><ele>0.0</ele></rtept>
    <rtept lat="52.324444" lon="4.588140"><ele>0.0</ele></rtept>
    <rtept lat="52.324402" lon="4.587993"><ele>0.0</ele></rtept>
    <rtept lat="52.324394" lon="4.587783"><ele>0.0</ele></rtept>
    <rtept lat="52.324491" lon="4.587364"><ele>0.0</ele></rtept>
    <rtept lat="52.324533" lon="4.587152"><ele>0.0</ele></rtept>
    <rtept lat="52.324541" lon="4.587111"><ele>0.0</ele></rtept>
    <rtept lat="52.324602" lon="4.587014"><ele>0.0</ele></rtept>
    <rtept lat="52.324641" lon="4.586845"><ele>0.0</ele></rtept>
    <rtept lat="52.324595" lon="4.586821"><ele>0.0</ele></rtept>
    <rtept lat="52.324554" lon="4.586802"><ele>0.0</ele></rtept>
    <rtept lat="52.324584" lon="4.586647"><ele>0.0</ele></rtept>
    <rtept lat="52.324895" lon="4.584978"><ele>0.0</ele></rtept>
    <rtept lat="52.325052" lon="4.584141"><ele>0.0</ele></rtept>
    <rtept lat="52.325145" lon="4.583619"><ele>0.0</ele></rtept>
    <rtept lat="52.325480" lon="4.581757"><ele>0.0</ele></rtept>
    <rtept lat="52.325681" lon="4.580637"><ele>0.0</ele></rtept>
    <rtept lat="52.325944" lon="4.579288"><ele>0.0</ele></rtept>
    <rtept lat="52.325923" lon="4.579170"><ele>0.0</ele></rtept>
    <rtept lat="52.325833" lon="4.578971"><ele>0.0</ele></rtept>
    <rtept lat="52.325835" lon="4.578925"><ele>0.0</ele></rtept>
    <rtept lat="52.325843" lon="4.578858"><ele>0.0</ele></rtept>
    <rtept lat="52.325856" lon="4.578754"><ele>0.0</ele></rtept>
    <rtept lat="52.325874" lon="4.578633"><ele>0.0</ele></rtept>
    <rtept lat="52.326022" lon="4.578495"><ele>0.0</ele></rtept>
    <rtept lat="52.326134" lon="4.578531"><ele>0.0</ele></rtept>
    <rtept lat="52.327126" lon="4.573173"><ele>0.0</ele></rtept>
    <rtept lat="52.327184" lon="4.573022"><ele>0.0</ele></rtept>
    <rtept lat="52.327877" lon="4.573588"><ele>0.0</ele></rtept>
    <rtept lat="52.327945" lon="4.573587"><ele>0.0</ele></rtept>
    <rtept lat="52.328047" lon="4.573450"><ele>0.0</ele></rtept>
    <rtept lat="52.328092" lon="4.573299"><ele>0.0</ele></rtept>
    <rtept lat="52.328366" lon="4.572060"><ele>0.0</ele></rtept>
    <rtept lat="52.329397" lon="4.572755"><ele>0.0</ele></rtept>
    <rtept lat="52.329440" lon="4.572768"><ele>0.0</ele></rtept>
    <rtept lat="52.329485" lon="4.572734"><ele>0.0</ele></rtept>
    <rtept lat="52.330888" lon="4.567854"><ele>0.0</ele></rtept>
    <rtept lat="52.330894" lon="4.567594"><ele>0.0</ele></rtept>
    <rtept lat="52.330700" lon="4.567060"><ele>0.0</ele></rtept>
    <rtept lat="52.330709" lon="4.566710"><ele>0.0</ele></rtept>
    <rtept lat="52.330676" lon="4.566468"><ele>0.0</ele></rtept>
    <rtept lat="52.330645" lon="4.566355"><ele>0.0</ele></rtept>
    <rtept lat="52.330634" lon="4.566179"><ele>0.0</ele></rtept>
    <rtept lat="52.330680" lon="4.566046"><ele>0.0</ele></rtept>
    <rtept lat="52.330737" lon="4.565975"><ele>0.0</ele></rtept>
    <rtept lat="52.330774" lon="4.565916"><ele>0.0</ele></rtept>
    <rtept lat="52.330883" lon="4.565744"><ele>0.0</ele></rtept>
    <rtept lat="52.330935" lon="4.565661"><ele>0.0</ele></rtept>
    <rtept lat="52.330982" lon="4.565585"><ele>0.0</ele></rtept>
    <rtept lat="52.331053" lon="4.565470"><ele>0.0</ele></rtept>
    <rtept lat="52.331074" lon="4.565436"><ele>0.0</ele></rtept>
    <rtept lat="52.331259" lon="4.565125"><ele>0.0</ele></rtept>
    <rtept lat="52.331354" lon="4.564967"><ele>0.0</ele></rtept>
    <rtept lat="52.331259" lon="4.565125"><ele>0.0</ele></rtept>
    <rtept lat="52.331074" lon="4.565436"><ele>0.0</ele></rtept>
    <rtept lat="52.331053" lon="4.565470"><ele>0.0</ele></rtept>
    <rtept lat="52.331084" lon="4.565520"><ele>0.0</ele></rtept>
    <rtept lat="52.331056" lon="4.565565"><ele>0.0</ele></rtept>
    <rtept lat="52.331031" lon="4.565607"><ele>0.0</ele></rtept>
    <rtept lat="52.331014" lon="4.565636"><ele>0.0</ele></rtept>
    <rtept lat="52.330982" lon="4.565585"><ele>0.0</ele></rtept>
    <rtept lat="52.330935" lon="4.565661"><ele>0.0</ele></rtept>
    <rtept lat="52.330883" lon="4.565744"><ele>0.0</ele></rtept>
    <rtept lat="52.330912" lon="4.565794"><ele>0.0</ele></rtept>
    <rtept lat="52.330895" lon="4.565821"><ele>0.0</ele></rtept>
    <rtept lat="52.330871" lon="4.565860"><ele>0.0</ele></rtept>
    <rtept lat="52.330849" lon="4.565895"><ele>0.0</ele></rtept>
    <rtept lat="52.330825" lon="4.565933"><ele>0.0</ele></rtept>
    <rtept lat="52.330805" lon="4.565965"><ele>0.0</ele></rtept>
    <rtept lat="52.330774" lon="4.565916"><ele>0.0</ele></rtept>
    <rtept lat="52.330737" lon="4.565975"><ele>0.0</ele></rtept>
    <rtept lat="52.330680" lon="4.566046"><ele>0.0</ele></rtept>
    <rtept lat="52.330634" lon="4.566179"><ele>0.0</ele></rtept>
    <rtept lat="52.330645" lon="4.566355"><ele>0.0</ele></rtept>
    <rtept lat="52.330676" lon="4.566468"><ele>0.0</ele></rtept>
    <rtept lat="52.330709" lon="4.566710"><ele>0.0</ele></rtept>
    <rtept lat="52.330700" lon="4.567060"><ele>0.0</ele></rtept>
    <rtept lat="52.330894" lon="4.567594"><ele>0.0</ele></rtept>
    <rtept lat="52.330888" lon="4.567854"><ele>0.0</ele></rtept>
    <rtept lat="52.329485" lon="4.572734"><ele>0.0</ele></rtept>
    <rtept lat="52.329440" lon="4.572768"><ele>0.0</ele></rtept>
    <rtept lat="52.329397" lon="4.572755"><ele>0.0</ele></rtept>
    <rtept lat="52.328366" lon="4.572060"><ele>0.0</ele></rtept>
    <rtept lat="52.328092" lon="4.573299"><ele>0.0</ele></rtept>
    <rtept lat="52.328047" lon="4.573450"><ele>0.0</ele></rtept>
    <rtept lat="52.327945" lon="4.573587"><ele>0.0</ele></rtept>
    <rtept lat="52.327877" lon="4.573588"><ele>0.0</ele></rtept>
    <rtept lat="52.327184" lon="4.573022"><ele>0.0</ele></rtept>
    <rtept lat="52.327126" lon="4.573173"><ele>0.0</ele></rtept>
    <rtept lat="52.326134" lon="4.578531"><ele>0.0</ele></rtept>
    <rtept lat="52.326163" lon="4.578544"><ele>0.0</ele></rtept>
    <rtept lat="52.326210" lon="4.578628"><ele>0.0</ele></rtept>
    <rtept lat="52.326264" lon="4.578788"><ele>0.0</ele></rtept>
    <rtept lat="52.326623" lon="4.579182"><ele>0.0</ele></rtept>
    <rtept lat="52.326934" lon="4.579286"><ele>0.0</ele></rtept>
    <rtept lat="52.327418" lon="4.579500"><ele>0.0</ele></rtept>
    <rtept lat="52.327738" lon="4.579679"><ele>0.0</ele></rtept>
    <rtept lat="52.328899" lon="4.580153"><ele>0.0</ele></rtept>
    <rtept lat="52.329023" lon="4.580148"><ele>0.0</ele></rtept>
    <rtept lat="52.329421" lon="4.580007"><ele>0.0</ele></rtept>
    <rtept lat="52.329643" lon="4.579992"><ele>0.0</ele></rtept>
    <rtept lat="52.330451" lon="4.580071"><ele>0.0</ele></rtept>
    <rtept lat="52.330570" lon="4.580044"><ele>0.0</ele></rtept>
    <rtept lat="52.330756" lon="4.579922"><ele>0.0</ele></rtept>
    <rtept lat="52.330943" lon="4.579765"><ele>0.0</ele></rtept>
    <rtept lat="52.331050" lon="4.579695"><ele>0.0</ele></rtept>
    <rtept lat="52.331150" lon="4.579688"><ele>0.0</ele></rtept>
    <rtept lat="52.331452" lon="4.579764"><ele>0.0</ele></rtept>
    <rtept lat="52.331601" lon="4.579723"><ele>0.0</ele></rtept>
    <rtept lat="52.332097" lon="4.579953"><ele>0.0</ele></rtept>
    <rtept lat="52.332276" lon="4.580039"><ele>0.0</ele></rtept>
    <rtept lat="52.332327" lon="4.580077"><ele>0.0</ele></rtept>
    <rtept lat="52.332558" lon="4.580172"><ele>0.0</ele></rtept>
    <rtept lat="52.332641" lon="4.580321"><ele>0.0</ele></rtept>
    <rtept lat="52.334432" lon="4.581191"><ele>0.0</ele></rtept>
    <rtept lat="52.335116" lon="4.581476"><ele>0.0</ele></rtept>
    <rtept lat="52.335181" lon="4.581602"><ele>0.0</ele></rtept>
    <rtept lat="52.335170" lon="4.581662"><ele>0.0</ele></rtept>
    <rtept lat="52.335211" lon="4.581681"><ele>0.0</ele></rtept>
    <rtept lat="52.335731" lon="4.581919"><ele>0.0</ele></rtept>
    <rtept lat="52.337710" lon="4.582700"><ele>0.0</ele></rtept>
    <rtept lat="52.338303" lon="4.582913"><ele>0.0</ele></rtept>
    <rtept lat="52.338610" lon="4.582982"><ele>0.0</ele></rtept>
    <rtept lat="52.338757" lon="4.583045"><ele>0.0</ele></rtept>
    <rtept lat="52.339430" lon="4.583428"><ele>0.0</ele></rtept>
    <rtept lat="52.339659" lon="4.583507"><ele>0.0</ele></rtept>
    <rtept lat="52.340022" lon="4.583579"><ele>0.0</ele></rtept>
    <rtept lat="52.340572" lon="4.583869"><ele>0.0</ele></rtept>
    <rtept lat="52.340989" lon="4.584176"><ele>0.0</ele></rtept>
    <rtept lat="52.342320" lon="4.585568"><ele>0.0</ele></rtept>
    <rtept lat="52.342414" lon="4.585634"><ele>0.0</ele></rtept>
    <rtept lat="52.342532" lon="4.585678"><ele>0.0</ele></rtept>
    <rtept lat="52.342685" lon="4.585652"><ele>0.0</ele></rtept>
    <rtept lat="52.342845" lon="4.585510"><ele>0.0</ele></rtept>
    <rtept lat="52.343018" lon="4.585215"><ele>0.0</ele></rtept>
    <rtept lat="52.343170" lon="4.585075"><ele>0.0</ele></rtept>
    <rtept lat="52.343408" lon="4.584995"><ele>0.0</ele></rtept>
    <rtept lat="52.343668" lon="4.584968"><ele>0.0</ele></rtept>
    <rtept lat="52.343979" lon="4.584971"><ele>0.0</ele></rtept>
    <rtept lat="52.344274" lon="4.585014"><ele>0.0</ele></rtept>
    <rtept lat="52.344536" lon="4.585078"><ele>0.0</ele></rtept>
    <rtept lat="52.344908" lon="4.585237"><ele>0.0</ele></rtept>
    <rtept lat="52.345651" lon="4.585559"><ele>0.0</ele></rtept>
    <rtept lat="52.345802" lon="4.585647"><ele>0.0</ele></rtept>
    <rtept lat="52.345891" lon="4.585687"><ele>0.0</ele></rtept>
    <rtept lat="52.346745" lon="4.586108"><ele>0.0</ele></rtept>
    <rtept lat="52.347262" lon="4.586444"><ele>0.0</ele></rtept>
    <rtept lat="52.347542" lon="4.586754"><ele>0.0</ele></rtept>
    <rtept lat="52.347849" lon="4.587134"><ele>0.0</ele></rtept>
    <rtept lat="52.348186" lon="4.587620"><ele>0.0</ele></rtept>
    <rtept lat="52.348508" lon="4.587760"><ele>0.0</ele></rtept>
    <rtept lat="52.349309" lon="4.587555"><ele>0.0</ele></rtept>
    <rtept lat="52.349649" lon="4.587581"><ele>0.0</ele></rtept>
    <rtept lat="52.350063" lon="4.587729"><ele>0.0</ele></rtept>
    <rtept lat="52.350869" lon="4.588116"><ele>0.0</ele></rtept>
    <rtept lat="52.351553" lon="4.588408"><ele>0.0</ele></rtept>
    <rtept lat="52.352656" lon="4.588744"><ele>0.0</ele></rtept>
    <rtept lat="52.352852" lon="4.588779"><ele>0.0</ele></rtept>
    <rtept lat="52.353720" lon="4.588788"><ele>0.0</ele></rtept>
    <rtept lat="52.353801" lon="4.588852"><ele>0.0</ele></rtept>
    <rtept lat="52.353912" lon="4.589008"><ele>0.0</ele></rtept>
    <rtept lat="52.354370" lon="4.589826"><ele>0.0</ele></rtept>
    <rtept lat="52.355733" lon="4.592257"><ele>0.0</ele></rtept>
    <rtept lat="52.357082" lon="4.594636"><ele>0.0</ele></rtept>
    <rtept lat="52.357968" lon="4.596245"><ele>0.0</ele></rtept>
    <rtept lat="52.357995" lon="4.596402"><ele>0.0</ele></rtept>
    <rtept lat="52.358018" lon="4.596689"><ele>0.0</ele></rtept>
    <rtept lat="52.358080" lon="4.596852"><ele>0.0</ele></rtept>
    <rtept lat="52.358075" lon="4.597128"><ele>0.0</ele></rtept>
    <rtept lat="52.357998" lon="4.597709"><ele>0.0</ele></rtept>
    <rtept lat="52.357961" lon="4.598053"><ele>0.0</ele></rtept>
    <rtept lat="52.357961" lon="4.598336"><ele>0.0</ele></rtept>
    <rtept lat="52.358044" lon="4.598808"><ele>0.0</ele></rtept>
    <rtept lat="52.358123" lon="4.599082"><ele>0.0</ele></rtept>
    <rtept lat="52.358227" lon="4.599366"><ele>0.0</ele></rtept>
    <rtept lat="52.358351" lon="4.599624"><ele>0.0</ele></rtept>
    <rtept lat="52.358980" lon="4.600558"><ele>0.0</ele></rtept>
    <rtept lat="52.359148" lon="4.600841"><ele>0.0</ele></rtept>
    <rtept lat="52.359298" lon="4.601144"><ele>0.0</ele></rtept>
    <rtept lat="52.359497" lon="4.601682"><ele>0.0</ele></rtept>
    <rtept lat="52.359684" lon="4.602282"><ele>0.0</ele></rtept>
    <rtept lat="52.359718" lon="4.602372"><ele>0.0</ele></rtept>
    <rtept lat="52.359796" lon="4.602561"><ele>0.0</ele></rtept>
    <rtept lat="52.359906" lon="4.602709"><ele>0.0</ele></rtept>
    <rtept lat="52.360094" lon="4.602897"><ele>0.0</ele></rtept>
    <rtept lat="52.360072" lon="4.603010"><ele>0.0</ele></rtept>
    <rtept lat="52.360058" lon="4.603201"><ele>0.0</ele></rtept>
    <rtept lat="52.359972" lon="4.603628"><ele>0.0</ele></rtept>
    <rtept lat="52.359947" lon="4.603768"><ele>0.0</ele></rtept>
    <rtept lat="52.359907" lon="4.604033"><ele>0.0</ele></rtept>
    <rtept lat="52.359766" lon="4.605432"><ele>0.0</ele></rtept>
    <rtept lat="52.359757" lon="4.605493"><ele>0.0</ele></rtept>
    <rtept lat="52.359694" lon="4.605685"><ele>0.0</ele></rtept>
    <rtept lat="52.359675" lon="4.605740"><ele>0.0</ele></rtept>
    <rtept lat="52.359595" lon="4.606471"><ele>0.0</ele></rtept>
    <rtept lat="52.359601" lon="4.606514"><ele>0.0</ele></rtept>
    <rtept lat="52.359656" lon="4.606612"><ele>0.0</ele></rtept>
    <rtept lat="52.359617" lon="4.607135"><ele>0.0</ele></rtept>
    <rtept lat="52.359599" lon="4.607352"><ele>0.0</ele></rtept>
    <rtept lat="52.359591" lon="4.607412"><ele>0.0</ele></rtept>
    <rtept lat="52.359590" lon="4.607630"><ele>0.0</ele></rtept>
    <rtept lat="52.359585" lon="4.607842"><ele>0.0</ele></rtept>
    <rtept lat="52.359566" lon="4.608014"><ele>0.0</ele></rtept>
    <rtept lat="52.359543" lon="4.608222"><ele>0.0</ele></rtept>
    <rtept lat="52.359405" lon="4.609675"><ele>0.0</ele></rtept>
    <rtept lat="52.359444" lon="4.609689"><ele>0.0</ele></rtept>
    <rtept lat="52.359377" lon="4.610508"><ele>0.0</ele></rtept>
    <rtept lat="52.359361" lon="4.610689"><ele>0.0</ele></rtept>
    <rtept lat="52.359326" lon="4.611143"><ele>0.0</ele></rtept>
    <rtept lat="52.359314" lon="4.611303"><ele>0.0</ele></rtept>
    <rtept lat="52.359380" lon="4.611314"><ele>0.0</ele></rtept>
    <rtept lat="52.359415" lon="4.611320"><ele>0.0</ele></rtept>
    <rtept lat="52.359543" lon="4.611374"><ele>0.0</ele></rtept>
    <rtept lat="52.359640" lon="4.611439"><ele>0.0</ele></rtept>
    <rtept lat="52.359688" lon="4.611543"><ele>0.0</ele></rtept>
    <rtept lat="52.359772" lon="4.611822"><ele>0.0</ele></rtept>
    <rtept lat="52.360014" lon="4.612326"><ele>0.0</ele></rtept>
    <rtept lat="52.360095" lon="4.612494"><ele>0.0</ele></rtept>
    <rtept lat="52.360541" lon="4.613430"><ele>0.0</ele></rtept>
    <rtept lat="52.360561" lon="4.613617"><ele>0.0</ele></rtept>
    <rtept lat="52.360519" lon="4.613971"><ele>0.0</ele></rtept>
    <rtept lat="52.360533" lon="4.614119"><ele>0.0</ele></rtept>
    <rtept lat="52.360561" lon="4.614135"><ele>0.0</ele></rtept>
    <rtept lat="52.360604" lon="4.614154"><ele>0.0</ele></rtept>
    <rtept lat="52.360791" lon="4.614210"><ele>0.0</ele></rtept>
    <rtept lat="52.361008" lon="4.614207"><ele>0.0</ele></rtept>
    <rtept lat="52.361195" lon="4.614599"><ele>0.0</ele></rtept>
    <rtept lat="52.361349" lon="4.614922"><ele>0.0</ele></rtept>
    <rtept lat="52.361563" lon="4.615241"><ele>0.0</ele></rtept>
    <rtept lat="52.361670" lon="4.615340"><ele>0.0</ele></rtept>
    <rtept lat="52.361833" lon="4.615490"><ele>0.0</ele></rtept>
    <rtept lat="52.362030" lon="4.615590"><ele>0.0</ele></rtept>
    <rtept lat="52.362196" lon="4.615673"><ele>0.0</ele></rtept>
    <rtept lat="52.362470" lon="4.615810"><ele>0.0</ele></rtept>
    <rtept lat="52.362699" lon="4.615907"><ele>0.0</ele></rtept>
    <rtept lat="52.362920" lon="4.616000"><ele>0.0</ele></rtept>
    <rtept lat="52.362969" lon="4.616025"><ele>0.0</ele></rtept>
    <rtept lat="52.362980" lon="4.616526"><ele>0.0</ele></rtept>
    <rtept lat="52.362850" lon="4.617355"><ele>0.0</ele></rtept>
    <rtept lat="52.362900" lon="4.617489"><ele>0.0</ele></rtept>
    <rtept lat="52.362906" lon="4.617592"><ele>0.0</ele></rtept>
    <rtept lat="52.362905" lon="4.617658"><ele>0.0</ele></rtept>
    <rtept lat="52.362904" lon="4.617894"><ele>0.0</ele></rtept>
    <rtept lat="52.362895" lon="4.618190"><ele>0.0</ele></rtept>
    <rtept lat="52.363314" lon="4.618506"><ele>0.0</ele></rtept>
    <rtept lat="52.363532" lon="4.618629"><ele>0.0</ele></rtept>
    <rtept lat="52.364224" lon="4.618891"><ele>0.0</ele></rtept>
    <rtept lat="52.364278" lon="4.618939"><ele>0.0</ele></rtept>
    <rtept lat="52.364483" lon="4.619030"><ele>0.0</ele></rtept>
    <rtept lat="52.364586" lon="4.619035"><ele>0.0</ele></rtept>
    <rtept lat="52.364674" lon="4.619044"><ele>0.0</ele></rtept>
    <rtept lat="52.364668" lon="4.619100"><ele>0.0</ele></rtept>
    <rtept lat="52.364675" lon="4.619495"><ele>0.0</ele></rtept>
    <rtept lat="52.364732" lon="4.619540"><ele>0.0</ele></rtept>
    <rtept lat="52.364853" lon="4.619647"><ele>0.0</ele></rtept>
    <rtept lat="52.365159" lon="4.619919"><ele>0.0</ele></rtept>
    <rtept lat="52.365211" lon="4.619971"><ele>0.0</ele></rtept>
    <rtept lat="52.365464" lon="4.620205"><ele>0.0</ele></rtept>
    <rtept lat="52.365654" lon="4.620409"><ele>0.0</ele></rtept>
    <rtept lat="52.366135" lon="4.620972"><ele>0.0</ele></rtept>
    <rtept lat="52.366645" lon="4.621689"><ele>0.0</ele></rtept>
    <rtept lat="52.366804" lon="4.621952"><ele>0.0</ele></rtept>
    <rtept lat="52.367048" lon="4.622552"><ele>0.0</ele></rtept>
    <rtept lat="52.367301" lon="4.623353"><ele>0.0</ele></rtept>
    <rtept lat="52.367412" lon="4.623754"><ele>0.0</ele></rtept>
    <rtept lat="52.367459" lon="4.623983"><ele>0.0</ele></rtept>
    <rtept lat="52.367528" lon="4.624467"><ele>0.0</ele></rtept>
    <rtept lat="52.367601" lon="4.625041"><ele>0.0</ele></rtept>
    <rtept lat="52.367723" lon="4.625618"><ele>0.0</ele></rtept>
    <rtept lat="52.368355" lon="4.627126"><ele>0.0</ele></rtept>
    <rtept lat="52.368499" lon="4.627431"><ele>0.0</ele></rtept>
    <rtept lat="52.368685" lon="4.627850"><ele>0.0</ele></rtept>
    <rtept lat="52.368717" lon="4.627923"><ele>0.0</ele></rtept>
    <rtept lat="52.368845" lon="4.628303"><ele>0.0</ele></rtept>
    <rtept lat="52.368862" lon="4.628466"><ele>0.0</ele></rtept>
    <rtept lat="52.369016" lon="4.628467"><ele>0.0</ele></rtept>
    <rtept lat="52.369013" lon="4.628621"><ele>0.0</ele></rtept>
    <rtept lat="52.369008" lon="4.628761"><ele>0.0</ele></rtept>
    <rtept lat="52.369004" lon="4.628890"><ele>0.0</ele></rtept>
    <rtept lat="52.369352" lon="4.628939"><ele>0.0</ele></rtept>
    <rtept lat="52.369727" lon="4.628970"><ele>0.0</ele></rtept>
    <rtept lat="52.369727" lon="4.629299"><ele>0.0</ele></rtept>
    <rtept lat="52.369780" lon="4.629549"><ele>0.0</ele></rtept>
    <rtept lat="52.369945" lon="4.630096"><ele>0.0</ele></rtept>
    <rtept lat="52.370000" lon="4.630420"><ele>0.0</ele></rtept>
    <rtept lat="52.370010" lon="4.630580"><ele>0.0</ele></rtept>
    <rtept lat="52.370297" lon="4.630577"><ele>0.0</ele></rtept>
    <rtept lat="52.370314" lon="4.630593"><ele>0.0</ele></rtept>
    <rtept lat="52.370770" lon="4.631486"><ele>0.0</ele></rtept>
    <rtept lat="52.370935" lon="4.631850"><ele>0.0</ele></rtept>
    <rtept lat="52.371173" lon="4.632450"><ele>0.0</ele></rtept>
    <rtept lat="52.371199" lon="4.632391"><ele>0.0</ele></rtept>
    <rtept lat="52.371209" lon="4.632479"><ele>0.0</ele></rtept>
    <rtept lat="52.371237" lon="4.632750"><ele>0.0</ele></rtept>
    <rtept lat="52.371239" lon="4.632859"><ele>0.0</ele></rtept>
    <rtept lat="52.371342" lon="4.632910"><ele>0.0</ele></rtept>
    <rtept lat="52.371416" lon="4.632951"><ele>0.0</ele></rtept>
    <rtept lat="52.371860" lon="4.633158"><ele>0.0</ele></rtept>
    <rtept lat="52.372275" lon="4.633341"><ele>0.0</ele></rtept>
    <rtept lat="52.372387" lon="4.633390"><ele>0.0</ele></rtept>
    <rtept lat="52.372664" lon="4.633526"><ele>0.0</ele></rtept>
    <rtept lat="52.373291" lon="4.633814"><ele>0.0</ele></rtept>
    <rtept lat="52.373398" lon="4.633872"><ele>0.0</ele></rtept>
    <rtept lat="52.373491" lon="4.633923"><ele>0.0</ele></rtept>
    <rtept lat="52.373852" lon="4.634139"><ele>0.0</ele></rtept>
    <rtept lat="52.374322" lon="4.634386"><ele>0.0</ele></rtept>
    <rtept lat="52.374917" lon="4.634649"><ele>0.0</ele></rtept>
    <rtept lat="52.375086" lon="4.634734"><ele>0.0</ele></rtept>
    <rtept lat="52.375150" lon="4.634794"><ele>0.0</ele></rtept>
    <rtept lat="52.375349" lon="4.634901"><ele>0.0</ele></rtept>
    <rtept lat="52.375528" lon="4.634961"><ele>0.0</ele></rtept>
    <rtept lat="52.375692" lon="4.635043"><ele>0.0</ele></rtept>
    <rtept lat="52.375774" lon="4.635077"><ele>0.0</ele></rtept>
    <rtept lat="52.375773" lon="4.635192"><ele>0.0</ele></rtept>
    <rtept lat="52.375782" lon="4.635649"><ele>0.0</ele></rtept>
    <rtept lat="52.375813" lon="4.636342"><ele>0.0</ele></rtept>
    <rtept lat="52.375886" lon="4.636864"><ele>0.0</ele></rtept>
    <rtept lat="52.375966" lon="4.637197"><ele>0.0</ele></rtept>
    <rtept lat="52.376074" lon="4.637550"><ele>0.0</ele></rtept>
    <rtept lat="52.376317" lon="4.638330"><ele>0.0</ele></rtept>
    <rtept lat="52.376522" lon="4.638976"><ele>0.0</ele></rtept>
    <rtept lat="52.376551" lon="4.639068"><ele>0.0</ele></rtept>
    <rtept lat="52.376704" lon="4.639362"><ele>0.0</ele></rtept>
    <rtept lat="52.376739" lon="4.639414"><ele>0.0</ele></rtept>
    <rtept lat="52.376799" lon="4.639487"><ele>0.0</ele></rtept>
    <rtept lat="52.376748" lon="4.639731"><ele>0.0</ele></rtept>
    <rtept lat="52.376748" lon="4.639808"><ele>0.0</ele></rtept>
    <rtept lat="52.376776" lon="4.639949"><ele>0.0</ele></rtept>
    <rtept lat="52.376832" lon="4.640027"><ele>0.0</ele></rtept>
    <rtept lat="52.376940" lon="4.640401"><ele>0.0</ele></rtept>
    <rtept lat="52.376996" lon="4.640565"><ele>0.0</ele></rtept>
    <rtept lat="52.377018" lon="4.640752"><ele>0.0</ele></rtept>
    <rtept lat="52.377008" lon="4.640848"><ele>0.0</ele></rtept>
    <rtept lat="52.376957" lon="4.640921"><ele>0.0</ele></rtept>
    <rtept lat="52.376935" lon="4.640966"><ele>0.0</ele></rtept>
    <rtept lat="52.376720" lon="4.641625"><ele>0.0</ele></rtept>
    <rtept lat="52.376619" lon="4.641629"><ele>0.0</ele></rtept>
    <rtept lat="52.376608" lon="4.641650"><ele>0.0</ele></rtept>
    <rtept lat="52.376545" lon="4.641791"><ele>0.0</ele></rtept>
    <rtept lat="52.376524" lon="4.641840"><ele>0.0</ele></rtept>
    <rtept lat="52.376396" lon="4.642108"><ele>0.0</ele></rtept>
    <rtept lat="52.376324" lon="4.642260"><ele>0.0</ele></rtept>
    <rtept lat="52.376223" lon="4.642429"><ele>0.0</ele></rtept>
    <rtept lat="52.376266" lon="4.642526"><ele>0.0</ele></rtept>
    <rtept lat="52.376317" lon="4.642652"><ele>0.0</ele></rtept>
    <rtept lat="52.376364" lon="4.642843"><ele>0.0</ele></rtept>
    <rtept lat="52.376408" lon="4.643488"><ele>0.0</ele></rtept>
    <rtept lat="52.376475" lon="4.644615"><ele>0.0</ele></rtept>
    <rtept lat="52.376555" lon="4.645774"><ele>0.0</ele></rtept>
    <rtept lat="52.376507" lon="4.645904"><ele>0.0</ele></rtept>
    <rtept lat="52.376530" lon="4.646289"><ele>0.0</ele></rtept>
    <rtept lat="52.376569" lon="4.646302"><ele>0.0</ele></rtept>
    <rtept lat="52.376588" lon="4.646355"><ele>0.0</ele></rtept>
    <rtept lat="52.376728" lon="4.648280"><ele>0.0</ele></rtept>
    <rtept lat="52.376728" lon="4.648428"><ele>0.0</ele></rtept>
    <rtept lat="52.376608" lon="4.648896"><ele>0.0</ele></rtept>
    <rtept lat="52.376626" lon="4.649419"><ele>0.0</ele></rtept>
    <rtept lat="52.376792" lon="4.649386"><ele>0.0</ele></rtept>
    <rtept lat="52.376935" lon="4.649362"><ele>0.0</ele></rtept>
    <rtept lat="52.376986" lon="4.649354"><ele>0.0</ele></rtept>
    <rtept lat="52.377017" lon="4.649942"><ele>0.0</ele></rtept>
    <rtept lat="52.377039" lon="4.650248"><ele>0.0</ele></rtept>
    <rtept lat="52.377041" lon="4.650289"><ele>0.0</ele></rtept>
    <rtept lat="52.377079" lon="4.650924"><ele>0.0</ele></rtept>
    <rtept lat="52.376764" lon="4.651077"><ele>0.0</ele></rtept>
    <rtept lat="52.376704" lon="4.651130"><ele>0.0</ele></rtept>
    <rtept lat="52.376382" lon="4.651708"><ele>0.0</ele></rtept>
    <rtept lat="52.376357" lon="4.651822"><ele>0.0</ele></rtept>
    <rtept lat="52.376353" lon="4.651934"><ele>0.0</ele></rtept>
    <rtept lat="52.376384" lon="4.652182"><ele>0.0</ele></rtept>
    <rtept lat="52.376463" lon="4.652848"><ele>0.0</ele></rtept>
    <rtept lat="52.376578" lon="4.653775"><ele>0.0</ele></rtept>
    <rtept lat="52.376571" lon="4.653984"><ele>0.0</ele></rtept>
    <rtept lat="52.376715" lon="4.654486"><ele>0.0</ele></rtept>
    <rtept lat="52.376862" lon="4.655041"><ele>0.0</ele></rtept>
    <rtept lat="52.376926" lon="4.655274"><ele>0.0</ele></rtept>
    <rtept lat="52.377017" lon="4.655609"><ele>0.0</ele></rtept>
    <rtept lat="52.377129" lon="4.656052"><ele>0.0</ele></rtept>
    <rtept lat="52.377176" lon="4.656129"><ele>0.0</ele></rtept>
    <rtept lat="52.377279" lon="4.656200"><ele>0.0</ele></rtept>
    <rtept lat="52.377592" lon="4.656397"><ele>0.0</ele></rtept>
    <rtept lat="52.378161" lon="4.656810"><ele>0.0</ele></rtept>
    <rtept lat="52.378896" lon="4.657371"><ele>0.0</ele></rtept>
    <rtept lat="52.379192" lon="4.657600"><ele>0.0</ele></rtept>
    <rtept lat="52.379403" lon="4.657759"><ele>0.0</ele></rtept>
    <rtept lat="52.379574" lon="4.657888"><ele>0.0</ele></rtept>
    <rtept lat="52.379804" lon="4.657899"><ele>0.0</ele></rtept>
    <rtept lat="52.380041" lon="4.657887"><ele>0.0</ele></rtept>
    <rtept lat="52.380029" lon="4.657510"><ele>0.0</ele></rtept>
  </rte>
</gpx>