<?xml version="1.0" encoding="UTF-8"?>
<gpx version="1.1" creator="WeeklyCyclingRoutes"
  xmlns="http://www.topografix.com/GPX/1/1"
  xmlns:xsi="http://www.w3.org/2001/XMLSchema-instance"
  xsi:schemaLocation="http://www.topografix.com/GPX/1/1 http://www.topografix.com/GPX/1/1/gpx.xsd">
  <metadata>
    <name>20km Route – July 27, 2026</name>
    <desc>Round trip from Cremerstraat, Haarlem. Actual: 22.1km</desc>
    <time>2026-07-27T09:38:54Z</time>
  </metadata>
  <rte>
    <name>20km Cycling Route – Haarlem</name>
    <rtept lat="52.380029" lon="4.657510"><ele>0.0</ele></rtept>
    <rtept lat="52.380029" lon="4.657505"><ele>0.0</ele></rtept>
    <rtept lat="52.379960" lon="4.657149"><ele>0.0</ele></rtept>
    <rtept lat="52.379890" lon="4.656860"><ele>0.0</ele></rtept>
    <rtept lat="52.379811" lon="4.656611"><ele>0.0</ele></rtept>
    <rtept lat="52.379484" lon="4.656332"><ele>0.0</ele></rtept>
    <rtept lat="52.379720" lon="4.655630"><ele>0.0</ele></rtept>
    <rtept lat="52.379947" lon="4.654788"><ele>0.0</ele></rtept>
    <rtept lat="52.379963" lon="4.654729"><ele>0.0</ele></rtept>
    <rtept lat="52.380132" lon="4.654088"><ele>0.0</ele></rtept>
    <rtept lat="52.380326" lon="4.653373"><ele>0.0</ele></rtept>
    <rtept lat="52.380708" lon="4.651959"><ele>0.0</ele></rtept>
    <rtept lat="52.380759" lon="4.651852"><ele>0.0</ele></rtept>
    <rtept lat="52.380737" lon="4.651796"><ele>0.0</ele></rtept>
    <rtept lat="52.380685" lon="4.651734"><ele>0.0</ele></rtept>
    <rtept lat="52.380262" lon="4.651351"><ele>0.0</ele></rtept>
    <rtept lat="52.380320" lon="4.651230"><ele>0.0</ele></rtept>
    <rtept lat="52.380285" lon="4.650753"><ele>0.0</ele></rtept>
    <rtept lat="52.380212" lon="4.649722"><ele>0.0</ele></rtept>
    <rtept lat="52.380250" lon="4.649612"><ele>0.0</ele></rtept>
    <rtept lat="52.380897" lon="4.649517"><ele>0.0</ele></rtept>
    <rtept lat="52.380781" lon="4.647736"><ele>0.0</ele></rtept>
    <rtept lat="52.380732" lon="4.647268"><ele>0.0</ele></rtept>
    <rtept lat="52.380885" lon="4.647293"><ele>0.0</ele></rtept>
    <rtept lat="52.380975" lon="4.647286"><ele>0.0</ele></rtept>
    <rtept lat="52.381073" lon="4.647283"><ele>0.0</ele></rtept>
    <rtept lat="52.381191" lon="4.647236"><ele>0.0</ele></rtept>
    <rtept lat="52.381648" lon="4.647325"><ele>0.0</ele></rtept>
    <rtept lat="52.382126" lon="4.647505"><ele>0.0</ele></rtept>
    <rtept lat="52.382158" lon="4.647518"><ele>0.0</ele></rtept>
    <rtept lat="52.383423" lon="4.648192"><ele>0.0</ele></rtept>
    <rtept lat="52.383490" lon="4.648309"><ele>0.0</ele></rtept>
    <rtept lat="52.383516" lon="4.648408"><ele>0.0</ele></rtept>
    <rtept lat="52.383504" lon="4.648569"><ele>0.0</ele></rtept>
    <rtept lat="52.383354" lon="4.649304"><ele>0.0</ele></rtept>
    <rtept lat="52.383327" lon="4.649439"><ele>0.0</ele></rtept>
    <rtept lat="52.383333" lon="4.649571"><ele>0.0</ele></rtept>
    <rtept lat="52.383387" lon="4.649716"><ele>0.0</ele></rtept>
    <rtept lat="52.383500" lon="4.649906"><ele>0.0</ele></rtept>
    <rtept lat="52.383570" lon="4.650044"><ele>0.0</ele></rtept>
    <rtept lat="52.383701" lon="4.650481"><ele>0.0</ele></rtept>
    <rtept lat="52.383737" lon="4.650717"><ele>0.0</ele></rtept>
    <rtept lat="52.383861" lon="4.650864"><ele>0.0</ele></rtept>
    <rtept lat="52.383889" lon="4.650892"><ele>0.0</ele></rtept>
    <rtept lat="52.383910" lon="4.650828"><ele>0.0</ele></rtept>
    <rtept lat="52.383936" lon="4.650751"><ele>0.0</ele></rtept>
    <rtept lat="52.383994" lon="4.650615"><ele>0.0</ele></rtept>
    <rtept lat="52.384061" lon="4.650690"><ele>0.0</ele></rtept>
    <rtept lat="52.384108" lon="4.650742"><ele>0.0</ele></rtept>
    <rtept lat="52.384097" lon="4.650776"><ele>0.0</ele></rtept>
    <rtept lat="52.384142" lon="4.650812"><ele>0.0</ele></rtept>
    <rtept lat="52.384201" lon="4.650873"><ele>0.0</ele></rtept>
    <rtept lat="52.384222" lon="4.650825"><ele>0.0</ele></rtept>
    <rtept lat="52.384903" lon="4.649342"><ele>0.0</ele></rtept>
    <rtept lat="52.384940" lon="4.649273"><ele>0.0</ele></rtept>
    <rtept lat="52.385085" lon="4.648984"><ele>0.0</ele></rtept>
    <rtept lat="52.385200" lon="4.648803"><ele>0.0</ele></rtept>
    <rtept lat="52.385300" lon="4.648709"><ele>0.0</ele></rtept>
    <rtept lat="52.385337" lon="4.648675"><ele>0.0</ele></rtept>
    <rtept lat="52.385443" lon="4.648659"><ele>0.0</ele></rtept>
    <rtept lat="52.385843" lon="4.648077"><ele>0.0</ele></rtept>
    <rtept lat="52.385698" lon="4.648001"><ele>0.0</ele></rtept>
    <rtept lat="52.385824" lon="4.647824"><ele>0.0</ele></rtept>
    <rtept lat="52.386373" lon="4.647128"><ele>0.0</ele></rtept>
    <rtept lat="52.386386" lon="4.647111"><ele>0.0</ele></rtept>
    <rtept lat="52.386421" lon="4.647189"><ele>0.0</ele></rtept>
    <rtept lat="52.386641" lon="4.647632"><ele>0.0</ele></rtept>
    <rtept lat="52.386960" lon="4.648144"><ele>0.0</ele></rtept>
    <rtept lat="52.387118" lon="4.648377"><ele>0.0</ele></rtept>
    <rtept lat="52.387257" lon="4.648547"><ele>0.0</ele></rtept>
    <rtept lat="52.387570" lon="4.648848"><ele>0.0</ele></rtept>
    <rtept lat="52.387847" lon="4.649048"><ele>0.0</ele></rtept>
    <rtept lat="52.388007" lon="4.649133"><ele>0.0</ele></rtept>
    <rtept lat="52.388293" lon="4.649240"><ele>0.0</ele></rtept>
    <rtept lat="52.388468" lon="4.649278"><ele>0.0</ele></rtept>
    <rtept lat="52.390154" lon="4.649506"><ele>0.0</ele></rtept>
    <rtept lat="52.390670" lon="4.649587"><ele>0.0</ele></rtept>
    <rtept lat="52.391285" lon="4.649721"><ele>0.0</ele></rtept>
    <rtept lat="52.391456" lon="4.649759"><ele>0.0</ele></rtept>
    <rtept lat="52.391545" lon="4.649786"><ele>0.0</ele></rtept>
    <rtept lat="52.392731" lon="4.650096"><ele>0.0</ele></rtept>
    <rtept lat="52.393658" lon="4.650295"><ele>0.0</ele></rtept>
    <rtept lat="52.394587" lon="4.650491"><ele>0.0</ele></rtept>
    <rtept lat="52.395198" lon="4.650630"><ele>0.0</ele></rtept>
    <rtept lat="52.395257" lon="4.650642"><ele>0.0</ele></rtept>
    <rtept lat="52.395309" lon="4.650647"><ele>0.0</ele></rtept>
    <rtept lat="52.395386" lon="4.650652"><ele>0.0</ele></rtept>
    <rtept lat="52.396356" lon="4.650785"><ele>0.0</ele></rtept>
    <rtept lat="52.397860" lon="4.651122"><ele>0.0</ele></rtept>
    <rtept lat="52.398414" lon="4.651322"><ele>0.0</ele></rtept>
    <rtept lat="52.399137" lon="4.651697"><ele>0.0</ele></rtept>
    <rtept lat="52.399422" lon="4.651851"><ele>0.0</ele></rtept>
    <rtept lat="52.399937" lon="4.652131"><ele>0.0</ele></rtept>
    <rtept lat="52.400046" lon="4.652223"><ele>0.0</ele></rtept>
    <rtept lat="52.400068" lon="4.652121"><ele>0.0</ele></rtept>
    <rtept lat="52.400088" lon="4.652035"><ele>0.0</ele></rtept>
    <rtept lat="52.400109" lon="4.651941"><ele>0.0</ele></rtept>
    <rtept lat="52.400457" lon="4.650178"><ele>0.0</ele></rtept>
    <rtept lat="52.400787" lon="4.648551"><ele>0.0</ele></rtept>
    <rtept lat="52.400876" lon="4.648126"><ele>0.0</ele></rtept>
    <rtept lat="52.401061" lon="4.647210"><ele>0.0</ele></rtept>
    <rtept lat="52.401209" lon="4.646409"><ele>0.0</ele></rtept>
    <rtept lat="52.401261" lon="4.646057"><ele>0.0</ele></rtept>
    <rtept lat="52.401349" lon="4.645519"><ele>0.0</ele></rtept>
    <rtept lat="52.401388" lon="4.645450"><ele>0.0</ele></rtept>
    <rtept lat="52.401421" lon="4.645426"><ele>0.0</ele></rtept>
    <rtept lat="52.401449" lon="4.645325"><ele>0.0</ele></rtept>
    <rtept lat="52.401477" lon="4.645220"><ele>0.0</ele></rtept>
    <rtept lat="52.401489" lon="4.645171"><ele>0.0</ele></rtept>
    <rtept lat="52.401450" lon="4.645067"><ele>0.0</ele></rtept>
    <rtept lat="52.401462" lon="4.644574"><ele>0.0</ele></rtept>
    <rtept lat="52.401567" lon="4.643832"><ele>0.0</ele></rtept>
    <rtept lat="52.401672" lon="4.642891"><ele>0.0</ele></rtept>
    <rtept lat="52.401697" lon="4.642312"><ele>0.0</ele></rtept>
    <rtept lat="52.401986" lon="4.642093"><ele>0.0</ele></rtept>
    <rtept lat="52.402011" lon="4.642074"><ele>0.0</ele></rtept>
    <rtept lat="52.402102" lon="4.642005"><ele>0.0</ele></rtept>
    <rtept lat="52.403000" lon="4.641303"><ele>0.0</ele></rtept>
    <rtept lat="52.403983" lon="4.640546"><ele>0.0</ele></rtept>
    <rtept lat="52.404968" lon="4.639781"><ele>0.0</ele></rtept>
    <rtept lat="52.405086" lon="4.639594"><ele>0.0</ele></rtept>
    <rtept lat="52.405163" lon="4.639471"><ele>0.0</ele></rtept>
    <rtept lat="52.405456" lon="4.638998"><ele>0.0</ele></rtept>
    <rtept lat="52.405523" lon="4.638890"><ele>0.0</ele></rtept>
    <rtept lat="52.405765" lon="4.638462"><ele>0.0</ele></rtept>
    <rtept lat="52.406182" lon="4.637220"><ele>0.0</ele></rtept>
    <rtept lat="52.406250" lon="4.636990"><ele>0.0</ele></rtept>
    <rtept lat="52.406489" lon="4.635644"><ele>0.0</ele></rtept>
    <rtept lat="52.406502" lon="4.635568"><ele>0.0</ele></rtept>
    <rtept lat="52.406598" lon="4.635028"><ele>0.0</ele></rtept>
    <rtept lat="52.406656" lon="4.634979"><ele>0.0</ele></rtept>
    <rtept lat="52.406760" lon="4.634596"><ele>0.0</ele></rtept>
    <rtept lat="52.406872" lon="4.634016"><ele>0.0</ele></rtept>
    <rtept lat="52.406863" lon="4.633867"><ele>0.0</ele></rtept>
    <rtept lat="52.406896" lon="4.633676"><ele>0.0</ele></rtept>
    <rtept lat="52.406905" lon="4.633557"><ele>0.0</ele></rtept>
    <rtept lat="52.407289" lon="4.633844"><ele>0.0</ele></rtept>
    <rtept lat="52.408239" lon="4.634339"><ele>0.0</ele></rtept>
    <rtept lat="52.409974" lon="4.635246"><ele>0.0</ele></rtept>
    <rtept lat="52.410400" lon="4.635505"><ele>0.0</ele></rtept>
    <rtept lat="52.410756" lon="4.635754"><ele>0.0</ele></rtept>
    <rtept lat="52.410827" lon="4.635779"><ele>0.0</ele></rtept>
    <rtept lat="52.410904" lon="4.635843"><ele>0.0</ele></rtept>
    <rtept lat="52.414182" lon="4.638670"><ele>0.0</ele></rtept>
    <rtept lat="52.414266" lon="4.638705"><ele>0.0</ele></rtept>
    <rtept lat="52.414498" lon="4.638687"><ele>0.0</ele></rtept>
    <rtept lat="52.414753" lon="4.638607"><ele>0.0</ele></rtept>
    <rtept lat="52.414738" lon="4.638444"><ele>0.0</ele></rtept>
    <rtept lat="52.414758" lon="4.638263"><ele>0.0</ele></rtept>
    <rtept lat="52.415593" lon="4.635931"><ele>0.0</ele></rtept>
    <rtept lat="52.415769" lon="4.635526"><ele>0.0</ele></rtept>
    <rtept lat="52.416845" lon="4.632666"><ele>0.0</ele></rtept>
    <rtept lat="52.416909" lon="4.632601"><ele>0.0</ele></rtept>
    <rtept lat="52.416922" lon="4.632508"><ele>0.0</ele></rtept>
    <rtept lat="52.416985" lon="4.632397"><ele>0.0</ele></rtept>
    <rtept lat="52.417136" lon="4.632001"><ele>0.0</ele></rtept>
    <rtept lat="52.417151" lon="4.631961"><ele>0.0</ele></rtept>
    <rtept lat="52.417195" lon="4.631955"><ele>0.0</ele></rtept>
    <rtept lat="52.417426" lon="4.632089"><ele>0.0</ele></rtept>
    <rtept lat="52.417519" lon="4.632099"><ele>0.0</ele></rtept>
    <rtept lat="52.417926" lon="4.632022"><ele>0.0</ele></rtept>
    <rtept lat="52.418389" lon="4.631938"><ele>0.0</ele></rtept>
    <rtept lat="52.418569" lon="4.631880"><ele>0.0</ele></rtept>
    <rtept lat="52.418662" lon="4.631804"><ele>0.0</ele></rtept>
    <rtept lat="52.418726" lon="4.631764"><ele>0.0</ele></rtept>
    <rtept lat="52.418709" lon="4.631323"><ele>0.0</ele></rtept>
    <rtept lat="52.418690" lon="4.631054"><ele>0.0</ele></rtept>
    <rtept lat="52.418728" lon="4.631018"><ele>0.0</ele></rtept>
    <rtept lat="52.418771" lon="4.630987"><ele>0.0</ele></rtept>
    <rtept lat="52.418997" lon="4.630941"><ele>0.0</ele></rtept>
    <rtept lat="52.419090" lon="4.630924"><ele>0.0</ele></rtept>
    <rtept lat="52.419172" lon="4.630845"><ele>0.0</ele></rtept>
    <rtept lat="52.419241" lon="4.630804"><ele>0.0</ele></rtept>
    <rtept lat="52.419297" lon="4.630739"><ele>0.0</ele></rtept>
    <rtept lat="52.419414" lon="4.630510"><ele>0.0</ele></rtept>
    <rtept lat="52.419497" lon="4.630365"><ele>0.0</ele></rtept>
    <rtept lat="52.419543" lon="4.630331"><ele>0.0</ele></rtept>
    <rtept lat="52.419536" lon="4.630198"><ele>0.0</ele></rtept>
    <rtept lat="52.419554" lon="4.630077"><ele>0.0</ele></rtept>
    <rtept lat="52.419572" lon="4.629963"><ele>0.0</ele></rtept>
    <rtept lat="52.419721" lon="4.629373"><ele>0.0</ele></rtept>
    <rtept lat="52.420076" lon="4.628352"><ele>0.0</ele></rtept>
    <rtept lat="52.420143" lon="4.628042"><ele>0.0</ele></rtept>
    <rtept lat="52.420230" lon="4.627079"><ele>0.0</ele></rtept>
    <rtept lat="52.420327" lon="4.626637"><ele>0.0</ele></rtept>
    <rtept lat="52.420510" lon="4.626140"><ele>0.0</ele></rtept>
    <rtept lat="52.420765" lon="4.625725"><ele>0.0</ele></rtept>
    <rtept lat="52.420937" lon="4.625464"><ele>0.0</ele></rtept>
    <rtept lat="52.421027" lon="4.625257"><ele>0.0</ele></rtept>
    <rtept lat="52.421559" lon="4.624663"><ele>0.0</ele></rtept>
    <rtept lat="52.421680" lon="4.624524"><ele>0.0</ele></rtept>
    <rtept lat="52.421725" lon="4.624400"><ele>0.0</ele></rtept>
    <rtept lat="52.421863" lon="4.624476"><ele>0.0</ele></rtept>
    <rtept lat="52.421984" lon="4.624494"><ele>0.0</ele></rtept>
    <rtept lat="52.422047" lon="4.624466"><ele>0.0</ele></rtept>
    <rtept lat="52.422094" lon="4.624481"><ele>0.0</ele></rtept>
    <rtept lat="52.422751" lon="4.624883"><ele>0.0</ele></rtept>
    <rtept lat="52.423168" lon="4.625120"><ele>0.0</ele></rtept>
    <rtept lat="52.423504" lon="4.625271"><ele>0.0</ele></rtept>
    <rtept lat="52.423592" lon="4.625313"><ele>0.0</ele></rtept>
    <rtept lat="52.423699" lon="4.624969"><ele>0.0</ele></rtept>
    <rtept lat="52.424507" lon="4.622975"><ele>0.0</ele></rtept>
    <rtept lat="52.424789" lon="4.622276"><ele>0.0</ele></rtept>
    <rtept lat="52.425080" lon="4.621610"><ele>0.0</ele></rtept>
    <rtept lat="52.425128" lon="4.621567"><ele>0.0</ele></rtept>
    <rtept lat="52.425157" lon="4.621530"><ele>0.0</ele></rtept>
    <rtept lat="52.425287" lon="4.621381"><ele>0.0</ele></rtept>
    <rtept lat="52.425755" lon="4.620345"><ele>0.0</ele></rtept>
    <rtept lat="52.425869" lon="4.620224"><ele>0.0</ele></rtept>
    <rtept lat="52.426000" lon="4.620167"><ele>0.0</ele></rtept>
    <rtept lat="52.426129" lon="4.620175"><ele>0.0</ele></rtept>
    <rtept lat="52.426254" lon="4.620246"><ele>0.0</ele></rtept>
    <rtept lat="52.426520" lon="4.620535"><ele>0.0</ele></rtept>
    <rtept lat="52.426696" lon="4.620691"><ele>0.0</ele></rtept>
    <rtept lat="52.426783" lon="4.620752"><ele>0.0</ele></rtept>
    <rtept lat="52.427003" lon="4.620941"><ele>0.0</ele></rtept>
    <rtept lat="52.427117" lon="4.621067"><ele>0.0</ele></rtept>
    <rtept lat="52.427533" lon="4.621635"><ele>0.0</ele></rtept>
    <rtept lat="52.427754" lon="4.621974"><ele>0.0</ele></rtept>
    <rtept lat="52.428381" lon="4.623206"><ele>0.0</ele></rtept>
    <rtept lat="52.428562" lon="4.623588"><ele>0.0</ele></rtept>
    <rtept lat="52.428677" lon="4.624048"><ele>0.0</ele></rtept>
    <rtept lat="52.428790" lon="4.624810"><ele>0.0</ele></rtept>
    <rtept lat="52.428923" lon="4.625491"><ele>0.0</ele></rtept>
    <rtept lat="52.428979" lon="4.625673"><ele>0.0</ele></rtept>
    <rtept lat="52.429082" lon="4.625603"><ele>0.0</ele></rtept>
    <rtept lat="52.429214" lon="4.625576"><ele>0.0</ele></rtept>
    <rtept lat="52.429322" lon="4.625591"><ele>0.0</ele></rtept>
    <rtept lat="52.429467" lon="4.625653"><ele>0.0</ele></rtept>
    <rtept lat="52.429602" lon="4.625754"><ele>0.0</ele></rtept>
    <rtept lat="52.430010" lon="4.626167"><ele>0.0</ele></rtept>
    <rtept lat="52.430340" lon="4.626461"><ele>0.0</ele></rtept>
    <rtept lat="52.430849" lon="4.626681"><ele>0.0</ele></rtept>
    <rtept lat="52.431019" lon="4.626814"><ele>0.0</ele></rtept>
    <rtept lat="52.431043" lon="4.626639"><ele>0.0</ele></rtept>
    <rtept lat="52.431047" lon="4.626463"><ele>0.0</ele></rtept>
    <rtept lat="52.431007" lon="4.626155"><ele>0.0</ele></rtept>
    <rtept lat="52.430593" lon="4.624189"><ele>0.0</ele></rtept>
    <rtept lat="52.430614" lon="4.624108"><ele>0.0</ele></rtept>
    <rtept lat="52.431236" lon="4.623718"><ele>0.0</ele></rtept>
    <rtept lat="52.431328" lon="4.623699"><ele>0.0</ele></rtept>
    <rtept lat="52.431436" lon="4.623644"><ele>0.0</ele></rtept>
    <rtept lat="52.431476" lon="4.623579"><ele>0.0</ele></rtept>
    <rtept lat="52.431470" lon="4.623426"><ele>0.0</ele></rtept>
    <rtept lat="52.431429" lon="4.622700"><ele>0.0</ele></rtept>
    <rtept lat="52.431322" lon="4.621029"><ele>0.0</ele></rtept>
    <rtept lat="52.431330" lon="4.620802"><ele>0.0</ele></rtept>
    <rtept lat="52.431511" lon="4.620078"><ele>0.0</ele></rtept>
    <rtept lat="52.431565" lon="4.619939"><ele>0.0</ele></rtept>
    <rtept lat="52.431761" lon="4.619619"><ele>0.0</ele></rtept>
    <rtept lat="52.432263" lon="4.619032"><ele>0.0</ele></rtept>
    <rtept lat="52.432478" lon="4.618930"><ele>0.0</ele></rtept>
    <rtept lat="52.432622" lon="4.618834"><ele>0.0</ele></rtept>
    <rtept lat="52.432753" lon="4.618626"><ele>0.0</ele></rtept>
    <rtept lat="52.432947" lon="4.618116"><ele>0.0</ele></rtept>
    <rtept lat="52.433245" lon="4.617550"><ele>0.0</ele></rtept>
    <rtept lat="52.433302" lon="4.617389"><ele>0.0</ele></rtept>
    <rtept lat="52.433331" lon="4.617246"><ele>0.0</ele></rtept>
    <rtept lat="52.433381" lon="4.616877"><ele>0.0</ele></rtept>
    <rtept lat="52.433451" lon="4.616563"><ele>0.0</ele></rtept>
    <rtept lat="52.433518" lon="4.616023"><ele>0.0</ele></rtept>
    <rtept lat="52.433516" lon="4.615840"><ele>0.0</ele></rtept>
    <rtept lat="52.433433" lon="4.614829"><ele>0.0</ele></rtept>
    <rtept lat="52.433416" lon="4.614608"><ele>0.0</ele></rtept>
    <rtept lat="52.433420" lon="4.614296"><ele>0.0</ele></rtept>
    <rtept lat="52.433471" lon="4.613739"><ele>0.0</ele></rtept>
    <rtept lat="52.433682" lon="4.612362"><ele>0.0</ele></rtept>
    <rtept lat="52.433740" lon="4.612067"><ele>0.0</ele></rtept>
    <rtept lat="52.433848" lon="4.611522"><ele>0.0</ele></rtept>
    <rtept lat="52.433885" lon="4.611184"><ele>0.0</ele></rtept>
    <rtept lat="52.433895" lon="4.610671"><ele>0.0</ele></rtept>
    <rtept lat="52.433752" lon="4.608515"><ele>0.0</ele></rtept>
    <rtept lat="52.433709" lon="4.607964"><ele>0.0</ele></rtept>
    <rtept lat="52.433662" lon="4.607657"><ele>0.0</ele></rtept>
    <rtept lat="52.433531" lon="4.607057"><ele>0.0</ele></rtept>
    <rtept lat="52.433393" lon="4.606561"><ele>0.0</ele></rtept>
    <rtept lat="52.433219" lon="4.606246"><ele>0.0</ele></rtept>
    <rtept lat="52.433031" lon="4.606034"><ele>0.0</ele></rtept>
    <rtept lat="52.432024" lon="4.605618"><ele>0.0</ele></rtept>
    <rtept lat="52.431899" lon="4.605501"><ele>0.0</ele></rtept>
    <rtept lat="52.431790" lon="4.605244"><ele>0.0</ele></rtept>
    <rtept lat="52.431633" lon="4.604718"><ele>0.0</ele></rtept>
    <rtept lat="52.431551" lon="4.604243"><ele>0.0</ele></rtept>
    <rtept lat="52.431507" lon="4.603839"><ele>0.0</ele></rtept>
    <rtept lat="52.431215" lon="4.602580"><ele>0.0</ele></rtept>
    <rtept lat="52.431071" lon="4.602077"><ele>0.0</ele></rtept>
    <rtept lat="52.431059" lon="4.601981"><ele>0.0</ele></rtept>
    <rtept lat="52.431054" lon="4.601885"><ele>0.0</ele></rtept>
    <rtept lat="52.431082" lon="4.601707"><ele>0.0</ele></rtept>
    <rtept lat="52.431373" lon="4.600918"><ele>0.0</ele></rtept>
    <rtept lat="52.431393" lon="4.600664"><ele>0.0</ele></rtept>
    <rtept lat="52.431374" lon="4.600478"><ele>0.0</ele></rtept>
    <rtept lat="52.431346" lon="4.600354"><ele>0.0</ele></rtept>
    <rtept lat="52.431046" lon="4.599718"><ele>0.0</ele></rtept>
    <rtept lat="52.431038" lon="4.599600"><ele>0.0</ele></rtept>
    <rtept lat="52.431129" lon="4.599217"><ele>0.0</ele></rtept>
    <rtept lat="52.431128" lon="4.599106"><ele>0.0</ele></rtept>
    <rtept lat="52.431066" lon="4.598665"><ele>0.0</ele></rtept>
    <rtept lat="52.431064" lon="4.598455"><ele>0.0</ele></rtept>
    <rtept lat="52.431139" lon="4.597957"><ele>0.0</ele></rtept>
    <rtept lat="52.431142" lon="4.597886"><ele>0.0</ele></rtept>
    <rtept lat="52.431116" lon="4.597741"><ele>0.0</ele></rtept>
    <rtept lat="52.431085" lon="4.597581"><ele>0.0</ele></rtept>
    <rtept lat="52.431092" lon="4.597528"><ele>0.0</ele></rtept>
    <rtept lat="52.431440" lon="4.597128"><ele>0.0</ele></rtept>
    <rtept lat="52.431611" lon="4.597003"><ele>0.0</ele></rtept>
    <rtept lat="52.431719" lon="4.596952"><ele>0.0</ele></rtept>
    <rtept lat="52.432509" lon="4.596622"><ele>0.0</ele></rtept>
    <rtept lat="52.432619" lon="4.596538"><ele>0.0</ele></rtept>
    <rtept lat="52.432740" lon="4.596325"><ele>0.0</ele></rtept>
    <rtept lat="52.432773" lon="4.596163"><ele>0.0</ele></rtept>
    <rtept lat="52.432827" lon="4.595637"><ele>0.0</ele></rtept>
    <rtept lat="52.432912" lon="4.595073"><ele>0.0</ele></rtept>
    <rtept lat="52.432944" lon="4.594322"><ele>0.0</ele></rtept>
    <rtept lat="52.433011" lon="4.594011"><ele>0.0</ele></rtept>
    <rtept lat="52.433161" lon="4.593464"><ele>0.0</ele></rtept>
    <rtept lat="52.433209" lon="4.592959"><ele>0.0</ele></rtept>
    <rtept lat="52.433225" lon="4.592428"><ele>0.0</ele></rtept>
    <rtept lat="52.433206" lon="4.591883"><ele>0.0</ele></rtept>
    <rtept lat="52.433151" lon="4.591575"><ele>0.0</ele></rtept>
    <rtept lat="52.433026" lon="4.591295"><ele>0.0</ele></rtept>
    <rtept lat="52.432803" lon="4.590998"><ele>0.0</ele></rtept>
    <rtept lat="52.432444" lon="4.590575"><ele>0.0</ele></rtept>
    <rtept lat="52.432221" lon="4.590231"><ele>0.0</ele></rtept>
    <rtept lat="52.431978" lon="4.589812"><ele>0.0</ele></rtept>
    <rtept lat="52.431928" lon="4.589608"><ele>0.0</ele></rtept>
    <rtept lat="52.431565" lon="4.589955"><ele>0.0</ele></rtept>
    <rtept lat="52.431375" lon="4.590020"><ele>0.0</ele></rtept>
    <rtept lat="52.431199" lon="4.590027"><ele>0.0</ele></rtept>
    <rtept lat="52.430970" lon="4.589930"><ele>0.0</ele></rtept>
    <rtept lat="52.430815" lon="4.589791"><ele>0.0</ele></rtept>
    <rtept lat="52.430792" lon="4.589533"><ele>0.0</ele></rtept>
    <rtept lat="52.430717" lon="4.589265"><ele>0.0</ele></rtept>
    <rtept lat="52.430609" lon="4.589094"><ele>0.0</ele></rtept>
    <rtept lat="52.430387" lon="4.588900"><ele>0.0</ele></rtept>
    <rtept lat="52.430243" lon="4.588841"><ele>0.0</ele></rtept>
    <rtept lat="52.430038" lon="4.588802"><ele>0.0</ele></rtept>
    <rtept lat="52.429697" lon="4.588859"><ele>0.0</ele></rtept>
    <rtept lat="52.428187" lon="4.589132"><ele>0.0</ele></rtept>
    <rtept lat="52.427958" lon="4.589311"><ele>0.0</ele></rtept>
    <rtept lat="52.426790" lon="4.589518"><ele>0.0</ele></rtept>
    <rtept lat="52.426429" lon="4.589449"><ele>0.0</ele></rtept>
    <rtept lat="52.424037" lon="4.589880"><ele>0.0</ele></rtept>
    <rtept lat="52.423992" lon="4.590180"><ele>0.0</ele></rtept>
    <rtept lat="52.423833" lon="4.590672"><ele>0.0</ele></rtept>
    <rtept lat="52.423461" lon="4.591605"><ele>0.0</ele></rtept>
    <rtept lat="52.423416" lon="4.591857"><ele>0.0</ele></rtept>
    <rtept lat="52.423411" lon="4.592185"><ele>0.0</ele></rtept>
    <rtept lat="52.423442" lon="4.592474"><ele>0.0</ele></rtept>
    <rtept lat="52.423373" lon="4.592852"><ele>0.0</ele></rtept>
    <rtept lat="52.423193" lon="4.593459"><ele>0.0</ele></rtept>
    <rtept lat="52.423107" lon="4.593678"><ele>0.0</ele></rtept>
    <rtept lat="52.422967" lon="4.593959"><ele>0.0</ele></rtept>
    <rtept lat="52.422781" lon="4.594433"><ele>0.0</ele></rtept>
    <rtept lat="52.422661" lon="4.594940"><ele>0.0</ele></rtept>
    <rtept lat="52.422134" lon="4.595814"><ele>0.0</ele></rtept>
    <rtept lat="52.421719" lon="4.596872"><ele>0.0</ele></rtept>
    <rtept lat="52.421636" lon="4.597381"><ele>0.0</ele></rtept>
    <rtept lat="52.421620" lon="4.598129"><ele>0.0</ele></rtept>
    <rtept lat="52.421469" lon="4.599109"><ele>0.0</ele></rtept>
    <rtept lat="52.421336" lon="4.600677"><ele>0.0</ele></rtept>
    <rtept lat="52.421360" lon="4.601585"><ele>0.0</ele></rtept>
    <rtept lat="52.421770" lon="4.603098"><ele>0.0</ele></rtept>
    <rtept lat="52.421937" lon="4.604195"><ele>0.0</ele></rtept>
    <rtept lat="52.422010" lon="4.605386"><ele>0.0</ele></rtept>
    <rtept lat="52.421997" lon="4.605783"><ele>0.0</ele></rtept>
    <rtept lat="52.421905" lon="4.606273"><ele>0.0</ele></rtept>
    <rtept lat="52.421754" lon="4.606776"><ele>0.0</ele></rtept>
    <rtept lat="52.421581" lon="4.607194"><ele>0.0</ele></rtept>
    <rtept lat="52.421449" lon="4.607673"><ele>0.0</ele></rtept>
    <rtept lat="52.421297" lon="4.607971"><ele>0.0</ele></rtept>
    <rtept lat="52.421154" lon="4.608178"><ele>0.0</ele></rtept>
    <rtept lat="52.420979" lon="4.608354"><ele>0.0</ele></rtept>
    <rtept lat="52.420734" lon="4.608455"><ele>0.0</ele></rtept>
    <rtept lat="52.420646" lon="4.608514"><ele>0.0</ele></rtept>
    <rtept lat="52.420038" lon="4.608621"><ele>0.0</ele></rtept>
    <rtept lat="52.419748" lon="4.608731"><ele>0.0</ele></rtept>
    <rtept lat="52.419461" lon="4.608934"><ele>0.0</ele></rtept>
    <rtept lat="52.419239" lon="4.609139"><ele>0.0</ele></rtept>
    <rtept lat="52.419065" lon="4.609427"><ele>0.0</ele></rtept>
    <rtept lat="52.418952" lon="4.609679"><ele>0.0</ele></rtept>
    <rtept lat="52.418810" lon="4.609744"><ele>0.0</ele></rtept>
    <rtept lat="52.418701" lon="4.609722"><ele>0.0</ele></rtept>
    <rtept lat="52.418559" lon="4.609638"><ele>0.0</ele></rtept>
    <rtept lat="52.418282" lon="4.609286"><ele>0.0</ele></rtept>
    <rtept lat="52.418214" lon="4.609251"><ele>0.0</ele></rtept>
    <rtept lat="52.418139" lon="4.609229"><ele>0.0</ele></rtept>
    <rtept lat="52.418069" lon="4.609241"><ele>0.0</ele></rtept>
    <rtept lat="52.417845" lon="4.609406"><ele>0.0</ele></rtept>
    <rtept lat="52.417710" lon="4.609598"><ele>0.0</ele></rtept>
    <rtept lat="52.417651" lon="4.609991"><ele>0.0</ele></rtept>
    <rtept lat="52.417659" lon="4.610115"><ele>0.0</ele></rtept>
    <rtept lat="52.417753" lon="4.611750"><ele>0.0</ele></rtept>
    <rtept lat="52.417823" lon="4.612076"><ele>0.0</ele></rtept>
    <rtept lat="52.418116" lon="4.612984"><ele>0.0</ele></rtept>
    <rtept lat="52.418185" lon="4.613268"><ele>0.0</ele></rtept>
    <rtept lat="52.418195" lon="4.613553"><ele>0.0</ele></rtept>
    <rtept lat="52.418129" lon="4.613826"><ele>0.0</ele></rtept>
    <rtept lat="52.418008" lon="4.614105"><ele>0.0</ele></rtept>
    <rtept lat="52.417792" lon="4.614438"><ele>0.0</ele></rtept>
    <rtept lat="52.417639" lon="4.614931"><ele>0.0</ele></rtept>
    <rtept lat="52.417527" lon="4.615068"><ele>0.0</ele></rtept>
    <rtept lat="52.417324" lon="4.615145"><ele>0.0</ele></rtept>
    <rtept lat="52.416933" lon="4.615156"><ele>0.0</ele></rtept>
    <rtept lat="52.416817" lon="4.615204"><ele>0.0</ele></rtept>
    <rtept lat="52.416471" lon="4.615283"><ele>0.0</ele></rtept>
    <rtept lat="52.416568" lon="4.615393"><ele>0.0</ele></rtept>
    <rtept lat="52.416779" lon="4.615524"><ele>0.0</ele></rtept>
    <rtept lat="52.416857" lon="4.615549"><ele>0.0</ele></rtept>
    <rtept lat="52.416842" lon="4.615574"><ele>0.0</ele></rtept>
    <rtept lat="52.416725" lon="4.615879"><ele>0.0</ele></rtept>
    <rtept lat="52.416055" lon="4.616872"><ele>0.0</ele></rtept>
    <rtept lat="52.415384" lon="4.617825"><ele>0.0</ele></rtept>
    <rtept lat="52.415341" lon="4.617785"><ele>0.0</ele></rtept>
    <rtept lat="52.415173" lon="4.617647"><ele>0.0</ele></rtept>
    <rtept lat="52.414699" lon="4.617181"><ele>0.0</ele></rtept>
    <rtept lat="52.414212" lon="4.616799"><ele>0.0</ele></rtept>
    <rtept lat="52.413969" lon="4.616660"><ele>0.0</ele></rtept>
    <rtept lat="52.413567" lon="4.616510"><ele>0.0</ele></rtept>
    <rtept lat="52.412731" lon="4.616220"><ele>0.0</ele></rtept>
    <rtept lat="52.412604" lon="4.616116"><ele>0.0</ele></rtept>
    <rtept lat="52.412099" lon="4.615612"><ele>0.0</ele></rtept>
    <rtept lat="52.411928" lon="4.615516"><ele>0.0</ele></rtept>
    <rtept lat="52.411820" lon="4.615488"><ele>0.0</ele></rtept>
    <rtept lat="52.411271" lon="4.615434"><ele>0.0</ele></rtept>
    <rtept lat="52.410908" lon="4.615502"><ele>0.0</ele></rtept>
    <rtept lat="52.410520" lon="4.615630"><ele>0.0</ele></rtept>
    <rtept lat="52.410411" lon="4.615644"><ele>0.0</ele></rtept>
    <rtept lat="52.410255" lon="4.615629"><ele>0.0</ele></rtept>
    <rtept lat="52.410144" lon="4.615576"><ele>0.0</ele></rtept>
    <rtept lat="52.409929" lon="4.615426"><ele>0.0</ele></rtept>
    <rtept lat="52.409890" lon="4.615399"><ele>0.0</ele></rtept>
    <rtept lat="52.409629" lon="4.615203"><ele>0.0</ele></rtept>
    <rtept lat="52.409154" lon="4.614813"><ele>0.0</ele></rtept>
    <rtept lat="52.408277" lon="4.614239"><ele>0.0</ele></rtept>
    <rtept lat="52.407971" lon="4.613990"><ele>0.0</ele></rtept>
    <rtept lat="52.407917" lon="4.613873"><ele>0.0</ele></rtept>
    <rtept lat="52.407860" lon="4.613845"><ele>0.0</ele></rtept>
    <rtept lat="52.407802" lon="4.613866"><ele>0.0</ele></rtept>
    <rtept lat="52.407757" lon="4.613836"><ele>0.0</ele></rtept>
    <rtept lat="52.407592" lon="4.613749"><ele>0.0</ele></rtept>
    <rtept lat="52.407415" lon="4.613615"><ele>0.0</ele></rtept>
    <rtept lat="52.406792" lon="4.613179"><ele>0.0</ele></rtept>
    <rtept lat="52.406743" lon="4.613101"><ele>0.0</ele></rtept>
    <rtept lat="52.406500" lon="4.612947"><ele>0.0</ele></rtept>
    <rtept lat="52.406432" lon="4.612949"><ele>0.0</ele></rtept>
    <rtept lat="52.406226" lon="4.612880"><ele>0.0</ele></rtept>
    <rtept lat="52.405942" lon="4.612869"><ele>0.0</ele></rtept>
    <rtept lat="52.405654" lon="4.612935"><ele>0.0</ele></rtept>
    <rtept lat="52.405570" lon="4.612978"><ele>0.0</ele></rtept>
    <rtept lat="52.405478" lon="4.613063"><ele>0.0</ele></rtept>
    <rtept lat="52.405217" lon="4.613266"><ele>0.0</ele></rtept>
    <rtept lat="52.405079" lon="4.613339"><ele>0.0</ele></rtept>
    <rtept lat="52.404873" lon="4.613391"><ele>0.0</ele></rtept>
    <rtept lat="52.404756" lon="4.613464"><ele>0.0</ele></rtept>
    <rtept lat="52.403790" lon="4.614421"><ele>0.0</ele></rtept>
    <rtept lat="52.403649" lon="4.614573"><ele>0.0</ele></rtept>
    <rtept lat="52.403416" lon="4.614782"><ele>0.0</ele></rtept>
    <rtept lat="52.403381" lon="4.614848"><ele>0.0</ele></rtept>
    <rtept lat="52.403303" lon="4.615022"><ele>0.0</ele></rtept>
    <rtept lat="52.403191" lon="4.615125"><ele>0.0</ele></rtept>
    <rtept lat="52.403029" lon="4.615272"><ele>0.0</ele></rtept>
    <rtept lat="52.402575" lon="4.615740"><ele>0.0</ele></rtept>
    <rtept lat="52.402468" lon="4.615893"><ele>0.0</ele></rtept>
    <rtept lat="52.402409" lon="4.616043"><ele>0.0</ele></rtept>
    <rtept lat="52.402383" lon="4.616192"><ele>0.0</ele></rtept>
    <rtept lat="52.402367" lon="4.616460"><ele>0.0</ele></rtept>
    <rtept lat="52.402330" lon="4.616853"><ele>0.0</ele></rtept>
    <rtept lat="52.402290" lon="4.617016"><ele>0.0</ele></rtept>
    <rtept lat="52.402222" lon="4.617166"><ele>0.0</ele></rtept>
    <rtept lat="52.402152" lon="4.617217"><ele>0.0</ele></rtept>
    <rtept lat="52.402099" lon="4.617218"><ele>0.0</ele></rtept>
    <rtept lat="52.402051" lon="4.617209"><ele>0.0</ele></rtept>
    <rtept lat="52.401852" lon="4.616952"><ele>0.0</ele></rtept>
    <rtept lat="52.401462" lon="4.616568"><ele>0.0</ele></rtept>
    <rtept lat="52.401408" lon="4.616576"><ele>0.0</ele></rtept>
    <rtept lat="52.401311" lon="4.616642"><ele>0.0</ele></rtept>
    <rtept lat="52.401274" lon="4.616801"><ele>0.0</ele></rtept>
    <rtept lat="52.401258" lon="4.616989"><ele>0.0</ele></rtept>
    <rtept lat="52.401246" lon="4.617028"><ele>0.0</ele></rtept>
    <rtept lat="52.401158" lon="4.617392"><ele>0.0</ele></rtept>
    <rtept lat="52.400491" lon="4.617022"><ele>0.0</ele></rtept>
    <rtept lat="52.400401" lon="4.616948"><ele>0.0</ele></rtept>
    <rtept lat="52.400256" lon="4.616644"><ele>0.0</ele></rtept>
    <rtept lat="52.400170" lon="4.616530"><ele>0.0</ele></rtept>
    <rtept lat="52.400014" lon="4.616453"><ele>0.0</ele></rtept>
    <rtept lat="52.399953" lon="4.616386"><ele>0.0</ele></rtept>
    <rtept lat="52.399874" lon="4.616439"><ele>0.0</ele></rtept>
    <rtept lat="52.399777" lon="4.616548"><ele>0.0</ele></rtept>
    <rtept lat="52.399563" lon="4.616910"><ele>0.0</ele></rtept>
    <rtept lat="52.399492" lon="4.616969"><ele>0.0</ele></rtept>
    <rtept lat="52.399459" lon="4.617095"><ele>0.0</ele></rtept>
    <rtept lat="52.399453" lon="4.617200"><ele>0.0</ele></rtept>
    <rtept lat="52.399445" lon="4.617268"><ele>0.0</ele></rtept>
    <rtept lat="52.399249" lon="4.617903"><ele>0.0</ele></rtept>
    <rtept lat="52.399122" lon="4.618223"><ele>0.0</ele></rtept>
    <rtept lat="52.399031" lon="4.618505"><ele>0.0</ele></rtept>
    <rtept lat="52.398947" lon="4.618857"><ele>0.0</ele></rtept>
    <rtept lat="52.398369" lon="4.621204"><ele>0.0</ele></rtept>
    <rtept lat="52.398336" lon="4.621350"><ele>0.0</ele></rtept>
    <rtept lat="52.397943" lon="4.622984"><ele>0.0</ele></rtept>
    <rtept lat="52.397810" lon="4.623545"><ele>0.0</ele></rtept>
    <rtept lat="52.397757" lon="4.623781"><ele>0.0</ele></rtept>
    <rtept lat="52.397596" lon="4.624507"><ele>0.0</ele></rtept>
    <rtept lat="52.397552" lon="4.624951"><ele>0.0</ele></rtept>
    <rtept lat="52.397516" lon="4.625304"><ele>0.0</ele></rtept>
    <rtept lat="52.397486" lon="4.625595"><ele>0.0</ele></rtept>
    <rtept lat="52.397413" lon="4.625844"><ele>0.0</ele></rtept>
    <rtept lat="52.397128" lon="4.626526"><ele>0.0</ele></rtept>
    <rtept lat="52.397036" lon="4.626753"><ele>0.0</ele></rtept>
    <rtept lat="52.397014" lon="4.626810"><ele>0.0</ele></rtept>
    <rtept lat="52.396987" lon="4.626878"><ele>0.0</ele></rtept>
    <rtept lat="52.396811" lon="4.627026"><ele>0.0</ele></rtept>
    <rtept lat="52.396785" lon="4.627178"><ele>0.0</ele></rtept>
    <rtept lat="52.396793" lon="4.627321"><ele>0.0</ele></rtept>
    <rtept lat="52.396889" lon="4.627558"><ele>0.0</ele></rtept>
    <rtept lat="52.396881" lon="4.627719"><ele>0.0</ele></rtept>
    <rtept lat="52.396659" lon="4.628688"><ele>0.0</ele></rtept>
    <rtept lat="52.396632" lon="4.628852"><ele>0.0</ele></rtept>
    <rtept lat="52.396547" lon="4.629313"><ele>0.0</ele></rtept>
    <rtept lat="52.396570" lon="4.629429"><ele>0.0</ele></rtept>
    <rtept lat="52.396415" lon="4.630079"><ele>0.0</ele></rtept>
    <rtept lat="52.396328" lon="4.630469"><ele>0.0</ele></rtept>
    <rtept lat="52.396168" lon="4.631158"><ele>0.0</ele></rtept>
    <rtept lat="52.395967" lon="4.632005"><ele>0.0</ele></rtept>
    <rtept lat="52.395867" lon="4.632411"><ele>0.0</ele></rtept>
    <rtept lat="52.395706" lon="4.633054"><ele>0.0</ele></rtept>
    <rtept lat="52.395636" lon="4.633234"><ele>0.0</ele></rtept>
    <rtept lat="52.395547" lon="4.633540"><ele>0.0</ele></rtept>
    <rtept lat="52.395526" lon="4.633615"><ele>0.0</ele></rtept>
    <rtept lat="52.395449" lon="4.633922"><ele>0.0</ele></rtept>
    <rtept lat="52.395392" lon="4.634161"><ele>0.0</ele></rtept>
    <rtept lat="52.395335" lon="4.634404"><ele>0.0</ele></rtept>
    <rtept lat="52.395331" lon="4.634720"><ele>0.0</ele></rtept>
    <rtept lat="52.395321" lon="4.634793"><ele>0.0</ele></rtept>
    <rtept lat="52.395273" lon="4.635595"><ele>0.0</ele></rtept>
    <rtept lat="52.395144" lon="4.637003"><ele>0.0</ele></rtept>
    <rtept lat="52.395128" lon="4.637137"><ele>0.0</ele></rtept>
    <rtept lat="52.395066" lon="4.637433"><ele>0.0</ele></rtept>
    <rtept lat="52.394933" lon="4.637672"><ele>0.0</ele></rtept>
    <rtept lat="52.394711" lon="4.638345"><ele>0.0</ele></rtept>
    <rtept lat="52.394683" lon="4.638450"><ele>0.0</ele></rtept>
    <rtept lat="52.394452" lon="4.639324"><ele>0.0</ele></rtept>
    <rtept lat="52.394303" lon="4.639956"><ele>0.0</ele></rtept>
    <rtept lat="52.394168" lon="4.640539"><ele>0.0</ele></rtept>
    <rtept lat="52.394114" lon="4.640586"><ele>0.0</ele></rtept>
    <rtept lat="52.393775" lon="4.640375"><ele>0.0</ele></rtept>
    <rtept lat="52.393443" lon="4.640165"><ele>0.0</ele></rtept>
    <rtept lat="52.393110" lon="4.639957"><ele>0.0</ele></rtept>
    <rtept lat="52.393071" lon="4.639937"><ele>0.0</ele></rtept>
    <rtept lat="52.392903" lon="4.639817"><ele>0.0</ele></rtept>
    <rtept lat="52.392309" lon="4.639346"><ele>0.0</ele></rtept>
    <rtept lat="52.391937" lon="4.639051"><ele>0.0</ele></rtept>
    <rtept lat="52.391523" lon="4.638819"><ele>0.0</ele></rtept>
    <rtept lat="52.391449" lon="4.638870"><ele>0.0</ele></rtept>
    <rtept lat="52.390564" lon="4.639839"><ele>0.0</ele></rtept>
    <rtept lat="52.390178" lon="4.639614"><ele>0.0</ele></rtept>
    <rtept lat="52.390154" lon="4.639713"><ele>0.0</ele></rtept>
    <rtept lat="52.390101" lon="4.639664"><ele>0.0</ele></rtept>
    <rtept lat="52.389970" lon="4.639577"><ele>0.0</ele></rtept>
    <rtept lat="52.389720" lon="4.639410"><ele>0.0</ele></rtept>
    <rtept lat="52.389632" lon="4.639341"><ele>0.0</ele></rtept>
    <rtept lat="52.388842" lon="4.638850"><ele>0.0</ele></rtept>
    <rtept lat="52.388855" lon="4.638694"><ele>0.0</ele></rtept>
    <rtept lat="52.388834" lon="4.638602"><ele>0.0</ele></rtept>
    <rtept lat="52.388770" lon="4.638587"><ele>0.0</ele></rtept>
    <rtept lat="52.388713" lon="4.638572"><ele>0.0</ele></rtept>
    <rtept lat="52.388648" lon="4.638554"><ele>0.0</ele></rtept>
    <rtept lat="52.388612" lon="4.639018"><ele>0.0</ele></rtept>
    <rtept lat="52.388553" lon="4.639596"><ele>0.0</ele></rtept>
    <rtept lat="52.388495" lon="4.640177"><ele>0.0</ele></rtept>
    <rtept lat="52.388479" lon="4.640462"><ele>0.0</ele></rtept>
    <rtept lat="52.388491" lon="4.640640"><ele>0.0</ele></rtept>
    <rtept lat="52.388495" lon="4.640688"><ele>0.0</ele></rtept>
    <rtept lat="52.388508" lon="4.640829"><ele>0.0</ele></rtept>
    <rtept lat="52.388484" lon="4.641156"><ele>0.0</ele></rtept>
    <rtept lat="52.388323" lon="4.642037"><ele>0.0</ele></rtept>
    <rtept lat="52.388187" lon="4.642598"><ele>0.0</ele></rtept>
    <rtept lat="52.387895" lon="4.643534"><ele>0.0</ele></rtept>
    <rtept lat="52.387785" lon="4.643854"><ele>0.0</ele></rtept>
    <rtept lat="52.386944" lon="4.645809"><ele>0.0</ele></rtept>
    <rtept lat="52.386586" lon="4.646374"><ele>0.0</ele></rtept>
    <rtept lat="52.386473" lon="4.646547"><ele>0.0</ele></rtept>
    <rtept lat="52.386459" lon="4.646569"><ele>0.0</ele></rtept>
    <rtept lat="52.386414" lon="4.646624"><ele>0.0</ele></rtept>
    <rtept lat="52.386368" lon="4.646725"><ele>0.0</ele></rtept>
    <rtept lat="52.386322" lon="4.646839"><ele>0.0</ele></rtept>
    <rtept lat="52.386294" lon="4.646908"><ele>0.0</ele></rtept>
    <rtept lat="52.386284" lon="4.646934"><ele>0.0</ele></rtept>
    <rtept lat="52.386260" lon="4.646997"><ele>0.0</ele></rtept>
    <rtept lat="52.385741" lon="4.647658"><ele>0.0</ele></rtept>
    <rtept lat="52.385224" lon="4.648163"><ele>0.0</ele></rtept>
    <rtept lat="52.385120" lon="4.648291"><ele>0.0</ele></rtept>
    <rtept lat="52.384908" lon="4.648580"><ele>0.0</ele></rtept>
    <rtept lat="52.384684" lon="4.648968"><ele>0.0</ele></rtept>
    <rtept lat="52.384654" lon="4.649014"><ele>0.0</ele></rtept>
    <rtept lat="52.384623" lon="4.648978"><ele>0.0</ele></rtept>
    <rtept lat="52.384473" lon="4.648823"><ele>0.0</ele></rtept>
    <rtept lat="52.384156" lon="4.648473"><ele>0.0</ele></rtept>
    <rtept lat="52.383750" lon="4.647968"><ele>0.0</ele></rtept>
    <rtept lat="52.383442" lon="4.647703"><ele>0.0</ele></rtept>
    <rtept lat="52.383049" lon="4.647439"><ele>0.0</ele></rtept>
    <rtept lat="52.382723" lon="4.647272"><ele>0.0</ele></rtept>
    <rtept lat="52.382498" lon="4.647094"><ele>0.0</ele></rtept>
    <rtept lat="52.382420" lon="4.647059"><ele>0.0</ele></rtept>
    <rtept lat="52.382364" lon="4.647251"><ele>0.0</ele></rtept>
    <rtept lat="52.382212" lon="4.647180"><ele>0.0</ele></rtept>
    <rtept lat="52.382183" lon="4.647167"><ele>0.0</ele></rtept>
    <rtept lat="52.381956" lon="4.647068"><ele>0.0</ele></rtept>
    <rtept lat="52.381664" lon="4.646976"><ele>0.0</ele></rtept>
    <rtept lat="52.381449" lon="4.646941"><ele>0.0</ele></rtept>
    <rtept lat="52.380919" lon="4.646925"><ele>0.0</ele></rtept>
    <rtept lat="52.380893" lon="4.647118"><ele>0.0</ele></rtept>
    <rtept lat="52.380885" lon="4.647293"><ele>0.0</ele></rtept>
    <rtept lat="52.380896" lon="4.647385"><ele>0.0</ele></rtept>
    <rtept lat="52.380950" lon="4.648125"><ele>0.0</ele></rtept>
    <rtept lat="52.381061" lon="4.648695"><ele>0.0</ele></rtept>
    <rtept lat="52.381187" lon="4.650522"><ele>0.0</ele></rtept>
    <rtept lat="52.381167" lon="4.650956"><ele>0.0</ele></rtept>
    <rtept lat="52.381215" lon="4.651662"><ele>0.0</ele></rtept>
    <rtept lat="52.381077" lon="4.651687"><ele>0.0</ele></rtept>
    <rtept lat="52.381088" lon="4.651857"><ele>0.0</ele></rtept>
    <rtept lat="52.381094" lon="4.651953"><ele>0.0</ele></rtept>
    <rtept lat="52.381116" lon="4.652258"><ele>0.0</ele></rtept>
    <rtept lat="52.381101" lon="4.652362"><ele>0.0</ele></rtept>
    <rtept lat="52.381150" lon="4.653204"><ele>0.0</ele></rtept>
    <rtept lat="52.381190" lon="4.653990"><ele>0.0</ele></rtept>
    <rtept lat="52.381231" lon="4.654729"><ele>0.0</ele></rtept>
    <rtept lat="52.381310" lon="4.656180"><ele>0.0</ele></rtept>
    <rtept lat="52.380706" lon="4.656253"><ele>0.0</ele></rtept>
    <rtept lat="52.380732" lon="4.656719"><ele>0.0</ele></rtept>
    <rtept lat="52.380781" lon="4.657535"><ele>0.0</ele></rtept>
    <rtept lat="52.380803" lon="4.657858"><ele>0.0</ele></rtept>
    <rtept lat="52.380041" lon="4.657887"><ele>0.0</ele></rtept>
    <rtept lat="52.380029" lon="4.657510"><ele>0.0</ele></rtept>
  </rte>
</gpx>