<?xml version="1.0" encoding="UTF-8"?>
<gpx version="1.1" creator="WeeklyCyclingRoutes"
  xmlns="http://www.topografix.com/GPX/1/1"
  xmlns:xsi="http://www.w3.org/2001/XMLSchema-instance"
  xsi:schemaLocation="http://www.topografix.com/GPX/1/1 http://www.topografix.com/GPX/1/1/gpx.xsd">
  <metadata>
    <name>50km Route – August 31, 2026</name>
    <desc>Round trip from Cremerstraat, Haarlem. Actual: 48.3km</desc>
    <time>2026-08-31T12:25:18Z</time>
  </metadata>
  <rte>
    <name>50km Cycling Route – Haarlem</name>
    <rtept lat="52.380029" lon="4.657510"><ele>0.0</ele></rtept>
    <rtept lat="52.380041" lon="4.657887"><ele>0.0</ele></rtept>
    <rtept lat="52.379804" lon="4.657899"><ele>0.0</ele></rtept>
    <rtept lat="52.379574" lon="4.657888"><ele>0.0</ele></rtept>
    <rtept lat="52.379447" lon="4.659520"><ele>0.0</ele></rtept>
    <rtept lat="52.379026" lon="4.659422"><ele>0.0</ele></rtept>
    <rtept lat="52.378994" lon="4.659805"><ele>0.0</ele></rtept>
    <rtept lat="52.378910" lon="4.659942"><ele>0.0</ele></rtept>
    <rtept lat="52.378862" lon="4.660131"><ele>0.0</ele></rtept>
    <rtept lat="52.378832" lon="4.660186"><ele>0.0</ele></rtept>
    <rtept lat="52.378807" lon="4.660327"><ele>0.0</ele></rtept>
    <rtept lat="52.378788" lon="4.660440"><ele>0.0</ele></rtept>
    <rtept lat="52.378754" lon="4.660632"><ele>0.0</ele></rtept>
    <rtept lat="52.378107" lon="4.660341"><ele>0.0</ele></rtept>
    <rtept lat="52.376591" lon="4.659639"><ele>0.0</ele></rtept>
    <rtept lat="52.376416" lon="4.659550"><ele>0.0</ele></rtept>
    <rtept lat="52.376248" lon="4.659469"><ele>0.0</ele></rtept>
    <rtept lat="52.375939" lon="4.659321"><ele>0.0</ele></rtept>
    <rtept lat="52.375387" lon="4.658920"><ele>0.0</ele></rtept>
    <rtept lat="52.375299" lon="4.658822"><ele>0.0</ele></rtept>
    <rtept lat="52.375264" lon="4.658783"><ele>0.0</ele></rtept>
    <rtept lat="52.375174" lon="4.658688"><ele>0.0</ele></rtept>
    <rtept lat="52.375071" lon="4.658558"><ele>0.0</ele></rtept>
    <rtept lat="52.374903" lon="4.658355"><ele>0.0</ele></rtept>
    <rtept lat="52.374774" lon="4.658199"><ele>0.0</ele></rtept>
    <rtept lat="52.374640" lon="4.658034"><ele>0.0</ele></rtept>
    <rtept lat="52.374391" lon="4.657790"><ele>0.0</ele></rtept>
    <rtept lat="52.374222" lon="4.657609"><ele>0.0</ele></rtept>
    <rtept lat="52.372821" lon="4.656439"><ele>0.0</ele></rtept>
    <rtept lat="52.371743" lon="4.655569"><ele>0.0</ele></rtept>
    <rtept lat="52.371644" lon="4.655494"><ele>0.0</ele></rtept>
    <rtept lat="52.371432" lon="4.655322"><ele>0.0</ele></rtept>
    <rtept lat="52.370928" lon="4.654930"><ele>0.0</ele></rtept>
    <rtept lat="52.370723" lon="4.654874"><ele>0.0</ele></rtept>
    <rtept lat="52.370389" lon="4.654836"><ele>0.0</ele></rtept>
    <rtept lat="52.370283" lon="4.654833"><ele>0.0</ele></rtept>
    <rtept lat="52.370075" lon="4.654826"><ele>0.0</ele></rtept>
    <rtept lat="52.369981" lon="4.654809"><ele>0.0</ele></rtept>
    <rtept lat="52.369938" lon="4.654772"><ele>0.0</ele></rtept>
    <rtept lat="52.369824" lon="4.654648"><ele>0.0</ele></rtept>
    <rtept lat="52.368957" lon="4.654543"><ele>0.0</ele></rtept>
    <rtept lat="52.368663" lon="4.654470"><ele>0.0</ele></rtept>
    <rtept lat="52.368353" lon="4.654479"><ele>0.0</ele></rtept>
    <rtept lat="52.368337" lon="4.654479"><ele>0.0</ele></rtept>
    <rtept lat="52.368020" lon="4.654482"><ele>0.0</ele></rtept>
    <rtept lat="52.367966" lon="4.654499"><ele>0.0</ele></rtept>
    <rtept lat="52.367813" lon="4.654557"><ele>0.0</ele></rtept>
    <rtept lat="52.367800" lon="4.654688"><ele>0.0</ele></rtept>
    <rtept lat="52.367802" lon="4.655012"><ele>0.0</ele></rtept>
    <rtept lat="52.367801" lon="4.656505"><ele>0.0</ele></rtept>
    <rtept lat="52.367811" lon="4.657704"><ele>0.0</ele></rtept>
    <rtept lat="52.367821" lon="4.659432"><ele>0.0</ele></rtept>
    <rtept lat="52.367829" lon="4.660912"><ele>0.0</ele></rtept>
    <rtept lat="52.367827" lon="4.662490"><ele>0.0</ele></rtept>
    <rtept lat="52.367872" lon="4.663787"><ele>0.0</ele></rtept>
    <rtept lat="52.367879" lon="4.664269"><ele>0.0</ele></rtept>
    <rtept lat="52.367889" lon="4.666109"><ele>0.0</ele></rtept>
    <rtept lat="52.367838" lon="4.666112"><ele>0.0</ele></rtept>
    <rtept lat="52.367782" lon="4.666114"><ele>0.0</ele></rtept>
    <rtept lat="52.367674" lon="4.666133"><ele>0.0</ele></rtept>
    <rtept lat="52.367549" lon="4.666157"><ele>0.0</ele></rtept>
    <rtept lat="52.366772" lon="4.666360"><ele>0.0</ele></rtept>
    <rtept lat="52.366728" lon="4.666376"><ele>0.0</ele></rtept>
    <rtept lat="52.366226" lon="4.666499"><ele>0.0</ele></rtept>
    <rtept lat="52.364616" lon="4.666862"><ele>0.0</ele></rtept>
    <rtept lat="52.364555" lon="4.666877"><ele>0.0</ele></rtept>
    <rtept lat="52.364252" lon="4.666958"><ele>0.0</ele></rtept>
    <rtept lat="52.362877" lon="4.667285"><ele>0.0</ele></rtept>
    <rtept lat="52.362158" lon="4.667456"><ele>0.0</ele></rtept>
    <rtept lat="52.362034" lon="4.667495"><ele>0.0</ele></rtept>
    <rtept lat="52.361115" lon="4.667716"><ele>0.0</ele></rtept>
    <rtept lat="52.360741" lon="4.667804"><ele>0.0</ele></rtept>
    <rtept lat="52.360693" lon="4.668029"><ele>0.0</ele></rtept>
    <rtept lat="52.360581" lon="4.668367"><ele>0.0</ele></rtept>
    <rtept lat="52.360467" lon="4.668618"><ele>0.0</ele></rtept>
    <rtept lat="52.360332" lon="4.668884"><ele>0.0</ele></rtept>
    <rtept lat="52.360291" lon="4.668924"><ele>0.0</ele></rtept>
    <rtept lat="52.360156" lon="4.669100"><ele>0.0</ele></rtept>
    <rtept lat="52.359958" lon="4.669296"><ele>0.0</ele></rtept>
    <rtept lat="52.359637" lon="4.669464"><ele>0.0</ele></rtept>
    <rtept lat="52.359469" lon="4.669519"><ele>0.0</ele></rtept>
    <rtept lat="52.359365" lon="4.669522"><ele>0.0</ele></rtept>
    <rtept lat="52.358102" lon="4.669544"><ele>0.0</ele></rtept>
    <rtept lat="52.357541" lon="4.669577"><ele>0.0</ele></rtept>
    <rtept lat="52.356571" lon="4.669792"><ele>0.0</ele></rtept>
    <rtept lat="52.356332" lon="4.669868"><ele>0.0</ele></rtept>
    <rtept lat="52.355799" lon="4.670115"><ele>0.0</ele></rtept>
    <rtept lat="52.355744" lon="4.670136"><ele>0.0</ele></rtept>
    <rtept lat="52.355673" lon="4.670170"><ele>0.0</ele></rtept>
    <rtept lat="52.355736" lon="4.670631"><ele>0.0</ele></rtept>
    <rtept lat="52.355992" lon="4.672205"><ele>0.0</ele></rtept>
    <rtept lat="52.356103" lon="4.673000"><ele>0.0</ele></rtept>
    <rtept lat="52.356060" lon="4.673244"><ele>0.0</ele></rtept>
    <rtept lat="52.355980" lon="4.673417"><ele>0.0</ele></rtept>
    <rtept lat="52.355766" lon="4.673762"><ele>0.0</ele></rtept>
    <rtept lat="52.354878" lon="4.674952"><ele>0.0</ele></rtept>
    <rtept lat="52.354134" lon="4.675928"><ele>0.0</ele></rtept>
    <rtept lat="52.354027" lon="4.676138"><ele>0.0</ele></rtept>
    <rtept lat="52.354006" lon="4.676245"><ele>0.0</ele></rtept>
    <rtept lat="52.353924" lon="4.676809"><ele>0.0</ele></rtept>
    <rtept lat="52.353909" lon="4.676910"><ele>0.0</ele></rtept>
    <rtept lat="52.353525" lon="4.676767"><ele>0.0</ele></rtept>
    <rtept lat="52.352686" lon="4.676218"><ele>0.0</ele></rtept>
    <rtept lat="52.352414" lon="4.676000"><ele>0.0</ele></rtept>
    <rtept lat="52.351765" lon="4.675341"><ele>0.0</ele></rtept>
    <rtept lat="52.351536" lon="4.675076"><ele>0.0</ele></rtept>
    <rtept lat="52.351073" lon="4.674468"><ele>0.0</ele></rtept>
    <rtept lat="52.350937" lon="4.674255"><ele>0.0</ele></rtept>
    <rtept lat="52.350570" lon="4.673550"><ele>0.0</ele></rtept>
    <rtept lat="52.349416" lon="4.670958"><ele>0.0</ele></rtept>
    <rtept lat="52.349319" lon="4.671047"><ele>0.0</ele></rtept>
    <rtept lat="52.348940" lon="4.671303"><ele>0.0</ele></rtept>
    <rtept lat="52.348565" lon="4.671474"><ele>0.0</ele></rtept>
    <rtept lat="52.348137" lon="4.671580"><ele>0.0</ele></rtept>
    <rtept lat="52.347251" lon="4.671674"><ele>0.0</ele></rtept>
    <rtept lat="52.347037" lon="4.671690"><ele>0.0</ele></rtept>
    <rtept lat="52.346890" lon="4.671700"><ele>0.0</ele></rtept>
    <rtept lat="52.346472" lon="4.671729"><ele>0.0</ele></rtept>
    <rtept lat="52.346320" lon="4.671657"><ele>0.0</ele></rtept>
    <rtept lat="52.346288" lon="4.671669"><ele>0.0</ele></rtept>
    <rtept lat="52.346274" lon="4.671698"><ele>0.0</ele></rtept>
    <rtept lat="52.346253" lon="4.671740"><ele>0.0</ele></rtept>
    <rtept lat="52.346236" lon="4.671775"><ele>0.0</ele></rtept>
    <rtept lat="52.346208" lon="4.671801"><ele>0.0</ele></rtept>
    <rtept lat="52.346099" lon="4.671824"><ele>0.0</ele></rtept>
    <rtept lat="52.346064" lon="4.671865"><ele>0.0</ele></rtept>
    <rtept lat="52.346041" lon="4.671887"><ele>0.0</ele></rtept>
    <rtept lat="52.345250" lon="4.672126"><ele>0.0</ele></rtept>
    <rtept lat="52.345076" lon="4.672242"><ele>0.0</ele></rtept>
    <rtept lat="52.344572" lon="4.672383"><ele>0.0</ele></rtept>
    <rtept lat="52.344355" lon="4.672373"><ele>0.0</ele></rtept>
    <rtept lat="52.343553" lon="4.672596"><ele>0.0</ele></rtept>
    <rtept lat="52.343522" lon="4.672605"><ele>0.0</ele></rtept>
    <rtept lat="52.343406" lon="4.672650"><ele>0.0</ele></rtept>
    <rtept lat="52.343232" lon="4.672765"><ele>0.0</ele></rtept>
    <rtept lat="52.342456" lon="4.672992"><ele>0.0</ele></rtept>
    <rtept lat="52.342132" lon="4.673000"><ele>0.0</ele></rtept>
    <rtept lat="52.341895" lon="4.673064"><ele>0.0</ele></rtept>
    <rtept lat="52.339506" lon="4.673740"><ele>0.0</ele></rtept>
    <rtept lat="52.339330" lon="4.673743"><ele>0.0</ele></rtept>
    <rtept lat="52.338432" lon="4.673864"><ele>0.0</ele></rtept>
    <rtept lat="52.338064" lon="4.673973"><ele>0.0</ele></rtept>
    <rtept lat="52.337773" lon="4.674005"><ele>0.0</ele></rtept>
    <rtept lat="52.336415" lon="4.674412"><ele>0.0</ele></rtept>
    <rtept lat="52.336239" lon="4.674488"><ele>0.0</ele></rtept>
    <rtept lat="52.335163" lon="4.674789"><ele>0.0</ele></rtept>
    <rtept lat="52.334916" lon="4.674863"><ele>0.0</ele></rtept>
    <rtept lat="52.334850" lon="4.674881"><ele>0.0</ele></rtept>
    <rtept lat="52.334561" lon="4.674958"><ele>0.0</ele></rtept>
    <rtept lat="52.334141" lon="4.675025"><ele>0.0</ele></rtept>
    <rtept lat="52.333495" lon="4.675123"><ele>0.0</ele></rtept>
    <rtept lat="52.333059" lon="4.675149"><ele>0.0</ele></rtept>
    <rtept lat="52.329442" lon="4.676183"><ele>0.0</ele></rtept>
    <rtept lat="52.329411" lon="4.676192"><ele>0.0</ele></rtept>
    <rtept lat="52.324001" lon="4.677735"><ele>0.0</ele></rtept>
    <rtept lat="52.323922" lon="4.677682"><ele>0.0</ele></rtept>
    <rtept lat="52.323778" lon="4.677457"><ele>0.0</ele></rtept>
    <rtept lat="52.323647" lon="4.677378"><ele>0.0</ele></rtept>
    <rtept lat="52.323527" lon="4.677397"><ele>0.0</ele></rtept>
    <rtept lat="52.323453" lon="4.677527"><ele>0.0</ele></rtept>
    <rtept lat="52.323383" lon="4.677735"><ele>0.0</ele></rtept>
    <rtept lat="52.323270" lon="4.678009"><ele>0.0</ele></rtept>
    <rtept lat="52.323221" lon="4.678099"><ele>0.0</ele></rtept>
    <rtept lat="52.323179" lon="4.678185"><ele>0.0</ele></rtept>
    <rtept lat="52.323069" lon="4.678349"><ele>0.0</ele></rtept>
    <rtept lat="52.322978" lon="4.678431"><ele>0.0</ele></rtept>
    <rtept lat="52.318071" lon="4.680272"><ele>0.0</ele></rtept>
    <rtept lat="52.317106" lon="4.680641"><ele>0.0</ele></rtept>
    <rtept lat="52.317032" lon="4.680676"><ele>0.0</ele></rtept>
    <rtept lat="52.316816" lon="4.680786"><ele>0.0</ele></rtept>
    <rtept lat="52.316541" lon="4.680892"><ele>0.0</ele></rtept>
    <rtept lat="52.316281" lon="4.680986"><ele>0.0</ele></rtept>
    <rtept lat="52.316009" lon="4.681085"><ele>0.0</ele></rtept>
    <rtept lat="52.315765" lon="4.681138"><ele>0.0</ele></rtept>
    <rtept lat="52.315717" lon="4.681151"><ele>0.0</ele></rtept>
    <rtept lat="52.314498" lon="4.681614"><ele>0.0</ele></rtept>
    <rtept lat="52.314416" lon="4.681646"><ele>0.0</ele></rtept>
    <rtept lat="52.314367" lon="4.681654"><ele>0.0</ele></rtept>
    <rtept lat="52.314092" lon="4.681384"><ele>0.0</ele></rtept>
    <rtept lat="52.314020" lon="4.681404"><ele>0.0</ele></rtept>
    <rtept lat="52.313964" lon="4.681423"><ele>0.0</ele></rtept>
    <rtept lat="52.312199" lon="4.682078"><ele>0.0</ele></rtept>
    <rtept lat="52.312158" lon="4.682050"><ele>0.0</ele></rtept>
    <rtept lat="52.311961" lon="4.682044"><ele>0.0</ele></rtept>
    <rtept lat="52.311942" lon="4.681964"><ele>0.0</ele></rtept>
    <rtept lat="52.311901" lon="4.681944"><ele>0.0</ele></rtept>
    <rtept lat="52.311501" lon="4.682140"><ele>0.0</ele></rtept>
    <rtept lat="52.311281" lon="4.682226"><ele>0.0</ele></rtept>
    <rtept lat="52.311221" lon="4.682210"><ele>0.0</ele></rtept>
    <rtept lat="52.311101" lon="4.682063"><ele>0.0</ele></rtept>
    <rtept lat="52.311073" lon="4.682099"><ele>0.0</ele></rtept>
    <rtept lat="52.310267" lon="4.682425"><ele>0.0</ele></rtept>
    <rtept lat="52.310195" lon="4.682554"><ele>0.0</ele></rtept>
    <rtept lat="52.310165" lon="4.682607"><ele>0.0</ele></rtept>
    <rtept lat="52.310104" lon="4.682643"><ele>0.0</ele></rtept>
    <rtept lat="52.310029" lon="4.682669"><ele>0.0</ele></rtept>
    <rtept lat="52.309972" lon="4.682735"><ele>0.0</ele></rtept>
    <rtept lat="52.309914" lon="4.682801"><ele>0.0</ele></rtept>
    <rtept lat="52.309896" lon="4.682829"><ele>0.0</ele></rtept>
    <rtept lat="52.309805" lon="4.682955"><ele>0.0</ele></rtept>
    <rtept lat="52.307083" lon="4.683992"><ele>0.0</ele></rtept>
    <rtept lat="52.307013" lon="4.684035"><ele>0.0</ele></rtept>
    <rtept lat="52.306957" lon="4.684078"><ele>0.0</ele></rtept>
    <rtept lat="52.306886" lon="4.684134"><ele>0.0</ele></rtept>
    <rtept lat="52.306818" lon="4.684145"><ele>0.0</ele></rtept>
    <rtept lat="52.306759" lon="4.684125"><ele>0.0</ele></rtept>
    <rtept lat="52.306701" lon="4.684116"><ele>0.0</ele></rtept>
    <rtept lat="52.304362" lon="4.685013"><ele>0.0</ele></rtept>
    <rtept lat="52.303243" lon="4.685068"><ele>0.0</ele></rtept>
    <rtept lat="52.303071" lon="4.685109"><ele>0.0</ele></rtept>
    <rtept lat="52.302771" lon="4.685520"><ele>0.0</ele></rtept>
    <rtept lat="52.302540" lon="4.685804"><ele>0.0</ele></rtept>
    <rtept lat="52.302423" lon="4.685960"><ele>0.0</ele></rtept>
    <rtept lat="52.302372" lon="4.686068"><ele>0.0</ele></rtept>
    <rtept lat="52.302331" lon="4.686119"><ele>0.0</ele></rtept>
    <rtept lat="52.302256" lon="4.686265"><ele>0.0</ele></rtept>
    <rtept lat="52.302219" lon="4.686402"><ele>0.0</ele></rtept>
    <rtept lat="52.302041" lon="4.686756"><ele>0.0</ele></rtept>
    <rtept lat="52.301971" lon="4.686838"><ele>0.0</ele></rtept>
    <rtept lat="52.301874" lon="4.687020"><ele>0.0</ele></rtept>
    <rtept lat="52.301477" lon="4.686454"><ele>0.0</ele></rtept>
    <rtept lat="52.301411" lon="4.686587"><ele>0.0</ele></rtept>
    <rtept lat="52.301330" lon="4.686744"><ele>0.0</ele></rtept>
    <rtept lat="52.301293" lon="4.686820"><ele>0.0</ele></rtept>
    <rtept lat="52.301258" lon="4.686885"><ele>0.0</ele></rtept>
    <rtept lat="52.301226" lon="4.686947"><ele>0.0</ele></rtept>
    <rtept lat="52.301193" lon="4.687015"><ele>0.0</ele></rtept>
    <rtept lat="52.301133" lon="4.687138"><ele>0.0</ele></rtept>
    <rtept lat="52.301131" lon="4.687142"><ele>0.0</ele></rtept>
    <rtept lat="52.301099" lon="4.687205"><ele>0.0</ele></rtept>
    <rtept lat="52.300396" lon="4.688473"><ele>0.0</ele></rtept>
    <rtept lat="52.299756" lon="4.689222"><ele>0.0</ele></rtept>
    <rtept lat="52.299440" lon="4.689733"><ele>0.0</ele></rtept>
    <rtept lat="52.299361" lon="4.689818"><ele>0.0</ele></rtept>
    <rtept lat="52.299165" lon="4.689902"><ele>0.0</ele></rtept>
    <rtept lat="52.299064" lon="4.689992"><ele>0.0</ele></rtept>
    <rtept lat="52.298248" lon="4.690911"><ele>0.0</ele></rtept>
    <rtept lat="52.297939" lon="4.691299"><ele>0.0</ele></rtept>
    <rtept lat="52.297919" lon="4.691329"><ele>0.0</ele></rtept>
    <rtept lat="52.297868" lon="4.691422"><ele>0.0</ele></rtept>
    <rtept lat="52.297711" lon="4.691189"><ele>0.0</ele></rtept>
    <rtept lat="52.297463" lon="4.690810"><ele>0.0</ele></rtept>
    <rtept lat="52.297441" lon="4.690851"><ele>0.0</ele></rtept>
    <rtept lat="52.297400" lon="4.690929"><ele>0.0</ele></rtept>
    <rtept lat="52.297348" lon="4.691000"><ele>0.0</ele></rtept>
    <rtept lat="52.297173" lon="4.691003"><ele>0.0</ele></rtept>
    <rtept lat="52.296882" lon="4.691457"><ele>0.0</ele></rtept>
    <rtept lat="52.296353" lon="4.692078"><ele>0.0</ele></rtept>
    <rtept lat="52.295576" lon="4.692934"><ele>0.0</ele></rtept>
    <rtept lat="52.295390" lon="4.693139"><ele>0.0</ele></rtept>
    <rtept lat="52.294822" lon="4.693808"><ele>0.0</ele></rtept>
    <rtept lat="52.294293" lon="4.694405"><ele>0.0</ele></rtept>
    <rtept lat="52.293865" lon="4.694892"><ele>0.0</ele></rtept>
    <rtept lat="52.293624" lon="4.695212"><ele>0.0</ele></rtept>
    <rtept lat="52.293605" lon="4.695252"><ele>0.0</ele></rtept>
    <rtept lat="52.293602" lon="4.695606"><ele>0.0</ele></rtept>
    <rtept lat="52.293432" lon="4.695684"><ele>0.0</ele></rtept>
    <rtept lat="52.293143" lon="4.695992"><ele>0.0</ele></rtept>
    <rtept lat="52.293025" lon="4.696131"><ele>0.0</ele></rtept>
    <rtept lat="52.292732" lon="4.696472"><ele>0.0</ele></rtept>
    <rtept lat="52.292631" lon="4.696606"><ele>0.0</ele></rtept>
    <rtept lat="52.292614" lon="4.696670"><ele>0.0</ele></rtept>
    <rtept lat="52.292613" lon="4.696804"><ele>0.0</ele></rtept>
    <rtept lat="52.292642" lon="4.696911"><ele>0.0</ele></rtept>
    <rtept lat="52.292674" lon="4.696982"><ele>0.0</ele></rtept>
    <rtept lat="52.292979" lon="4.697717"><ele>0.0</ele></rtept>
    <rtept lat="52.293002" lon="4.697972"><ele>0.0</ele></rtept>
    <rtept lat="52.292795" lon="4.698310"><ele>0.0</ele></rtept>
    <rtept lat="52.292718" lon="4.698456"><ele>0.0</ele></rtept>
    <rtept lat="52.292632" lon="4.698598"><ele>0.0</ele></rtept>
    <rtept lat="52.292476" lon="4.698873"><ele>0.0</ele></rtept>
    <rtept lat="52.292427" lon="4.698955"><ele>0.0</ele></rtept>
    <rtept lat="52.292327" lon="4.699132"><ele>0.0</ele></rtept>
    <rtept lat="52.292215" lon="4.699307"><ele>0.0</ele></rtept>
    <rtept lat="52.291991" lon="4.699724"><ele>0.0</ele></rtept>
    <rtept lat="52.291837" lon="4.700004"><ele>0.0</ele></rtept>
    <rtept lat="52.291787" lon="4.700180"><ele>0.0</ele></rtept>
    <rtept lat="52.291680" lon="4.700136"><ele>0.0</ele></rtept>
    <rtept lat="52.291571" lon="4.700103"><ele>0.0</ele></rtept>
    <rtept lat="52.291473" lon="4.700086"><ele>0.0</ele></rtept>
    <rtept lat="52.291419" lon="4.700110"><ele>0.0</ele></rtept>
    <rtept lat="52.291178" lon="4.700557"><ele>0.0</ele></rtept>
    <rtept lat="52.291132" lon="4.700646"><ele>0.0</ele></rtept>
    <rtept lat="52.290954" lon="4.700388"><ele>0.0</ele></rtept>
    <rtept lat="52.290726" lon="4.700063"><ele>0.0</ele></rtept>
    <rtept lat="52.290506" lon="4.699745"><ele>0.0</ele></rtept>
    <rtept lat="52.290476" lon="4.699712"><ele>0.0</ele></rtept>
    <rtept lat="52.286669" lon="4.703980"><ele>0.0</ele></rtept>
    <rtept lat="52.286129" lon="4.704584"><ele>0.0</ele></rtept>
    <rtept lat="52.286082" lon="4.704686"><ele>0.0</ele></rtept>
    <rtept lat="52.285961" lon="4.704908"><ele>0.0</ele></rtept>
    <rtept lat="52.285291" lon="4.706187"><ele>0.0</ele></rtept>
    <rtept lat="52.285079" lon="4.706529"><ele>0.0</ele></rtept>
    <rtept lat="52.284752" lon="4.707171"><ele>0.0</ele></rtept>
    <rtept lat="52.283687" lon="4.709146"><ele>0.0</ele></rtept>
    <rtept lat="52.280982" lon="4.714133"><ele>0.0</ele></rtept>
    <rtept lat="52.280808" lon="4.714449"><ele>0.0</ele></rtept>
    <rtept lat="52.280730" lon="4.714599"><ele>0.0</ele></rtept>
    <rtept lat="52.280735" lon="4.714676"><ele>0.0</ele></rtept>
    <rtept lat="52.280850" lon="4.714832"><ele>0.0</ele></rtept>
    <rtept lat="52.280950" lon="4.714861"><ele>0.0</ele></rtept>
    <rtept lat="52.281013" lon="4.714832"><ele>0.0</ele></rtept>
    <rtept lat="52.281057" lon="4.714782"><ele>0.0</ele></rtept>
    <rtept lat="52.281262" lon="4.714396"><ele>0.0</ele></rtept>
    <rtept lat="52.281387" lon="4.714150"><ele>0.0</ele></rtept>
    <rtept lat="52.281275" lon="4.713971"><ele>0.0</ele></rtept>
    <rtept lat="52.281228" lon="4.713950"><ele>0.0</ele></rtept>
    <rtept lat="52.279989" lon="4.716243"><ele>0.0</ele></rtept>
    <rtept lat="52.279531" lon="4.717096"><ele>0.0</ele></rtept>
    <rtept lat="52.279538" lon="4.717156"><ele>0.0</ele></rtept>
    <rtept lat="52.279646" lon="4.717310"><ele>0.0</ele></rtept>
    <rtept lat="52.279680" lon="4.717329"><ele>0.0</ele></rtept>
    <rtept lat="52.279803" lon="4.717098"><ele>0.0</ele></rtept>
    <rtept lat="52.280011" lon="4.716705"><ele>0.0</ele></rtept>
    <rtept lat="52.280025" lon="4.716603"><ele>0.0</ele></rtept>
    <rtept lat="52.280019" lon="4.716504"><ele>0.0</ele></rtept>
    <rtept lat="52.279995" lon="4.716419"><ele>0.0</ele></rtept>
    <rtept lat="52.279953" lon="4.716344"><ele>0.0</ele></rtept>
    <rtept lat="52.279871" lon="4.716238"><ele>0.0</ele></rtept>
    <rtept lat="52.279839" lon="4.716236"><ele>0.0</ele></rtept>
    <rtept lat="52.279747" lon="4.716401"><ele>0.0</ele></rtept>
    <rtept lat="52.279735" lon="4.716423"><ele>0.0</ele></rtept>
    <rtept lat="52.279171" lon="4.717497"><ele>0.0</ele></rtept>
    <rtept lat="52.278718" lon="4.718316"><ele>0.0</ele></rtept>
    <rtept lat="52.277281" lon="4.720979"><ele>0.0</ele></rtept>
    <rtept lat="52.274257" lon="4.726584"><ele>0.0</ele></rtept>
    <rtept lat="52.274196" lon="4.726701"><ele>0.0</ele></rtept>
    <rtept lat="52.274151" lon="4.726789"><ele>0.0</ele></rtept>
    <rtept lat="52.274113" lon="4.726852"><ele>0.0</ele></rtept>
    <rtept lat="52.273499" lon="4.727987"><ele>0.0</ele></rtept>
    <rtept lat="52.273450" lon="4.728009"><ele>0.0</ele></rtept>
    <rtept lat="52.273304" lon="4.727825"><ele>0.0</ele></rtept>
    <rtept lat="52.273280" lon="4.727816"><ele>0.0</ele></rtept>
    <rtept lat="52.270553" lon="4.732874"><ele>0.0</ele></rtept>
    <rtept lat="52.270492" lon="4.733023"><ele>0.0</ele></rtept>
    <rtept lat="52.270458" lon="4.733053"><ele>0.0</ele></rtept>
    <rtept lat="52.270432" lon="4.733041"><ele>0.0</ele></rtept>
    <rtept lat="52.270174" lon="4.732894"><ele>0.0</ele></rtept>
    <rtept lat="52.270073" lon="4.732871"><ele>0.0</ele></rtept>
    <rtept lat="52.270048" lon="4.732866"><ele>0.0</ele></rtept>
    <rtept lat="52.269133" lon="4.732712"><ele>0.0</ele></rtept>
    <rtept lat="52.268057" lon="4.732623"><ele>0.0</ele></rtept>
    <rtept lat="52.267954" lon="4.732637"><ele>0.0</ele></rtept>
    <rtept lat="52.267873" lon="4.732703"><ele>0.0</ele></rtept>
    <rtept lat="52.267817" lon="4.732790"><ele>0.0</ele></rtept>
    <rtept lat="52.267002" lon="4.734307"><ele>0.0</ele></rtept>
    <rtept lat="52.266914" lon="4.734395"><ele>0.0</ele></rtept>
    <rtept lat="52.266511" lon="4.732930"><ele>0.0</ele></rtept>
    <rtept lat="52.266280" lon="4.732059"><ele>0.0</ele></rtept>
    <rtept lat="52.265968" lon="4.730913"><ele>0.0</ele></rtept>
    <rtept lat="52.265773" lon="4.730298"><ele>0.0</ele></rtept>
    <rtept lat="52.265455" lon="4.729416"><ele>0.0</ele></rtept>
    <rtept lat="52.265236" lon="4.728933"><ele>0.0</ele></rtept>
    <rtept lat="52.264989" lon="4.728444"><ele>0.0</ele></rtept>
    <rtept lat="52.264711" lon="4.727950"><ele>0.0</ele></rtept>
    <rtept lat="52.264427" lon="4.727445"><ele>0.0</ele></rtept>
    <rtept lat="52.264174" lon="4.726919"><ele>0.0</ele></rtept>
    <rtept lat="52.263944" lon="4.726296"><ele>0.0</ele></rtept>
    <rtept lat="52.263727" lon="4.725744"><ele>0.0</ele></rtept>
    <rtept lat="52.263495" lon="4.725259"><ele>0.0</ele></rtept>
    <rtept lat="52.263334" lon="4.724987"><ele>0.0</ele></rtept>
    <rtept lat="52.263028" lon="4.724601"><ele>0.0</ele></rtept>
    <rtept lat="52.262674" lon="4.724294"><ele>0.0</ele></rtept>
    <rtept lat="52.261742" lon="4.723567"><ele>0.0</ele></rtept>
    <rtept lat="52.261446" lon="4.723295"><ele>0.0</ele></rtept>
    <rtept lat="52.260648" lon="4.722370"><ele>0.0</ele></rtept>
    <rtept lat="52.259322" lon="4.720689"><ele>0.0</ele></rtept>
    <rtept lat="52.259308" lon="4.720602"><ele>0.0</ele></rtept>
    <rtept lat="52.259232" lon="4.720559"><ele>0.0</ele></rtept>
    <rtept lat="52.259149" lon="4.720469"><ele>0.0</ele></rtept>
    <rtept lat="52.258921" lon="4.720085"><ele>0.0</ele></rtept>
    <rtept lat="52.257695" lon="4.717406"><ele>0.0</ele></rtept>
    <rtept lat="52.257658" lon="4.717326"><ele>0.0</ele></rtept>
    <rtept lat="52.257629" lon="4.717270"><ele>0.0</ele></rtept>
    <rtept lat="52.257618" lon="4.717247"><ele>0.0</ele></rtept>
    <rtept lat="52.256999" lon="4.715848"><ele>0.0</ele></rtept>
    <rtept lat="52.256965" lon="4.715751"><ele>0.0</ele></rtept>
    <rtept lat="52.256929" lon="4.715501"><ele>0.0</ele></rtept>
    <rtept lat="52.256881" lon="4.715494"><ele>0.0</ele></rtept>
    <rtept lat="52.256833" lon="4.715453"><ele>0.0</ele></rtept>
    <rtept lat="52.256001" lon="4.713393"><ele>0.0</ele></rtept>
    <rtept lat="52.255645" lon="4.712760"><ele>0.0</ele></rtept>
    <rtept lat="52.255320" lon="4.712369"><ele>0.0</ele></rtept>
    <rtept lat="52.254943" lon="4.711999"><ele>0.0</ele></rtept>
    <rtept lat="52.253879" lon="4.710957"><ele>0.0</ele></rtept>
    <rtept lat="52.253045" lon="4.710132"><ele>0.0</ele></rtept>
    <rtept lat="52.249748" lon="4.706909"><ele>0.0</ele></rtept>
    <rtept lat="52.249702" lon="4.706864"><ele>0.0</ele></rtept>
    <rtept lat="52.249659" lon="4.706822"><ele>0.0</ele></rtept>
    <rtept lat="52.248918" lon="4.706106"><ele>0.0</ele></rtept>
    <rtept lat="52.248802" lon="4.706000"><ele>0.0</ele></rtept>
    <rtept lat="52.248725" lon="4.705931"><ele>0.0</ele></rtept>
    <rtept lat="52.248434" lon="4.705691"><ele>0.0</ele></rtept>
    <rtept lat="52.248129" lon="4.705507"><ele>0.0</ele></rtept>
    <rtept lat="52.247470" lon="4.705141"><ele>0.0</ele></rtept>
    <rtept lat="52.247229" lon="4.704955"><ele>0.0</ele></rtept>
    <rtept lat="52.247034" lon="4.704771"><ele>0.0</ele></rtept>
    <rtept lat="52.246844" lon="4.704542"><ele>0.0</ele></rtept>
    <rtept lat="52.246584" lon="4.704180"><ele>0.0</ele></rtept>
    <rtept lat="52.245262" lon="4.702231"><ele>0.0</ele></rtept>
    <rtept lat="52.244824" lon="4.701588"><ele>0.0</ele></rtept>
    <rtept lat="52.244706" lon="4.701397"><ele>0.0</ele></rtept>
    <rtept lat="52.244547" lon="4.701071"><ele>0.0</ele></rtept>
    <rtept lat="52.244492" lon="4.700921"><ele>0.0</ele></rtept>
    <rtept lat="52.244404" lon="4.700584"><ele>0.0</ele></rtept>
    <rtept lat="52.244275" lon="4.699817"><ele>0.0</ele></rtept>
    <rtept lat="52.243515" lon="4.694935"><ele>0.0</ele></rtept>
    <rtept lat="52.243310" lon="4.693767"><ele>0.0</ele></rtept>
    <rtept lat="52.243064" lon="4.692530"><ele>0.0</ele></rtept>
    <rtept lat="52.242825" lon="4.691645"><ele>0.0</ele></rtept>
    <rtept lat="52.242582" lon="4.690885"><ele>0.0</ele></rtept>
    <rtept lat="52.242271" lon="4.690009"><ele>0.0</ele></rtept>
    <rtept lat="52.241384" lon="4.687689"><ele>0.0</ele></rtept>
    <rtept lat="52.241036" lon="4.686789"><ele>0.0</ele></rtept>
    <rtept lat="52.240874" lon="4.686251"><ele>0.0</ele></rtept>
    <rtept lat="52.240690" lon="4.685576"><ele>0.0</ele></rtept>
    <rtept lat="52.240111" lon="4.683218"><ele>0.0</ele></rtept>
    <rtept lat="52.239770" lon="4.681838"><ele>0.0</ele></rtept>
    <rtept lat="52.239655" lon="4.681457"><ele>0.0</ele></rtept>
    <rtept lat="52.239519" lon="4.681073"><ele>0.0</ele></rtept>
    <rtept lat="52.239354" lon="4.680765"><ele>0.0</ele></rtept>
    <rtept lat="52.239163" lon="4.680447"><ele>0.0</ele></rtept>
    <rtept lat="52.239029" lon="4.680272"><ele>0.0</ele></rtept>
    <rtept lat="52.238587" lon="4.679864"><ele>0.0</ele></rtept>
    <rtept lat="52.236136" lon="4.678131"><ele>0.0</ele></rtept>
    <rtept lat="52.235821" lon="4.677929"><ele>0.0</ele></rtept>
    <rtept lat="52.235579" lon="4.677734"><ele>0.0</ele></rtept>
    <rtept lat="52.235277" lon="4.677448"><ele>0.0</ele></rtept>
    <rtept lat="52.235068" lon="4.677226"><ele>0.0</ele></rtept>
    <rtept lat="52.234617" lon="4.676628"><ele>0.0</ele></rtept>
    <rtept lat="52.234247" lon="4.676049"><ele>0.0</ele></rtept>
    <rtept lat="52.233080" lon="4.673811"><ele>0.0</ele></rtept>
    <rtept lat="52.232331" lon="4.672358"><ele>0.0</ele></rtept>
    <rtept lat="52.231892" lon="4.671501"><ele>0.0</ele></rtept>
    <rtept lat="52.231830" lon="4.671348"><ele>0.0</ele></rtept>
    <rtept lat="52.231804" lon="4.671229"><ele>0.0</ele></rtept>
    <rtept lat="52.231796" lon="4.671063"><ele>0.0</ele></rtept>
    <rtept lat="52.231668" lon="4.671018"><ele>0.0</ele></rtept>
    <rtept lat="52.231609" lon="4.670945"><ele>0.0</ele></rtept>
    <rtept lat="52.230991" lon="4.669753"><ele>0.0</ele></rtept>
    <rtept lat="52.230727" lon="4.669263"><ele>0.0</ele></rtept>
    <rtept lat="52.230678" lon="4.669170"><ele>0.0</ele></rtept>
    <rtept lat="52.230257" lon="4.668504"><ele>0.0</ele></rtept>
    <rtept lat="52.229727" lon="4.667650"><ele>0.0</ele></rtept>
    <rtept lat="52.228180" lon="4.665280"><ele>0.0</ele></rtept>
    <rtept lat="52.228007" lon="4.664970"><ele>0.0</ele></rtept>
    <rtept lat="52.227810" lon="4.664500"><ele>0.0</ele></rtept>
    <rtept lat="52.227605" lon="4.663793"><ele>0.0</ele></rtept>
    <rtept lat="52.226752" lon="4.659303"><ele>0.0</ele></rtept>
    <rtept lat="52.226591" lon="4.658681"><ele>0.0</ele></rtept>
    <rtept lat="52.226391" lon="4.658070"><ele>0.0</ele></rtept>
    <rtept lat="52.225300" lon="4.655100"><ele>0.0</ele></rtept>
    <rtept lat="52.224879" lon="4.654119"><ele>0.0</ele></rtept>
    <rtept lat="52.224406" lon="4.653132"><ele>0.0</ele></rtept>
    <rtept lat="52.223328" lon="4.650968"><ele>0.0</ele></rtept>
    <rtept lat="52.222833" lon="4.649907"><ele>0.0</ele></rtept>
    <rtept lat="52.221698" lon="4.647226"><ele>0.0</ele></rtept>
    <rtept lat="52.221636" lon="4.647034"><ele>0.0</ele></rtept>
    <rtept lat="52.221867" lon="4.646813"><ele>0.0</ele></rtept>
    <rtept lat="52.221987" lon="4.646615"><ele>0.0</ele></rtept>
    <rtept lat="52.222481" lon="4.645691"><ele>0.0</ele></rtept>
    <rtept lat="52.223040" lon="4.644626"><ele>0.0</ele></rtept>
    <rtept lat="52.223124" lon="4.644708"><ele>0.0</ele></rtept>
    <rtept lat="52.223150" lon="4.644697"><ele>0.0</ele></rtept>
    <rtept lat="52.223237" lon="4.644566"><ele>0.0</ele></rtept>
    <rtept lat="52.223301" lon="4.644486"><ele>0.0</ele></rtept>
    <rtept lat="52.223413" lon="4.644475"><ele>0.0</ele></rtept>
    <rtept lat="52.223541" lon="4.644378"><ele>0.0</ele></rtept>
    <rtept lat="52.223555" lon="4.644324"><ele>0.0</ele></rtept>
    <rtept lat="52.223551" lon="4.644213"><ele>0.0</ele></rtept>
    <rtept lat="52.223575" lon="4.644092"><ele>0.0</ele></rtept>
    <rtept lat="52.223655" lon="4.643848"><ele>0.0</ele></rtept>
    <rtept lat="52.223810" lon="4.643311"><ele>0.0</ele></rtept>
    <rtept lat="52.226167" lon="4.638898"><ele>0.0</ele></rtept>
    <rtept lat="52.226896" lon="4.637576"><ele>0.0</ele></rtept>
    <rtept lat="52.228798" lon="4.634038"><ele>0.0</ele></rtept>
    <rtept lat="52.230491" lon="4.630841"><ele>0.0</ele></rtept>
    <rtept lat="52.230533" lon="4.630792"><ele>0.0</ele></rtept>
    <rtept lat="52.230679" lon="4.630730"><ele>0.0</ele></rtept>
    <rtept lat="52.230877" lon="4.630342"><ele>0.0</ele></rtept>
    <rtept lat="52.230910" lon="4.630056"><ele>0.0</ele></rtept>
    <rtept lat="52.231132" lon="4.629672"><ele>0.0</ele></rtept>
    <rtept lat="52.231200" lon="4.629582"><ele>0.0</ele></rtept>
    <rtept lat="52.231341" lon="4.629449"><ele>0.0</ele></rtept>
    <rtept lat="52.231406" lon="4.629363"><ele>0.0</ele></rtept>
    <rtept lat="52.231413" lon="4.629330"><ele>0.0</ele></rtept>
    <rtept lat="52.231325" lon="4.628417"><ele>0.0</ele></rtept>
    <rtept lat="52.231317" lon="4.628331"><ele>0.0</ele></rtept>
    <rtept lat="52.231290" lon="4.628013"><ele>0.0</ele></rtept>
    <rtept lat="52.231297" lon="4.627931"><ele>0.0</ele></rtept>
    <rtept lat="52.231328" lon="4.627850"><ele>0.0</ele></rtept>
    <rtept lat="52.231362" lon="4.627824"><ele>0.0</ele></rtept>
    <rtept lat="52.231564" lon="4.627785"><ele>0.0</ele></rtept>
    <rtept lat="52.231608" lon="4.627793"><ele>0.0</ele></rtept>
    <rtept lat="52.231665" lon="4.627862"><ele>0.0</ele></rtept>
    <rtept lat="52.231841" lon="4.627858"><ele>0.0</ele></rtept>
    <rtept lat="52.231877" lon="4.627835"><ele>0.0</ele></rtept>
    <rtept lat="52.231935" lon="4.627724"><ele>0.0</ele></rtept>
    <rtept lat="52.232016" lon="4.627665"><ele>0.0</ele></rtept>
    <rtept lat="52.232225" lon="4.627734"><ele>0.0</ele></rtept>
    <rtept lat="52.232272" lon="4.627650"><ele>0.0</ele></rtept>
    <rtept lat="52.232333" lon="4.627502"><ele>0.0</ele></rtept>
    <rtept lat="52.232359" lon="4.627361"><ele>0.0</ele></rtept>
    <rtept lat="52.238493" lon="4.615894"><ele>0.0</ele></rtept>
    <rtept lat="52.238526" lon="4.615838"><ele>0.0</ele></rtept>
    <rtept lat="52.238608" lon="4.615679"><ele>0.0</ele></rtept>
    <rtept lat="52.240669" lon="4.611780"><ele>0.0</ele></rtept>
    <rtept lat="52.240809" lon="4.611550"><ele>0.0</ele></rtept>
    <rtept lat="52.243811" lon="4.605929"><ele>0.0</ele></rtept>
    <rtept lat="52.243936" lon="4.605708"><ele>0.0</ele></rtept>
    <rtept lat="52.244104" lon="4.605463"><ele>0.0</ele></rtept>
    <rtept lat="52.244159" lon="4.605399"><ele>0.0</ele></rtept>
    <rtept lat="52.244201" lon="4.605396"><ele>0.0</ele></rtept>
    <rtept lat="52.244289" lon="4.605482"><ele>0.0</ele></rtept>
    <rtept lat="52.244413" lon="4.605399"><ele>0.0</ele></rtept>
    <rtept lat="52.244527" lon="4.605213"><ele>0.0</ele></rtept>
    <rtept lat="52.244552" lon="4.605150"><ele>0.0</ele></rtept>
    <rtept lat="52.244578" lon="4.605044"><ele>0.0</ele></rtept>
    <rtept lat="52.244590" lon="4.604945"><ele>0.0</ele></rtept>
    <rtept lat="52.244535" lon="4.604860"><ele>0.0</ele></rtept>
    <rtept lat="52.244517" lon="4.604781"><ele>0.0</ele></rtept>
    <rtept lat="52.244522" lon="4.604706"><ele>0.0</ele></rtept>
    <rtept lat="52.244560" lon="4.604614"><ele>0.0</ele></rtept>
    <rtept lat="52.244618" lon="4.604471"><ele>0.0</ele></rtept>
    <rtept lat="52.244730" lon="4.604195"><ele>0.0</ele></rtept>
    <rtept lat="52.247456" lon="4.599131"><ele>0.0</ele></rtept>
    <rtept lat="52.250350" lon="4.593676"><ele>0.0</ele></rtept>
    <rtept lat="52.250476" lon="4.593435"><ele>0.0</ele></rtept>
    <rtept lat="52.251211" lon="4.592047"><ele>0.0</ele></rtept>
    <rtept lat="52.251284" lon="4.591877"><ele>0.0</ele></rtept>
    <rtept lat="52.253179" lon="4.588343"><ele>0.0</ele></rtept>
    <rtept lat="52.253465" lon="4.587781"><ele>0.0</ele></rtept>
    <rtept lat="52.253564" lon="4.587621"><ele>0.0</ele></rtept>
    <rtept lat="52.254378" lon="4.586088"><ele>0.0</ele></rtept>
    <rtept lat="52.254510" lon="4.585844"><ele>0.0</ele></rtept>
    <rtept lat="52.256199" lon="4.582703"><ele>0.0</ele></rtept>
    <rtept lat="52.256277" lon="4.582586"><ele>0.0</ele></rtept>
    <rtept lat="52.256365" lon="4.582512"><ele>0.0</ele></rtept>
    <rtept lat="52.256409" lon="4.582516"><ele>0.0</ele></rtept>
    <rtept lat="52.256472" lon="4.582593"><ele>0.0</ele></rtept>
    <rtept lat="52.256512" lon="4.582606"><ele>0.0</ele></rtept>
    <rtept lat="52.256553" lon="4.582567"><ele>0.0</ele></rtept>
    <rtept lat="52.256601" lon="4.582473"><ele>0.0</ele></rtept>
    <rtept lat="52.256659" lon="4.582382"><ele>0.0</ele></rtept>
    <rtept lat="52.256792" lon="4.582643"><ele>0.0</ele></rtept>
    <rtept lat="52.257069" lon="4.583297"><ele>0.0</ele></rtept>
    <rtept lat="52.259878" lon="4.587311"><ele>0.0</ele></rtept>
    <rtept lat="52.260400" lon="4.586293"><ele>0.0</ele></rtept>
    <rtept lat="52.260722" lon="4.586092"><ele>0.0</ele></rtept>
    <rtept lat="52.261167" lon="4.585653"><ele>0.0</ele></rtept>
    <rtept lat="52.261506" lon="4.585241"><ele>0.0</ele></rtept>
    <rtept lat="52.261711" lon="4.584935"><ele>0.0</ele></rtept>
    <rtept lat="52.262199" lon="4.584135"><ele>0.0</ele></rtept>
    <rtept lat="52.262319" lon="4.583788"><ele>0.0</ele></rtept>
    <rtept lat="52.262490" lon="4.583192"><ele>0.0</ele></rtept>
    <rtept lat="52.262564" lon="4.583009"><ele>0.0</ele></rtept>
    <rtept lat="52.262639" lon="4.582912"><ele>0.0</ele></rtept>
    <rtept lat="52.262908" lon="4.582674"><ele>0.0</ele></rtept>
    <rtept lat="52.263029" lon="4.582465"><ele>0.0</ele></rtept>
    <rtept lat="52.263073" lon="4.582387"><ele>0.0</ele></rtept>
    <rtept lat="52.263089" lon="4.582355"><ele>0.0</ele></rtept>
    <rtept lat="52.263337" lon="4.581864"><ele>0.0</ele></rtept>
    <rtept lat="52.263438" lon="4.581731"><ele>0.0</ele></rtept>
    <rtept lat="52.263890" lon="4.581333"><ele>0.0</ele></rtept>
    <rtept lat="52.265570" lon="4.578191"><ele>0.0</ele></rtept>
    <rtept lat="52.265666" lon="4.577969"><ele>0.0</ele></rtept>
    <rtept lat="52.265811" lon="4.577336"><ele>0.0</ele></rtept>
    <rtept lat="52.265935" lon="4.577060"><ele>0.0</ele></rtept>
    <rtept lat="52.265952" lon="4.577035"><ele>0.0</ele></rtept>
    <rtept lat="52.266034" lon="4.576884"><ele>0.0</ele></rtept>
    <rtept lat="52.266048" lon="4.576859"><ele>0.0</ele></rtept>
    <rtept lat="52.266119" lon="4.576740"><ele>0.0</ele></rtept>
    <rtept lat="52.266192" lon="4.576786"><ele>0.0</ele></rtept>
    <rtept lat="52.267841" lon="4.579118"><ele>0.0</ele></rtept>
    <rtept lat="52.268568" lon="4.580049"><ele>0.0</ele></rtept>
    <rtept lat="52.268955" lon="4.580406"><ele>0.0</ele></rtept>
    <rtept lat="52.269339" lon="4.580604"><ele>0.0</ele></rtept>
    <rtept lat="52.269546" lon="4.580685"><ele>0.0</ele></rtept>
    <rtept lat="52.270019" lon="4.580749"><ele>0.0</ele></rtept>
    <rtept lat="52.270485" lon="4.580642"><ele>0.0</ele></rtept>
    <rtept lat="52.270723" lon="4.580529"><ele>0.0</ele></rtept>
    <rtept lat="52.270839" lon="4.580468"><ele>0.0</ele></rtept>
    <rtept lat="52.270917" lon="4.580369"><ele>0.0</ele></rtept>
    <rtept lat="52.271371" lon="4.579611"><ele>0.0</ele></rtept>
    <rtept lat="52.271462" lon="4.579433"><ele>0.0</ele></rtept>
    <rtept lat="52.271501" lon="4.579411"><ele>0.0</ele></rtept>
    <rtept lat="52.271548" lon="4.579445"><ele>0.0</ele></rtept>
    <rtept lat="52.271811" lon="4.579818"><ele>0.0</ele></rtept>
    <rtept lat="52.271840" lon="4.579832"><ele>0.0</ele></rtept>
    <rtept lat="52.271900" lon="4.579840"><ele>0.0</ele></rtept>
    <rtept lat="52.271949" lon="4.579808"><ele>0.0</ele></rtept>
    <rtept lat="52.272425" lon="4.578821"><ele>0.0</ele></rtept>
    <rtept lat="52.272521" lon="4.578656"><ele>0.0</ele></rtept>
    <rtept lat="52.273039" lon="4.577775"><ele>0.0</ele></rtept>
    <rtept lat="52.273109" lon="4.577732"><ele>0.0</ele></rtept>
    <rtept lat="52.273216" lon="4.577747"><ele>0.0</ele></rtept>
    <rtept lat="52.273274" lon="4.577799"><ele>0.0</ele></rtept>
    <rtept lat="52.273502" lon="4.578202"><ele>0.0</ele></rtept>
    <rtept lat="52.273579" lon="4.578080"><ele>0.0</ele></rtept>
    <rtept lat="52.273882" lon="4.578555"><ele>0.0</ele></rtept>
    <rtept lat="52.274436" lon="4.579180"><ele>0.0</ele></rtept>
    <rtept lat="52.274645" lon="4.579504"><ele>0.0</ele></rtept>
    <rtept lat="52.278870" lon="4.586735"><ele>0.0</ele></rtept>
    <rtept lat="52.279904" lon="4.588494"><ele>0.0</ele></rtept>
    <rtept lat="52.280122" lon="4.588788"><ele>0.0</ele></rtept>
    <rtept lat="52.280404" lon="4.589077"><ele>0.0</ele></rtept>
    <rtept lat="52.280996" lon="4.589485"><ele>0.0</ele></rtept>
    <rtept lat="52.281943" lon="4.589941"><ele>0.0</ele></rtept>
    <rtept lat="52.282415" lon="4.590171"><ele>0.0</ele></rtept>
    <rtept lat="52.285607" lon="4.591745"><ele>0.0</ele></rtept>
    <rtept lat="52.286151" lon="4.592199"><ele>0.0</ele></rtept>
    <rtept lat="52.286521" lon="4.592540"><ele>0.0</ele></rtept>
    <rtept lat="52.286710" lon="4.592737"><ele>0.0</ele></rtept>
    <rtept lat="52.286781" lon="4.592943"><ele>0.0</ele></rtept>
    <rtept lat="52.286835" lon="4.592926"><ele>0.0</ele></rtept>
    <rtept lat="52.286916" lon="4.592925"><ele>0.0</ele></rtept>
    <rtept lat="52.287004" lon="4.592977"><ele>0.0</ele></rtept>
    <rtept lat="52.287096" lon="4.593059"><ele>0.0</ele></rtept>
    <rtept lat="52.288296" lon="4.594131"><ele>0.0</ele></rtept>
    <rtept lat="52.288342" lon="4.594315"><ele>0.0</ele></rtept>
    <rtept lat="52.288504" lon="4.594472"><ele>0.0</ele></rtept>
    <rtept lat="52.288519" lon="4.594302"><ele>0.0</ele></rtept>
    <rtept lat="52.288542" lon="4.594370"><ele>0.0</ele></rtept>
    <rtept lat="52.288569" lon="4.594391"><ele>0.0</ele></rtept>
    <rtept lat="52.288851" lon="4.594600"><ele>0.0</ele></rtept>
    <rtept lat="52.289410" lon="4.595103"><ele>0.0</ele></rtept>
    <rtept lat="52.291023" lon="4.596528"><ele>0.0</ele></rtept>
    <rtept lat="52.291343" lon="4.596710"><ele>0.0</ele></rtept>
    <rtept lat="52.291850" lon="4.596858"><ele>0.0</ele></rtept>
    <rtept lat="52.293725" lon="4.596917"><ele>0.0</ele></rtept>
    <rtept lat="52.294026" lon="4.596994"><ele>0.0</ele></rtept>
    <rtept lat="52.295386" lon="4.597477"><ele>0.0</ele></rtept>
    <rtept lat="52.295877" lon="4.597665"><ele>0.0</ele></rtept>
    <rtept lat="52.296114" lon="4.597807"><ele>0.0</ele></rtept>
    <rtept lat="52.297229" lon="4.598571"><ele>0.0</ele></rtept>
    <rtept lat="52.297707" lon="4.598944"><ele>0.0</ele></rtept>
    <rtept lat="52.300872" lon="4.601260"><ele>0.0</ele></rtept>
    <rtept lat="52.301865" lon="4.601988"><ele>0.0</ele></rtept>
    <rtept lat="52.303089" lon="4.602903"><ele>0.0</ele></rtept>
    <rtept lat="52.305356" lon="4.604584"><ele>0.0</ele></rtept>
    <rtept lat="52.305613" lon="4.604809"><ele>0.0</ele></rtept>
    <rtept lat="52.305830" lon="4.605000"><ele>0.0</ele></rtept>
    <rtept lat="52.306224" lon="4.605476"><ele>0.0</ele></rtept>
    <rtept lat="52.308254" lon="4.607942"><ele>0.0</ele></rtept>
    <rtept lat="52.308874" lon="4.608665"><ele>0.0</ele></rtept>
    <rtept lat="52.310101" lon="4.610181"><ele>0.0</ele></rtept>
    <rtept lat="52.310442" lon="4.610592"><ele>0.0</ele></rtept>
    <rtept lat="52.311054" lon="4.611326"><ele>0.0</ele></rtept>
    <rtept lat="52.311370" lon="4.611650"><ele>0.0</ele></rtept>
    <rtept lat="52.311750" lon="4.611940"><ele>0.0</ele></rtept>
    <rtept lat="52.312170" lon="4.612180"><ele>0.0</ele></rtept>
    <rtept lat="52.312352" lon="4.612246"><ele>0.0</ele></rtept>
    <rtept lat="52.312522" lon="4.612308"><ele>0.0</ele></rtept>
    <rtept lat="52.312632" lon="4.612330"><ele>0.0</ele></rtept>
    <rtept lat="52.312827" lon="4.612342"><ele>0.0</ele></rtept>
    <rtept lat="52.315203" lon="4.612286"><ele>0.0</ele></rtept>
    <rtept lat="52.317584" lon="4.612196"><ele>0.0</ele></rtept>
    <rtept lat="52.317844" lon="4.612205"><ele>0.0</ele></rtept>
    <rtept lat="52.317902" lon="4.612266"><ele>0.0</ele></rtept>
    <rtept lat="52.317970" lon="4.612276"><ele>0.0</ele></rtept>
    <rtept lat="52.318054" lon="4.612270"><ele>0.0</ele></rtept>
    <rtept lat="52.318123" lon="4.612247"><ele>0.0</ele></rtept>
    <rtept lat="52.318161" lon="4.612193"><ele>0.0</ele></rtept>
    <rtept lat="52.319166" lon="4.612132"><ele>0.0</ele></rtept>
    <rtept lat="52.322032" lon="4.612057"><ele>0.0</ele></rtept>
    <rtept lat="52.324000" lon="4.611990"><ele>0.0</ele></rtept>
    <rtept lat="52.324306" lon="4.612018"><ele>0.0</ele></rtept>
    <rtept lat="52.325024" lon="4.612179"><ele>0.0</ele></rtept>
    <rtept lat="52.325463" lon="4.612340"><ele>0.0</ele></rtept>
    <rtept lat="52.325927" lon="4.612545"><ele>0.0</ele></rtept>
    <rtept lat="52.326296" lon="4.612751"><ele>0.0</ele></rtept>
    <rtept lat="52.326440" lon="4.612832"><ele>0.0</ele></rtept>
    <rtept lat="52.326947" lon="4.613202"><ele>0.0</ele></rtept>
    <rtept lat="52.328372" lon="4.614470"><ele>0.0</ele></rtept>
    <rtept lat="52.330388" lon="4.616286"><ele>0.0</ele></rtept>
    <rtept lat="52.331180" lon="4.617010"><ele>0.0</ele></rtept>
    <rtept lat="52.331620" lon="4.617450"><ele>0.0</ele></rtept>
    <rtept lat="52.332002" lon="4.617907"><ele>0.0</ele></rtept>
    <rtept lat="52.332271" lon="4.618285"><ele>0.0</ele></rtept>
    <rtept lat="52.332729" lon="4.619023"><ele>0.0</ele></rtept>
    <rtept lat="52.332920" lon="4.619389"><ele>0.0</ele></rtept>
    <rtept lat="52.333249" lon="4.620091"><ele>0.0</ele></rtept>
    <rtept lat="52.333432" lon="4.620573"><ele>0.0</ele></rtept>
    <rtept lat="52.334268" lon="4.622801"><ele>0.0</ele></rtept>
    <rtept lat="52.336159" lon="4.627910"><ele>0.0</ele></rtept>
    <rtept lat="52.336358" lon="4.628444"><ele>0.0</ele></rtept>
    <rtept lat="52.336714" lon="4.629411"><ele>0.0</ele></rtept>
    <rtept lat="52.336871" lon="4.629851"><ele>0.0</ele></rtept>
    <rtept lat="52.337129" lon="4.630641"><ele>0.0</ele></rtept>
    <rtept lat="52.337145" lon="4.630795"><ele>0.0</ele></rtept>
    <rtept lat="52.337124" lon="4.631021"><ele>0.0</ele></rtept>
    <rtept lat="52.337250" lon="4.631100"><ele>0.0</ele></rtept>
    <rtept lat="52.337311" lon="4.631257"><ele>0.0</ele></rtept>
    <rtept lat="52.337353" lon="4.631453"><ele>0.0</ele></rtept>
    <rtept lat="52.337502" lon="4.632243"><ele>0.0</ele></rtept>
    <rtept lat="52.337578" lon="4.632876"><ele>0.0</ele></rtept>
    <rtept lat="52.337669" lon="4.633654"><ele>0.0</ele></rtept>
    <rtept lat="52.337970" lon="4.635910"><ele>0.0</ele></rtept>
    <rtept lat="52.337969" lon="4.636028"><ele>0.0</ele></rtept>
    <rtept lat="52.338054" lon="4.636067"><ele>0.0</ele></rtept>
    <rtept lat="52.338096" lon="4.636096"><ele>0.0</ele></rtept>
    <rtept lat="52.338137" lon="4.636161"><ele>0.0</ele></rtept>
    <rtept lat="52.338239" lon="4.636907"><ele>0.0</ele></rtept>
    <rtept lat="52.338334" lon="4.637602"><ele>0.0</ele></rtept>
    <rtept lat="52.338311" lon="4.637685"><ele>0.0</ele></rtept>
    <rtept lat="52.338283" lon="4.637723"><ele>0.0</ele></rtept>
    <rtept lat="52.338244" lon="4.637770"><ele>0.0</ele></rtept>
    <rtept lat="52.338384" lon="4.638759"><ele>0.0</ele></rtept>
    <rtept lat="52.338423" lon="4.639047"><ele>0.0</ele></rtept>
    <rtept lat="52.338428" lon="4.639077"><ele>0.0</ele></rtept>
    <rtept lat="52.338456" lon="4.639302"><ele>0.0</ele></rtept>
    <rtept lat="52.338595" lon="4.640349"><ele>0.0</ele></rtept>
    <rtept lat="52.338905" lon="4.642546"><ele>0.0</ele></rtept>
    <rtept lat="52.339171" lon="4.644426"><ele>0.0</ele></rtept>
    <rtept lat="52.339457" lon="4.646521"><ele>0.0</ele></rtept>
    <rtept lat="52.339474" lon="4.646640"><ele>0.0</ele></rtept>
    <rtept lat="52.339580" lon="4.647310"><ele>0.0</ele></rtept>
    <rtept lat="52.339680" lon="4.647815"><ele>0.0</ele></rtept>
    <rtept lat="52.339721" lon="4.647795"><ele>0.0</ele></rtept>
    <rtept lat="52.339712" lon="4.647744"><ele>0.0</ele></rtept>
    <rtept lat="52.339726" lon="4.647736"><ele>0.0</ele></rtept>
    <rtept lat="52.340053" lon="4.647559"><ele>0.0</ele></rtept>
    <rtept lat="52.340080" lon="4.647544"><ele>0.0</ele></rtept>
    <rtept lat="52.340255" lon="4.648278"><ele>0.0</ele></rtept>
    <rtept lat="52.340435" lon="4.648894"><ele>0.0</ele></rtept>
    <rtept lat="52.340674" lon="4.649522"><ele>0.0</ele></rtept>
    <rtept lat="52.341459" lon="4.651327"><ele>0.0</ele></rtept>
    <rtept lat="52.341595" lon="4.651586"><ele>0.0</ele></rtept>
    <rtept lat="52.341685" lon="4.651698"><ele>0.0</ele></rtept>
    <rtept lat="52.341754" lon="4.651698"><ele>0.0</ele></rtept>
    <rtept lat="52.341957" lon="4.651794"><ele>0.0</ele></rtept>
    <rtept lat="52.342013" lon="4.651801"><ele>0.0</ele></rtept>
    <rtept lat="52.342064" lon="4.651800"><ele>0.0</ele></rtept>
    <rtept lat="52.342335" lon="4.651730"><ele>0.0</ele></rtept>
    <rtept lat="52.342369" lon="4.651696"><ele>0.0</ele></rtept>
    <rtept lat="52.342425" lon="4.650730"><ele>0.0</ele></rtept>
    <rtept lat="52.342485" lon="4.650390"><ele>0.0</ele></rtept>
    <rtept lat="52.342556" lon="4.650180"><ele>0.0</ele></rtept>
    <rtept lat="52.342666" lon="4.649972"><ele>0.0</ele></rtept>
    <rtept lat="52.343001" lon="4.649581"><ele>0.0</ele></rtept>
    <rtept lat="52.343159" lon="4.649484"><ele>0.0</ele></rtept>
    <rtept lat="52.343416" lon="4.649421"><ele>0.0</ele></rtept>
    <rtept lat="52.343613" lon="4.649427"><ele>0.0</ele></rtept>
    <rtept lat="52.343773" lon="4.649476"><ele>0.0</ele></rtept>
    <rtept lat="52.343950" lon="4.649604"><ele>0.0</ele></rtept>
    <rtept lat="52.344176" lon="4.649928"><ele>0.0</ele></rtept>
    <rtept lat="52.344881" lon="4.651016"><ele>0.0</ele></rtept>
    <rtept lat="52.344940" lon="4.651020"><ele>0.0</ele></rtept>
    <rtept lat="52.345066" lon="4.650982"><ele>0.0</ele></rtept>
    <rtept lat="52.345236" lon="4.650922"><ele>0.0</ele></rtept>
    <rtept lat="52.345388" lon="4.651110"><ele>0.0</ele></rtept>
    <rtept lat="52.345436" lon="4.652011"><ele>0.0</ele></rtept>
    <rtept lat="52.345513" lon="4.652414"><ele>0.0</ele></rtept>
    <rtept lat="52.345667" lon="4.652911"><ele>0.0</ele></rtept>
    <rtept lat="52.346012" lon="4.653697"><ele>0.0</ele></rtept>
    <rtept lat="52.346234" lon="4.654221"><ele>0.0</ele></rtept>
    <rtept lat="52.346377" lon="4.654461"><ele>0.0</ele></rtept>
    <rtept lat="52.346476" lon="4.654604"><ele>0.0</ele></rtept>
    <rtept lat="52.346709" lon="4.654815"><ele>0.0</ele></rtept>
    <rtept lat="52.346819" lon="4.654898"><ele>0.0</ele></rtept>
    <rtept lat="52.347350" lon="4.655372"><ele>0.0</ele></rtept>
    <rtept lat="52.347802" lon="4.656989"><ele>0.0</ele></rtept>
    <rtept lat="52.347871" lon="4.657263"><ele>0.0</ele></rtept>
    <rtept lat="52.348028" lon="4.657212"><ele>0.0</ele></rtept>
    <rtept lat="52.348146" lon="4.657134"><ele>0.0</ele></rtept>
    <rtept lat="52.348360" lon="4.656988"><ele>0.0</ele></rtept>
    <rtept lat="52.348946" lon="4.656599"><ele>0.0</ele></rtept>
    <rtept lat="52.349204" lon="4.656432"><ele>0.0</ele></rtept>
    <rtept lat="52.349542" lon="4.656005"><ele>0.0</ele></rtept>
    <rtept lat="52.349598" lon="4.655934"><ele>0.0</ele></rtept>
    <rtept lat="52.349690" lon="4.655819"><ele>0.0</ele></rtept>
    <rtept lat="52.349725" lon="4.655773"><ele>0.0</ele></rtept>
    <rtept lat="52.349760" lon="4.655728"><ele>0.0</ele></rtept>
    <rtept lat="52.349952" lon="4.655703"><ele>0.0</ele></rtept>
    <rtept lat="52.350589" lon="4.655454"><ele>0.0</ele></rtept>
    <rtept lat="52.350702" lon="4.655411"><ele>0.0</ele></rtept>
    <rtept lat="52.350800" lon="4.655348"><ele>0.0</ele></rtept>
    <rtept lat="52.350856" lon="4.655312"><ele>0.0</ele></rtept>
    <rtept lat="52.350969" lon="4.655236"><ele>0.0</ele></rtept>
    <rtept lat="52.351292" lon="4.655017"><ele>0.0</ele></rtept>
    <rtept lat="52.351590" lon="4.654813"><ele>0.0</ele></rtept>
    <rtept lat="52.351731" lon="4.654793"><ele>0.0</ele></rtept>
    <rtept lat="52.352156" lon="4.654786"><ele>0.0</ele></rtept>
    <rtept lat="52.352156" lon="4.654831"><ele>0.0</ele></rtept>
    <rtept lat="52.352801" lon="4.654823"><ele>0.0</ele></rtept>
    <rtept lat="52.352927" lon="4.654821"><ele>0.0</ele></rtept>
    <rtept lat="52.353138" lon="4.654814"><ele>0.0</ele></rtept>
    <rtept lat="52.353194" lon="4.654813"><ele>0.0</ele></rtept>
    <rtept lat="52.353264" lon="4.654814"><ele>0.0</ele></rtept>
    <rtept lat="52.353325" lon="4.654862"><ele>0.0</ele></rtept>
    <rtept lat="52.353576" lon="4.654870"><ele>0.0</ele></rtept>
    <rtept lat="52.353647" lon="4.654847"><ele>0.0</ele></rtept>
    <rtept lat="52.354127" lon="4.654831"><ele>0.0</ele></rtept>
    <rtept lat="52.354181" lon="4.654880"><ele>0.0</ele></rtept>
    <rtept lat="52.354234" lon="4.654883"><ele>0.0</ele></rtept>
    <rtept lat="52.354286" lon="4.654875"><ele>0.0</ele></rtept>
    <rtept lat="52.354343" lon="4.654865"><ele>0.0</ele></rtept>
    <rtept lat="52.354383" lon="4.654791"><ele>0.0</ele></rtept>
    <rtept lat="52.354353" lon="4.654683"><ele>0.0</ele></rtept>
    <rtept lat="52.354814" lon="4.654214"><ele>0.0</ele></rtept>
    <rtept lat="52.355082" lon="4.653855"><ele>0.0</ele></rtept>
    <rtept lat="52.355350" lon="4.653253"><ele>0.0</ele></rtept>
    <rtept lat="52.355376" lon="4.653194"><ele>0.0</ele></rtept>
    <rtept lat="52.355506" lon="4.653269"><ele>0.0</ele></rtept>
    <rtept lat="52.355523" lon="4.653267"><ele>0.0</ele></rtept>
    <rtept lat="52.355619" lon="4.653326"><ele>0.0</ele></rtept>
    <rtept lat="52.355910" lon="4.653484"><ele>0.0</ele></rtept>
    <rtept lat="52.356053" lon="4.653510"><ele>0.0</ele></rtept>
    <rtept lat="52.356272" lon="4.653494"><ele>0.0</ele></rtept>
    <rtept lat="52.356404" lon="4.653460"><ele>0.0</ele></rtept>
    <rtept lat="52.356452" lon="4.653449"><ele>0.0</ele></rtept>
    <rtept lat="52.356813" lon="4.653357"><ele>0.0</ele></rtept>
    <rtept lat="52.356883" lon="4.653437"><ele>0.0</ele></rtept>
    <rtept lat="52.356955" lon="4.653484"><ele>0.0</ele></rtept>
    <rtept lat="52.357045" lon="4.653480"><ele>0.0</ele></rtept>
    <rtept lat="52.357132" lon="4.653378"><ele>0.0</ele></rtept>
    <rtept lat="52.357206" lon="4.653257"><ele>0.0</ele></rtept>
    <rtept lat="52.357489" lon="4.653170"><ele>0.0</ele></rtept>
    <rtept lat="52.357534" lon="4.653126"><ele>0.0</ele></rtept>
    <rtept lat="52.358212" lon="4.652945"><ele>0.0</ele></rtept>
    <rtept lat="52.358760" lon="4.652870"><ele>0.0</ele></rtept>
    <rtept lat="52.358933" lon="4.652817"><ele>0.0</ele></rtept>
    <rtept lat="52.359366" lon="4.652714"><ele>0.0</ele></rtept>
    <rtept lat="52.360114" lon="4.652458"><ele>0.0</ele></rtept>
    <rtept lat="52.360177" lon="4.652473"><ele>0.0</ele></rtept>
    <rtept lat="52.360202" lon="4.652505"><ele>0.0</ele></rtept>
    <rtept lat="52.360233" lon="4.652646"><ele>0.0</ele></rtept>
    <rtept lat="52.360253" lon="4.653322"><ele>0.0</ele></rtept>
    <rtept lat="52.360285" lon="4.653486"><ele>0.0</ele></rtept>
    <rtept lat="52.360367" lon="4.653773"><ele>0.0</ele></rtept>
    <rtept lat="52.360403" lon="4.654166"><ele>0.0</ele></rtept>
    <rtept lat="52.360461" lon="4.654152"><ele>0.0</ele></rtept>
    <rtept lat="52.360621" lon="4.654102"><ele>0.0</ele></rtept>
    <rtept lat="52.360711" lon="4.654127"><ele>0.0</ele></rtept>
    <rtept lat="52.360742" lon="4.654147"><ele>0.0</ele></rtept>
    <rtept lat="52.360844" lon="4.654168"><ele>0.0</ele></rtept>
    <rtept lat="52.361216" lon="4.654163"><ele>0.0</ele></rtept>
    <rtept lat="52.361326" lon="4.654162"><ele>0.0</ele></rtept>
    <rtept lat="52.361412" lon="4.654126"><ele>0.0</ele></rtept>
    <rtept lat="52.361570" lon="4.654125"><ele>0.0</ele></rtept>
    <rtept lat="52.361783" lon="4.654123"><ele>0.0</ele></rtept>
    <rtept lat="52.362071" lon="4.654118"><ele>0.0</ele></rtept>
    <rtept lat="52.362123" lon="4.654117"><ele>0.0</ele></rtept>
    <rtept lat="52.362590" lon="4.654102"><ele>0.0</ele></rtept>
    <rtept lat="52.362878" lon="4.654092"><ele>0.0</ele></rtept>
    <rtept lat="52.363395" lon="4.654083"><ele>0.0</ele></rtept>
    <rtept lat="52.364269" lon="4.654060"><ele>0.0</ele></rtept>
    <rtept lat="52.364322" lon="4.654021"><ele>0.0</ele></rtept>
    <rtept lat="52.364433" lon="4.653981"><ele>0.0</ele></rtept>
    <rtept lat="52.364513" lon="4.653978"><ele>0.0</ele></rtept>
    <rtept lat="52.364581" lon="4.653989"><ele>0.0</ele></rtept>
    <rtept lat="52.364782" lon="4.654057"><ele>0.0</ele></rtept>
    <rtept lat="52.365750" lon="4.654064"><ele>0.0</ele></rtept>
    <rtept lat="52.365789" lon="4.654064"><ele>0.0</ele></rtept>
    <rtept lat="52.366357" lon="4.654069"><ele>0.0</ele></rtept>
    <rtept lat="52.366848" lon="4.654073"><ele>0.0</ele></rtept>
    <rtept lat="52.367097" lon="4.654035"><ele>0.0</ele></rtept>
    <rtept lat="52.367538" lon="4.654010"><ele>0.0</ele></rtept>
    <rtept lat="52.367578" lon="4.653977"><ele>0.0</ele></rtept>
    <rtept lat="52.367619" lon="4.653893"><ele>0.0</ele></rtept>
    <rtept lat="52.367730" lon="4.653866"><ele>0.0</ele></rtept>
    <rtept lat="52.367835" lon="4.653868"><ele>0.0</ele></rtept>
    <rtept lat="52.367914" lon="4.653873"><ele>0.0</ele></rtept>
    <rtept lat="52.367956" lon="4.653903"><ele>0.0</ele></rtept>
    <rtept lat="52.368048" lon="4.653989"><ele>0.0</ele></rtept>
    <rtept lat="52.368746" lon="4.654020"><ele>0.0</ele></rtept>
    <rtept lat="52.368986" lon="4.654073"><ele>0.0</ele></rtept>
    <rtept lat="52.369718" lon="4.654141"><ele>0.0</ele></rtept>
    <rtept lat="52.369915" lon="4.654083"><ele>0.0</ele></rtept>
    <rtept lat="52.370021" lon="4.654058"><ele>0.0</ele></rtept>
    <rtept lat="52.370091" lon="4.654053"><ele>0.0</ele></rtept>
    <rtept lat="52.370213" lon="4.654051"><ele>0.0</ele></rtept>
    <rtept lat="52.370315" lon="4.654049"><ele>0.0</ele></rtept>
    <rtept lat="52.370383" lon="4.654046"><ele>0.0</ele></rtept>
    <rtept lat="52.370538" lon="4.654082"><ele>0.0</ele></rtept>
    <rtept lat="52.370725" lon="4.654174"><ele>0.0</ele></rtept>
    <rtept lat="52.370859" lon="4.654271"><ele>0.0</ele></rtept>
    <rtept lat="52.371236" lon="4.654599"><ele>0.0</ele></rtept>
    <rtept lat="52.371585" lon="4.654921"><ele>0.0</ele></rtept>
    <rtept lat="52.371732" lon="4.655058"><ele>0.0</ele></rtept>
    <rtept lat="52.371869" lon="4.655171"><ele>0.0</ele></rtept>
    <rtept lat="52.372940" lon="4.656054"><ele>0.0</ele></rtept>
    <rtept lat="52.374345" lon="4.657221"><ele>0.0</ele></rtept>
    <rtept lat="52.374521" lon="4.657375"><ele>0.0</ele></rtept>
    <rtept lat="52.374915" lon="4.657845"><ele>0.0</ele></rtept>
    <rtept lat="52.375156" lon="4.658134"><ele>0.0</ele></rtept>
    <rtept lat="52.375240" lon="4.658240"><ele>0.0</ele></rtept>
    <rtept lat="52.375421" lon="4.658427"><ele>0.0</ele></rtept>
    <rtept lat="52.375447" lon="4.658454"><ele>0.0</ele></rtept>
    <rtept lat="52.375661" lon="4.658648"><ele>0.0</ele></rtept>
    <rtept lat="52.376522" lon="4.659138"><ele>0.0</ele></rtept>
    <rtept lat="52.376692" lon="4.659214"><ele>0.0</ele></rtept>
    <rtept lat="52.377331" lon="4.659496"><ele>0.0</ele></rtept>
    <rtept lat="52.378160" lon="4.659899"><ele>0.0</ele></rtept>
    <rtept lat="52.378179" lon="4.659797"><ele>0.0</ele></rtept>
    <rtept lat="52.378203" lon="4.659657"><ele>0.0</ele></rtept>
    <rtept lat="52.378241" lon="4.659432"><ele>0.0</ele></rtept>
    <rtept lat="52.378255" lon="4.659351"><ele>0.0</ele></rtept>
    <rtept lat="52.378439" lon="4.658196"><ele>0.0</ele></rtept>
    <rtept lat="52.378633" lon="4.658301"><ele>0.0</ele></rtept>
    <rtept lat="52.378896" lon="4.657371"><ele>0.0</ele></rtept>
    <rtept lat="52.379010" lon="4.657010"><ele>0.0</ele></rtept>
    <rtept lat="52.379172" lon="4.656914"><ele>0.0</ele></rtept>
    <rtept lat="52.379265" lon="4.656910"><ele>0.0</ele></rtept>
    <rtept lat="52.379322" lon="4.656758"><ele>0.0</ele></rtept>
    <rtept lat="52.379484" lon="4.656332"><ele>0.0</ele></rtept>
    <rtept lat="52.379811" lon="4.656611"><ele>0.0</ele></rtept>
    <rtept lat="52.379890" lon="4.656860"><ele>0.0</ele></rtept>
    <rtept lat="52.379960" lon="4.657149"><ele>0.0</ele></rtept>
    <rtept lat="52.380029" lon="4.657505"><ele>0.0</ele></rtept>
    <rtept lat="52.380029" lon="4.657510"><ele>0.0</ele></rtept>
  </rte>
</gpx>