<?xml version="1.0" encoding="UTF-8"?>
<gpx version="1.1" creator="WeeklyCyclingRoutes"
  xmlns="http://www.topografix.com/GPX/1/1"
  xmlns:xsi="http://www.w3.org/2001/XMLSchema-instance"
  xsi:schemaLocation="http://www.topografix.com/GPX/1/1 http://www.topografix.com/GPX/1/1/gpx.xsd">
  <metadata>
    <name>60km Route – August 31, 2026</name>
    <desc>Round trip from Cremerstraat, Haarlem. Actual: 50.3km</desc>
    <time>2026-08-31T12:25:22Z</time>
  </metadata>
  <rte>
    <name>60km Cycling Route – Haarlem</name>
    <rtept lat="52.380029" lon="4.657510"><ele>0.0</ele></rtept>
    <rtept lat="52.380041" lon="4.657887"><ele>0.0</ele></rtept>
    <rtept lat="52.380803" lon="4.657858"><ele>0.0</ele></rtept>
    <rtept lat="52.380868" lon="4.658723"><ele>0.0</ele></rtept>
    <rtept lat="52.380937" lon="4.659581"><ele>0.0</ele></rtept>
    <rtept lat="52.380949" lon="4.659839"><ele>0.0</ele></rtept>
    <rtept lat="52.381009" lon="4.660558"><ele>0.0</ele></rtept>
    <rtept lat="52.381028" lon="4.660835"><ele>0.0</ele></rtept>
    <rtept lat="52.381037" lon="4.661040"><ele>0.0</ele></rtept>
    <rtept lat="52.381073" lon="4.661219"><ele>0.0</ele></rtept>
    <rtept lat="52.381131" lon="4.661312"><ele>0.0</ele></rtept>
    <rtept lat="52.381231" lon="4.661355"><ele>0.0</ele></rtept>
    <rtept lat="52.381374" lon="4.661421"><ele>0.0</ele></rtept>
    <rtept lat="52.381476" lon="4.661472"><ele>0.0</ele></rtept>
    <rtept lat="52.381559" lon="4.661512"><ele>0.0</ele></rtept>
    <rtept lat="52.381630" lon="4.661848"><ele>0.0</ele></rtept>
    <rtept lat="52.381994" lon="4.666423"><ele>0.0</ele></rtept>
    <rtept lat="52.382083" lon="4.668033"><ele>0.0</ele></rtept>
    <rtept lat="52.382126" lon="4.668888"><ele>0.0</ele></rtept>
    <rtept lat="52.382081" lon="4.669001"><ele>0.0</ele></rtept>
    <rtept lat="52.381821" lon="4.669146"><ele>0.0</ele></rtept>
    <rtept lat="52.381681" lon="4.669329"><ele>0.0</ele></rtept>
    <rtept lat="52.381642" lon="4.669425"><ele>0.0</ele></rtept>
    <rtept lat="52.381600" lon="4.669560"><ele>0.0</ele></rtept>
    <rtept lat="52.381583" lon="4.669749"><ele>0.0</ele></rtept>
    <rtept lat="52.381603" lon="4.670462"><ele>0.0</ele></rtept>
    <rtept lat="52.381614" lon="4.670649"><ele>0.0</ele></rtept>
    <rtept lat="52.381628" lon="4.670879"><ele>0.0</ele></rtept>
    <rtept lat="52.381633" lon="4.670943"><ele>0.0</ele></rtept>
    <rtept lat="52.381643" lon="4.671069"><ele>0.0</ele></rtept>
    <rtept lat="52.381680" lon="4.672064"><ele>0.0</ele></rtept>
    <rtept lat="52.381694" lon="4.672099"><ele>0.0</ele></rtept>
    <rtept lat="52.381725" lon="4.672127"><ele>0.0</ele></rtept>
    <rtept lat="52.382021" lon="4.672080"><ele>0.0</ele></rtept>
    <rtept lat="52.382061" lon="4.672121"><ele>0.0</ele></rtept>
    <rtept lat="52.382102" lon="4.672635"><ele>0.0</ele></rtept>
    <rtept lat="52.382112" lon="4.672675"><ele>0.0</ele></rtept>
    <rtept lat="52.382158" lon="4.672706"><ele>0.0</ele></rtept>
    <rtept lat="52.382322" lon="4.672671"><ele>0.0</ele></rtept>
    <rtept lat="52.382359" lon="4.672730"><ele>0.0</ele></rtept>
    <rtept lat="52.382403" lon="4.673346"><ele>0.0</ele></rtept>
    <rtept lat="52.382439" lon="4.674017"><ele>0.0</ele></rtept>
    <rtept lat="52.382415" lon="4.674893"><ele>0.0</ele></rtept>
    <rtept lat="52.382414" lon="4.675667"><ele>0.0</ele></rtept>
    <rtept lat="52.382460" lon="4.676615"><ele>0.0</ele></rtept>
    <rtept lat="52.382526" lon="4.677270"><ele>0.0</ele></rtept>
    <rtept lat="52.382742" lon="4.678856"><ele>0.0</ele></rtept>
    <rtept lat="52.382873" lon="4.679976"><ele>0.0</ele></rtept>
    <rtept lat="52.382884" lon="4.680313"><ele>0.0</ele></rtept>
    <rtept lat="52.382870" lon="4.680472"><ele>0.0</ele></rtept>
    <rtept lat="52.382828" lon="4.680840"><ele>0.0</ele></rtept>
    <rtept lat="52.382791" lon="4.681123"><ele>0.0</ele></rtept>
    <rtept lat="52.382746" lon="4.681586"><ele>0.0</ele></rtept>
    <rtept lat="52.382747" lon="4.681843"><ele>0.0</ele></rtept>
    <rtept lat="52.382770" lon="4.682133"><ele>0.0</ele></rtept>
    <rtept lat="52.382810" lon="4.682410"><ele>0.0</ele></rtept>
    <rtept lat="52.382875" lon="4.682698"><ele>0.0</ele></rtept>
    <rtept lat="52.382992" lon="4.683096"><ele>0.0</ele></rtept>
    <rtept lat="52.383033" lon="4.683302"><ele>0.0</ele></rtept>
    <rtept lat="52.383222" lon="4.685672"><ele>0.0</ele></rtept>
    <rtept lat="52.383273" lon="4.686379"><ele>0.0</ele></rtept>
    <rtept lat="52.383293" lon="4.687046"><ele>0.0</ele></rtept>
    <rtept lat="52.383324" lon="4.688063"><ele>0.0</ele></rtept>
    <rtept lat="52.383362" lon="4.688525"><ele>0.0</ele></rtept>
    <rtept lat="52.383394" lon="4.688793"><ele>0.0</ele></rtept>
    <rtept lat="52.383591" lon="4.690995"><ele>0.0</ele></rtept>
    <rtept lat="52.383642" lon="4.691686"><ele>0.0</ele></rtept>
    <rtept lat="52.383607" lon="4.692281"><ele>0.0</ele></rtept>
    <rtept lat="52.383802" lon="4.694548"><ele>0.0</ele></rtept>
    <rtept lat="52.383884" lon="4.695286"><ele>0.0</ele></rtept>
    <rtept lat="52.383903" lon="4.695418"><ele>0.0</ele></rtept>
    <rtept lat="52.383978" lon="4.696881"><ele>0.0</ele></rtept>
    <rtept lat="52.384004" lon="4.697808"><ele>0.0</ele></rtept>
    <rtept lat="52.384018" lon="4.699234"><ele>0.0</ele></rtept>
    <rtept lat="52.383982" lon="4.699473"><ele>0.0</ele></rtept>
    <rtept lat="52.383930" lon="4.699663"><ele>0.0</ele></rtept>
    <rtept lat="52.383909" lon="4.699802"><ele>0.0</ele></rtept>
    <rtept lat="52.383906" lon="4.700086"><ele>0.0</ele></rtept>
    <rtept lat="52.383910" lon="4.700207"><ele>0.0</ele></rtept>
    <rtept lat="52.383946" lon="4.700324"><ele>0.0</ele></rtept>
    <rtept lat="52.383973" lon="4.700469"><ele>0.0</ele></rtept>
    <rtept lat="52.383958" lon="4.700846"><ele>0.0</ele></rtept>
    <rtept lat="52.383749" lon="4.703579"><ele>0.0</ele></rtept>
    <rtept lat="52.383682" lon="4.704091"><ele>0.0</ele></rtept>
    <rtept lat="52.383567" lon="4.704509"><ele>0.0</ele></rtept>
    <rtept lat="52.383479" lon="4.704742"><ele>0.0</ele></rtept>
    <rtept lat="52.383024" lon="4.705491"><ele>0.0</ele></rtept>
    <rtept lat="52.382830" lon="4.705912"><ele>0.0</ele></rtept>
    <rtept lat="52.382756" lon="4.706165"><ele>0.0</ele></rtept>
    <rtept lat="52.382677" lon="4.706639"><ele>0.0</ele></rtept>
    <rtept lat="52.382649" lon="4.707081"><ele>0.0</ele></rtept>
    <rtept lat="52.382668" lon="4.707451"><ele>0.0</ele></rtept>
    <rtept lat="52.382757" lon="4.708016"><ele>0.0</ele></rtept>
    <rtept lat="52.382856" lon="4.708337"><ele>0.0</ele></rtept>
    <rtept lat="52.383070" lon="4.708804"><ele>0.0</ele></rtept>
    <rtept lat="52.383740" lon="4.709674"><ele>0.0</ele></rtept>
    <rtept lat="52.383844" lon="4.709839"><ele>0.0</ele></rtept>
    <rtept lat="52.383927" lon="4.710016"><ele>0.0</ele></rtept>
    <rtept lat="52.383998" lon="4.710171"><ele>0.0</ele></rtept>
    <rtept lat="52.384059" lon="4.710360"><ele>0.0</ele></rtept>
    <rtept lat="52.385266" lon="4.715553"><ele>0.0</ele></rtept>
    <rtept lat="52.385407" lon="4.716301"><ele>0.0</ele></rtept>
    <rtept lat="52.385593" lon="4.717426"><ele>0.0</ele></rtept>
    <rtept lat="52.385731" lon="4.718945"><ele>0.0</ele></rtept>
    <rtept lat="52.385827" lon="4.720306"><ele>0.0</ele></rtept>
    <rtept lat="52.385951" lon="4.722133"><ele>0.0</ele></rtept>
    <rtept lat="52.385991" lon="4.722693"><ele>0.0</ele></rtept>
    <rtept lat="52.386078" lon="4.723860"><ele>0.0</ele></rtept>
    <rtept lat="52.386413" lon="4.728660"><ele>0.0</ele></rtept>
    <rtept lat="52.386486" lon="4.731357"><ele>0.0</ele></rtept>
    <rtept lat="52.386479" lon="4.731798"><ele>0.0</ele></rtept>
    <rtept lat="52.386455" lon="4.732206"><ele>0.0</ele></rtept>
    <rtept lat="52.386385" lon="4.732958"><ele>0.0</ele></rtept>
    <rtept lat="52.386291" lon="4.733661"><ele>0.0</ele></rtept>
    <rtept lat="52.386268" lon="4.733732"><ele>0.0</ele></rtept>
    <rtept lat="52.386227" lon="4.733787"><ele>0.0</ele></rtept>
    <rtept lat="52.386188" lon="4.733959"><ele>0.0</ele></rtept>
    <rtept lat="52.386173" lon="4.734058"><ele>0.0</ele></rtept>
    <rtept lat="52.386150" lon="4.734185"><ele>0.0</ele></rtept>
    <rtept lat="52.386173" lon="4.734304"><ele>0.0</ele></rtept>
    <rtept lat="52.386163" lon="4.734377"><ele>0.0</ele></rtept>
    <rtept lat="52.385982" lon="4.734924"><ele>0.0</ele></rtept>
    <rtept lat="52.385850" lon="4.735542"><ele>0.0</ele></rtept>
    <rtept lat="52.385848" lon="4.735609"><ele>0.0</ele></rtept>
    <rtept lat="52.385888" lon="4.735793"><ele>0.0</ele></rtept>
    <rtept lat="52.386201" lon="4.736332"><ele>0.0</ele></rtept>
    <rtept lat="52.386209" lon="4.736996"><ele>0.0</ele></rtept>
    <rtept lat="52.386204" lon="4.738830"><ele>0.0</ele></rtept>
    <rtept lat="52.386186" lon="4.740366"><ele>0.0</ele></rtept>
    <rtept lat="52.386152" lon="4.740968"><ele>0.0</ele></rtept>
    <rtept lat="52.385972" lon="4.742702"><ele>0.0</ele></rtept>
    <rtept lat="52.385937" lon="4.743013"><ele>0.0</ele></rtept>
    <rtept lat="52.385814" lon="4.744137"><ele>0.0</ele></rtept>
    <rtept lat="52.385763" lon="4.744666"><ele>0.0</ele></rtept>
    <rtept lat="52.385666" lon="4.745497"><ele>0.0</ele></rtept>
    <rtept lat="52.385634" lon="4.745722"><ele>0.0</ele></rtept>
    <rtept lat="52.385621" lon="4.745827"><ele>0.0</ele></rtept>
    <rtept lat="52.385611" lon="4.745929"><ele>0.0</ele></rtept>
    <rtept lat="52.385593" lon="4.746021"><ele>0.0</ele></rtept>
    <rtept lat="52.385546" lon="4.746442"><ele>0.0</ele></rtept>
    <rtept lat="52.385516" lon="4.746693"><ele>0.0</ele></rtept>
    <rtept lat="52.385500" lon="4.746822"><ele>0.0</ele></rtept>
    <rtept lat="52.385457" lon="4.747221"><ele>0.0</ele></rtept>
    <rtept lat="52.385477" lon="4.747519"><ele>0.0</ele></rtept>
    <rtept lat="52.385399" lon="4.747873"><ele>0.0</ele></rtept>
    <rtept lat="52.385288" lon="4.748128"><ele>0.0</ele></rtept>
    <rtept lat="52.384996" lon="4.748590"><ele>0.0</ele></rtept>
    <rtept lat="52.384490" lon="4.749405"><ele>0.0</ele></rtept>
    <rtept lat="52.384433" lon="4.749522"><ele>0.0</ele></rtept>
    <rtept lat="52.384339" lon="4.749844"><ele>0.0</ele></rtept>
    <rtept lat="52.384225" lon="4.750407"><ele>0.0</ele></rtept>
    <rtept lat="52.383960" lon="4.751698"><ele>0.0</ele></rtept>
    <rtept lat="52.383864" lon="4.752287"><ele>0.0</ele></rtept>
    <rtept lat="52.383837" lon="4.752562"><ele>0.0</ele></rtept>
    <rtept lat="52.383827" lon="4.752945"><ele>0.0</ele></rtept>
    <rtept lat="52.383802" lon="4.753551"><ele>0.0</ele></rtept>
    <rtept lat="52.383752" lon="4.754300"><ele>0.0</ele></rtept>
    <rtept lat="52.383746" lon="4.754460"><ele>0.0</ele></rtept>
    <rtept lat="52.383743" lon="4.754539"><ele>0.0</ele></rtept>
    <rtept lat="52.383740" lon="4.754622"><ele>0.0</ele></rtept>
    <rtept lat="52.383735" lon="4.754787"><ele>0.0</ele></rtept>
    <rtept lat="52.383731" lon="4.754927"><ele>0.0</ele></rtept>
    <rtept lat="52.383689" lon="4.756299"><ele>0.0</ele></rtept>
    <rtept lat="52.383713" lon="4.758268"><ele>0.0</ele></rtept>
    <rtept lat="52.383694" lon="4.758466"><ele>0.0</ele></rtept>
    <rtept lat="52.383692" lon="4.758745"><ele>0.0</ele></rtept>
    <rtept lat="52.383668" lon="4.758851"><ele>0.0</ele></rtept>
    <rtept lat="52.383667" lon="4.759023"><ele>0.0</ele></rtept>
    <rtept lat="52.383674" lon="4.759187"><ele>0.0</ele></rtept>
    <rtept lat="52.383738" lon="4.759321"><ele>0.0</ele></rtept>
    <rtept lat="52.383879" lon="4.770285"><ele>0.0</ele></rtept>
    <rtept lat="52.384051" lon="4.784883"><ele>0.0</ele></rtept>
    <rtept lat="52.384066" lon="4.787833"><ele>0.0</ele></rtept>
    <rtept lat="52.384139" lon="4.793427"><ele>0.0</ele></rtept>
    <rtept lat="52.384122" lon="4.793733"><ele>0.0</ele></rtept>
    <rtept lat="52.384140" lon="4.793775"><ele>0.0</ele></rtept>
    <rtept lat="52.384182" lon="4.797791"><ele>0.0</ele></rtept>
    <rtept lat="52.384117" lon="4.799200"><ele>0.0</ele></rtept>
    <rtept lat="52.384152" lon="4.802767"><ele>0.0</ele></rtept>
    <rtept lat="52.384155" lon="4.803023"><ele>0.0</ele></rtept>
    <rtept lat="52.384157" lon="4.803150"><ele>0.0</ele></rtept>
    <rtept lat="52.384159" lon="4.803432"><ele>0.0</ele></rtept>
    <rtept lat="52.384162" lon="4.803978"><ele>0.0</ele></rtept>
    <rtept lat="52.384252" lon="4.805571"><ele>0.0</ele></rtept>
    <rtept lat="52.384298" lon="4.808605"><ele>0.0</ele></rtept>
    <rtept lat="52.384350" lon="4.811877"><ele>0.0</ele></rtept>
    <rtept lat="52.384384" lon="4.815244"><ele>0.0</ele></rtept>
    <rtept lat="52.384364" lon="4.815796"><ele>0.0</ele></rtept>
    <rtept lat="52.384242" lon="4.817748"><ele>0.0</ele></rtept>
    <rtept lat="52.384242" lon="4.818360"><ele>0.0</ele></rtept>
    <rtept lat="52.384247" lon="4.818849"><ele>0.0</ele></rtept>
    <rtept lat="52.384251" lon="4.819121"><ele>0.0</ele></rtept>
    <rtept lat="52.384440" lon="4.821527"><ele>0.0</ele></rtept>
    <rtept lat="52.384514" lon="4.826952"><ele>0.0</ele></rtept>
    <rtept lat="52.384496" lon="4.827206"><ele>0.0</ele></rtept>
    <rtept lat="52.384524" lon="4.827498"><ele>0.0</ele></rtept>
    <rtept lat="52.384610" lon="4.833777"><ele>0.0</ele></rtept>
    <rtept lat="52.384595" lon="4.834148"><ele>0.0</ele></rtept>
    <rtept lat="52.384594" lon="4.834290"><ele>0.0</ele></rtept>
    <rtept lat="52.384594" lon="4.834334"><ele>0.0</ele></rtept>
    <rtept lat="52.384608" lon="4.835046"><ele>0.0</ele></rtept>
    <rtept lat="52.384637" lon="4.835568"><ele>0.0</ele></rtept>
    <rtept lat="52.384669" lon="4.837525"><ele>0.0</ele></rtept>
    <rtept lat="52.384684" lon="4.838380"><ele>0.0</ele></rtept>
    <rtept lat="52.384625" lon="4.838721"><ele>0.0</ele></rtept>
    <rtept lat="52.384637" lon="4.839584"><ele>0.0</ele></rtept>
    <rtept lat="52.384698" lon="4.839884"><ele>0.0</ele></rtept>
    <rtept lat="52.384698" lon="4.839957"><ele>0.0</ele></rtept>
    <rtept lat="52.384700" lon="4.840003"><ele>0.0</ele></rtept>
    <rtept lat="52.384699" lon="4.840068"><ele>0.0</ele></rtept>
    <rtept lat="52.384706" lon="4.840612"><ele>0.0</ele></rtept>
    <rtept lat="52.384738" lon="4.842556"><ele>0.0</ele></rtept>
    <rtept lat="52.384732" lon="4.842949"><ele>0.0</ele></rtept>
    <rtept lat="52.384749" lon="4.843555"><ele>0.0</ele></rtept>
    <rtept lat="52.384735" lon="4.843654"><ele>0.0</ele></rtept>
    <rtept lat="52.384726" lon="4.843750"><ele>0.0</ele></rtept>
    <rtept lat="52.384752" lon="4.845328"><ele>0.0</ele></rtept>
    <rtept lat="52.384758" lon="4.845472"><ele>0.0</ele></rtept>
    <rtept lat="52.384790" lon="4.845593"><ele>0.0</ele></rtept>
    <rtept lat="52.384797" lon="4.846206"><ele>0.0</ele></rtept>
    <rtept lat="52.384794" lon="4.846729"><ele>0.0</ele></rtept>
    <rtept lat="52.384767" lon="4.847116"><ele>0.0</ele></rtept>
    <rtept lat="52.384760" lon="4.847210"><ele>0.0</ele></rtept>
    <rtept lat="52.384762" lon="4.847379"><ele>0.0</ele></rtept>
    <rtept lat="52.384763" lon="4.847592"><ele>0.0</ele></rtept>
    <rtept lat="52.384763" lon="4.847655"><ele>0.0</ele></rtept>
    <rtept lat="52.384794" lon="4.847773"><ele>0.0</ele></rtept>
    <rtept lat="52.384806" lon="4.847885"><ele>0.0</ele></rtept>
    <rtept lat="52.384818" lon="4.848282"><ele>0.0</ele></rtept>
    <rtept lat="52.384822" lon="4.848537"><ele>0.0</ele></rtept>
    <rtept lat="52.384850" lon="4.848552"><ele>0.0</ele></rtept>
    <rtept lat="52.384878" lon="4.848649"><ele>0.0</ele></rtept>
    <rtept lat="52.384883" lon="4.849132"><ele>0.0</ele></rtept>
    <rtept lat="52.384912" lon="4.850707"><ele>0.0</ele></rtept>
    <rtept lat="52.384926" lon="4.851551"><ele>0.0</ele></rtept>
    <rtept lat="52.384870" lon="4.851578"><ele>0.0</ele></rtept>
    <rtept lat="52.384876" lon="4.851883"><ele>0.0</ele></rtept>
    <rtept lat="52.384885" lon="4.852449"><ele>0.0</ele></rtept>
    <rtept lat="52.384941" lon="4.852445"><ele>0.0</ele></rtept>
    <rtept lat="52.384957" lon="4.853445"><ele>0.0</ele></rtept>
    <rtept lat="52.384962" lon="4.854456"><ele>0.0</ele></rtept>
    <rtept lat="52.384960" lon="4.854507"><ele>0.0</ele></rtept>
    <rtept lat="52.384923" lon="4.854871"><ele>0.0</ele></rtept>
    <rtept lat="52.384890" lon="4.855112"><ele>0.0</ele></rtept>
    <rtept lat="52.384891" lon="4.855250"><ele>0.0</ele></rtept>
    <rtept lat="52.384894" lon="4.855387"><ele>0.0</ele></rtept>
    <rtept lat="52.384893" lon="4.855497"><ele>0.0</ele></rtept>
    <rtept lat="52.384895" lon="4.855687"><ele>0.0</ele></rtept>
    <rtept lat="52.384897" lon="4.855764"><ele>0.0</ele></rtept>
    <rtept lat="52.384906" lon="4.855875"><ele>0.0</ele></rtept>
    <rtept lat="52.384954" lon="4.856020"><ele>0.0</ele></rtept>
    <rtept lat="52.384999" lon="4.856251"><ele>0.0</ele></rtept>
    <rtept lat="52.385036" lon="4.856796"><ele>0.0</ele></rtept>
    <rtept lat="52.385050" lon="4.857568"><ele>0.0</ele></rtept>
    <rtept lat="52.385030" lon="4.858551"><ele>0.0</ele></rtept>
    <rtept lat="52.385074" lon="4.859064"><ele>0.0</ele></rtept>
    <rtept lat="52.385085" lon="4.859621"><ele>0.0</ele></rtept>
    <rtept lat="52.385111" lon="4.861020"><ele>0.0</ele></rtept>
    <rtept lat="52.385123" lon="4.861987"><ele>0.0</ele></rtept>
    <rtept lat="52.385125" lon="4.862142"><ele>0.0</ele></rtept>
    <rtept lat="52.385133" lon="4.862851"><ele>0.0</ele></rtept>
    <rtept lat="52.385133" lon="4.862901"><ele>0.0</ele></rtept>
    <rtept lat="52.385135" lon="4.863043"><ele>0.0</ele></rtept>
    <rtept lat="52.385136" lon="4.863161"><ele>0.0</ele></rtept>
    <rtept lat="52.385170" lon="4.865279"><ele>0.0</ele></rtept>
    <rtept lat="52.385169" lon="4.865537"><ele>0.0</ele></rtept>
    <rtept lat="52.385171" lon="4.865668"><ele>0.0</ele></rtept>
    <rtept lat="52.385187" lon="4.866946"><ele>0.0</ele></rtept>
    <rtept lat="52.385212" lon="4.867187"><ele>0.0</ele></rtept>
    <rtept lat="52.385220" lon="4.867584"><ele>0.0</ele></rtept>
    <rtept lat="52.385215" lon="4.868057"><ele>0.0</ele></rtept>
    <rtept lat="52.385223" lon="4.869231"><ele>0.0</ele></rtept>
    <rtept lat="52.385219" lon="4.869313"><ele>0.0</ele></rtept>
    <rtept lat="52.385206" lon="4.869386"><ele>0.0</ele></rtept>
    <rtept lat="52.385237" lon="4.869515"><ele>0.0</ele></rtept>
    <rtept lat="52.385266" lon="4.869615"><ele>0.0</ele></rtept>
    <rtept lat="52.385293" lon="4.869707"><ele>0.0</ele></rtept>
    <rtept lat="52.385315" lon="4.869804"><ele>0.0</ele></rtept>
    <rtept lat="52.385336" lon="4.871495"><ele>0.0</ele></rtept>
    <rtept lat="52.385375" lon="4.873268"><ele>0.0</ele></rtept>
    <rtept lat="52.385396" lon="4.874845"><ele>0.0</ele></rtept>
    <rtept lat="52.385397" lon="4.874903"><ele>0.0</ele></rtept>
    <rtept lat="52.385399" lon="4.875001"><ele>0.0</ele></rtept>
    <rtept lat="52.385430" lon="4.876712"><ele>0.0</ele></rtept>
    <rtept lat="52.385461" lon="4.879146"><ele>0.0</ele></rtept>
    <rtept lat="52.385321" lon="4.879776"><ele>0.0</ele></rtept>
    <rtept lat="52.385225" lon="4.880200"><ele>0.0</ele></rtept>
    <rtept lat="52.385157" lon="4.880472"><ele>0.0</ele></rtept>
    <rtept lat="52.385090" lon="4.880527"><ele>0.0</ele></rtept>
    <rtept lat="52.385119" lon="4.880616"><ele>0.0</ele></rtept>
    <rtept lat="52.385030" lon="4.880968"><ele>0.0</ele></rtept>
    <rtept lat="52.385009" lon="4.881043"><ele>0.0</ele></rtept>
    <rtept lat="52.384963" lon="4.881243"><ele>0.0</ele></rtept>
    <rtept lat="52.384946" lon="4.881359"><ele>0.0</ele></rtept>
    <rtept lat="52.384925" lon="4.881537"><ele>0.0</ele></rtept>
    <rtept lat="52.384903" lon="4.881753"><ele>0.0</ele></rtept>
    <rtept lat="52.384900" lon="4.881930"><ele>0.0</ele></rtept>
    <rtept lat="52.384885" lon="4.882015"><ele>0.0</ele></rtept>
    <rtept lat="52.384839" lon="4.882196"><ele>0.0</ele></rtept>
    <rtept lat="52.384787" lon="4.882411"><ele>0.0</ele></rtept>
    <rtept lat="52.384646" lon="4.882988"><ele>0.0</ele></rtept>
    <rtept lat="52.384629" lon="4.883059"><ele>0.0</ele></rtept>
    <rtept lat="52.384575" lon="4.883285"><ele>0.0</ele></rtept>
    <rtept lat="52.384560" lon="4.883349"><ele>0.0</ele></rtept>
    <rtept lat="52.384555" lon="4.883361"><ele>0.0</ele></rtept>
    <rtept lat="52.384332" lon="4.883765"><ele>0.0</ele></rtept>
    <rtept lat="52.384317" lon="4.883820"><ele>0.0</ele></rtept>
    <rtept lat="52.384370" lon="4.884100"><ele>0.0</ele></rtept>
    <rtept lat="52.384374" lon="4.884147"><ele>0.0</ele></rtept>
    <rtept lat="52.384355" lon="4.884205"><ele>0.0</ele></rtept>
    <rtept lat="52.383836" lon="4.885096"><ele>0.0</ele></rtept>
    <rtept lat="52.383313" lon="4.886019"><ele>0.0</ele></rtept>
    <rtept lat="52.382973" lon="4.886653"><ele>0.0</ele></rtept>
    <rtept lat="52.382784" lon="4.886982"><ele>0.0</ele></rtept>
    <rtept lat="52.382481" lon="4.887540"><ele>0.0</ele></rtept>
    <rtept lat="52.382074" lon="4.888303"><ele>0.0</ele></rtept>
    <rtept lat="52.381580" lon="4.889137"><ele>0.0</ele></rtept>
    <rtept lat="52.381532" lon="4.889229"><ele>0.0</ele></rtept>
    <rtept lat="52.381431" lon="4.889409"><ele>0.0</ele></rtept>
    <rtept lat="52.381369" lon="4.889516"><ele>0.0</ele></rtept>
    <rtept lat="52.380532" lon="4.891008"><ele>0.0</ele></rtept>
    <rtept lat="52.380339" lon="4.891728"><ele>0.0</ele></rtept>
    <rtept lat="52.380198" lon="4.892277"><ele>0.0</ele></rtept>
    <rtept lat="52.380106" lon="4.892633"><ele>0.0</ele></rtept>
    <rtept lat="52.380045" lon="4.892803"><ele>0.0</ele></rtept>
    <rtept lat="52.379822" lon="4.893194"><ele>0.0</ele></rtept>
    <rtept lat="52.379326" lon="4.894034"><ele>0.0</ele></rtept>
    <rtept lat="52.379239" lon="4.894192"><ele>0.0</ele></rtept>
    <rtept lat="52.379201" lon="4.894256"><ele>0.0</ele></rtept>
    <rtept lat="52.379116" lon="4.894399"><ele>0.0</ele></rtept>
    <rtept lat="52.379074" lon="4.894473"><ele>0.0</ele></rtept>
    <rtept lat="52.379030" lon="4.894559"><ele>0.0</ele></rtept>
    <rtept lat="52.378999" lon="4.894609"><ele>0.0</ele></rtept>
    <rtept lat="52.378958" lon="4.894675"><ele>0.0</ele></rtept>
    <rtept lat="52.379178" lon="4.895180"><ele>0.0</ele></rtept>
    <rtept lat="52.379224" lon="4.895312"><ele>0.0</ele></rtept>
    <rtept lat="52.379150" lon="4.895438"><ele>0.0</ele></rtept>
    <rtept lat="52.378724" lon="4.896223"><ele>0.0</ele></rtept>
    <rtept lat="52.378474" lon="4.896656"><ele>0.0</ele></rtept>
    <rtept lat="52.378271" lon="4.896868"><ele>0.0</ele></rtept>
    <rtept lat="52.378216" lon="4.896912"><ele>0.0</ele></rtept>
    <rtept lat="52.378064" lon="4.896984"><ele>0.0</ele></rtept>
    <rtept lat="52.377947" lon="4.897098"><ele>0.0</ele></rtept>
    <rtept lat="52.377876" lon="4.897175"><ele>0.0</ele></rtept>
    <rtept lat="52.377798" lon="4.897246"><ele>0.0</ele></rtept>
    <rtept lat="52.377677" lon="4.897417"><ele>0.0</ele></rtept>
    <rtept lat="52.377382" lon="4.897925"><ele>0.0</ele></rtept>
    <rtept lat="52.377192" lon="4.898147"><ele>0.0</ele></rtept>
    <rtept lat="52.377123" lon="4.898227"><ele>0.0</ele></rtept>
    <rtept lat="52.377095" lon="4.898259"><ele>0.0</ele></rtept>
    <rtept lat="52.376952" lon="4.898423"><ele>0.0</ele></rtept>
    <rtept lat="52.376880" lon="4.898502"><ele>0.0</ele></rtept>
    <rtept lat="52.376868" lon="4.898576"><ele>0.0</ele></rtept>
    <rtept lat="52.376726" lon="4.898855"><ele>0.0</ele></rtept>
    <rtept lat="52.376684" lon="4.898952"><ele>0.0</ele></rtept>
    <rtept lat="52.376663" lon="4.899056"><ele>0.0</ele></rtept>
    <rtept lat="52.376659" lon="4.899104"><ele>0.0</ele></rtept>
    <rtept lat="52.376701" lon="4.899513"><ele>0.0</ele></rtept>
    <rtept lat="52.376710" lon="4.899612"><ele>0.0</ele></rtept>
    <rtept lat="52.376669" lon="4.899800"><ele>0.0</ele></rtept>
    <rtept lat="52.376665" lon="4.899882"><ele>0.0</ele></rtept>
    <rtept lat="52.376744" lon="4.900680"><ele>0.0</ele></rtept>
    <rtept lat="52.376857" lon="4.901835"><ele>0.0</ele></rtept>
    <rtept lat="52.376856" lon="4.901900"><ele>0.0</ele></rtept>
    <rtept lat="52.376821" lon="4.902013"><ele>0.0</ele></rtept>
    <rtept lat="52.376625" lon="4.902248"><ele>0.0</ele></rtept>
    <rtept lat="52.376609" lon="4.902267"><ele>0.0</ele></rtept>
    <rtept lat="52.376578" lon="4.902301"><ele>0.0</ele></rtept>
    <rtept lat="52.376326" lon="4.902591"><ele>0.0</ele></rtept>
    <rtept lat="52.376274" lon="4.902641"><ele>0.0</ele></rtept>
    <rtept lat="52.376258" lon="4.902659"><ele>0.0</ele></rtept>
    <rtept lat="52.376202" lon="4.902724"><ele>0.0</ele></rtept>
    <rtept lat="52.376145" lon="4.902789"><ele>0.0</ele></rtept>
    <rtept lat="52.376125" lon="4.902812"><ele>0.0</ele></rtept>
    <rtept lat="52.376096" lon="4.902847"><ele>0.0</ele></rtept>
    <rtept lat="52.375880" lon="4.903142"><ele>0.0</ele></rtept>
    <rtept lat="52.375830" lon="4.903169"><ele>0.0</ele></rtept>
    <rtept lat="52.375757" lon="4.903168"><ele>0.0</ele></rtept>
    <rtept lat="52.375700" lon="4.903164"><ele>0.0</ele></rtept>
    <rtept lat="52.375652" lon="4.903161"><ele>0.0</ele></rtept>
    <rtept lat="52.375352" lon="4.903178"><ele>0.0</ele></rtept>
    <rtept lat="52.375233" lon="4.903237"><ele>0.0</ele></rtept>
    <rtept lat="52.375118" lon="4.903331"><ele>0.0</ele></rtept>
    <rtept lat="52.375057" lon="4.903416"><ele>0.0</ele></rtept>
    <rtept lat="52.374842" lon="4.903803"><ele>0.0</ele></rtept>
    <rtept lat="52.374907" lon="4.903881"><ele>0.0</ele></rtept>
    <rtept lat="52.374847" lon="4.903986"><ele>0.0</ele></rtept>
    <rtept lat="52.373743" lon="4.906050"><ele>0.0</ele></rtept>
    <rtept lat="52.373463" lon="4.906552"><ele>0.0</ele></rtept>
    <rtept lat="52.373076" lon="4.907194"><ele>0.0</ele></rtept>
    <rtept lat="52.372950" lon="4.907407"><ele>0.0</ele></rtept>
    <rtept lat="52.372917" lon="4.907465"><ele>0.0</ele></rtept>
    <rtept lat="52.372764" lon="4.907724"><ele>0.0</ele></rtept>
    <rtept lat="52.372707" lon="4.907823"><ele>0.0</ele></rtept>
    <rtept lat="52.372632" lon="4.907959"><ele>0.0</ele></rtept>
    <rtept lat="52.372484" lon="4.908192"><ele>0.0</ele></rtept>
    <rtept lat="52.372420" lon="4.908369"><ele>0.0</ele></rtept>
    <rtept lat="52.372397" lon="4.908484"><ele>0.0</ele></rtept>
    <rtept lat="52.372289" lon="4.908877"><ele>0.0</ele></rtept>
    <rtept lat="52.372002" lon="4.909721"><ele>0.0</ele></rtept>
    <rtept lat="52.371917" lon="4.909907"><ele>0.0</ele></rtept>
    <rtept lat="52.371797" lon="4.910260"><ele>0.0</ele></rtept>
    <rtept lat="52.371689" lon="4.910450"><ele>0.0</ele></rtept>
    <rtept lat="52.371632" lon="4.910508"><ele>0.0</ele></rtept>
    <rtept lat="52.371611" lon="4.910574"><ele>0.0</ele></rtept>
    <rtept lat="52.371442" lon="4.911086"><ele>0.0</ele></rtept>
    <rtept lat="52.371386" lon="4.911285"><ele>0.0</ele></rtept>
    <rtept lat="52.371337" lon="4.911442"><ele>0.0</ele></rtept>
    <rtept lat="52.371127" lon="4.912085"><ele>0.0</ele></rtept>
    <rtept lat="52.371107" lon="4.912147"><ele>0.0</ele></rtept>
    <rtept lat="52.371085" lon="4.912245"><ele>0.0</ele></rtept>
    <rtept lat="52.371074" lon="4.912387"><ele>0.0</ele></rtept>
    <rtept lat="52.371061" lon="4.912541"><ele>0.0</ele></rtept>
    <rtept lat="52.371037" lon="4.912615"><ele>0.0</ele></rtept>
    <rtept lat="52.370959" lon="4.912853"><ele>0.0</ele></rtept>
    <rtept lat="52.370945" lon="4.912895"><ele>0.0</ele></rtept>
    <rtept lat="52.370925" lon="4.912953"><ele>0.0</ele></rtept>
    <rtept lat="52.370906" lon="4.913004"><ele>0.0</ele></rtept>
    <rtept lat="52.370859" lon="4.913130"><ele>0.0</ele></rtept>
    <rtept lat="52.370757" lon="4.913409"><ele>0.0</ele></rtept>
    <rtept lat="52.370708" lon="4.913624"><ele>0.0</ele></rtept>
    <rtept lat="52.370685" lon="4.913861"><ele>0.0</ele></rtept>
    <rtept lat="52.370688" lon="4.913965"><ele>0.0</ele></rtept>
    <rtept lat="52.370721" lon="4.914173"><ele>0.0</ele></rtept>
    <rtept lat="52.370813" lon="4.914455"><ele>0.0</ele></rtept>
    <rtept lat="52.371007" lon="4.914905"><ele>0.0</ele></rtept>
    <rtept lat="52.371020" lon="4.914987"><ele>0.0</ele></rtept>
    <rtept lat="52.371021" lon="4.915027"><ele>0.0</ele></rtept>
    <rtept lat="52.371075" lon="4.915175"><ele>0.0</ele></rtept>
    <rtept lat="52.371154" lon="4.915381"><ele>0.0</ele></rtept>
    <rtept lat="52.371095" lon="4.915429"><ele>0.0</ele></rtept>
    <rtept lat="52.370990" lon="4.915588"><ele>0.0</ele></rtept>
    <rtept lat="52.370805" lon="4.916130"><ele>0.0</ele></rtept>
    <rtept lat="52.370718" lon="4.916394"><ele>0.0</ele></rtept>
    <rtept lat="52.370416" lon="4.917295"><ele>0.0</ele></rtept>
    <rtept lat="52.370367" lon="4.917443"><ele>0.0</ele></rtept>
    <rtept lat="52.370331" lon="4.917550"><ele>0.0</ele></rtept>
    <rtept lat="52.370164" lon="4.918050"><ele>0.0</ele></rtept>
    <rtept lat="52.369969" lon="4.918584"><ele>0.0</ele></rtept>
    <rtept lat="52.369905" lon="4.918754"><ele>0.0</ele></rtept>
    <rtept lat="52.369714" lon="4.919306"><ele>0.0</ele></rtept>
    <rtept lat="52.369684" lon="4.919391"><ele>0.0</ele></rtept>
    <rtept lat="52.369644" lon="4.919508"><ele>0.0</ele></rtept>
    <rtept lat="52.369258" lon="4.920571"><ele>0.0</ele></rtept>
    <rtept lat="52.369227" lon="4.920656"><ele>0.0</ele></rtept>
    <rtept lat="52.369195" lon="4.920756"><ele>0.0</ele></rtept>
    <rtept lat="52.368775" lon="4.921945"><ele>0.0</ele></rtept>
    <rtept lat="52.368656" lon="4.922315"><ele>0.0</ele></rtept>
    <rtept lat="52.368543" lon="4.922664"><ele>0.0</ele></rtept>
    <rtept lat="52.368365" lon="4.923178"><ele>0.0</ele></rtept>
    <rtept lat="52.367962" lon="4.924461"><ele>0.0</ele></rtept>
    <rtept lat="52.367822" lon="4.924908"><ele>0.0</ele></rtept>
    <rtept lat="52.367653" lon="4.925396"><ele>0.0</ele></rtept>
    <rtept lat="52.367636" lon="4.925454"><ele>0.0</ele></rtept>
    <rtept lat="52.367569" lon="4.925651"><ele>0.0</ele></rtept>
    <rtept lat="52.367539" lon="4.925748"><ele>0.0</ele></rtept>
    <rtept lat="52.367509" lon="4.925773"><ele>0.0</ele></rtept>
    <rtept lat="52.367465" lon="4.925937"><ele>0.0</ele></rtept>
    <rtept lat="52.367462" lon="4.926082"><ele>0.0</ele></rtept>
    <rtept lat="52.367484" lon="4.926163"><ele>0.0</ele></rtept>
    <rtept lat="52.367471" lon="4.926219"><ele>0.0</ele></rtept>
    <rtept lat="52.367478" lon="4.926823"><ele>0.0</ele></rtept>
    <rtept lat="52.367495" lon="4.927754"><ele>0.0</ele></rtept>
    <rtept lat="52.367493" lon="4.928286"><ele>0.0</ele></rtept>
    <rtept lat="52.367516" lon="4.929530"><ele>0.0</ele></rtept>
    <rtept lat="52.367524" lon="4.930335"><ele>0.0</ele></rtept>
    <rtept lat="52.367544" lon="4.931541"><ele>0.0</ele></rtept>
    <rtept lat="52.367547" lon="4.931904"><ele>0.0</ele></rtept>
    <rtept lat="52.367482" lon="4.931909"><ele>0.0</ele></rtept>
    <rtept lat="52.367417" lon="4.931914"><ele>0.0</ele></rtept>
    <rtept lat="52.367426" lon="4.932029"><ele>0.0</ele></rtept>
    <rtept lat="52.367436" lon="4.932606"><ele>0.0</ele></rtept>
    <rtept lat="52.367438" lon="4.933564"><ele>0.0</ele></rtept>
    <rtept lat="52.367412" lon="4.933668"><ele>0.0</ele></rtept>
    <rtept lat="52.367387" lon="4.933685"><ele>0.0</ele></rtept>
    <rtept lat="52.367369" lon="4.933688"><ele>0.0</ele></rtept>
    <rtept lat="52.367099" lon="4.933692"><ele>0.0</ele></rtept>
    <rtept lat="52.366865" lon="4.933695"><ele>0.0</ele></rtept>
    <rtept lat="52.366802" lon="4.933698"><ele>0.0</ele></rtept>
    <rtept lat="52.366351" lon="4.933708"><ele>0.0</ele></rtept>
    <rtept lat="52.366313" lon="4.933688"><ele>0.0</ele></rtept>
    <rtept lat="52.366243" lon="4.933614"><ele>0.0</ele></rtept>
    <rtept lat="52.366209" lon="4.933662"><ele>0.0</ele></rtept>
    <rtept lat="52.366139" lon="4.933765"><ele>0.0</ele></rtept>
    <rtept lat="52.366081" lon="4.933852"><ele>0.0</ele></rtept>
    <rtept lat="52.366024" lon="4.933853"><ele>0.0</ele></rtept>
    <rtept lat="52.366031" lon="4.934636"><ele>0.0</ele></rtept>
    <rtept lat="52.366046" lon="4.936641"><ele>0.0</ele></rtept>
    <rtept lat="52.366053" lon="4.937297"><ele>0.0</ele></rtept>
    <rtept lat="52.366060" lon="4.938003"><ele>0.0</ele></rtept>
    <rtept lat="52.366076" lon="4.939202"><ele>0.0</ele></rtept>
    <rtept lat="52.366065" lon="4.939316"><ele>0.0</ele></rtept>
    <rtept lat="52.366051" lon="4.939353"><ele>0.0</ele></rtept>
    <rtept lat="52.365625" lon="4.939380"><ele>0.0</ele></rtept>
    <rtept lat="52.365025" lon="4.939404"><ele>0.0</ele></rtept>
    <rtept lat="52.364533" lon="4.939404"><ele>0.0</ele></rtept>
    <rtept lat="52.363896" lon="4.939406"><ele>0.0</ele></rtept>
    <rtept lat="52.363792" lon="4.939410"><ele>0.0</ele></rtept>
    <rtept lat="52.363191" lon="4.939434"><ele>0.0</ele></rtept>
    <rtept lat="52.362651" lon="4.939448"><ele>0.0</ele></rtept>
    <rtept lat="52.362034" lon="4.939460"><ele>0.0</ele></rtept>
    <rtept lat="52.361780" lon="4.939545"><ele>0.0</ele></rtept>
    <rtept lat="52.361752" lon="4.939494"><ele>0.0</ele></rtept>
    <rtept lat="52.361678" lon="4.939500"><ele>0.0</ele></rtept>
    <rtept lat="52.361555" lon="4.939553"><ele>0.0</ele></rtept>
    <rtept lat="52.361491" lon="4.939622"><ele>0.0</ele></rtept>
    <rtept lat="52.361475" lon="4.939673"><ele>0.0</ele></rtept>
    <rtept lat="52.361443" lon="4.939692"><ele>0.0</ele></rtept>
    <rtept lat="52.360048" lon="4.940213"><ele>0.0</ele></rtept>
    <rtept lat="52.359088" lon="4.940573"><ele>0.0</ele></rtept>
    <rtept lat="52.358715" lon="4.940711"><ele>0.0</ele></rtept>
    <rtept lat="52.358623" lon="4.940738"><ele>0.0</ele></rtept>
    <rtept lat="52.358569" lon="4.940753"><ele>0.0</ele></rtept>
    <rtept lat="52.358460" lon="4.940785"><ele>0.0</ele></rtept>
    <rtept lat="52.358379" lon="4.940814"><ele>0.0</ele></rtept>
    <rtept lat="52.358314" lon="4.940836"><ele>0.0</ele></rtept>
    <rtept lat="52.358296" lon="4.940838"><ele>0.0</ele></rtept>
    <rtept lat="52.358213" lon="4.940851"><ele>0.0</ele></rtept>
    <rtept lat="52.358105" lon="4.940878"><ele>0.0</ele></rtept>
    <rtept lat="52.357876" lon="4.940914"><ele>0.0</ele></rtept>
    <rtept lat="52.357877" lon="4.941011"><ele>0.0</ele></rtept>
    <rtept lat="52.357878" lon="4.941128"><ele>0.0</ele></rtept>
    <rtept lat="52.357880" lon="4.941307"><ele>0.0</ele></rtept>
    <rtept lat="52.357897" lon="4.941410"><ele>0.0</ele></rtept>
    <rtept lat="52.357909" lon="4.941483"><ele>0.0</ele></rtept>
    <rtept lat="52.357900" lon="4.941640"><ele>0.0</ele></rtept>
    <rtept lat="52.357601" lon="4.943873"><ele>0.0</ele></rtept>
    <rtept lat="52.357543" lon="4.944388"><ele>0.0</ele></rtept>
    <rtept lat="52.357494" lon="4.945498"><ele>0.0</ele></rtept>
    <rtept lat="52.357430" lon="4.945804"><ele>0.0</ele></rtept>
    <rtept lat="52.357410" lon="4.945859"><ele>0.0</ele></rtept>
    <rtept lat="52.357317" lon="4.946057"><ele>0.0</ele></rtept>
    <rtept lat="52.357035" lon="4.946509"><ele>0.0</ele></rtept>
    <rtept lat="52.356965" lon="4.946626"><ele>0.0</ele></rtept>
    <rtept lat="52.356701" lon="4.947049"><ele>0.0</ele></rtept>
    <rtept lat="52.356589" lon="4.947229"><ele>0.0</ele></rtept>
    <rtept lat="52.356500" lon="4.947372"><ele>0.0</ele></rtept>
    <rtept lat="52.356179" lon="4.947894"><ele>0.0</ele></rtept>
    <rtept lat="52.356075" lon="4.948061"><ele>0.0</ele></rtept>
    <rtept lat="52.355989" lon="4.948201"><ele>0.0</ele></rtept>
    <rtept lat="52.355713" lon="4.948647"><ele>0.0</ele></rtept>
    <rtept lat="52.355630" lon="4.948777"><ele>0.0</ele></rtept>
    <rtept lat="52.355525" lon="4.948945"><ele>0.0</ele></rtept>
    <rtept lat="52.355239" lon="4.949383"><ele>0.0</ele></rtept>
    <rtept lat="52.355129" lon="4.949552"><ele>0.0</ele></rtept>
    <rtept lat="52.355026" lon="4.949709"><ele>0.0</ele></rtept>
    <rtept lat="52.354738" lon="4.950150"><ele>0.0</ele></rtept>
    <rtept lat="52.354446" lon="4.950601"><ele>0.0</ele></rtept>
    <rtept lat="52.354338" lon="4.950781"><ele>0.0</ele></rtept>
    <rtept lat="52.354316" lon="4.950816"><ele>0.0</ele></rtept>
    <rtept lat="52.354205" lon="4.950987"><ele>0.0</ele></rtept>
    <rtept lat="52.354146" lon="4.951082"><ele>0.0</ele></rtept>
    <rtept lat="52.354079" lon="4.951191"><ele>0.0</ele></rtept>
    <rtept lat="52.354057" lon="4.951153"><ele>0.0</ele></rtept>
    <rtept lat="52.353998" lon="4.951049"><ele>0.0</ele></rtept>
    <rtept lat="52.353938" lon="4.950767"><ele>0.0</ele></rtept>
    <rtept lat="52.353798" lon="4.950520"><ele>0.0</ele></rtept>
    <rtept lat="52.353731" lon="4.950408"><ele>0.0</ele></rtept>
    <rtept lat="52.353624" lon="4.950231"><ele>0.0</ele></rtept>
    <rtept lat="52.353094" lon="4.949354"><ele>0.0</ele></rtept>
    <rtept lat="52.353071" lon="4.949315"><ele>0.0</ele></rtept>
    <rtept lat="52.352844" lon="4.948941"><ele>0.0</ele></rtept>
    <rtept lat="52.352791" lon="4.948851"><ele>0.0</ele></rtept>
    <rtept lat="52.352683" lon="4.948674"><ele>0.0</ele></rtept>
    <rtept lat="52.352567" lon="4.948510"><ele>0.0</ele></rtept>
    <rtept lat="52.352522" lon="4.948442"><ele>0.0</ele></rtept>
    <rtept lat="52.352355" lon="4.948094"><ele>0.0</ele></rtept>
    <rtept lat="52.352228" lon="4.947835"><ele>0.0</ele></rtept>
    <rtept lat="52.351888" lon="4.947215"><ele>0.0</ele></rtept>
    <rtept lat="52.350860" lon="4.948859"><ele>0.0</ele></rtept>
    <rtept lat="52.350753" lon="4.949030"><ele>0.0</ele></rtept>
    <rtept lat="52.350241" lon="4.949845"><ele>0.0</ele></rtept>
    <rtept lat="52.350178" lon="4.949928"><ele>0.0</ele></rtept>
    <rtept lat="52.350106" lon="4.949961"><ele>0.0</ele></rtept>
    <rtept lat="52.350101" lon="4.949960"><ele>0.0</ele></rtept>
    <rtept lat="52.350039" lon="4.949952"><ele>0.0</ele></rtept>
    <rtept lat="52.350031" lon="4.949951"><ele>0.0</ele></rtept>
    <rtept lat="52.349975" lon="4.949957"><ele>0.0</ele></rtept>
    <rtept lat="52.349939" lon="4.949986"><ele>0.0</ele></rtept>
    <rtept lat="52.349355" lon="4.950911"><ele>0.0</ele></rtept>
    <rtept lat="52.349400" lon="4.951037"><ele>0.0</ele></rtept>
    <rtept lat="52.349402" lon="4.951194"><ele>0.0</ele></rtept>
    <rtept lat="52.349430" lon="4.951298"><ele>0.0</ele></rtept>
    <rtept lat="52.350220" lon="4.952659"><ele>0.0</ele></rtept>
    <rtept lat="52.350389" lon="4.952911"><ele>0.0</ele></rtept>
    <rtept lat="52.350220" lon="4.952659"><ele>0.0</ele></rtept>
    <rtept lat="52.349430" lon="4.951298"><ele>0.0</ele></rtept>
    <rtept lat="52.349402" lon="4.951194"><ele>0.0</ele></rtept>
    <rtept lat="52.349400" lon="4.951037"><ele>0.0</ele></rtept>
    <rtept lat="52.349355" lon="4.950911"><ele>0.0</ele></rtept>
    <rtept lat="52.349288" lon="4.950985"><ele>0.0</ele></rtept>
    <rtept lat="52.349074" lon="4.951011"><ele>0.0</ele></rtept>
    <rtept lat="52.349011" lon="4.951038"><ele>0.0</ele></rtept>
    <rtept lat="52.348948" lon="4.951097"><ele>0.0</ele></rtept>
    <rtept lat="52.348815" lon="4.951309"><ele>0.0</ele></rtept>
    <rtept lat="52.348627" lon="4.951618"><ele>0.0</ele></rtept>
    <rtept lat="52.348398" lon="4.951981"><ele>0.0</ele></rtept>
    <rtept lat="52.348297" lon="4.952052"><ele>0.0</ele></rtept>
    <rtept lat="52.348233" lon="4.952047"><ele>0.0</ele></rtept>
    <rtept lat="52.348187" lon="4.952012"><ele>0.0</ele></rtept>
    <rtept lat="52.348019" lon="4.951743"><ele>0.0</ele></rtept>
    <rtept lat="52.347677" lon="4.951171"><ele>0.0</ele></rtept>
    <rtept lat="52.347246" lon="4.950455"><ele>0.0</ele></rtept>
    <rtept lat="52.346992" lon="4.950026"><ele>0.0</ele></rtept>
    <rtept lat="52.347028" lon="4.949941"><ele>0.0</ele></rtept>
    <rtept lat="52.347040" lon="4.949589"><ele>0.0</ele></rtept>
    <rtept lat="52.347050" lon="4.949253"><ele>0.0</ele></rtept>
    <rtept lat="52.347070" lon="4.949071"><ele>0.0</ele></rtept>
    <rtept lat="52.347352" lon="4.948619"><ele>0.0</ele></rtept>
    <rtept lat="52.347595" lon="4.948229"><ele>0.0</ele></rtept>
    <rtept lat="52.348035" lon="4.947525"><ele>0.0</ele></rtept>
    <rtept lat="52.348222" lon="4.947229"><ele>0.0</ele></rtept>
    <rtept lat="52.348332" lon="4.947180"><ele>0.0</ele></rtept>
    <rtept lat="52.348587" lon="4.947177"><ele>0.0</ele></rtept>
    <rtept lat="52.348666" lon="4.947095"><ele>0.0</ele></rtept>
    <rtept lat="52.349260" lon="4.946148"><ele>0.0</ele></rtept>
    <rtept lat="52.350144" lon="4.944743"><ele>0.0</ele></rtept>
    <rtept lat="52.350276" lon="4.944534"><ele>0.0</ele></rtept>
    <rtept lat="52.350306" lon="4.944484"><ele>0.0</ele></rtept>
    <rtept lat="52.350341" lon="4.944430"><ele>0.0</ele></rtept>
    <rtept lat="52.350261" lon="4.944297"><ele>0.0</ele></rtept>
    <rtept lat="52.350180" lon="4.944157"><ele>0.0</ele></rtept>
    <rtept lat="52.349989" lon="4.943845"><ele>0.0</ele></rtept>
    <rtept lat="52.349914" lon="4.943758"><ele>0.0</ele></rtept>
    <rtept lat="52.349531" lon="4.943119"><ele>0.0</ele></rtept>
    <rtept lat="52.349153" lon="4.942489"><ele>0.0</ele></rtept>
    <rtept lat="52.349134" lon="4.942418"><ele>0.0</ele></rtept>
    <rtept lat="52.349017" lon="4.942239"><ele>0.0</ele></rtept>
    <rtept lat="52.349038" lon="4.942107"><ele>0.0</ele></rtept>
    <rtept lat="52.349009" lon="4.942059"><ele>0.0</ele></rtept>
    <rtept lat="52.348984" lon="4.942017"><ele>0.0</ele></rtept>
    <rtept lat="52.348869" lon="4.941821"><ele>0.0</ele></rtept>
    <rtept lat="52.348680" lon="4.941499"><ele>0.0</ele></rtept>
    <rtept lat="52.348251" lon="4.940789"><ele>0.0</ele></rtept>
    <rtept lat="52.348231" lon="4.940756"><ele>0.0</ele></rtept>
    <rtept lat="52.348203" lon="4.940715"><ele>0.0</ele></rtept>
    <rtept lat="52.347945" lon="4.940277"><ele>0.0</ele></rtept>
    <rtept lat="52.347904" lon="4.940207"><ele>0.0</ele></rtept>
    <rtept lat="52.347909" lon="4.940154"><ele>0.0</ele></rtept>
    <rtept lat="52.347887" lon="4.940119"><ele>0.0</ele></rtept>
    <rtept lat="52.347874" lon="4.940098"><ele>0.0</ele></rtept>
    <rtept lat="52.347797" lon="4.939974"><ele>0.0</ele></rtept>
    <rtept lat="52.347776" lon="4.939941"><ele>0.0</ele></rtept>
    <rtept lat="52.347761" lon="4.939917"><ele>0.0</ele></rtept>
    <rtept lat="52.347739" lon="4.939931"><ele>0.0</ele></rtept>
    <rtept lat="52.347724" lon="4.939910"><ele>0.0</ele></rtept>
    <rtept lat="52.347708" lon="4.939884"><ele>0.0</ele></rtept>
    <rtept lat="52.347615" lon="4.939728"><ele>0.0</ele></rtept>
    <rtept lat="52.347532" lon="4.939590"><ele>0.0</ele></rtept>
    <rtept lat="52.347432" lon="4.939426"><ele>0.0</ele></rtept>
    <rtept lat="52.347387" lon="4.939352"><ele>0.0</ele></rtept>
    <rtept lat="52.347333" lon="4.939442"><ele>0.0</ele></rtept>
    <rtept lat="52.346819" lon="4.938572"><ele>0.0</ele></rtept>
    <rtept lat="52.346765" lon="4.938478"><ele>0.0</ele></rtept>
    <rtept lat="52.346670" lon="4.938324"><ele>0.0</ele></rtept>
    <rtept lat="52.346589" lon="4.938196"><ele>0.0</ele></rtept>
    <rtept lat="52.346514" lon="4.938075"><ele>0.0</ele></rtept>
    <rtept lat="52.344321" lon="4.934486"><ele>0.0</ele></rtept>
    <rtept lat="52.344394" lon="4.934375"><ele>0.0</ele></rtept>
    <rtept lat="52.344488" lon="4.934494"><ele>0.0</ele></rtept>
    <rtept lat="52.344497" lon="4.934433"><ele>0.0</ele></rtept>
    <rtept lat="52.344546" lon="4.934308"><ele>0.0</ele></rtept>
    <rtept lat="52.344955" lon="4.933661"><ele>0.0</ele></rtept>
    <rtept lat="52.345152" lon="4.933359"><ele>0.0</ele></rtept>
    <rtept lat="52.345251" lon="4.933169"><ele>0.0</ele></rtept>
    <rtept lat="52.345685" lon="4.932474"><ele>0.0</ele></rtept>
    <rtept lat="52.345877" lon="4.932162"><ele>0.0</ele></rtept>
    <rtept lat="52.346050" lon="4.931884"><ele>0.0</ele></rtept>
    <rtept lat="52.346218" lon="4.931623"><ele>0.0</ele></rtept>
    <rtept lat="52.346264" lon="4.931593"><ele>0.0</ele></rtept>
    <rtept lat="52.346482" lon="4.931240"><ele>0.0</ele></rtept>
    <rtept lat="52.346505" lon="4.931158"><ele>0.0</ele></rtept>
    <rtept lat="52.346623" lon="4.930966"><ele>0.0</ele></rtept>
    <rtept lat="52.346676" lon="4.930881"><ele>0.0</ele></rtept>
    <rtept lat="52.346732" lon="4.930793"><ele>0.0</ele></rtept>
    <rtept lat="52.346848" lon="4.930607"><ele>0.0</ele></rtept>
    <rtept lat="52.347302" lon="4.929873"><ele>0.0</ele></rtept>
    <rtept lat="52.347402" lon="4.929716"><ele>0.0</ele></rtept>
    <rtept lat="52.347479" lon="4.929631"><ele>0.0</ele></rtept>
    <rtept lat="52.347550" lon="4.929585"><ele>0.0</ele></rtept>
    <rtept lat="52.347600" lon="4.929553"><ele>0.0</ele></rtept>
    <rtept lat="52.347623" lon="4.929519"><ele>0.0</ele></rtept>
    <rtept lat="52.347639" lon="4.929497"><ele>0.0</ele></rtept>
    <rtept lat="52.347653" lon="4.929477"><ele>0.0</ele></rtept>
    <rtept lat="52.347664" lon="4.929462"><ele>0.0</ele></rtept>
    <rtept lat="52.347689" lon="4.929424"><ele>0.0</ele></rtept>
    <rtept lat="52.347712" lon="4.929389"><ele>0.0</ele></rtept>
    <rtept lat="52.347734" lon="4.929357"><ele>0.0</ele></rtept>
    <rtept lat="52.347698" lon="4.929293"><ele>0.0</ele></rtept>
    <rtept lat="52.347657" lon="4.929219"><ele>0.0</ele></rtept>
    <rtept lat="52.347607" lon="4.929129"><ele>0.0</ele></rtept>
    <rtept lat="52.347554" lon="4.929031"><ele>0.0</ele></rtept>
    <rtept lat="52.347533" lon="4.928994"><ele>0.0</ele></rtept>
    <rtept lat="52.347509" lon="4.928956"><ele>0.0</ele></rtept>
    <rtept lat="52.346196" lon="4.926563"><ele>0.0</ele></rtept>
    <rtept lat="52.346123" lon="4.926304"><ele>0.0</ele></rtept>
    <rtept lat="52.346110" lon="4.926244"><ele>0.0</ele></rtept>
    <rtept lat="52.346041" lon="4.925810"><ele>0.0</ele></rtept>
    <rtept lat="52.346034" lon="4.925707"><ele>0.0</ele></rtept>
    <rtept lat="52.346030" lon="4.925622"><ele>0.0</ele></rtept>
    <rtept lat="52.346029" lon="4.925589"><ele>0.0</ele></rtept>
    <rtept lat="52.346027" lon="4.925543"><ele>0.0</ele></rtept>
    <rtept lat="52.346027" lon="4.925509"><ele>0.0</ele></rtept>
    <rtept lat="52.346026" lon="4.925461"><ele>0.0</ele></rtept>
    <rtept lat="52.346025" lon="4.925219"><ele>0.0</ele></rtept>
    <rtept lat="52.346023" lon="4.924981"><ele>0.0</ele></rtept>
    <rtept lat="52.346021" lon="4.924473"><ele>0.0</ele></rtept>
    <rtept lat="52.346019" lon="4.924213"><ele>0.0</ele></rtept>
    <rtept lat="52.346016" lon="4.922382"><ele>0.0</ele></rtept>
    <rtept lat="52.346015" lon="4.921836"><ele>0.0</ele></rtept>
    <rtept lat="52.346012" lon="4.921184"><ele>0.0</ele></rtept>
    <rtept lat="52.346011" lon="4.920960"><ele>0.0</ele></rtept>
    <rtept lat="52.345988" lon="4.920722"><ele>0.0</ele></rtept>
    <rtept lat="52.345903" lon="4.920275"><ele>0.0</ele></rtept>
    <rtept lat="52.345912" lon="4.920196"><ele>0.0</ele></rtept>
    <rtept lat="52.345950" lon="4.920115"><ele>0.0</ele></rtept>
    <rtept lat="52.345988" lon="4.920074"><ele>0.0</ele></rtept>
    <rtept lat="52.346655" lon="4.919669"><ele>0.0</ele></rtept>
    <rtept lat="52.346871" lon="4.919537"><ele>0.0</ele></rtept>
    <rtept lat="52.346948" lon="4.919516"><ele>0.0</ele></rtept>
    <rtept lat="52.347013" lon="4.919508"><ele>0.0</ele></rtept>
    <rtept lat="52.346995" lon="4.919442"><ele>0.0</ele></rtept>
    <rtept lat="52.346992" lon="4.919429"><ele>0.0</ele></rtept>
    <rtept lat="52.346986" lon="4.919403"><ele>0.0</ele></rtept>
    <rtept lat="52.346981" lon="4.919378"><ele>0.0</ele></rtept>
    <rtept lat="52.346970" lon="4.919334"><ele>0.0</ele></rtept>
    <rtept lat="52.346948" lon="4.919240"><ele>0.0</ele></rtept>
    <rtept lat="52.346938" lon="4.919198"><ele>0.0</ele></rtept>
    <rtept lat="52.346932" lon="4.919172"><ele>0.0</ele></rtept>
    <rtept lat="52.346925" lon="4.919142"><ele>0.0</ele></rtept>
    <rtept lat="52.346903" lon="4.919048"><ele>0.0</ele></rtept>
    <rtept lat="52.347153" lon="4.918896"><ele>0.0</ele></rtept>
    <rtept lat="52.347155" lon="4.918895"><ele>0.0</ele></rtept>
    <rtept lat="52.347215" lon="4.918859"><ele>0.0</ele></rtept>
    <rtept lat="52.347337" lon="4.918785"><ele>0.0</ele></rtept>
    <rtept lat="52.347675" lon="4.918571"><ele>0.0</ele></rtept>
    <rtept lat="52.347733" lon="4.918464"><ele>0.0</ele></rtept>
    <rtept lat="52.347791" lon="4.918021"><ele>0.0</ele></rtept>
    <rtept lat="52.347807" lon="4.917909"><ele>0.0</ele></rtept>
    <rtept lat="52.347839" lon="4.917870"><ele>0.0</ele></rtept>
    <rtept lat="52.347891" lon="4.917834"><ele>0.0</ele></rtept>
    <rtept lat="52.348220" lon="4.917626"><ele>0.0</ele></rtept>
    <rtept lat="52.348291" lon="4.917579"><ele>0.0</ele></rtept>
    <rtept lat="52.348249" lon="4.917468"><ele>0.0</ele></rtept>
    <rtept lat="52.348138" lon="4.917175"><ele>0.0</ele></rtept>
    <rtept lat="52.348031" lon="4.916860"><ele>0.0</ele></rtept>
    <rtept lat="52.347900" lon="4.915931"><ele>0.0</ele></rtept>
    <rtept lat="52.347904" lon="4.915840"><ele>0.0</ele></rtept>
    <rtept lat="52.347836" lon="4.915837"><ele>0.0</ele></rtept>
    <rtept lat="52.347709" lon="4.914859"><ele>0.0</ele></rtept>
    <rtept lat="52.347766" lon="4.914670"><ele>0.0</ele></rtept>
    <rtept lat="52.347640" lon="4.913823"><ele>0.0</ele></rtept>
    <rtept lat="52.347629" lon="4.913714"><ele>0.0</ele></rtept>
    <rtept lat="52.347634" lon="4.913658"><ele>0.0</ele></rtept>
    <rtept lat="52.347621" lon="4.913603"><ele>0.0</ele></rtept>
    <rtept lat="52.347591" lon="4.913492"><ele>0.0</ele></rtept>
    <rtept lat="52.347536" lon="4.913404"><ele>0.0</ele></rtept>
    <rtept lat="52.347497" lon="4.913318"><ele>0.0</ele></rtept>
    <rtept lat="52.347477" lon="4.913210"><ele>0.0</ele></rtept>
    <rtept lat="52.347329" lon="4.912148"><ele>0.0</ele></rtept>
    <rtept lat="52.347319" lon="4.911927"><ele>0.0</ele></rtept>
    <rtept lat="52.347339" lon="4.911879"><ele>0.0</ele></rtept>
    <rtept lat="52.347376" lon="4.911828"><ele>0.0</ele></rtept>
    <rtept lat="52.347627" lon="4.911664"><ele>0.0</ele></rtept>
    <rtept lat="52.347905" lon="4.911395"><ele>0.0</ele></rtept>
    <rtept lat="52.348414" lon="4.910737"><ele>0.0</ele></rtept>
    <rtept lat="52.348670" lon="4.910466"><ele>0.0</ele></rtept>
    <rtept lat="52.348806" lon="4.910355"><ele>0.0</ele></rtept>
    <rtept lat="52.349008" lon="4.910237"><ele>0.0</ele></rtept>
    <rtept lat="52.349570" lon="4.910013"><ele>0.0</ele></rtept>
    <rtept lat="52.349646" lon="4.909981"><ele>0.0</ele></rtept>
    <rtept lat="52.349630" lon="4.909857"><ele>0.0</ele></rtept>
    <rtept lat="52.349729" lon="4.909818"><ele>0.0</ele></rtept>
    <rtept lat="52.349965" lon="4.909721"><ele>0.0</ele></rtept>
    <rtept lat="52.350060" lon="4.909683"><ele>0.0</ele></rtept>
    <rtept lat="52.350044" lon="4.909560"><ele>0.0</ele></rtept>
    <rtept lat="52.349893" lon="4.908487"><ele>0.0</ele></rtept>
    <rtept lat="52.349908" lon="4.908437"><ele>0.0</ele></rtept>
    <rtept lat="52.349880" lon="4.908396"><ele>0.0</ele></rtept>
    <rtept lat="52.349789" lon="4.907768"><ele>0.0</ele></rtept>
    <rtept lat="52.349789" lon="4.907659"><ele>0.0</ele></rtept>
    <rtept lat="52.349719" lon="4.907166"><ele>0.0</ele></rtept>
    <rtept lat="52.349678" lon="4.906878"><ele>0.0</ele></rtept>
    <rtept lat="52.349595" lon="4.906402"><ele>0.0</ele></rtept>
    <rtept lat="52.349415" lon="4.905071"><ele>0.0</ele></rtept>
    <rtept lat="52.349926" lon="4.904854"><ele>0.0</ele></rtept>
    <rtept lat="52.350608" lon="4.904592"><ele>0.0</ele></rtept>
    <rtept lat="52.350482" lon="4.903730"><ele>0.0</ele></rtept>
    <rtept lat="52.351143" lon="4.903481"><ele>0.0</ele></rtept>
    <rtept lat="52.351292" lon="4.903452"><ele>0.0</ele></rtept>
    <rtept lat="52.351531" lon="4.903363"><ele>0.0</ele></rtept>
    <rtept lat="52.351593" lon="4.903328"><ele>0.0</ele></rtept>
    <rtept lat="52.351680" lon="4.903213"><ele>0.0</ele></rtept>
    <rtept lat="52.351669" lon="4.903132"><ele>0.0</ele></rtept>
    <rtept lat="52.351550" lon="4.902278"><ele>0.0</ele></rtept>
    <rtept lat="52.351597" lon="4.902265"><ele>0.0</ele></rtept>
    <rtept lat="52.351479" lon="4.901420"><ele>0.0</ele></rtept>
    <rtept lat="52.351243" lon="4.899728"><ele>0.0</ele></rtept>
    <rtept lat="52.351135" lon="4.898953"><ele>0.0</ele></rtept>
    <rtept lat="52.351078" lon="4.898733"><ele>0.0</ele></rtept>
    <rtept lat="52.350972" lon="4.897894"><ele>0.0</ele></rtept>
    <rtept lat="52.350956" lon="4.897664"><ele>0.0</ele></rtept>
    <rtept lat="52.350639" lon="4.895400"><ele>0.0</ele></rtept>
    <rtept lat="52.350533" lon="4.894622"><ele>0.0</ele></rtept>
    <rtept lat="52.350486" lon="4.894542"><ele>0.0</ele></rtept>
    <rtept lat="52.350564" lon="4.892973"><ele>0.0</ele></rtept>
    <rtept lat="52.350619" lon="4.891866"><ele>0.0</ele></rtept>
    <rtept lat="52.350624" lon="4.891685"><ele>0.0</ele></rtept>
    <rtept lat="52.350629" lon="4.891495"><ele>0.0</ele></rtept>
    <rtept lat="52.350644" lon="4.891400"><ele>0.0</ele></rtept>
    <rtept lat="52.350683" lon="4.890731"><ele>0.0</ele></rtept>
    <rtept lat="52.350420" lon="4.890198"><ele>0.0</ele></rtept>
    <rtept lat="52.350065" lon="4.889495"><ele>0.0</ele></rtept>
    <rtept lat="52.349856" lon="4.889090"><ele>0.0</ele></rtept>
    <rtept lat="52.349816" lon="4.889064"><ele>0.0</ele></rtept>
    <rtept lat="52.349705" lon="4.889051"><ele>0.0</ele></rtept>
    <rtept lat="52.349641" lon="4.889045"><ele>0.0</ele></rtept>
    <rtept lat="52.349645" lon="4.888947"><ele>0.0</ele></rtept>
    <rtept lat="52.349649" lon="4.888861"><ele>0.0</ele></rtept>
    <rtept lat="52.349741" lon="4.887094"><ele>0.0</ele></rtept>
    <rtept lat="52.349768" lon="4.887005"><ele>0.0</ele></rtept>
    <rtept lat="52.349774" lon="4.886893"><ele>0.0</ele></rtept>
    <rtept lat="52.349779" lon="4.886789"><ele>0.0</ele></rtept>
    <rtept lat="52.349790" lon="4.886591"><ele>0.0</ele></rtept>
    <rtept lat="52.349805" lon="4.886314"><ele>0.0</ele></rtept>
    <rtept lat="52.349814" lon="4.886247"><ele>0.0</ele></rtept>
    <rtept lat="52.349861" lon="4.886102"><ele>0.0</ele></rtept>
    <rtept lat="52.349894" lon="4.886036"><ele>0.0</ele></rtept>
    <rtept lat="52.349949" lon="4.885942"><ele>0.0</ele></rtept>
    <rtept lat="52.349999" lon="4.885822"><ele>0.0</ele></rtept>
    <rtept lat="52.349955" lon="4.885686"><ele>0.0</ele></rtept>
    <rtept lat="52.349930" lon="4.885586"><ele>0.0</ele></rtept>
    <rtept lat="52.349859" lon="4.885301"><ele>0.0</ele></rtept>
    <rtept lat="52.349733" lon="4.885037"><ele>0.0</ele></rtept>
    <rtept lat="52.349761" lon="4.884997"><ele>0.0</ele></rtept>
    <rtept lat="52.349827" lon="4.884902"><ele>0.0</ele></rtept>
    <rtept lat="52.350080" lon="4.884570"><ele>0.0</ele></rtept>
    <rtept lat="52.350382" lon="4.884130"><ele>0.0</ele></rtept>
    <rtept lat="52.350564" lon="4.883827"><ele>0.0</ele></rtept>
    <rtept lat="52.350957" lon="4.881641"><ele>0.0</ele></rtept>
    <rtept lat="52.351274" lon="4.879876"><ele>0.0</ele></rtept>
    <rtept lat="52.351541" lon="4.879808"><ele>0.0</ele></rtept>
    <rtept lat="52.351590" lon="4.879797"><ele>0.0</ele></rtept>
    <rtept lat="52.351688" lon="4.879756"><ele>0.0</ele></rtept>
    <rtept lat="52.351770" lon="4.879692"><ele>0.0</ele></rtept>
    <rtept lat="52.352211" lon="4.879199"><ele>0.0</ele></rtept>
    <rtept lat="52.352635" lon="4.878707"><ele>0.0</ele></rtept>
    <rtept lat="52.352678" lon="4.878656"><ele>0.0</ele></rtept>
    <rtept lat="52.352708" lon="4.878583"><ele>0.0</ele></rtept>
    <rtept lat="52.352878" lon="4.877600"><ele>0.0</ele></rtept>
    <rtept lat="52.352641" lon="4.876676"><ele>0.0</ele></rtept>
    <rtept lat="52.352648" lon="4.876501"><ele>0.0</ele></rtept>
    <rtept lat="52.352799" lon="4.875614"><ele>0.0</ele></rtept>
    <rtept lat="52.353001" lon="4.875473"><ele>0.0</ele></rtept>
    <rtept lat="52.353202" lon="4.875326"><ele>0.0</ele></rtept>
    <rtept lat="52.353466" lon="4.875141"><ele>0.0</ele></rtept>
    <rtept lat="52.353769" lon="4.874935"><ele>0.0</ele></rtept>
    <rtept lat="52.353166" lon="4.872712"><ele>0.0</ele></rtept>
    <rtept lat="52.352607" lon="4.870558"><ele>0.0</ele></rtept>
    <rtept lat="52.352587" lon="4.870480"><ele>0.0</ele></rtept>
    <rtept lat="52.352557" lon="4.870366"><ele>0.0</ele></rtept>
    <rtept lat="52.352535" lon="4.870289"><ele>0.0</ele></rtept>
    <rtept lat="52.352862" lon="4.870078"><ele>0.0</ele></rtept>
    <rtept lat="52.352894" lon="4.870089"><ele>0.0</ele></rtept>
    <rtept lat="52.353005" lon="4.869999"><ele>0.0</ele></rtept>
    <rtept lat="52.353026" lon="4.869930"><ele>0.0</ele></rtept>
    <rtept lat="52.353076" lon="4.869880"><ele>0.0</ele></rtept>
    <rtept lat="52.353090" lon="4.869865"><ele>0.0</ele></rtept>
    <rtept lat="52.353132" lon="4.869832"><ele>0.0</ele></rtept>
    <rtept lat="52.353066" lon="4.869696"><ele>0.0</ele></rtept>
    <rtept lat="52.353001" lon="4.869474"><ele>0.0</ele></rtept>
    <rtept lat="52.352747" lon="4.868385"><ele>0.0</ele></rtept>
    <rtept lat="52.352180" lon="4.866015"><ele>0.0</ele></rtept>
    <rtept lat="52.352044" lon="4.865508"><ele>0.0</ele></rtept>
    <rtept lat="52.351912" lon="4.864915"><ele>0.0</ele></rtept>
    <rtept lat="52.351908" lon="4.864808"><ele>0.0</ele></rtept>
    <rtept lat="52.351860" lon="4.864585"><ele>0.0</ele></rtept>
    <rtept lat="52.351837" lon="4.864495"><ele>0.0</ele></rtept>
    <rtept lat="52.351816" lon="4.864421"><ele>0.0</ele></rtept>
    <rtept lat="52.351774" lon="4.864289"><ele>0.0</ele></rtept>
    <rtept lat="52.351720" lon="4.864202"><ele>0.0</ele></rtept>
    <rtept lat="52.351688" lon="4.864140"><ele>0.0</ele></rtept>
    <rtept lat="52.351387" lon="4.863014"><ele>0.0</ele></rtept>
    <rtept lat="52.351355" lon="4.862895"><ele>0.0</ele></rtept>
    <rtept lat="52.350818" lon="4.860860"><ele>0.0</ele></rtept>
    <rtept lat="52.350573" lon="4.859932"><ele>0.0</ele></rtept>
    <rtept lat="52.350233" lon="4.858601"><ele>0.0</ele></rtept>
    <rtept lat="52.350030" lon="4.857946"><ele>0.0</ele></rtept>
    <rtept lat="52.350008" lon="4.857882"><ele>0.0</ele></rtept>
    <rtept lat="52.350006" lon="4.857776"><ele>0.0</ele></rtept>
    <rtept lat="52.350027" lon="4.857659"><ele>0.0</ele></rtept>
    <rtept lat="52.350075" lon="4.857629"><ele>0.0</ele></rtept>
    <rtept lat="52.350424" lon="4.857328"><ele>0.0</ele></rtept>
    <rtept lat="52.350519" lon="4.857230"><ele>0.0</ele></rtept>
    <rtept lat="52.350584" lon="4.857186"><ele>0.0</ele></rtept>
    <rtept lat="52.351070" lon="4.856992"><ele>0.0</ele></rtept>
    <rtept lat="52.351349" lon="4.856878"><ele>0.0</ele></rtept>
    <rtept lat="52.351468" lon="4.856829"><ele>0.0</ele></rtept>
    <rtept lat="52.351505" lon="4.856814"><ele>0.0</ele></rtept>
    <rtept lat="52.351556" lon="4.856786"><ele>0.0</ele></rtept>
    <rtept lat="52.351604" lon="4.856753"><ele>0.0</ele></rtept>
    <rtept lat="52.351626" lon="4.856738"><ele>0.0</ele></rtept>
    <rtept lat="52.351624" lon="4.856647"><ele>0.0</ele></rtept>
    <rtept lat="52.351598" lon="4.856422"><ele>0.0</ele></rtept>
    <rtept lat="52.351586" lon="4.856349"><ele>0.0</ele></rtept>
    <rtept lat="52.351535" lon="4.856297"><ele>0.0</ele></rtept>
    <rtept lat="52.351489" lon="4.856250"><ele>0.0</ele></rtept>
    <rtept lat="52.351407" lon="4.856211"><ele>0.0</ele></rtept>
    <rtept lat="52.350868" lon="4.854306"><ele>0.0</ele></rtept>
    <rtept lat="52.350837" lon="4.854128"><ele>0.0</ele></rtept>
    <rtept lat="52.350820" lon="4.853936"><ele>0.0</ele></rtept>
    <rtept lat="52.350804" lon="4.853509"><ele>0.0</ele></rtept>
    <rtept lat="52.350909" lon="4.852678"><ele>0.0</ele></rtept>
    <rtept lat="52.350968" lon="4.852581"><ele>0.0</ele></rtept>
    <rtept lat="52.350987" lon="4.852472"><ele>0.0</ele></rtept>
    <rtept lat="52.351006" lon="4.852299"><ele>0.0</ele></rtept>
    <rtept lat="52.351037" lon="4.852054"><ele>0.0</ele></rtept>
    <rtept lat="52.351054" lon="4.851905"><ele>0.0</ele></rtept>
    <rtept lat="52.351067" lon="4.851671"><ele>0.0</ele></rtept>
    <rtept lat="52.351054" lon="4.850717"><ele>0.0</ele></rtept>
    <rtept lat="52.351099" lon="4.850542"><ele>0.0</ele></rtept>
    <rtept lat="52.351129" lon="4.850495"><ele>0.0</ele></rtept>
    <rtept lat="52.351568" lon="4.850469"><ele>0.0</ele></rtept>
    <rtept lat="52.351613" lon="4.850391"><ele>0.0</ele></rtept>
    <rtept lat="52.351632" lon="4.850345"><ele>0.0</ele></rtept>
    <rtept lat="52.351645" lon="4.850304"><ele>0.0</ele></rtept>
    <rtept lat="52.351662" lon="4.850213"><ele>0.0</ele></rtept>
    <rtept lat="52.351667" lon="4.849572"><ele>0.0</ele></rtept>
    <rtept lat="52.351668" lon="4.849516"><ele>0.0</ele></rtept>
    <rtept lat="52.351677" lon="4.849424"><ele>0.0</ele></rtept>
    <rtept lat="52.351675" lon="4.848459"><ele>0.0</ele></rtept>
    <rtept lat="52.351670" lon="4.847726"><ele>0.0</ele></rtept>
    <rtept lat="52.351669" lon="4.847593"><ele>0.0</ele></rtept>
    <rtept lat="52.351661" lon="4.846307"><ele>0.0</ele></rtept>
    <rtept lat="52.351671" lon="4.846119"><ele>0.0</ele></rtept>
    <rtept lat="52.351685" lon="4.845994"><ele>0.0</ele></rtept>
    <rtept lat="52.351671" lon="4.845718"><ele>0.0</ele></rtept>
    <rtept lat="52.351666" lon="4.845145"><ele>0.0</ele></rtept>
    <rtept lat="52.351667" lon="4.844829"><ele>0.0</ele></rtept>
    <rtept lat="52.351674" lon="4.844414"><ele>0.0</ele></rtept>
    <rtept lat="52.351677" lon="4.844120"><ele>0.0</ele></rtept>
    <rtept lat="52.351686" lon="4.843936"><ele>0.0</ele></rtept>
    <rtept lat="52.351669" lon="4.843698"><ele>0.0</ele></rtept>
    <rtept lat="52.351666" lon="4.843239"><ele>0.0</ele></rtept>
    <rtept lat="52.351662" lon="4.842673"><ele>0.0</ele></rtept>
    <rtept lat="52.351666" lon="4.842203"><ele>0.0</ele></rtept>
    <rtept lat="52.351684" lon="4.841746"><ele>0.0</ele></rtept>
    <rtept lat="52.351675" lon="4.841122"><ele>0.0</ele></rtept>
    <rtept lat="52.351670" lon="4.841067"><ele>0.0</ele></rtept>
    <rtept lat="52.351664" lon="4.840826"><ele>0.0</ele></rtept>
    <rtept lat="52.351656" lon="4.840626"><ele>0.0</ele></rtept>
    <rtept lat="52.351660" lon="4.840546"><ele>0.0</ele></rtept>
    <rtept lat="52.351639" lon="4.836579"><ele>0.0</ele></rtept>
    <rtept lat="52.351639" lon="4.836415"><ele>0.0</ele></rtept>
    <rtept lat="52.351619" lon="4.834962"><ele>0.0</ele></rtept>
    <rtept lat="52.351633" lon="4.834337"><ele>0.0</ele></rtept>
    <rtept lat="52.351608" lon="4.833376"><ele>0.0</ele></rtept>
    <rtept lat="52.351609" lon="4.832478"><ele>0.0</ele></rtept>
    <rtept lat="52.351610" lon="4.832245"><ele>0.0</ele></rtept>
    <rtept lat="52.351578" lon="4.831276"><ele>0.0</ele></rtept>
    <rtept lat="52.351554" lon="4.827799"><ele>0.0</ele></rtept>
    <rtept lat="52.351553" lon="4.827730"><ele>0.0</ele></rtept>
    <rtept lat="52.351554" lon="4.827700"><ele>0.0</ele></rtept>
    <rtept lat="52.351553" lon="4.827536"><ele>0.0</ele></rtept>
    <rtept lat="52.351546" lon="4.827289"><ele>0.0</ele></rtept>
    <rtept lat="52.351543" lon="4.827167"><ele>0.0</ele></rtept>
    <rtept lat="52.351527" lon="4.827127"><ele>0.0</ele></rtept>
    <rtept lat="52.351520" lon="4.827003"><ele>0.0</ele></rtept>
    <rtept lat="52.351517" lon="4.826410"><ele>0.0</ele></rtept>
    <rtept lat="52.351495" lon="4.826081"><ele>0.0</ele></rtept>
    <rtept lat="52.351473" lon="4.823972"><ele>0.0</ele></rtept>
    <rtept lat="52.351441" lon="4.821140"><ele>0.0</ele></rtept>
    <rtept lat="52.351451" lon="4.820909"><ele>0.0</ele></rtept>
    <rtept lat="52.351451" lon="4.820857"><ele>0.0</ele></rtept>
    <rtept lat="52.351451" lon="4.820817"><ele>0.0</ele></rtept>
    <rtept lat="52.351452" lon="4.820769"><ele>0.0</ele></rtept>
    <rtept lat="52.351431" lon="4.820147"><ele>0.0</ele></rtept>
    <rtept lat="52.351392" lon="4.816204"><ele>0.0</ele></rtept>
    <rtept lat="52.351391" lon="4.816145"><ele>0.0</ele></rtept>
    <rtept lat="52.351384" lon="4.815687"><ele>0.0</ele></rtept>
    <rtept lat="52.351383" lon="4.815621"><ele>0.0</ele></rtept>
    <rtept lat="52.351350" lon="4.814371"><ele>0.0</ele></rtept>
    <rtept lat="52.351303" lon="4.813760"><ele>0.0</ele></rtept>
    <rtept lat="52.351243" lon="4.813215"><ele>0.0</ele></rtept>
    <rtept lat="52.351081" lon="4.812209"><ele>0.0</ele></rtept>
    <rtept lat="52.350941" lon="4.811575"><ele>0.0</ele></rtept>
    <rtept lat="52.350921" lon="4.811471"><ele>0.0</ele></rtept>
    <rtept lat="52.350955" lon="4.811414"><ele>0.0</ele></rtept>
    <rtept lat="52.350992" lon="4.811278"><ele>0.0</ele></rtept>
    <rtept lat="52.350990" lon="4.811174"><ele>0.0</ele></rtept>
    <rtept lat="52.350970" lon="4.811056"><ele>0.0</ele></rtept>
    <rtept lat="52.350952" lon="4.811000"><ele>0.0</ele></rtept>
    <rtept lat="52.350923" lon="4.810946"><ele>0.0</ele></rtept>
    <rtept lat="52.350829" lon="4.810877"><ele>0.0</ele></rtept>
    <rtept lat="52.350798" lon="4.810779"><ele>0.0</ele></rtept>
    <rtept lat="52.350743" lon="4.810527"><ele>0.0</ele></rtept>
    <rtept lat="52.350736" lon="4.810341"><ele>0.0</ele></rtept>
    <rtept lat="52.350687" lon="4.810084"><ele>0.0</ele></rtept>
    <rtept lat="52.350637" lon="4.809916"><ele>0.0</ele></rtept>
    <rtept lat="52.350200" lon="4.807701"><ele>0.0</ele></rtept>
    <rtept lat="52.349528" lon="4.804461"><ele>0.0</ele></rtept>
    <rtept lat="52.349512" lon="4.804384"><ele>0.0</ele></rtept>
    <rtept lat="52.349506" lon="4.804355"><ele>0.0</ele></rtept>
    <rtept lat="52.349420" lon="4.803932"><ele>0.0</ele></rtept>
    <rtept lat="52.349406" lon="4.803860"><ele>0.0</ele></rtept>
    <rtept lat="52.349265" lon="4.803119"><ele>0.0</ele></rtept>
    <rtept lat="52.348611" lon="4.800058"><ele>0.0</ele></rtept>
    <rtept lat="52.348351" lon="4.799241"><ele>0.0</ele></rtept>
    <rtept lat="52.347992" lon="4.798414"><ele>0.0</ele></rtept>
    <rtept lat="52.347940" lon="4.798296"><ele>0.0</ele></rtept>
    <rtept lat="52.347946" lon="4.798102"><ele>0.0</ele></rtept>
    <rtept lat="52.347932" lon="4.797989"><ele>0.0</ele></rtept>
    <rtept lat="52.348033" lon="4.797740"><ele>0.0</ele></rtept>
    <rtept lat="52.348279" lon="4.797273"><ele>0.0</ele></rtept>
    <rtept lat="52.348351" lon="4.797143"><ele>0.0</ele></rtept>
    <rtept lat="52.348455" lon="4.796971"><ele>0.0</ele></rtept>
    <rtept lat="52.348714" lon="4.796531"><ele>0.0</ele></rtept>
    <rtept lat="52.348994" lon="4.795997"><ele>0.0</ele></rtept>
    <rtept lat="52.349062" lon="4.795859"><ele>0.0</ele></rtept>
    <rtept lat="52.349386" lon="4.795277"><ele>0.0</ele></rtept>
    <rtept lat="52.349560" lon="4.795057"><ele>0.0</ele></rtept>
    <rtept lat="52.349804" lon="4.794804"><ele>0.0</ele></rtept>
    <rtept lat="52.350072" lon="4.794622"><ele>0.0</ele></rtept>
    <rtept lat="52.350681" lon="4.794278"><ele>0.0</ele></rtept>
    <rtept lat="52.350738" lon="4.794255"><ele>0.0</ele></rtept>
    <rtept lat="52.351014" lon="4.794118"><ele>0.0</ele></rtept>
    <rtept lat="52.351026" lon="4.794076"><ele>0.0</ele></rtept>
    <rtept lat="52.351015" lon="4.793977"><ele>0.0</ele></rtept>
    <rtept lat="52.350961" lon="4.793720"><ele>0.0</ele></rtept>
    <rtept lat="52.350938" lon="4.793679"><ele>0.0</ele></rtept>
    <rtept lat="52.350908" lon="4.793547"><ele>0.0</ele></rtept>
    <rtept lat="52.350874" lon="4.793385"><ele>0.0</ele></rtept>
    <rtept lat="52.350825" lon="4.793089"><ele>0.0</ele></rtept>
    <rtept lat="52.350677" lon="4.792290"><ele>0.0</ele></rtept>
    <rtept lat="52.350590" lon="4.791984"><ele>0.0</ele></rtept>
    <rtept lat="52.350271" lon="4.790414"><ele>0.0</ele></rtept>
    <rtept lat="52.350067" lon="4.789411"><ele>0.0</ele></rtept>
    <rtept lat="52.350041" lon="4.789275"><ele>0.0</ele></rtept>
    <rtept lat="52.349784" lon="4.788016"><ele>0.0</ele></rtept>
    <rtept lat="52.349751" lon="4.787854"><ele>0.0</ele></rtept>
    <rtept lat="52.349556" lon="4.786903"><ele>0.0</ele></rtept>
    <rtept lat="52.349512" lon="4.786907"><ele>0.0</ele></rtept>
    <rtept lat="52.349206" lon="4.786921"><ele>0.0</ele></rtept>
    <rtept lat="52.349022" lon="4.786853"><ele>0.0</ele></rtept>
    <rtept lat="52.348946" lon="4.786802"><ele>0.0</ele></rtept>
    <rtept lat="52.348877" lon="4.786734"><ele>0.0</ele></rtept>
    <rtept lat="52.348802" lon="4.786644"><ele>0.0</ele></rtept>
    <rtept lat="52.348716" lon="4.786508"><ele>0.0</ele></rtept>
    <rtept lat="52.348625" lon="4.786285"><ele>0.0</ele></rtept>
    <rtept lat="52.348562" lon="4.786043"><ele>0.0</ele></rtept>
    <rtept lat="52.348540" lon="4.785876"><ele>0.0</ele></rtept>
    <rtept lat="52.348533" lon="4.785702"><ele>0.0</ele></rtept>
    <rtept lat="52.348537" lon="4.785550"><ele>0.0</ele></rtept>
    <rtept lat="52.348582" lon="4.785257"><ele>0.0</ele></rtept>
    <rtept lat="52.348794" lon="4.784616"><ele>0.0</ele></rtept>
    <rtept lat="52.348823" lon="4.784520"><ele>0.0</ele></rtept>
    <rtept lat="52.348836" lon="4.784477"><ele>0.0</ele></rtept>
    <rtept lat="52.348976" lon="4.784134"><ele>0.0</ele></rtept>
    <rtept lat="52.349132" lon="4.783837"><ele>0.0</ele></rtept>
    <rtept lat="52.349585" lon="4.782698"><ele>0.0</ele></rtept>
    <rtept lat="52.349643" lon="4.782556"><ele>0.0</ele></rtept>
    <rtept lat="52.349705" lon="4.782400"><ele>0.0</ele></rtept>
    <rtept lat="52.350262" lon="4.781016"><ele>0.0</ele></rtept>
    <rtept lat="52.350312" lon="4.780880"><ele>0.0</ele></rtept>
    <rtept lat="52.350379" lon="4.780712"><ele>0.0</ele></rtept>
    <rtept lat="52.350552" lon="4.780340"><ele>0.0</ele></rtept>
    <rtept lat="52.350701" lon="4.779957"><ele>0.0</ele></rtept>
    <rtept lat="52.350942" lon="4.779254"><ele>0.0</ele></rtept>
    <rtept lat="52.351190" lon="4.778633"><ele>0.0</ele></rtept>
    <rtept lat="52.351449" lon="4.777995"><ele>0.0</ele></rtept>
    <rtept lat="52.351503" lon="4.777906"><ele>0.0</ele></rtept>
    <rtept lat="52.352163" lon="4.776262"><ele>0.0</ele></rtept>
    <rtept lat="52.352223" lon="4.776115"><ele>0.0</ele></rtept>
    <rtept lat="52.352285" lon="4.775963"><ele>0.0</ele></rtept>
    <rtept lat="52.352430" lon="4.775650"><ele>0.0</ele></rtept>
    <rtept lat="52.352688" lon="4.774949"><ele>0.0</ele></rtept>
    <rtept lat="52.353211" lon="4.773637"><ele>0.0</ele></rtept>
    <rtept lat="52.353270" lon="4.773489"><ele>0.0</ele></rtept>
    <rtept lat="52.353747" lon="4.772306"><ele>0.0</ele></rtept>
    <rtept lat="52.353878" lon="4.772055"><ele>0.0</ele></rtept>
    <rtept lat="52.353996" lon="4.771903"><ele>0.0</ele></rtept>
    <rtept lat="52.354199" lon="4.771745"><ele>0.0</ele></rtept>
    <rtept lat="52.354328" lon="4.771689"><ele>0.0</ele></rtept>
    <rtept lat="52.354368" lon="4.771673"><ele>0.0</ele></rtept>
    <rtept lat="52.354302" lon="4.771456"><ele>0.0</ele></rtept>
    <rtept lat="52.354259" lon="4.771312"><ele>0.0</ele></rtept>
    <rtept lat="52.354189" lon="4.771083"><ele>0.0</ele></rtept>
    <rtept lat="52.354168" lon="4.771018"><ele>0.0</ele></rtept>
    <rtept lat="52.354074" lon="4.770746"><ele>0.0</ele></rtept>
    <rtept lat="52.353946" lon="4.770525"><ele>0.0</ele></rtept>
    <rtept lat="52.353820" lon="4.770362"><ele>0.0</ele></rtept>
    <rtept lat="52.353159" lon="4.769654"><ele>0.0</ele></rtept>
    <rtept lat="52.352697" lon="4.769050"><ele>0.0</ele></rtept>
    <rtept lat="52.352380" lon="4.768729"><ele>0.0</ele></rtept>
    <rtept lat="52.351837" lon="4.768150"><ele>0.0</ele></rtept>
    <rtept lat="52.351599" lon="4.767869"><ele>0.0</ele></rtept>
    <rtept lat="52.350609" lon="4.766840"><ele>0.0</ele></rtept>
    <rtept lat="52.350320" lon="4.766535"><ele>0.0</ele></rtept>
    <rtept lat="52.349985" lon="4.766200"><ele>0.0</ele></rtept>
    <rtept lat="52.349667" lon="4.765842"><ele>0.0</ele></rtept>
    <rtept lat="52.349686" lon="4.765956"><ele>0.0</ele></rtept>
    <rtept lat="52.349737" lon="4.766049"><ele>0.0</ele></rtept>
    <rtept lat="52.350214" lon="4.766725"><ele>0.0</ele></rtept>
    <rtept lat="52.350540" lon="4.767170"><ele>0.0</ele></rtept>
    <rtept lat="52.350822" lon="4.766461"><ele>0.0</ele></rtept>
    <rtept lat="52.350832" lon="4.766415"><ele>0.0</ele></rtept>
    <rtept lat="52.350819" lon="4.766197"><ele>0.0</ele></rtept>
    <rtept lat="52.350854" lon="4.766066"><ele>0.0</ele></rtept>
    <rtept lat="52.351242" lon="4.765147"><ele>0.0</ele></rtept>
    <rtept lat="52.351627" lon="4.764271"><ele>0.0</ele></rtept>
    <rtept lat="52.351700" lon="4.764040"><ele>0.0</ele></rtept>
    <rtept lat="52.351988" lon="4.762706"><ele>0.0</ele></rtept>
    <rtept lat="52.352067" lon="4.762451"><ele>0.0</ele></rtept>
    <rtept lat="52.352128" lon="4.762325"><ele>0.0</ele></rtept>
    <rtept lat="52.352109" lon="4.762172"><ele>0.0</ele></rtept>
    <rtept lat="52.352117" lon="4.762051"><ele>0.0</ele></rtept>
    <rtept lat="52.352403" lon="4.760730"><ele>0.0</ele></rtept>
    <rtept lat="52.352529" lon="4.760890"><ele>0.0</ele></rtept>
    <rtept lat="52.352621" lon="4.760510"><ele>0.0</ele></rtept>
    <rtept lat="52.352759" lon="4.759974"><ele>0.0</ele></rtept>
    <rtept lat="52.352794" lon="4.759823"><ele>0.0</ele></rtept>
    <rtept lat="52.352721" lon="4.759545"><ele>0.0</ele></rtept>
    <rtept lat="52.352680" lon="4.759442"><ele>0.0</ele></rtept>
    <rtept lat="52.352569" lon="4.759487"><ele>0.0</ele></rtept>
    <rtept lat="52.352471" lon="4.759470"><ele>0.0</ele></rtept>
    <rtept lat="52.352377" lon="4.759361"><ele>0.0</ele></rtept>
    <rtept lat="52.351840" lon="4.758640"><ele>0.0</ele></rtept>
    <rtept lat="52.351310" lon="4.757880"><ele>0.0</ele></rtept>
    <rtept lat="52.350942" lon="4.757409"><ele>0.0</ele></rtept>
    <rtept lat="52.350419" lon="4.756666"><ele>0.0</ele></rtept>
    <rtept lat="52.349288" lon="4.755033"><ele>0.0</ele></rtept>
    <rtept lat="52.349202" lon="4.754911"><ele>0.0</ele></rtept>
    <rtept lat="52.348756" lon="4.754268"><ele>0.0</ele></rtept>
    <rtept lat="52.348516" lon="4.753930"><ele>0.0</ele></rtept>
    <rtept lat="52.348153" lon="4.753409"><ele>0.0</ele></rtept>
    <rtept lat="52.347455" lon="4.752412"><ele>0.0</ele></rtept>
    <rtept lat="52.346627" lon="4.751184"><ele>0.0</ele></rtept>
    <rtept lat="52.346715" lon="4.750995"><ele>0.0</ele></rtept>
    <rtept lat="52.347747" lon="4.749004"><ele>0.0</ele></rtept>
    <rtept lat="52.352621" lon="4.739924"><ele>0.0</ele></rtept>
    <rtept lat="52.353732" lon="4.737884"><ele>0.0</ele></rtept>
    <rtept lat="52.358489" lon="4.729016"><ele>0.0</ele></rtept>
    <rtept lat="52.358540" lon="4.728920"><ele>0.0</ele></rtept>
    <rtept lat="52.358559" lon="4.728853"><ele>0.0</ele></rtept>
    <rtept lat="52.358862" lon="4.728196"><ele>0.0</ele></rtept>
    <rtept lat="52.359442" lon="4.727116"><ele>0.0</ele></rtept>
    <rtept lat="52.359846" lon="4.726363"><ele>0.0</ele></rtept>
    <rtept lat="52.360061" lon="4.725964"><ele>0.0</ele></rtept>
    <rtept lat="52.360221" lon="4.725665"><ele>0.0</ele></rtept>
    <rtept lat="52.360411" lon="4.725312"><ele>0.0</ele></rtept>
    <rtept lat="52.360645" lon="4.724877"><ele>0.0</ele></rtept>
    <rtept lat="52.360954" lon="4.724303"><ele>0.0</ele></rtept>
    <rtept lat="52.361062" lon="4.724103"><ele>0.0</ele></rtept>
    <rtept lat="52.361155" lon="4.723928"><ele>0.0</ele></rtept>
    <rtept lat="52.361297" lon="4.723664"><ele>0.0</ele></rtept>
    <rtept lat="52.361575" lon="4.723148"><ele>0.0</ele></rtept>
    <rtept lat="52.362013" lon="4.722334"><ele>0.0</ele></rtept>
    <rtept lat="52.362257" lon="4.721878"><ele>0.0</ele></rtept>
    <rtept lat="52.362411" lon="4.721593"><ele>0.0</ele></rtept>
    <rtept lat="52.362569" lon="4.721299"><ele>0.0</ele></rtept>
    <rtept lat="52.362801" lon="4.720867"><ele>0.0</ele></rtept>
    <rtept lat="52.363242" lon="4.720047"><ele>0.0</ele></rtept>
    <rtept lat="52.363323" lon="4.719897"><ele>0.0</ele></rtept>
    <rtept lat="52.363468" lon="4.719626"><ele>0.0</ele></rtept>
    <rtept lat="52.363668" lon="4.719255"><ele>0.0</ele></rtept>
    <rtept lat="52.364192" lon="4.718280"><ele>0.0</ele></rtept>
    <rtept lat="52.364315" lon="4.718052"><ele>0.0</ele></rtept>
    <rtept lat="52.364443" lon="4.717813"><ele>0.0</ele></rtept>
    <rtept lat="52.364478" lon="4.717800"><ele>0.0</ele></rtept>
    <rtept lat="52.364511" lon="4.717768"><ele>0.0</ele></rtept>
    <rtept lat="52.364571" lon="4.717655"><ele>0.0</ele></rtept>
    <rtept lat="52.364686" lon="4.717502"><ele>0.0</ele></rtept>
    <rtept lat="52.364883" lon="4.717435"><ele>0.0</ele></rtept>
    <rtept lat="52.364971" lon="4.717322"><ele>0.0</ele></rtept>
    <rtept lat="52.364998" lon="4.717217"><ele>0.0</ele></rtept>
    <rtept lat="52.364967" lon="4.716893"><ele>0.0</ele></rtept>
    <rtept lat="52.365018" lon="4.716739"><ele>0.0</ele></rtept>
    <rtept lat="52.365645" lon="4.715724"><ele>0.0</ele></rtept>
    <rtept lat="52.366824" lon="4.713648"><ele>0.0</ele></rtept>
    <rtept lat="52.367271" lon="4.712824"><ele>0.0</ele></rtept>
    <rtept lat="52.367710" lon="4.711986"><ele>0.0</ele></rtept>
    <rtept lat="52.367873" lon="4.711631"><ele>0.0</ele></rtept>
    <rtept lat="52.368878" lon="4.709726"><ele>0.0</ele></rtept>
    <rtept lat="52.368957" lon="4.709555"><ele>0.0</ele></rtept>
    <rtept lat="52.368982" lon="4.709401"><ele>0.0</ele></rtept>
    <rtept lat="52.368954" lon="4.709130"><ele>0.0</ele></rtept>
    <rtept lat="52.368941" lon="4.709017"><ele>0.0</ele></rtept>
    <rtept lat="52.368925" lon="4.708875"><ele>0.0</ele></rtept>
    <rtept lat="52.368841" lon="4.708765"><ele>0.0</ele></rtept>
    <rtept lat="52.368816" lon="4.708698"><ele>0.0</ele></rtept>
    <rtept lat="52.368748" lon="4.708126"><ele>0.0</ele></rtept>
    <rtept lat="52.368631" lon="4.707540"><ele>0.0</ele></rtept>
    <rtept lat="52.368278" lon="4.706309"><ele>0.0</ele></rtept>
    <rtept lat="52.368098" lon="4.705687"><ele>0.0</ele></rtept>
    <rtept lat="52.367978" lon="4.705309"><ele>0.0</ele></rtept>
    <rtept lat="52.367946" lon="4.705140"><ele>0.0</ele></rtept>
    <rtept lat="52.367946" lon="4.704946"><ele>0.0</ele></rtept>
    <rtept lat="52.367990" lon="4.704749"><ele>0.0</ele></rtept>
    <rtept lat="52.368097" lon="4.704578"><ele>0.0</ele></rtept>
    <rtept lat="52.368509" lon="4.704183"><ele>0.0</ele></rtept>
    <rtept lat="52.368577" lon="4.704129"><ele>0.0</ele></rtept>
    <rtept lat="52.368682" lon="4.704088"><ele>0.0</ele></rtept>
    <rtept lat="52.368762" lon="4.703999"><ele>0.0</ele></rtept>
    <rtept lat="52.368803" lon="4.703843"><ele>0.0</ele></rtept>
    <rtept lat="52.368837" lon="4.703586"><ele>0.0</ele></rtept>
    <rtept lat="52.369084" lon="4.702738"><ele>0.0</ele></rtept>
    <rtept lat="52.369159" lon="4.702295"><ele>0.0</ele></rtept>
    <rtept lat="52.369186" lon="4.701987"><ele>0.0</ele></rtept>
    <rtept lat="52.369464" lon="4.697165"><ele>0.0</ele></rtept>
    <rtept lat="52.369467" lon="4.696764"><ele>0.0</ele></rtept>
    <rtept lat="52.369428" lon="4.695382"><ele>0.0</ele></rtept>
    <rtept lat="52.369448" lon="4.694843"><ele>0.0</ele></rtept>
    <rtept lat="52.369493" lon="4.694356"><ele>0.0</ele></rtept>
    <rtept lat="52.369631" lon="4.693449"><ele>0.0</ele></rtept>
    <rtept lat="52.369770" lon="4.692864"><ele>0.0</ele></rtept>
    <rtept lat="52.369930" lon="4.692337"><ele>0.0</ele></rtept>
    <rtept lat="52.370347" lon="4.691155"><ele>0.0</ele></rtept>
    <rtept lat="52.370504" lon="4.690579"><ele>0.0</ele></rtept>
    <rtept lat="52.370617" lon="4.689843"><ele>0.0</ele></rtept>
    <rtept lat="52.370647" lon="4.689521"><ele>0.0</ele></rtept>
    <rtept lat="52.370674" lon="4.688758"><ele>0.0</ele></rtept>
    <rtept lat="52.370666" lon="4.688167"><ele>0.0</ele></rtept>
    <rtept lat="52.370620" lon="4.687271"><ele>0.0</ele></rtept>
    <rtept lat="52.370312" lon="4.682255"><ele>0.0</ele></rtept>
    <rtept lat="52.370150" lon="4.680413"><ele>0.0</ele></rtept>
    <rtept lat="52.369795" lon="4.677610"><ele>0.0</ele></rtept>
    <rtept lat="52.369722" lon="4.677134"><ele>0.0</ele></rtept>
    <rtept lat="52.369623" lon="4.676681"><ele>0.0</ele></rtept>
    <rtept lat="52.369522" lon="4.676346"><ele>0.0</ele></rtept>
    <rtept lat="52.369413" lon="4.676046"><ele>0.0</ele></rtept>
    <rtept lat="52.369217" lon="4.675603"><ele>0.0</ele></rtept>
    <rtept lat="52.369198" lon="4.675524"><ele>0.0</ele></rtept>
    <rtept lat="52.369193" lon="4.675312"><ele>0.0</ele></rtept>
    <rtept lat="52.369141" lon="4.675195"><ele>0.0</ele></rtept>
    <rtept lat="52.369073" lon="4.675086"><ele>0.0</ele></rtept>
    <rtept lat="52.368968" lon="4.675043"><ele>0.0</ele></rtept>
    <rtept lat="52.368919" lon="4.674992"><ele>0.0</ele></rtept>
    <rtept lat="52.368866" lon="4.674893"><ele>0.0</ele></rtept>
    <rtept lat="52.368695" lon="4.674446"><ele>0.0</ele></rtept>
    <rtept lat="52.368564" lon="4.674041"><ele>0.0</ele></rtept>
    <rtept lat="52.368479" lon="4.673723"><ele>0.0</ele></rtept>
    <rtept lat="52.368331" lon="4.673051"><ele>0.0</ele></rtept>
    <rtept lat="52.368321" lon="4.672978"><ele>0.0</ele></rtept>
    <rtept lat="52.368198" lon="4.672077"><ele>0.0</ele></rtept>
    <rtept lat="52.368153" lon="4.671748"><ele>0.0</ele></rtept>
    <rtept lat="52.368143" lon="4.671666"><ele>0.0</ele></rtept>
    <rtept lat="52.368110" lon="4.671245"><ele>0.0</ele></rtept>
    <rtept lat="52.368000" lon="4.670304"><ele>0.0</ele></rtept>
    <rtept lat="52.367957" lon="4.669746"><ele>0.0</ele></rtept>
    <rtept lat="52.367915" lon="4.668930"><ele>0.0</ele></rtept>
    <rtept lat="52.367899" lon="4.667682"><ele>0.0</ele></rtept>
    <rtept lat="52.367891" lon="4.666413"><ele>0.0</ele></rtept>
    <rtept lat="52.367889" lon="4.666109"><ele>0.0</ele></rtept>
    <rtept lat="52.367879" lon="4.664269"><ele>0.0</ele></rtept>
    <rtept lat="52.367872" lon="4.663787"><ele>0.0</ele></rtept>
    <rtept lat="52.367827" lon="4.662490"><ele>0.0</ele></rtept>
    <rtept lat="52.367829" lon="4.660912"><ele>0.0</ele></rtept>
    <rtept lat="52.367821" lon="4.659432"><ele>0.0</ele></rtept>
    <rtept lat="52.367811" lon="4.657704"><ele>0.0</ele></rtept>
    <rtept lat="52.367801" lon="4.656505"><ele>0.0</ele></rtept>
    <rtept lat="52.367802" lon="4.655012"><ele>0.0</ele></rtept>
    <rtept lat="52.367800" lon="4.654688"><ele>0.0</ele></rtept>
    <rtept lat="52.367813" lon="4.654557"><ele>0.0</ele></rtept>
    <rtept lat="52.367966" lon="4.654499"><ele>0.0</ele></rtept>
    <rtept lat="52.368020" lon="4.654482"><ele>0.0</ele></rtept>
    <rtept lat="52.368337" lon="4.654479"><ele>0.0</ele></rtept>
    <rtept lat="52.368353" lon="4.654479"><ele>0.0</ele></rtept>
    <rtept lat="52.368663" lon="4.654470"><ele>0.0</ele></rtept>
    <rtept lat="52.368957" lon="4.654543"><ele>0.0</ele></rtept>
    <rtept lat="52.369824" lon="4.654648"><ele>0.0</ele></rtept>
    <rtept lat="52.369938" lon="4.654772"><ele>0.0</ele></rtept>
    <rtept lat="52.369981" lon="4.654809"><ele>0.0</ele></rtept>
    <rtept lat="52.370075" lon="4.654826"><ele>0.0</ele></rtept>
    <rtept lat="52.370283" lon="4.654833"><ele>0.0</ele></rtept>
    <rtept lat="52.370389" lon="4.654836"><ele>0.0</ele></rtept>
    <rtept lat="52.370723" lon="4.654874"><ele>0.0</ele></rtept>
    <rtept lat="52.370928" lon="4.654930"><ele>0.0</ele></rtept>
    <rtept lat="52.371432" lon="4.655322"><ele>0.0</ele></rtept>
    <rtept lat="52.371644" lon="4.655494"><ele>0.0</ele></rtept>
    <rtept lat="52.371743" lon="4.655569"><ele>0.0</ele></rtept>
    <rtept lat="52.372821" lon="4.656439"><ele>0.0</ele></rtept>
    <rtept lat="52.374222" lon="4.657609"><ele>0.0</ele></rtept>
    <rtept lat="52.374391" lon="4.657790"><ele>0.0</ele></rtept>
    <rtept lat="52.374640" lon="4.658034"><ele>0.0</ele></rtept>
    <rtept lat="52.374774" lon="4.658199"><ele>0.0</ele></rtept>
    <rtept lat="52.374903" lon="4.658355"><ele>0.0</ele></rtept>
    <rtept lat="52.375071" lon="4.658558"><ele>0.0</ele></rtept>
    <rtept lat="52.375174" lon="4.658688"><ele>0.0</ele></rtept>
    <rtept lat="52.375264" lon="4.658783"><ele>0.0</ele></rtept>
    <rtept lat="52.375299" lon="4.658822"><ele>0.0</ele></rtept>
    <rtept lat="52.375387" lon="4.658920"><ele>0.0</ele></rtept>
    <rtept lat="52.375939" lon="4.659321"><ele>0.0</ele></rtept>
    <rtept lat="52.376248" lon="4.659469"><ele>0.0</ele></rtept>
    <rtept lat="52.376416" lon="4.659550"><ele>0.0</ele></rtept>
    <rtept lat="52.376591" lon="4.659639"><ele>0.0</ele></rtept>
    <rtept lat="52.378107" lon="4.660341"><ele>0.0</ele></rtept>
    <rtept lat="52.378754" lon="4.660632"><ele>0.0</ele></rtept>
    <rtept lat="52.378835" lon="4.660666"><ele>0.0</ele></rtept>
    <rtept lat="52.378880" lon="4.660685"><ele>0.0</ele></rtept>
    <rtept lat="52.378915" lon="4.660505"><ele>0.0</ele></rtept>
    <rtept lat="52.378941" lon="4.660375"><ele>0.0</ele></rtept>
    <rtept lat="52.378971" lon="4.660226"><ele>0.0</ele></rtept>
    <rtept lat="52.378980" lon="4.659944"><ele>0.0</ele></rtept>
    <rtept lat="52.378994" lon="4.659805"><ele>0.0</ele></rtept>
    <rtept lat="52.379026" lon="4.659422"><ele>0.0</ele></rtept>
    <rtept lat="52.379447" lon="4.659520"><ele>0.0</ele></rtept>
    <rtept lat="52.379574" lon="4.657888"><ele>0.0</ele></rtept>
    <rtept lat="52.379804" lon="4.657899"><ele>0.0</ele></rtept>
    <rtept lat="52.380041" lon="4.657887"><ele>0.0</ele></rtept>
    <rtept lat="52.380029" lon="4.657510"><ele>0.0</ele></rtept>
  </rte>
</gpx>