<?xml version="1.0" encoding="UTF-8"?>
<gpx version="1.1" creator="WeeklyCyclingRoutes"
  xmlns="http://www.topografix.com/GPX/1/1"
  xmlns:xsi="http://www.w3.org/2001/XMLSchema-instance"
  xsi:schemaLocation="http://www.topografix.com/GPX/1/1 http://www.topografix.com/GPX/1/1/gpx.xsd">
  <metadata>
    <name>40km Route – August 31, 2026</name>
    <desc>Round trip from Cremerstraat, Haarlem. Actual: 40.0km</desc>
    <time>2026-08-31T12:25:15Z</time>
  </metadata>
  <rte>
    <name>40km Cycling Route – Haarlem</name>
    <rtept lat="52.380029" lon="4.657510"><ele>0.0</ele></rtept>
    <rtept lat="52.380029" lon="4.657505"><ele>0.0</ele></rtept>
    <rtept lat="52.379960" lon="4.657149"><ele>0.0</ele></rtept>
    <rtept lat="52.379890" lon="4.656860"><ele>0.0</ele></rtept>
    <rtept lat="52.379811" lon="4.656611"><ele>0.0</ele></rtept>
    <rtept lat="52.379484" lon="4.656332"><ele>0.0</ele></rtept>
    <rtept lat="52.379720" lon="4.655630"><ele>0.0</ele></rtept>
    <rtept lat="52.379947" lon="4.654788"><ele>0.0</ele></rtept>
    <rtept lat="52.379963" lon="4.654729"><ele>0.0</ele></rtept>
    <rtept lat="52.380132" lon="4.654088"><ele>0.0</ele></rtept>
    <rtept lat="52.380326" lon="4.653373"><ele>0.0</ele></rtept>
    <rtept lat="52.380708" lon="4.651959"><ele>0.0</ele></rtept>
    <rtept lat="52.380759" lon="4.651852"><ele>0.0</ele></rtept>
    <rtept lat="52.380830" lon="4.651897"><ele>0.0</ele></rtept>
    <rtept lat="52.380924" lon="4.651884"><ele>0.0</ele></rtept>
    <rtept lat="52.381029" lon="4.651870"><ele>0.0</ele></rtept>
    <rtept lat="52.381088" lon="4.651857"><ele>0.0</ele></rtept>
    <rtept lat="52.381077" lon="4.651687"><ele>0.0</ele></rtept>
    <rtept lat="52.381072" lon="4.651605"><ele>0.0</ele></rtept>
    <rtept lat="52.381040" lon="4.651485"><ele>0.0</ele></rtept>
    <rtept lat="52.380980" lon="4.650628"><ele>0.0</ele></rtept>
    <rtept lat="52.380897" lon="4.649517"><ele>0.0</ele></rtept>
    <rtept lat="52.380781" lon="4.647736"><ele>0.0</ele></rtept>
    <rtept lat="52.380732" lon="4.647268"><ele>0.0</ele></rtept>
    <rtept lat="52.380661" lon="4.647204"><ele>0.0</ele></rtept>
    <rtept lat="52.380640" lon="4.647194"><ele>0.0</ele></rtept>
    <rtept lat="52.380520" lon="4.647127"><ele>0.0</ele></rtept>
    <rtept lat="52.380357" lon="4.646948"><ele>0.0</ele></rtept>
    <rtept lat="52.380227" lon="4.646733"><ele>0.0</ele></rtept>
    <rtept lat="52.380151" lon="4.646527"><ele>0.0</ele></rtept>
    <rtept lat="52.380116" lon="4.646366"><ele>0.0</ele></rtept>
    <rtept lat="52.380098" lon="4.646273"><ele>0.0</ele></rtept>
    <rtept lat="52.380083" lon="4.646212"><ele>0.0</ele></rtept>
    <rtept lat="52.380030" lon="4.646089"><ele>0.0</ele></rtept>
    <rtept lat="52.379996" lon="4.646014"><ele>0.0</ele></rtept>
    <rtept lat="52.379913" lon="4.645916"><ele>0.0</ele></rtept>
    <rtept lat="52.379859" lon="4.645889"><ele>0.0</ele></rtept>
    <rtept lat="52.379514" lon="4.645479"><ele>0.0</ele></rtept>
    <rtept lat="52.379406" lon="4.645413"><ele>0.0</ele></rtept>
    <rtept lat="52.379073" lon="4.645010"><ele>0.0</ele></rtept>
    <rtept lat="52.378668" lon="4.644518"><ele>0.0</ele></rtept>
    <rtept lat="52.378469" lon="4.644264"><ele>0.0</ele></rtept>
    <rtept lat="52.377671" lon="4.643291"><ele>0.0</ele></rtept>
    <rtept lat="52.377605" lon="4.643211"><ele>0.0</ele></rtept>
    <rtept lat="52.377305" lon="4.642858"><ele>0.0</ele></rtept>
    <rtept lat="52.377250" lon="4.642716"><ele>0.0</ele></rtept>
    <rtept lat="52.376696" lon="4.642032"><ele>0.0</ele></rtept>
    <rtept lat="52.376654" lon="4.641984"><ele>0.0</ele></rtept>
    <rtept lat="52.376589" lon="4.641908"><ele>0.0</ele></rtept>
    <rtept lat="52.376524" lon="4.641840"><ele>0.0</ele></rtept>
    <rtept lat="52.376545" lon="4.641791"><ele>0.0</ele></rtept>
    <rtept lat="52.376608" lon="4.641650"><ele>0.0</ele></rtept>
    <rtept lat="52.376619" lon="4.641629"><ele>0.0</ele></rtept>
    <rtept lat="52.376775" lon="4.641220"><ele>0.0</ele></rtept>
    <rtept lat="52.376868" lon="4.640911"><ele>0.0</ele></rtept>
    <rtept lat="52.376885" lon="4.640861"><ele>0.0</ele></rtept>
    <rtept lat="52.376921" lon="4.640746"><ele>0.0</ele></rtept>
    <rtept lat="52.376929" lon="4.640610"><ele>0.0</ele></rtept>
    <rtept lat="52.376903" lon="4.640469"><ele>0.0</ele></rtept>
    <rtept lat="52.376800" lon="4.640108"><ele>0.0</ele></rtept>
    <rtept lat="52.376748" lon="4.640006"><ele>0.0</ele></rtept>
    <rtept lat="52.376705" lon="4.639883"><ele>0.0</ele></rtept>
    <rtept lat="52.376679" lon="4.639726"><ele>0.0</ele></rtept>
    <rtept lat="52.376686" lon="4.639592"><ele>0.0</ele></rtept>
    <rtept lat="52.376739" lon="4.639414"><ele>0.0</ele></rtept>
    <rtept lat="52.376774" lon="4.639333"><ele>0.0</ele></rtept>
    <rtept lat="52.376813" lon="4.639244"><ele>0.0</ele></rtept>
    <rtept lat="52.376889" lon="4.639094"><ele>0.0</ele></rtept>
    <rtept lat="52.376937" lon="4.638990"><ele>0.0</ele></rtept>
    <rtept lat="52.376802" lon="4.638734"><ele>0.0</ele></rtept>
    <rtept lat="52.376617" lon="4.638156"><ele>0.0</ele></rtept>
    <rtept lat="52.376551" lon="4.637991"><ele>0.0</ele></rtept>
    <rtept lat="52.376427" lon="4.637589"><ele>0.0</ele></rtept>
    <rtept lat="52.376277" lon="4.637073"><ele>0.0</ele></rtept>
    <rtept lat="52.376176" lon="4.636710"><ele>0.0</ele></rtept>
    <rtept lat="52.376111" lon="4.636365"><ele>0.0</ele></rtept>
    <rtept lat="52.376098" lon="4.636105"><ele>0.0</ele></rtept>
    <rtept lat="52.376127" lon="4.635288"><ele>0.0</ele></rtept>
    <rtept lat="52.376131" lon="4.635187"><ele>0.0</ele></rtept>
    <rtept lat="52.376131" lon="4.635072"><ele>0.0</ele></rtept>
    <rtept lat="52.376160" lon="4.633635"><ele>0.0</ele></rtept>
    <rtept lat="52.376191" lon="4.632337"><ele>0.0</ele></rtept>
    <rtept lat="52.376230" lon="4.631314"><ele>0.0</ele></rtept>
    <rtept lat="52.376241" lon="4.631096"><ele>0.0</ele></rtept>
    <rtept lat="52.376201" lon="4.631077"><ele>0.0</ele></rtept>
    <rtept lat="52.376091" lon="4.631024"><ele>0.0</ele></rtept>
    <rtept lat="52.375972" lon="4.630980"><ele>0.0</ele></rtept>
    <rtept lat="52.375892" lon="4.630958"><ele>0.0</ele></rtept>
    <rtept lat="52.375773" lon="4.630932"><ele>0.0</ele></rtept>
    <rtept lat="52.375623" lon="4.630864"><ele>0.0</ele></rtept>
    <rtept lat="52.375389" lon="4.630746"><ele>0.0</ele></rtept>
    <rtept lat="52.375231" lon="4.630667"><ele>0.0</ele></rtept>
    <rtept lat="52.374998" lon="4.630541"><ele>0.0</ele></rtept>
    <rtept lat="52.374807" lon="4.630403"><ele>0.0</ele></rtept>
    <rtept lat="52.374721" lon="4.630321"><ele>0.0</ele></rtept>
    <rtept lat="52.374596" lon="4.630202"><ele>0.0</ele></rtept>
    <rtept lat="52.374559" lon="4.630167"><ele>0.0</ele></rtept>
    <rtept lat="52.374431" lon="4.630030"><ele>0.0</ele></rtept>
    <rtept lat="52.374358" lon="4.629949"><ele>0.0</ele></rtept>
    <rtept lat="52.374265" lon="4.629824"><ele>0.0</ele></rtept>
    <rtept lat="52.374087" lon="4.629584"><ele>0.0</ele></rtept>
    <rtept lat="52.373939" lon="4.629327"><ele>0.0</ele></rtept>
    <rtept lat="52.373807" lon="4.629027"><ele>0.0</ele></rtept>
    <rtept lat="52.373624" lon="4.628453"><ele>0.0</ele></rtept>
    <rtept lat="52.373567" lon="4.628143"><ele>0.0</ele></rtept>
    <rtept lat="52.373535" lon="4.628052"><ele>0.0</ele></rtept>
    <rtept lat="52.373519" lon="4.628009"><ele>0.0</ele></rtept>
    <rtept lat="52.373499" lon="4.627954"><ele>0.0</ele></rtept>
    <rtept lat="52.373145" lon="4.626954"><ele>0.0</ele></rtept>
    <rtept lat="52.373038" lon="4.626690"><ele>0.0</ele></rtept>
    <rtept lat="52.372979" lon="4.626594"><ele>0.0</ele></rtept>
    <rtept lat="52.372589" lon="4.625749"><ele>0.0</ele></rtept>
    <rtept lat="52.372402" lon="4.625426"><ele>0.0</ele></rtept>
    <rtept lat="52.372319" lon="4.625297"><ele>0.0</ele></rtept>
    <rtept lat="52.372111" lon="4.624970"><ele>0.0</ele></rtept>
    <rtept lat="52.371737" lon="4.624498"><ele>0.0</ele></rtept>
    <rtept lat="52.371214" lon="4.623862"><ele>0.0</ele></rtept>
    <rtept lat="52.371210" lon="4.623614"><ele>0.0</ele></rtept>
    <rtept lat="52.371165" lon="4.623098"><ele>0.0</ele></rtept>
    <rtept lat="52.371089" lon="4.622609"><ele>0.0</ele></rtept>
    <rtept lat="52.370980" lon="4.622108"><ele>0.0</ele></rtept>
    <rtept lat="52.370947" lon="4.622005"><ele>0.0</ele></rtept>
    <rtept lat="52.370885" lon="4.621887"><ele>0.0</ele></rtept>
    <rtept lat="52.371129" lon="4.619661"><ele>0.0</ele></rtept>
    <rtept lat="52.371196" lon="4.619236"><ele>0.0</ele></rtept>
    <rtept lat="52.371234" lon="4.618849"><ele>0.0</ele></rtept>
    <rtept lat="52.371245" lon="4.618734"><ele>0.0</ele></rtept>
    <rtept lat="52.371277" lon="4.618445"><ele>0.0</ele></rtept>
    <rtept lat="52.371286" lon="4.618358"><ele>0.0</ele></rtept>
    <rtept lat="52.371315" lon="4.618274"><ele>0.0</ele></rtept>
    <rtept lat="52.371345" lon="4.618067"><ele>0.0</ele></rtept>
    <rtept lat="52.371358" lon="4.617849"><ele>0.0</ele></rtept>
    <rtept lat="52.371388" lon="4.617493"><ele>0.0</ele></rtept>
    <rtept lat="52.371394" lon="4.617250"><ele>0.0</ele></rtept>
    <rtept lat="52.371404" lon="4.617017"><ele>0.0</ele></rtept>
    <rtept lat="52.371468" lon="4.616402"><ele>0.0</ele></rtept>
    <rtept lat="52.371601" lon="4.615221"><ele>0.0</ele></rtept>
    <rtept lat="52.371679" lon="4.615006"><ele>0.0</ele></rtept>
    <rtept lat="52.371774" lon="4.614938"><ele>0.0</ele></rtept>
    <rtept lat="52.371810" lon="4.614876"><ele>0.0</ele></rtept>
    <rtept lat="52.371838" lon="4.614781"><ele>0.0</ele></rtept>
    <rtept lat="52.371846" lon="4.614661"><ele>0.0</ele></rtept>
    <rtept lat="52.371835" lon="4.614580"><ele>0.0</ele></rtept>
    <rtept lat="52.371751" lon="4.614399"><ele>0.0</ele></rtept>
    <rtept lat="52.371776" lon="4.613673"><ele>0.0</ele></rtept>
    <rtept lat="52.371848" lon="4.613163"><ele>0.0</ele></rtept>
    <rtept lat="52.371868" lon="4.613026"><ele>0.0</ele></rtept>
    <rtept lat="52.371932" lon="4.612579"><ele>0.0</ele></rtept>
    <rtept lat="52.372020" lon="4.612014"><ele>0.0</ele></rtept>
    <rtept lat="52.372074" lon="4.611698"><ele>0.0</ele></rtept>
    <rtept lat="52.372251" lon="4.610540"><ele>0.0</ele></rtept>
    <rtept lat="52.372365" lon="4.610416"><ele>0.0</ele></rtept>
    <rtept lat="52.372427" lon="4.610247"><ele>0.0</ele></rtept>
    <rtept lat="52.372467" lon="4.609737"><ele>0.0</ele></rtept>
    <rtept lat="52.372409" lon="4.609711"><ele>0.0</ele></rtept>
    <rtept lat="52.372375" lon="4.609655"><ele>0.0</ele></rtept>
    <rtept lat="52.372373" lon="4.609579"><ele>0.0</ele></rtept>
    <rtept lat="52.372380" lon="4.609490"><ele>0.0</ele></rtept>
    <rtept lat="52.372383" lon="4.609353"><ele>0.0</ele></rtept>
    <rtept lat="52.372331" lon="4.609127"><ele>0.0</ele></rtept>
    <rtept lat="52.372269" lon="4.609034"><ele>0.0</ele></rtept>
    <rtept lat="52.372281" lon="4.608635"><ele>0.0</ele></rtept>
    <rtept lat="52.372693" lon="4.605706"><ele>0.0</ele></rtept>
    <rtept lat="52.372682" lon="4.605492"><ele>0.0</ele></rtept>
    <rtept lat="52.372650" lon="4.605455"><ele>0.0</ele></rtept>
    <rtept lat="52.372608" lon="4.605381"><ele>0.0</ele></rtept>
    <rtept lat="52.371800" lon="4.605020"><ele>0.0</ele></rtept>
    <rtept lat="52.371277" lon="4.604791"><ele>0.0</ele></rtept>
    <rtept lat="52.371289" lon="4.604591"><ele>0.0</ele></rtept>
    <rtept lat="52.371349" lon="4.604356"><ele>0.0</ele></rtept>
    <rtept lat="52.371571" lon="4.603553"><ele>0.0</ele></rtept>
    <rtept lat="52.372132" lon="4.601692"><ele>0.0</ele></rtept>
    <rtept lat="52.372232" lon="4.601391"><ele>0.0</ele></rtept>
    <rtept lat="52.372267" lon="4.601213"><ele>0.0</ele></rtept>
    <rtept lat="52.372117" lon="4.601205"><ele>0.0</ele></rtept>
    <rtept lat="52.371843" lon="4.601229"><ele>0.0</ele></rtept>
    <rtept lat="52.371280" lon="4.601318"><ele>0.0</ele></rtept>
    <rtept lat="52.371083" lon="4.601370"><ele>0.0</ele></rtept>
    <rtept lat="52.371030" lon="4.601210"><ele>0.0</ele></rtept>
    <rtept lat="52.370935" lon="4.601082"><ele>0.0</ele></rtept>
    <rtept lat="52.370580" lon="4.600600"><ele>0.0</ele></rtept>
    <rtept lat="52.370317" lon="4.600125"><ele>0.0</ele></rtept>
    <rtept lat="52.369925" lon="4.599262"><ele>0.0</ele></rtept>
    <rtept lat="52.369631" lon="4.598375"><ele>0.0</ele></rtept>
    <rtept lat="52.369274" lon="4.596956"><ele>0.0</ele></rtept>
    <rtept lat="52.369144" lon="4.596732"><ele>0.0</ele></rtept>
    <rtept lat="52.369078" lon="4.596665"><ele>0.0</ele></rtept>
    <rtept lat="52.369116" lon="4.596447"><ele>0.0</ele></rtept>
    <rtept lat="52.369116" lon="4.596347"><ele>0.0</ele></rtept>
    <rtept lat="52.369017" lon="4.595926"><ele>0.0</ele></rtept>
    <rtept lat="52.368945" lon="4.595628"><ele>0.0</ele></rtept>
    <rtept lat="52.368870" lon="4.595290"><ele>0.0</ele></rtept>
    <rtept lat="52.368742" lon="4.594697"><ele>0.0</ele></rtept>
    <rtept lat="52.368551" lon="4.594064"><ele>0.0</ele></rtept>
    <rtept lat="52.368059" lon="4.592488"><ele>0.0</ele></rtept>
    <rtept lat="52.367880" lon="4.591553"><ele>0.0</ele></rtept>
    <rtept lat="52.367871" lon="4.591221"><ele>0.0</ele></rtept>
    <rtept lat="52.367833" lon="4.590377"><ele>0.0</ele></rtept>
    <rtept lat="52.367825" lon="4.590209"><ele>0.0</ele></rtept>
    <rtept lat="52.367807" lon="4.589653"><ele>0.0</ele></rtept>
    <rtept lat="52.367800" lon="4.589409"><ele>0.0</ele></rtept>
    <rtept lat="52.367798" lon="4.589266"><ele>0.0</ele></rtept>
    <rtept lat="52.367832" lon="4.588295"><ele>0.0</ele></rtept>
    <rtept lat="52.367897" lon="4.587547"><ele>0.0</ele></rtept>
    <rtept lat="52.367908" lon="4.587437"><ele>0.0</ele></rtept>
    <rtept lat="52.368055" lon="4.586345"><ele>0.0</ele></rtept>
    <rtept lat="52.368094" lon="4.586056"><ele>0.0</ele></rtept>
    <rtept lat="52.368205" lon="4.585722"><ele>0.0</ele></rtept>
    <rtept lat="52.368173" lon="4.585530"><ele>0.0</ele></rtept>
    <rtept lat="52.368222" lon="4.585550"><ele>0.0</ele></rtept>
    <rtept lat="52.368223" lon="4.585448"><ele>0.0</ele></rtept>
    <rtept lat="52.368320" lon="4.584711"><ele>0.0</ele></rtept>
    <rtept lat="52.368450" lon="4.583892"><ele>0.0</ele></rtept>
    <rtept lat="52.368464" lon="4.583653"><ele>0.0</ele></rtept>
    <rtept lat="52.368512" lon="4.583283"><ele>0.0</ele></rtept>
    <rtept lat="52.368597" lon="4.582680"><ele>0.0</ele></rtept>
    <rtept lat="52.368607" lon="4.582497"><ele>0.0</ele></rtept>
    <rtept lat="52.368592" lon="4.582385"><ele>0.0</ele></rtept>
    <rtept lat="52.368563" lon="4.582287"><ele>0.0</ele></rtept>
    <rtept lat="52.368268" lon="4.581707"><ele>0.0</ele></rtept>
    <rtept lat="52.368207" lon="4.581677"><ele>0.0</ele></rtept>
    <rtept lat="52.368137" lon="4.581524"><ele>0.0</ele></rtept>
    <rtept lat="52.368029" lon="4.581268"><ele>0.0</ele></rtept>
    <rtept lat="52.367834" lon="4.580689"><ele>0.0</ele></rtept>
    <rtept lat="52.367590" lon="4.579870"><ele>0.0</ele></rtept>
    <rtept lat="52.367530" lon="4.579620"><ele>0.0</ele></rtept>
    <rtept lat="52.367159" lon="4.579836"><ele>0.0</ele></rtept>
    <rtept lat="52.367040" lon="4.579923"><ele>0.0</ele></rtept>
    <rtept lat="52.366750" lon="4.580093"><ele>0.0</ele></rtept>
    <rtept lat="52.366702" lon="4.579997"><ele>0.0</ele></rtept>
    <rtept lat="52.366595" lon="4.579928"><ele>0.0</ele></rtept>
    <rtept lat="52.365723" lon="4.579454"><ele>0.0</ele></rtept>
    <rtept lat="52.365382" lon="4.579270"><ele>0.0</ele></rtept>
    <rtept lat="52.365297" lon="4.579224"><ele>0.0</ele></rtept>
    <rtept lat="52.364954" lon="4.579011"><ele>0.0</ele></rtept>
    <rtept lat="52.364959" lon="4.578186"><ele>0.0</ele></rtept>
    <rtept lat="52.365012" lon="4.577799"><ele>0.0</ele></rtept>
    <rtept lat="52.365133" lon="4.577114"><ele>0.0</ele></rtept>
    <rtept lat="52.365267" lon="4.576513"><ele>0.0</ele></rtept>
    <rtept lat="52.365415" lon="4.575868"><ele>0.0</ele></rtept>
    <rtept lat="52.365562" lon="4.574981"><ele>0.0</ele></rtept>
    <rtept lat="52.365570" lon="4.574930"><ele>0.0</ele></rtept>
    <rtept lat="52.365611" lon="4.574648"><ele>0.0</ele></rtept>
    <rtept lat="52.365763" lon="4.573445"><ele>0.0</ele></rtept>
    <rtept lat="52.365967" lon="4.571381"><ele>0.0</ele></rtept>
    <rtept lat="52.366010" lon="4.571100"><ele>0.0</ele></rtept>
    <rtept lat="52.366008" lon="4.570924"><ele>0.0</ele></rtept>
    <rtept lat="52.366049" lon="4.570457"><ele>0.0</ele></rtept>
    <rtept lat="52.366070" lon="4.570226"><ele>0.0</ele></rtept>
    <rtept lat="52.366680" lon="4.563690"><ele>0.0</ele></rtept>
    <rtept lat="52.366736" lon="4.562889"><ele>0.0</ele></rtept>
    <rtept lat="52.366717" lon="4.562405"><ele>0.0</ele></rtept>
    <rtept lat="52.366671" lon="4.561959"><ele>0.0</ele></rtept>
    <rtept lat="52.366550" lon="4.561435"><ele>0.0</ele></rtept>
    <rtept lat="52.366401" lon="4.561028"><ele>0.0</ele></rtept>
    <rtept lat="52.365111" lon="4.558421"><ele>0.0</ele></rtept>
    <rtept lat="52.364953" lon="4.557972"><ele>0.0</ele></rtept>
    <rtept lat="52.364855" lon="4.557548"><ele>0.0</ele></rtept>
    <rtept lat="52.364810" lon="4.557049"><ele>0.0</ele></rtept>
    <rtept lat="52.364804" lon="4.556534"><ele>0.0</ele></rtept>
    <rtept lat="52.364835" lon="4.556109"><ele>0.0</ele></rtept>
    <rtept lat="52.365008" lon="4.554349"><ele>0.0</ele></rtept>
    <rtept lat="52.365035" lon="4.554184"><ele>0.0</ele></rtept>
    <rtept lat="52.365052" lon="4.554106"><ele>0.0</ele></rtept>
    <rtept lat="52.365161" lon="4.553998"><ele>0.0</ele></rtept>
    <rtept lat="52.365215" lon="4.553806"><ele>0.0</ele></rtept>
    <rtept lat="52.365199" lon="4.553615"><ele>0.0</ele></rtept>
    <rtept lat="52.365125" lon="4.553467"><ele>0.0</ele></rtept>
    <rtept lat="52.365133" lon="4.553375"><ele>0.0</ele></rtept>
    <rtept lat="52.365163" lon="4.552987"><ele>0.0</ele></rtept>
    <rtept lat="52.365165" lon="4.552540"><ele>0.0</ele></rtept>
    <rtept lat="52.365237" lon="4.551748"><ele>0.0</ele></rtept>
    <rtept lat="52.365305" lon="4.551215"><ele>0.0</ele></rtept>
    <rtept lat="52.365393" lon="4.550687"><ele>0.0</ele></rtept>
    <rtept lat="52.365533" lon="4.550096"><ele>0.0</ele></rtept>
    <rtept lat="52.365698" lon="4.549533"><ele>0.0</ele></rtept>
    <rtept lat="52.366015" lon="4.548584"><ele>0.0</ele></rtept>
    <rtept lat="52.366466" lon="4.547232"><ele>0.0</ele></rtept>
    <rtept lat="52.366574" lon="4.547057"><ele>0.0</ele></rtept>
    <rtept lat="52.366645" lon="4.546904"><ele>0.0</ele></rtept>
    <rtept lat="52.366738" lon="4.546619"><ele>0.0</ele></rtept>
    <rtept lat="52.366800" lon="4.546432"><ele>0.0</ele></rtept>
    <rtept lat="52.366823" lon="4.546350"><ele>0.0</ele></rtept>
    <rtept lat="52.366918" lon="4.546016"><ele>0.0</ele></rtept>
    <rtept lat="52.366942" lon="4.545845"><ele>0.0</ele></rtept>
    <rtept lat="52.367284" lon="4.544800"><ele>0.0</ele></rtept>
    <rtept lat="52.367367" lon="4.544656"><ele>0.0</ele></rtept>
    <rtept lat="52.367486" lon="4.544299"><ele>0.0</ele></rtept>
    <rtept lat="52.367527" lon="4.543978"><ele>0.0</ele></rtept>
    <rtept lat="52.367604" lon="4.543732"><ele>0.0</ele></rtept>
    <rtept lat="52.368125" lon="4.542155"><ele>0.0</ele></rtept>
    <rtept lat="52.368675" lon="4.540484"><ele>0.0</ele></rtept>
    <rtept lat="52.368935" lon="4.539760"><ele>0.0</ele></rtept>
    <rtept lat="52.369047" lon="4.539516"><ele>0.0</ele></rtept>
    <rtept lat="52.369064" lon="4.539485"><ele>0.0</ele></rtept>
    <rtept lat="52.369139" lon="4.539478"><ele>0.0</ele></rtept>
    <rtept lat="52.369183" lon="4.539470"><ele>0.0</ele></rtept>
    <rtept lat="52.369281" lon="4.539385"><ele>0.0</ele></rtept>
    <rtept lat="52.369330" lon="4.539373"><ele>0.0</ele></rtept>
    <rtept lat="52.369342" lon="4.539261"><ele>0.0</ele></rtept>
    <rtept lat="52.369353" lon="4.539153"><ele>0.0</ele></rtept>
    <rtept lat="52.369298" lon="4.539070"><ele>0.0</ele></rtept>
    <rtept lat="52.369275" lon="4.538953"><ele>0.0</ele></rtept>
    <rtept lat="52.369285" lon="4.538903"><ele>0.0</ele></rtept>
    <rtept lat="52.369316" lon="4.538803"><ele>0.0</ele></rtept>
    <rtept lat="52.369359" lon="4.538762"><ele>0.0</ele></rtept>
    <rtept lat="52.369464" lon="4.538563"><ele>0.0</ele></rtept>
    <rtept lat="52.369561" lon="4.538379"><ele>0.0</ele></rtept>
    <rtept lat="52.369571" lon="4.538360"><ele>0.0</ele></rtept>
    <rtept lat="52.369551" lon="4.538289"><ele>0.0</ele></rtept>
    <rtept lat="52.369529" lon="4.538224"><ele>0.0</ele></rtept>
    <rtept lat="52.369481" lon="4.538063"><ele>0.0</ele></rtept>
    <rtept lat="52.369460" lon="4.537992"><ele>0.0</ele></rtept>
    <rtept lat="52.369512" lon="4.537814"><ele>0.0</ele></rtept>
    <rtept lat="52.370071" lon="4.536139"><ele>0.0</ele></rtept>
    <rtept lat="52.370271" lon="4.535539"><ele>0.0</ele></rtept>
    <rtept lat="52.370837" lon="4.533849"><ele>0.0</ele></rtept>
    <rtept lat="52.370822" lon="4.533823"><ele>0.0</ele></rtept>
    <rtept lat="52.370853" lon="4.533709"><ele>0.0</ele></rtept>
    <rtept lat="52.370917" lon="4.533439"><ele>0.0</ele></rtept>
    <rtept lat="52.370941" lon="4.533451"><ele>0.0</ele></rtept>
    <rtept lat="52.371025" lon="4.533101"><ele>0.0</ele></rtept>
    <rtept lat="52.371098" lon="4.532881"><ele>0.0</ele></rtept>
    <rtept lat="52.371104" lon="4.532739"><ele>0.0</ele></rtept>
    <rtept lat="52.371144" lon="4.532434"><ele>0.0</ele></rtept>
    <rtept lat="52.371150" lon="4.532324"><ele>0.0</ele></rtept>
    <rtept lat="52.371115" lon="4.532069"><ele>0.0</ele></rtept>
    <rtept lat="52.371081" lon="4.531886"><ele>0.0</ele></rtept>
    <rtept lat="52.371019" lon="4.531135"><ele>0.0</ele></rtept>
    <rtept lat="52.370751" lon="4.529966"><ele>0.0</ele></rtept>
    <rtept lat="52.370635" lon="4.529091"><ele>0.0</ele></rtept>
    <rtept lat="52.370628" lon="4.528980"><ele>0.0</ele></rtept>
    <rtept lat="52.370630" lon="4.528340"><ele>0.0</ele></rtept>
    <rtept lat="52.370677" lon="4.527884"><ele>0.0</ele></rtept>
    <rtept lat="52.370725" lon="4.527518"><ele>0.0</ele></rtept>
    <rtept lat="52.370787" lon="4.527106"><ele>0.0</ele></rtept>
    <rtept lat="52.370870" lon="4.526739"><ele>0.0</ele></rtept>
    <rtept lat="52.371020" lon="4.526368"><ele>0.0</ele></rtept>
    <rtept lat="52.371045" lon="4.526305"><ele>0.0</ele></rtept>
    <rtept lat="52.371106" lon="4.526198"><ele>0.0</ele></rtept>
    <rtept lat="52.371267" lon="4.525821"><ele>0.0</ele></rtept>
    <rtept lat="52.371309" lon="4.525801"><ele>0.0</ele></rtept>
    <rtept lat="52.371348" lon="4.525746"><ele>0.0</ele></rtept>
    <rtept lat="52.371367" lon="4.525628"><ele>0.0</ele></rtept>
    <rtept lat="52.371338" lon="4.525509"><ele>0.0</ele></rtept>
    <rtept lat="52.371301" lon="4.525469"><ele>0.0</ele></rtept>
    <rtept lat="52.371248" lon="4.525454"><ele>0.0</ele></rtept>
    <rtept lat="52.371187" lon="4.525368"><ele>0.0</ele></rtept>
    <rtept lat="52.371038" lon="4.525271"><ele>0.0</ele></rtept>
    <rtept lat="52.370922" lon="4.525166"><ele>0.0</ele></rtept>
    <rtept lat="52.370594" lon="4.524853"><ele>0.0</ele></rtept>
    <rtept lat="52.370448" lon="4.524662"><ele>0.0</ele></rtept>
    <rtept lat="52.370334" lon="4.524409"><ele>0.0</ele></rtept>
    <rtept lat="52.370283" lon="4.524251"><ele>0.0</ele></rtept>
    <rtept lat="52.370114" lon="4.523715"><ele>0.0</ele></rtept>
    <rtept lat="52.370034" lon="4.523522"><ele>0.0</ele></rtept>
    <rtept lat="52.369816" lon="4.523149"><ele>0.0</ele></rtept>
    <rtept lat="52.369625" lon="4.522946"><ele>0.0</ele></rtept>
    <rtept lat="52.368861" lon="4.522431"><ele>0.0</ele></rtept>
    <rtept lat="52.367862" lon="4.521813"><ele>0.0</ele></rtept>
    <rtept lat="52.367739" lon="4.521746"><ele>0.0</ele></rtept>
    <rtept lat="52.367635" lon="4.521667"><ele>0.0</ele></rtept>
    <rtept lat="52.367516" lon="4.521597"><ele>0.0</ele></rtept>
    <rtept lat="52.367184" lon="4.521400"><ele>0.0</ele></rtept>
    <rtept lat="52.366588" lon="4.521004"><ele>0.0</ele></rtept>
    <rtept lat="52.366202" lon="4.520765"><ele>0.0</ele></rtept>
    <rtept lat="52.365358" lon="4.520226"><ele>0.0</ele></rtept>
    <rtept lat="52.365114" lon="4.520078"><ele>0.0</ele></rtept>
    <rtept lat="52.365027" lon="4.520023"><ele>0.0</ele></rtept>
    <rtept lat="52.364434" lon="4.519649"><ele>0.0</ele></rtept>
    <rtept lat="52.364084" lon="4.519401"><ele>0.0</ele></rtept>
    <rtept lat="52.363348" lon="4.518843"><ele>0.0</ele></rtept>
    <rtept lat="52.362342" lon="4.518142"><ele>0.0</ele></rtept>
    <rtept lat="52.362233" lon="4.518110"><ele>0.0</ele></rtept>
    <rtept lat="52.362147" lon="4.518113"><ele>0.0</ele></rtept>
    <rtept lat="52.362045" lon="4.518146"><ele>0.0</ele></rtept>
    <rtept lat="52.361903" lon="4.518269"><ele>0.0</ele></rtept>
    <rtept lat="52.361825" lon="4.518397"><ele>0.0</ele></rtept>
    <rtept lat="52.361760" lon="4.518592"><ele>0.0</ele></rtept>
    <rtept lat="52.361498" lon="4.518383"><ele>0.0</ele></rtept>
    <rtept lat="52.361434" lon="4.518300"><ele>0.0</ele></rtept>
    <rtept lat="52.361058" lon="4.518114"><ele>0.0</ele></rtept>
    <rtept lat="52.360923" lon="4.518076"><ele>0.0</ele></rtept>
    <rtept lat="52.360305" lon="4.518152"><ele>0.0</ele></rtept>
    <rtept lat="52.360078" lon="4.518203"><ele>0.0</ele></rtept>
    <rtept lat="52.359886" lon="4.518168"><ele>0.0</ele></rtept>
    <rtept lat="52.359382" lon="4.517897"><ele>0.0</ele></rtept>
    <rtept lat="52.359150" lon="4.517841"><ele>0.0</ele></rtept>
    <rtept lat="52.358769" lon="4.517860"><ele>0.0</ele></rtept>
    <rtept lat="52.357764" lon="4.517909"><ele>0.0</ele></rtept>
    <rtept lat="52.357601" lon="4.517863"><ele>0.0</ele></rtept>
    <rtept lat="52.357479" lon="4.517745"><ele>0.0</ele></rtept>
    <rtept lat="52.357212" lon="4.517266"><ele>0.0</ele></rtept>
    <rtept lat="52.357097" lon="4.517164"><ele>0.0</ele></rtept>
    <rtept lat="52.356697" lon="4.517047"><ele>0.0</ele></rtept>
    <rtept lat="52.356332" lon="4.516823"><ele>0.0</ele></rtept>
    <rtept lat="52.355633" lon="4.516371"><ele>0.0</ele></rtept>
    <rtept lat="52.355434" lon="4.516203"><ele>0.0</ele></rtept>
    <rtept lat="52.354600" lon="4.515200"><ele>0.0</ele></rtept>
    <rtept lat="52.354491" lon="4.515042"><ele>0.0</ele></rtept>
    <rtept lat="52.354004" lon="4.514178"><ele>0.0</ele></rtept>
    <rtept lat="52.353604" lon="4.513693"><ele>0.0</ele></rtept>
    <rtept lat="52.353152" lon="4.513198"><ele>0.0</ele></rtept>
    <rtept lat="52.351961" lon="4.512317"><ele>0.0</ele></rtept>
    <rtept lat="52.351865" lon="4.512273"><ele>0.0</ele></rtept>
    <rtept lat="52.351680" lon="4.512262"><ele>0.0</ele></rtept>
    <rtept lat="52.350898" lon="4.512381"><ele>0.0</ele></rtept>
    <rtept lat="52.350353" lon="4.512424"><ele>0.0</ele></rtept>
    <rtept lat="52.350196" lon="4.512384"><ele>0.0</ele></rtept>
    <rtept lat="52.350042" lon="4.512280"><ele>0.0</ele></rtept>
    <rtept lat="52.348950" lon="4.511078"><ele>0.0</ele></rtept>
    <rtept lat="52.348840" lon="4.510998"><ele>0.0</ele></rtept>
    <rtept lat="52.348728" lon="4.510962"><ele>0.0</ele></rtept>
    <rtept lat="52.348551" lon="4.510964"><ele>0.0</ele></rtept>
    <rtept lat="52.348391" lon="4.511028"><ele>0.0</ele></rtept>
    <rtept lat="52.348251" lon="4.511152"><ele>0.0</ele></rtept>
    <rtept lat="52.347956" lon="4.511516"><ele>0.0</ele></rtept>
    <rtept lat="52.347832" lon="4.511648"><ele>0.0</ele></rtept>
    <rtept lat="52.347745" lon="4.511696"><ele>0.0</ele></rtept>
    <rtept lat="52.347654" lon="4.511699"><ele>0.0</ele></rtept>
    <rtept lat="52.347093" lon="4.511571"><ele>0.0</ele></rtept>
    <rtept lat="52.346949" lon="4.511500"><ele>0.0</ele></rtept>
    <rtept lat="52.346841" lon="4.511398"><ele>0.0</ele></rtept>
    <rtept lat="52.346133" lon="4.510558"><ele>0.0</ele></rtept>
    <rtept lat="52.344821" lon="4.509087"><ele>0.0</ele></rtept>
    <rtept lat="52.344462" lon="4.508576"><ele>0.0</ele></rtept>
    <rtept lat="52.344173" lon="4.508217"><ele>0.0</ele></rtept>
    <rtept lat="52.343354" lon="4.507375"><ele>0.0</ele></rtept>
    <rtept lat="52.342550" lon="4.506705"><ele>0.0</ele></rtept>
    <rtept lat="52.340152" lon="4.504874"><ele>0.0</ele></rtept>
    <rtept lat="52.339923" lon="4.504794"><ele>0.0</ele></rtept>
    <rtept lat="52.339341" lon="4.504760"><ele>0.0</ele></rtept>
    <rtept lat="52.339021" lon="4.504684"><ele>0.0</ele></rtept>
    <rtept lat="52.338155" lon="4.504242"><ele>0.0</ele></rtept>
    <rtept lat="52.337024" lon="4.503620"><ele>0.0</ele></rtept>
    <rtept lat="52.336648" lon="4.503450"><ele>0.0</ele></rtept>
    <rtept lat="52.335680" lon="4.503117"><ele>0.0</ele></rtept>
    <rtept lat="52.334539" lon="4.502262"><ele>0.0</ele></rtept>
    <rtept lat="52.333956" lon="4.501914"><ele>0.0</ele></rtept>
    <rtept lat="52.332271" lon="4.500785"><ele>0.0</ele></rtept>
    <rtept lat="52.331600" lon="4.500200"><ele>0.0</ele></rtept>
    <rtept lat="52.329900" lon="4.499000"><ele>0.0</ele></rtept>
    <rtept lat="52.329226" lon="4.498559"><ele>0.0</ele></rtept>
    <rtept lat="52.328670" lon="4.498152"><ele>0.0</ele></rtept>
    <rtept lat="52.327528" lon="4.497151"><ele>0.0</ele></rtept>
    <rtept lat="52.327407" lon="4.497071"><ele>0.0</ele></rtept>
    <rtept lat="52.327251" lon="4.496949"><ele>0.0</ele></rtept>
    <rtept lat="52.326994" lon="4.496821"><ele>0.0</ele></rtept>
    <rtept lat="52.326848" lon="4.496785"><ele>0.0</ele></rtept>
    <rtept lat="52.326555" lon="4.496764"><ele>0.0</ele></rtept>
    <rtept lat="52.326362" lon="4.496813"><ele>0.0</ele></rtept>
    <rtept lat="52.325956" lon="4.497065"><ele>0.0</ele></rtept>
    <rtept lat="52.325717" lon="4.497088"><ele>0.0</ele></rtept>
    <rtept lat="52.325469" lon="4.496989"><ele>0.0</ele></rtept>
    <rtept lat="52.324662" lon="4.496454"><ele>0.0</ele></rtept>
    <rtept lat="52.324403" lon="4.496320"><ele>0.0</ele></rtept>
    <rtept lat="52.324199" lon="4.496256"><ele>0.0</ele></rtept>
    <rtept lat="52.323706" lon="4.496206"><ele>0.0</ele></rtept>
    <rtept lat="52.323563" lon="4.496110"><ele>0.0</ele></rtept>
    <rtept lat="52.323429" lon="4.495987"><ele>0.0</ele></rtept>
    <rtept lat="52.323091" lon="4.495636"><ele>0.0</ele></rtept>
    <rtept lat="52.322885" lon="4.495307"><ele>0.0</ele></rtept>
    <rtept lat="52.322499" lon="4.494533"><ele>0.0</ele></rtept>
    <rtept lat="52.322305" lon="4.494232"><ele>0.0</ele></rtept>
    <rtept lat="52.322178" lon="4.494077"><ele>0.0</ele></rtept>
    <rtept lat="52.322054" lon="4.493966"><ele>0.0</ele></rtept>
    <rtept lat="52.321530" lon="4.493632"><ele>0.0</ele></rtept>
    <rtept lat="52.321330" lon="4.493417"><ele>0.0</ele></rtept>
    <rtept lat="52.320523" lon="4.492004"><ele>0.0</ele></rtept>
    <rtept lat="52.320266" lon="4.491679"><ele>0.0</ele></rtept>
    <rtept lat="52.319614" lon="4.491220"><ele>0.0</ele></rtept>
    <rtept lat="52.319451" lon="4.491085"><ele>0.0</ele></rtept>
    <rtept lat="52.319138" lon="4.490747"><ele>0.0</ele></rtept>
    <rtept lat="52.318092" lon="4.490203"><ele>0.0</ele></rtept>
    <rtept lat="52.317886" lon="4.490053"><ele>0.0</ele></rtept>
    <rtept lat="52.317306" lon="4.489557"><ele>0.0</ele></rtept>
    <rtept lat="52.316963" lon="4.489302"><ele>0.0</ele></rtept>
    <rtept lat="52.315293" lon="4.488354"><ele>0.0</ele></rtept>
    <rtept lat="52.314764" lon="4.487867"><ele>0.0</ele></rtept>
    <rtept lat="52.314189" lon="4.487225"><ele>0.0</ele></rtept>
    <rtept lat="52.313875" lon="4.486906"><ele>0.0</ele></rtept>
    <rtept lat="52.313653" lon="4.486713"><ele>0.0</ele></rtept>
    <rtept lat="52.313478" lon="4.486602"><ele>0.0</ele></rtept>
    <rtept lat="52.313220" lon="4.486516"><ele>0.0</ele></rtept>
    <rtept lat="52.312316" lon="4.486312"><ele>0.0</ele></rtept>
    <rtept lat="52.312128" lon="4.486296"><ele>0.0</ele></rtept>
    <rtept lat="52.312007" lon="4.486311"><ele>0.0</ele></rtept>
    <rtept lat="52.311354" lon="4.486455"><ele>0.0</ele></rtept>
    <rtept lat="52.310983" lon="4.486506"><ele>0.0</ele></rtept>
    <rtept lat="52.309821" lon="4.486197"><ele>0.0</ele></rtept>
    <rtept lat="52.309693" lon="4.486122"><ele>0.0</ele></rtept>
    <rtept lat="52.309544" lon="4.485965"><ele>0.0</ele></rtept>
    <rtept lat="52.309365" lon="4.485665"><ele>0.0</ele></rtept>
    <rtept lat="52.309244" lon="4.485352"><ele>0.0</ele></rtept>
    <rtept lat="52.309190" lon="4.485271"><ele>0.0</ele></rtept>
    <rtept lat="52.307830" lon="4.484049"><ele>0.0</ele></rtept>
    <rtept lat="52.307483" lon="4.483716"><ele>0.0</ele></rtept>
    <rtept lat="52.307291" lon="4.483471"><ele>0.0</ele></rtept>
    <rtept lat="52.306799" lon="4.482732"><ele>0.0</ele></rtept>
    <rtept lat="52.306659" lon="4.482606"><ele>0.0</ele></rtept>
    <rtept lat="52.306015" lon="4.482171"><ele>0.0</ele></rtept>
    <rtept lat="52.305832" lon="4.482083"><ele>0.0</ele></rtept>
    <rtept lat="52.305343" lon="4.481917"><ele>0.0</ele></rtept>
    <rtept lat="52.304593" lon="4.481506"><ele>0.0</ele></rtept>
    <rtept lat="52.304348" lon="4.481302"><ele>0.0</ele></rtept>
    <rtept lat="52.303988" lon="4.480933"><ele>0.0</ele></rtept>
    <rtept lat="52.303604" lon="4.480395"><ele>0.0</ele></rtept>
    <rtept lat="52.303099" lon="4.479578"><ele>0.0</ele></rtept>
    <rtept lat="52.302452" lon="4.478814"><ele>0.0</ele></rtept>
    <rtept lat="52.302199" lon="4.478604"><ele>0.0</ele></rtept>
    <rtept lat="52.301373" lon="4.478043"><ele>0.0</ele></rtept>
    <rtept lat="52.301198" lon="4.477926"><ele>0.0</ele></rtept>
    <rtept lat="52.301139" lon="4.477890"><ele>0.0</ele></rtept>
    <rtept lat="52.301033" lon="4.477807"><ele>0.0</ele></rtept>
    <rtept lat="52.300977" lon="4.477907"><ele>0.0</ele></rtept>
    <rtept lat="52.300713" lon="4.478249"><ele>0.0</ele></rtept>
    <rtept lat="52.300440" lon="4.478522"><ele>0.0</ele></rtept>
    <rtept lat="52.300241" lon="4.478654"><ele>0.0</ele></rtept>
    <rtept lat="52.299926" lon="4.478787"><ele>0.0</ele></rtept>
    <rtept lat="52.299095" lon="4.479099"><ele>0.0</ele></rtept>
    <rtept lat="52.298711" lon="4.479320"><ele>0.0</ele></rtept>
    <rtept lat="52.298195" lon="4.479815"><ele>0.0</ele></rtept>
    <rtept lat="52.298058" lon="4.479924"><ele>0.0</ele></rtept>
    <rtept lat="52.297903" lon="4.480017"><ele>0.0</ele></rtept>
    <rtept lat="52.296820" lon="4.480474"><ele>0.0</ele></rtept>
    <rtept lat="52.296365" lon="4.480735"><ele>0.0</ele></rtept>
    <rtept lat="52.295943" lon="4.481150"><ele>0.0</ele></rtept>
    <rtept lat="52.295612" lon="4.481546"><ele>0.0</ele></rtept>
    <rtept lat="52.295460" lon="4.481778"><ele>0.0</ele></rtept>
    <rtept lat="52.295309" lon="4.482043"><ele>0.0</ele></rtept>
    <rtept lat="52.295195" lon="4.482305"><ele>0.0</ele></rtept>
    <rtept lat="52.295090" lon="4.482607"><ele>0.0</ele></rtept>
    <rtept lat="52.294994" lon="4.483009"><ele>0.0</ele></rtept>
    <rtept lat="52.294950" lon="4.483416"><ele>0.0</ele></rtept>
    <rtept lat="52.294920" lon="4.485628"><ele>0.0</ele></rtept>
    <rtept lat="52.294863" lon="4.486031"><ele>0.0</ele></rtept>
    <rtept lat="52.294735" lon="4.486463"><ele>0.0</ele></rtept>
    <rtept lat="52.294524" lon="4.486855"><ele>0.0</ele></rtept>
    <rtept lat="52.294395" lon="4.487027"><ele>0.0</ele></rtept>
    <rtept lat="52.294256" lon="4.487155"><ele>0.0</ele></rtept>
    <rtept lat="52.294116" lon="4.487246"><ele>0.0</ele></rtept>
    <rtept lat="52.293955" lon="4.487315"><ele>0.0</ele></rtept>
    <rtept lat="52.293159" lon="4.487519"><ele>0.0</ele></rtept>
    <rtept lat="52.292904" lon="4.487619"><ele>0.0</ele></rtept>
    <rtept lat="52.292733" lon="4.487760"><ele>0.0</ele></rtept>
    <rtept lat="52.292571" lon="4.487968"><ele>0.0</ele></rtept>
    <rtept lat="52.292410" lon="4.488307"><ele>0.0</ele></rtept>
    <rtept lat="52.292352" lon="4.488494"><ele>0.0</ele></rtept>
    <rtept lat="52.292310" lon="4.488705"><ele>0.0</ele></rtept>
    <rtept lat="52.292170" lon="4.489691"><ele>0.0</ele></rtept>
    <rtept lat="52.292056" lon="4.490035"><ele>0.0</ele></rtept>
    <rtept lat="52.292122" lon="4.490186"><ele>0.0</ele></rtept>
    <rtept lat="52.293206" lon="4.491985"><ele>0.0</ele></rtept>
    <rtept lat="52.295350" lon="4.495705"><ele>0.0</ele></rtept>
    <rtept lat="52.295597" lon="4.496211"><ele>0.0</ele></rtept>
    <rtept lat="52.295940" lon="4.497049"><ele>0.0</ele></rtept>
    <rtept lat="52.296274" lon="4.497973"><ele>0.0</ele></rtept>
    <rtept lat="52.296853" lon="4.499414"><ele>0.0</ele></rtept>
    <rtept lat="52.296878" lon="4.499513"><ele>0.0</ele></rtept>
    <rtept lat="52.296868" lon="4.499699"><ele>0.0</ele></rtept>
    <rtept lat="52.296728" lon="4.500004"><ele>0.0</ele></rtept>
    <rtept lat="52.296689" lon="4.500205"><ele>0.0</ele></rtept>
    <rtept lat="52.296689" lon="4.500311"><ele>0.0</ele></rtept>
    <rtept lat="52.296948" lon="4.501781"><ele>0.0</ele></rtept>
    <rtept lat="52.296989" lon="4.502083"><ele>0.0</ele></rtept>
    <rtept lat="52.297005" lon="4.502455"><ele>0.0</ele></rtept>
    <rtept lat="52.296991" lon="4.502914"><ele>0.0</ele></rtept>
    <rtept lat="52.296898" lon="4.503511"><ele>0.0</ele></rtept>
    <rtept lat="52.296721" lon="4.504240"><ele>0.0</ele></rtept>
    <rtept lat="52.296534" lon="4.504918"><ele>0.0</ele></rtept>
    <rtept lat="52.296234" lon="4.505862"><ele>0.0</ele></rtept>
    <rtept lat="52.295994" lon="4.506611"><ele>0.0</ele></rtept>
    <rtept lat="52.295844" lon="4.507236"><ele>0.0</ele></rtept>
    <rtept lat="52.295646" lon="4.509194"><ele>0.0</ele></rtept>
    <rtept lat="52.295325" lon="4.511539"><ele>0.0</ele></rtept>
    <rtept lat="52.295304" lon="4.511801"><ele>0.0</ele></rtept>
    <rtept lat="52.295296" lon="4.512200"><ele>0.0</ele></rtept>
    <rtept lat="52.295318" lon="4.512524"><ele>0.0</ele></rtept>
    <rtept lat="52.295631" lon="4.514883"><ele>0.0</ele></rtept>
    <rtept lat="52.295641" lon="4.515070"><ele>0.0</ele></rtept>
    <rtept lat="52.295621" lon="4.515265"><ele>0.0</ele></rtept>
    <rtept lat="52.295579" lon="4.515437"><ele>0.0</ele></rtept>
    <rtept lat="52.295511" lon="4.515608"><ele>0.0</ele></rtept>
    <rtept lat="52.295155" lon="4.516255"><ele>0.0</ele></rtept>
    <rtept lat="52.294587" lon="4.517492"><ele>0.0</ele></rtept>
    <rtept lat="52.294370" lon="4.517848"><ele>0.0</ele></rtept>
    <rtept lat="52.293797" lon="4.518699"><ele>0.0</ele></rtept>
    <rtept lat="52.293700" lon="4.518891"><ele>0.0</ele></rtept>
    <rtept lat="52.293638" lon="4.519041"><ele>0.0</ele></rtept>
    <rtept lat="52.293572" lon="4.519293"><ele>0.0</ele></rtept>
    <rtept lat="52.293478" lon="4.519835"><ele>0.0</ele></rtept>
    <rtept lat="52.293469" lon="4.520519"><ele>0.0</ele></rtept>
    <rtept lat="52.293446" lon="4.520923"><ele>0.0</ele></rtept>
    <rtept lat="52.293372" lon="4.521302"><ele>0.0</ele></rtept>
    <rtept lat="52.293159" lon="4.522219"><ele>0.0</ele></rtept>
    <rtept lat="52.292897" lon="4.522886"><ele>0.0</ele></rtept>
    <rtept lat="52.292803" lon="4.523089"><ele>0.0</ele></rtept>
    <rtept lat="52.292737" lon="4.523155"><ele>0.0</ele></rtept>
    <rtept lat="52.292618" lon="4.523213"><ele>0.0</ele></rtept>
    <rtept lat="52.292448" lon="4.523202"><ele>0.0</ele></rtept>
    <rtept lat="52.292349" lon="4.523931"><ele>0.0</ele></rtept>
    <rtept lat="52.292215" lon="4.524346"><ele>0.0</ele></rtept>
    <rtept lat="52.292020" lon="4.524722"><ele>0.0</ele></rtept>
    <rtept lat="52.291825" lon="4.525247"><ele>0.0</ele></rtept>
    <rtept lat="52.291828" lon="4.525336"><ele>0.0</ele></rtept>
    <rtept lat="52.291729" lon="4.525612"><ele>0.0</ele></rtept>
    <rtept lat="52.291769" lon="4.525784"><ele>0.0</ele></rtept>
    <rtept lat="52.291787" lon="4.525831"><ele>0.0</ele></rtept>
    <rtept lat="52.292068" lon="4.526047"><ele>0.0</ele></rtept>
    <rtept lat="52.293045" lon="4.526824"><ele>0.0</ele></rtept>
    <rtept lat="52.293481" lon="4.527244"><ele>0.0</ele></rtept>
    <rtept lat="52.293785" lon="4.527570"><ele>0.0</ele></rtept>
    <rtept lat="52.294447" lon="4.528439"><ele>0.0</ele></rtept>
    <rtept lat="52.295731" lon="4.530346"><ele>0.0</ele></rtept>
    <rtept lat="52.296285" lon="4.531164"><ele>0.0</ele></rtept>
    <rtept lat="52.296696" lon="4.531721"><ele>0.0</ele></rtept>
    <rtept lat="52.297258" lon="4.532379"><ele>0.0</ele></rtept>
    <rtept lat="52.297946" lon="4.533075"><ele>0.0</ele></rtept>
    <rtept lat="52.298500" lon="4.533699"><ele>0.0</ele></rtept>
    <rtept lat="52.298773" lon="4.534046"><ele>0.0</ele></rtept>
    <rtept lat="52.299657" lon="4.535308"><ele>0.0</ele></rtept>
    <rtept lat="52.300667" lon="4.536796"><ele>0.0</ele></rtept>
    <rtept lat="52.300892" lon="4.537114"><ele>0.0</ele></rtept>
    <rtept lat="52.301272" lon="4.537572"><ele>0.0</ele></rtept>
    <rtept lat="52.301501" lon="4.537862"><ele>0.0</ele></rtept>
    <rtept lat="52.301659" lon="4.538266"><ele>0.0</ele></rtept>
    <rtept lat="52.301772" lon="4.538400"><ele>0.0</ele></rtept>
    <rtept lat="52.301906" lon="4.538519"><ele>0.0</ele></rtept>
    <rtept lat="52.302005" lon="4.538606"><ele>0.0</ele></rtept>
    <rtept lat="52.302108" lon="4.538265"><ele>0.0</ele></rtept>
    <rtept lat="52.302167" lon="4.538285"><ele>0.0</ele></rtept>
    <rtept lat="52.302270" lon="4.538272"><ele>0.0</ele></rtept>
    <rtept lat="52.302369" lon="4.538355"><ele>0.0</ele></rtept>
    <rtept lat="52.302451" lon="4.538397"><ele>0.0</ele></rtept>
    <rtept lat="52.302721" lon="4.538685"><ele>0.0</ele></rtept>
    <rtept lat="52.302859" lon="4.538816"><ele>0.0</ele></rtept>
    <rtept lat="52.303244" lon="4.539235"><ele>0.0</ele></rtept>
    <rtept lat="52.303437" lon="4.539520"><ele>0.0</ele></rtept>
    <rtept lat="52.303560" lon="4.539842"><ele>0.0</ele></rtept>
    <rtept lat="52.303596" lon="4.539983"><ele>0.0</ele></rtept>
    <rtept lat="52.303636" lon="4.540265"><ele>0.0</ele></rtept>
    <rtept lat="52.303639" lon="4.540623"><ele>0.0</ele></rtept>
    <rtept lat="52.303583" lon="4.540990"><ele>0.0</ele></rtept>
    <rtept lat="52.303316" lon="4.541945"><ele>0.0</ele></rtept>
    <rtept lat="52.302979" lon="4.543118"><ele>0.0</ele></rtept>
    <rtept lat="52.302947" lon="4.543227"><ele>0.0</ele></rtept>
    <rtept lat="52.302635" lon="4.544366"><ele>0.0</ele></rtept>
    <rtept lat="52.302509" lon="4.544868"><ele>0.0</ele></rtept>
    <rtept lat="52.302490" lon="4.545039"><ele>0.0</ele></rtept>
    <rtept lat="52.302496" lon="4.545235"><ele>0.0</ele></rtept>
    <rtept lat="52.302554" lon="4.545546"><ele>0.0</ele></rtept>
    <rtept lat="52.302761" lon="4.546220"><ele>0.0</ele></rtept>
    <rtept lat="52.302900" lon="4.546758"><ele>0.0</ele></rtept>
    <rtept lat="52.303160" lon="4.547612"><ele>0.0</ele></rtept>
    <rtept lat="52.303290" lon="4.548027"><ele>0.0</ele></rtept>
    <rtept lat="52.303374" lon="4.548187"><ele>0.0</ele></rtept>
    <rtept lat="52.303409" lon="4.548243"><ele>0.0</ele></rtept>
    <rtept lat="52.303589" lon="4.548534"><ele>0.0</ele></rtept>
    <rtept lat="52.303830" lon="4.548892"><ele>0.0</ele></rtept>
    <rtept lat="52.304250" lon="4.549535"><ele>0.0</ele></rtept>
    <rtept lat="52.304375" lon="4.549743"><ele>0.0</ele></rtept>
    <rtept lat="52.304705" lon="4.550413"><ele>0.0</ele></rtept>
    <rtept lat="52.304849" lon="4.550670"><ele>0.0</ele></rtept>
    <rtept lat="52.305179" lon="4.551125"><ele>0.0</ele></rtept>
    <rtept lat="52.305527" lon="4.551528"><ele>0.0</ele></rtept>
    <rtept lat="52.305889" lon="4.551864"><ele>0.0</ele></rtept>
    <rtept lat="52.306739" lon="4.552374"><ele>0.0</ele></rtept>
    <rtept lat="52.307194" lon="4.552709"><ele>0.0</ele></rtept>
    <rtept lat="52.307473" lon="4.552987"><ele>0.0</ele></rtept>
    <rtept lat="52.307784" lon="4.553346"><ele>0.0</ele></rtept>
    <rtept lat="52.308088" lon="4.553797"><ele>0.0</ele></rtept>
    <rtept lat="52.308282" lon="4.554081"><ele>0.0</ele></rtept>
    <rtept lat="52.308684" lon="4.554746"><ele>0.0</ele></rtept>
    <rtept lat="52.309065" lon="4.555633"><ele>0.0</ele></rtept>
    <rtept lat="52.309456" lon="4.556224"><ele>0.0</ele></rtept>
    <rtept lat="52.309872" lon="4.556755"><ele>0.0</ele></rtept>
    <rtept lat="52.310339" lon="4.557142"><ele>0.0</ele></rtept>
    <rtept lat="52.310411" lon="4.557170"><ele>0.0</ele></rtept>
    <rtept lat="52.310561" lon="4.557216"><ele>0.0</ele></rtept>
    <rtept lat="52.310680" lon="4.557214"><ele>0.0</ele></rtept>
    <rtept lat="52.310768" lon="4.557179"><ele>0.0</ele></rtept>
    <rtept lat="52.310774" lon="4.557045"><ele>0.0</ele></rtept>
    <rtept lat="52.310833" lon="4.557085"><ele>0.0</ele></rtept>
    <rtept lat="52.310846" lon="4.557286"><ele>0.0</ele></rtept>
    <rtept lat="52.310906" lon="4.557515"><ele>0.0</ele></rtept>
    <rtept lat="52.311009" lon="4.557658"><ele>0.0</ele></rtept>
    <rtept lat="52.311517" lon="4.558182"><ele>0.0</ele></rtept>
    <rtept lat="52.312339" lon="4.559030"><ele>0.0</ele></rtept>
    <rtept lat="52.312586" lon="4.559232"><ele>0.0</ele></rtept>
    <rtept lat="52.312961" lon="4.559485"><ele>0.0</ele></rtept>
    <rtept lat="52.313477" lon="4.560231"><ele>0.0</ele></rtept>
    <rtept lat="52.314089" lon="4.561032"><ele>0.0</ele></rtept>
    <rtept lat="52.314230" lon="4.561178"><ele>0.0</ele></rtept>
    <rtept lat="52.314678" lon="4.561636"><ele>0.0</ele></rtept>
    <rtept lat="52.314851" lon="4.561914"><ele>0.0</ele></rtept>
    <rtept lat="52.314945" lon="4.562334"><ele>0.0</ele></rtept>
    <rtept lat="52.314954" lon="4.562878"><ele>0.0</ele></rtept>
    <rtept lat="52.315578" lon="4.563389"><ele>0.0</ele></rtept>
    <rtept lat="52.316433" lon="4.564090"><ele>0.0</ele></rtept>
    <rtept lat="52.318049" lon="4.565391"><ele>0.0</ele></rtept>
    <rtept lat="52.319302" lon="4.566404"><ele>0.0</ele></rtept>
    <rtept lat="52.320040" lon="4.566917"><ele>0.0</ele></rtept>
    <rtept lat="52.320359" lon="4.567242"><ele>0.0</ele></rtept>
    <rtept lat="52.320677" lon="4.567476"><ele>0.0</ele></rtept>
    <rtept lat="52.320990" lon="4.567680"><ele>0.0</ele></rtept>
    <rtept lat="52.321309" lon="4.567836"><ele>0.0</ele></rtept>
    <rtept lat="52.321621" lon="4.568022"><ele>0.0</ele></rtept>
    <rtept lat="52.321838" lon="4.568203"><ele>0.0</ele></rtept>
    <rtept lat="52.322959" lon="4.569270"><ele>0.0</ele></rtept>
    <rtept lat="52.323125" lon="4.569442"><ele>0.0</ele></rtept>
    <rtept lat="52.323532" lon="4.569777"><ele>0.0</ele></rtept>
    <rtept lat="52.323648" lon="4.569795"><ele>0.0</ele></rtept>
    <rtept lat="52.324139" lon="4.569722"><ele>0.0</ele></rtept>
    <rtept lat="52.324458" lon="4.569729"><ele>0.0</ele></rtept>
    <rtept lat="52.324664" lon="4.569779"><ele>0.0</ele></rtept>
    <rtept lat="52.324795" lon="4.569859"><ele>0.0</ele></rtept>
    <rtept lat="52.325046" lon="4.570144"><ele>0.0</ele></rtept>
    <rtept lat="52.325128" lon="4.570272"><ele>0.0</ele></rtept>
    <rtept lat="52.325788" lon="4.571632"><ele>0.0</ele></rtept>
    <rtept lat="52.325866" lon="4.571765"><ele>0.0</ele></rtept>
    <rtept lat="52.326395" lon="4.572256"><ele>0.0</ele></rtept>
    <rtept lat="52.326563" lon="4.572469"><ele>0.0</ele></rtept>
    <rtept lat="52.327184" lon="4.573022"><ele>0.0</ele></rtept>
    <rtept lat="52.327126" lon="4.573173"><ele>0.0</ele></rtept>
    <rtept lat="52.326134" lon="4.578531"><ele>0.0</ele></rtept>
    <rtept lat="52.326163" lon="4.578544"><ele>0.0</ele></rtept>
    <rtept lat="52.326210" lon="4.578628"><ele>0.0</ele></rtept>
    <rtept lat="52.326264" lon="4.578788"><ele>0.0</ele></rtept>
    <rtept lat="52.326623" lon="4.579182"><ele>0.0</ele></rtept>
    <rtept lat="52.326934" lon="4.579286"><ele>0.0</ele></rtept>
    <rtept lat="52.327418" lon="4.579500"><ele>0.0</ele></rtept>
    <rtept lat="52.327738" lon="4.579679"><ele>0.0</ele></rtept>
    <rtept lat="52.328899" lon="4.580153"><ele>0.0</ele></rtept>
    <rtept lat="52.329023" lon="4.580148"><ele>0.0</ele></rtept>
    <rtept lat="52.329421" lon="4.580007"><ele>0.0</ele></rtept>
    <rtept lat="52.329643" lon="4.579992"><ele>0.0</ele></rtept>
    <rtept lat="52.330451" lon="4.580071"><ele>0.0</ele></rtept>
    <rtept lat="52.330570" lon="4.580044"><ele>0.0</ele></rtept>
    <rtept lat="52.330756" lon="4.579922"><ele>0.0</ele></rtept>
    <rtept lat="52.330943" lon="4.579765"><ele>0.0</ele></rtept>
    <rtept lat="52.331050" lon="4.579695"><ele>0.0</ele></rtept>
    <rtept lat="52.331150" lon="4.579688"><ele>0.0</ele></rtept>
    <rtept lat="52.331452" lon="4.579764"><ele>0.0</ele></rtept>
    <rtept lat="52.331601" lon="4.579723"><ele>0.0</ele></rtept>
    <rtept lat="52.332097" lon="4.579953"><ele>0.0</ele></rtept>
    <rtept lat="52.332276" lon="4.580039"><ele>0.0</ele></rtept>
    <rtept lat="52.332327" lon="4.580077"><ele>0.0</ele></rtept>
    <rtept lat="52.332558" lon="4.580172"><ele>0.0</ele></rtept>
    <rtept lat="52.332641" lon="4.580321"><ele>0.0</ele></rtept>
    <rtept lat="52.334432" lon="4.581191"><ele>0.0</ele></rtept>
    <rtept lat="52.335116" lon="4.581476"><ele>0.0</ele></rtept>
    <rtept lat="52.335181" lon="4.581602"><ele>0.0</ele></rtept>
    <rtept lat="52.335170" lon="4.581662"><ele>0.0</ele></rtept>
    <rtept lat="52.335211" lon="4.581681"><ele>0.0</ele></rtept>
    <rtept lat="52.335731" lon="4.581919"><ele>0.0</ele></rtept>
    <rtept lat="52.337710" lon="4.582700"><ele>0.0</ele></rtept>
    <rtept lat="52.338303" lon="4.582913"><ele>0.0</ele></rtept>
    <rtept lat="52.338610" lon="4.582982"><ele>0.0</ele></rtept>
    <rtept lat="52.338757" lon="4.583045"><ele>0.0</ele></rtept>
    <rtept lat="52.339430" lon="4.583428"><ele>0.0</ele></rtept>
    <rtept lat="52.339659" lon="4.583507"><ele>0.0</ele></rtept>
    <rtept lat="52.340022" lon="4.583579"><ele>0.0</ele></rtept>
    <rtept lat="52.340572" lon="4.583869"><ele>0.0</ele></rtept>
    <rtept lat="52.340989" lon="4.584176"><ele>0.0</ele></rtept>
    <rtept lat="52.342320" lon="4.585568"><ele>0.0</ele></rtept>
    <rtept lat="52.342414" lon="4.585634"><ele>0.0</ele></rtept>
    <rtept lat="52.342532" lon="4.585678"><ele>0.0</ele></rtept>
    <rtept lat="52.342685" lon="4.585652"><ele>0.0</ele></rtept>
    <rtept lat="52.342845" lon="4.585510"><ele>0.0</ele></rtept>
    <rtept lat="52.343018" lon="4.585215"><ele>0.0</ele></rtept>
    <rtept lat="52.343170" lon="4.585075"><ele>0.0</ele></rtept>
    <rtept lat="52.343408" lon="4.584995"><ele>0.0</ele></rtept>
    <rtept lat="52.343668" lon="4.584968"><ele>0.0</ele></rtept>
    <rtept lat="52.343979" lon="4.584971"><ele>0.0</ele></rtept>
    <rtept lat="52.344274" lon="4.585014"><ele>0.0</ele></rtept>
    <rtept lat="52.344536" lon="4.585078"><ele>0.0</ele></rtept>
    <rtept lat="52.344908" lon="4.585237"><ele>0.0</ele></rtept>
    <rtept lat="52.345651" lon="4.585559"><ele>0.0</ele></rtept>
    <rtept lat="52.345802" lon="4.585647"><ele>0.0</ele></rtept>
    <rtept lat="52.345891" lon="4.585687"><ele>0.0</ele></rtept>
    <rtept lat="52.346745" lon="4.586108"><ele>0.0</ele></rtept>
    <rtept lat="52.347262" lon="4.586444"><ele>0.0</ele></rtept>
    <rtept lat="52.347542" lon="4.586754"><ele>0.0</ele></rtept>
    <rtept lat="52.347849" lon="4.587134"><ele>0.0</ele></rtept>
    <rtept lat="52.348186" lon="4.587620"><ele>0.0</ele></rtept>
    <rtept lat="52.348508" lon="4.587760"><ele>0.0</ele></rtept>
    <rtept lat="52.349309" lon="4.587555"><ele>0.0</ele></rtept>
    <rtept lat="52.349649" lon="4.587581"><ele>0.0</ele></rtept>
    <rtept lat="52.350063" lon="4.587729"><ele>0.0</ele></rtept>
    <rtept lat="52.350869" lon="4.588116"><ele>0.0</ele></rtept>
    <rtept lat="52.351553" lon="4.588408"><ele>0.0</ele></rtept>
    <rtept lat="52.352656" lon="4.588744"><ele>0.0</ele></rtept>
    <rtept lat="52.352852" lon="4.588779"><ele>0.0</ele></rtept>
    <rtept lat="52.353720" lon="4.588788"><ele>0.0</ele></rtept>
    <rtept lat="52.353801" lon="4.588852"><ele>0.0</ele></rtept>
    <rtept lat="52.353912" lon="4.589008"><ele>0.0</ele></rtept>
    <rtept lat="52.354370" lon="4.589826"><ele>0.0</ele></rtept>
    <rtept lat="52.355733" lon="4.592257"><ele>0.0</ele></rtept>
    <rtept lat="52.357082" lon="4.594636"><ele>0.0</ele></rtept>
    <rtept lat="52.357968" lon="4.596245"><ele>0.0</ele></rtept>
    <rtept lat="52.357995" lon="4.596402"><ele>0.0</ele></rtept>
    <rtept lat="52.358018" lon="4.596689"><ele>0.0</ele></rtept>
    <rtept lat="52.358080" lon="4.596852"><ele>0.0</ele></rtept>
    <rtept lat="52.358075" lon="4.597128"><ele>0.0</ele></rtept>
    <rtept lat="52.357998" lon="4.597709"><ele>0.0</ele></rtept>
    <rtept lat="52.357961" lon="4.598053"><ele>0.0</ele></rtept>
    <rtept lat="52.357961" lon="4.598336"><ele>0.0</ele></rtept>
    <rtept lat="52.358044" lon="4.598808"><ele>0.0</ele></rtept>
    <rtept lat="52.358123" lon="4.599082"><ele>0.0</ele></rtept>
    <rtept lat="52.358227" lon="4.599366"><ele>0.0</ele></rtept>
    <rtept lat="52.358351" lon="4.599624"><ele>0.0</ele></rtept>
    <rtept lat="52.358980" lon="4.600558"><ele>0.0</ele></rtept>
    <rtept lat="52.359148" lon="4.600841"><ele>0.0</ele></rtept>
    <rtept lat="52.359298" lon="4.601144"><ele>0.0</ele></rtept>
    <rtept lat="52.359497" lon="4.601682"><ele>0.0</ele></rtept>
    <rtept lat="52.359684" lon="4.602282"><ele>0.0</ele></rtept>
    <rtept lat="52.359718" lon="4.602372"><ele>0.0</ele></rtept>
    <rtept lat="52.359796" lon="4.602561"><ele>0.0</ele></rtept>
    <rtept lat="52.359906" lon="4.602709"><ele>0.0</ele></rtept>
    <rtept lat="52.360094" lon="4.602897"><ele>0.0</ele></rtept>
    <rtept lat="52.360072" lon="4.603010"><ele>0.0</ele></rtept>
    <rtept lat="52.360058" lon="4.603201"><ele>0.0</ele></rtept>
    <rtept lat="52.359972" lon="4.603628"><ele>0.0</ele></rtept>
    <rtept lat="52.359947" lon="4.603768"><ele>0.0</ele></rtept>
    <rtept lat="52.359907" lon="4.604033"><ele>0.0</ele></rtept>
    <rtept lat="52.359766" lon="4.605432"><ele>0.0</ele></rtept>
    <rtept lat="52.359757" lon="4.605493"><ele>0.0</ele></rtept>
    <rtept lat="52.359694" lon="4.605685"><ele>0.0</ele></rtept>
    <rtept lat="52.359675" lon="4.605740"><ele>0.0</ele></rtept>
    <rtept lat="52.359595" lon="4.606471"><ele>0.0</ele></rtept>
    <rtept lat="52.359601" lon="4.606514"><ele>0.0</ele></rtept>
    <rtept lat="52.359656" lon="4.606612"><ele>0.0</ele></rtept>
    <rtept lat="52.359617" lon="4.607135"><ele>0.0</ele></rtept>
    <rtept lat="52.359599" lon="4.607352"><ele>0.0</ele></rtept>
    <rtept lat="52.359591" lon="4.607412"><ele>0.0</ele></rtept>
    <rtept lat="52.359590" lon="4.607630"><ele>0.0</ele></rtept>
    <rtept lat="52.359585" lon="4.607842"><ele>0.0</ele></rtept>
    <rtept lat="52.359566" lon="4.608014"><ele>0.0</ele></rtept>
    <rtept lat="52.359543" lon="4.608222"><ele>0.0</ele></rtept>
    <rtept lat="52.359405" lon="4.609675"><ele>0.0</ele></rtept>
    <rtept lat="52.359444" lon="4.609689"><ele>0.0</ele></rtept>
    <rtept lat="52.359377" lon="4.610508"><ele>0.0</ele></rtept>
    <rtept lat="52.359361" lon="4.610689"><ele>0.0</ele></rtept>
    <rtept lat="52.359326" lon="4.611143"><ele>0.0</ele></rtept>
    <rtept lat="52.359314" lon="4.611303"><ele>0.0</ele></rtept>
    <rtept lat="52.359285" lon="4.611605"><ele>0.0</ele></rtept>
    <rtept lat="52.359273" lon="4.611974"><ele>0.0</ele></rtept>
    <rtept lat="52.359153" lon="4.613176"><ele>0.0</ele></rtept>
    <rtept lat="52.359140" lon="4.613319"><ele>0.0</ele></rtept>
    <rtept lat="52.359040" lon="4.614337"><ele>0.0</ele></rtept>
    <rtept lat="52.358961" lon="4.615143"><ele>0.0</ele></rtept>
    <rtept lat="52.358951" lon="4.615300"><ele>0.0</ele></rtept>
    <rtept lat="52.358920" lon="4.615683"><ele>0.0</ele></rtept>
    <rtept lat="52.358899" lon="4.615939"><ele>0.0</ele></rtept>
    <rtept lat="52.358870" lon="4.616281"><ele>0.0</ele></rtept>
    <rtept lat="52.358859" lon="4.616393"><ele>0.0</ele></rtept>
    <rtept lat="52.358856" lon="4.616536"><ele>0.0</ele></rtept>
    <rtept lat="52.358862" lon="4.616678"><ele>0.0</ele></rtept>
    <rtept lat="52.359398" lon="4.617336"><ele>0.0</ele></rtept>
    <rtept lat="52.359534" lon="4.617429"><ele>0.0</ele></rtept>
    <rtept lat="52.359879" lon="4.617534"><ele>0.0</ele></rtept>
    <rtept lat="52.359910" lon="4.617570"><ele>0.0</ele></rtept>
    <rtept lat="52.359934" lon="4.617602"><ele>0.0</ele></rtept>
    <rtept lat="52.360007" lon="4.617627"><ele>0.0</ele></rtept>
    <rtept lat="52.360058" lon="4.617643"><ele>0.0</ele></rtept>
    <rtept lat="52.360076" lon="4.617629"><ele>0.0</ele></rtept>
    <rtept lat="52.360096" lon="4.617621"><ele>0.0</ele></rtept>
    <rtept lat="52.360173" lon="4.617602"><ele>0.0</ele></rtept>
    <rtept lat="52.361472" lon="4.617905"><ele>0.0</ele></rtept>
    <rtept lat="52.361689" lon="4.617945"><ele>0.0</ele></rtept>
    <rtept lat="52.361867" lon="4.617950"><ele>0.0</ele></rtept>
    <rtept lat="52.362413" lon="4.618012"><ele>0.0</ele></rtept>
    <rtept lat="52.362549" lon="4.618059"><ele>0.0</ele></rtept>
    <rtept lat="52.362776" lon="4.618115"><ele>0.0</ele></rtept>
    <rtept lat="52.362895" lon="4.618190"><ele>0.0</ele></rtept>
    <rtept lat="52.363314" lon="4.618506"><ele>0.0</ele></rtept>
    <rtept lat="52.363532" lon="4.618629"><ele>0.0</ele></rtept>
    <rtept lat="52.364224" lon="4.618891"><ele>0.0</ele></rtept>
    <rtept lat="52.364278" lon="4.618939"><ele>0.0</ele></rtept>
    <rtept lat="52.364483" lon="4.619030"><ele>0.0</ele></rtept>
    <rtept lat="52.364586" lon="4.619035"><ele>0.0</ele></rtept>
    <rtept lat="52.364674" lon="4.619044"><ele>0.0</ele></rtept>
    <rtept lat="52.364668" lon="4.619100"><ele>0.0</ele></rtept>
    <rtept lat="52.364675" lon="4.619495"><ele>0.0</ele></rtept>
    <rtept lat="52.364711" lon="4.620460"><ele>0.0</ele></rtept>
    <rtept lat="52.364783" lon="4.622222"><ele>0.0</ele></rtept>
    <rtept lat="52.364970" lon="4.626550"><ele>0.0</ele></rtept>
    <rtept lat="52.365012" lon="4.626679"><ele>0.0</ele></rtept>
    <rtept lat="52.364975" lon="4.626855"><ele>0.0</ele></rtept>
    <rtept lat="52.364936" lon="4.627037"><ele>0.0</ele></rtept>
    <rtept lat="52.364907" lon="4.627173"><ele>0.0</ele></rtept>
    <rtept lat="52.364944" lon="4.627198"><ele>0.0</ele></rtept>
    <rtept lat="52.364999" lon="4.627232"><ele>0.0</ele></rtept>
    <rtept lat="52.365204" lon="4.627365"><ele>0.0</ele></rtept>
    <rtept lat="52.366615" lon="4.628121"><ele>0.0</ele></rtept>
    <rtept lat="52.367237" lon="4.628472"><ele>0.0</ele></rtept>
    <rtept lat="52.368146" lon="4.628719"><ele>0.0</ele></rtept>
    <rtept lat="52.369004" lon="4.628890"><ele>0.0</ele></rtept>
    <rtept lat="52.369352" lon="4.628939"><ele>0.0</ele></rtept>
    <rtept lat="52.369727" lon="4.628970"><ele>0.0</ele></rtept>
    <rtept lat="52.369727" lon="4.629299"><ele>0.0</ele></rtept>
    <rtept lat="52.369780" lon="4.629549"><ele>0.0</ele></rtept>
    <rtept lat="52.369945" lon="4.630096"><ele>0.0</ele></rtept>
    <rtept lat="52.370000" lon="4.630420"><ele>0.0</ele></rtept>
    <rtept lat="52.370010" lon="4.630580"><ele>0.0</ele></rtept>
    <rtept lat="52.370297" lon="4.630577"><ele>0.0</ele></rtept>
    <rtept lat="52.370314" lon="4.630593"><ele>0.0</ele></rtept>
    <rtept lat="52.370770" lon="4.631486"><ele>0.0</ele></rtept>
    <rtept lat="52.370935" lon="4.631850"><ele>0.0</ele></rtept>
    <rtept lat="52.371173" lon="4.632450"><ele>0.0</ele></rtept>
    <rtept lat="52.371199" lon="4.632391"><ele>0.0</ele></rtept>
    <rtept lat="52.371209" lon="4.632479"><ele>0.0</ele></rtept>
    <rtept lat="52.371237" lon="4.632750"><ele>0.0</ele></rtept>
    <rtept lat="52.371239" lon="4.632859"><ele>0.0</ele></rtept>
    <rtept lat="52.371342" lon="4.632910"><ele>0.0</ele></rtept>
    <rtept lat="52.371416" lon="4.632951"><ele>0.0</ele></rtept>
    <rtept lat="52.371860" lon="4.633158"><ele>0.0</ele></rtept>
    <rtept lat="52.372275" lon="4.633341"><ele>0.0</ele></rtept>
    <rtept lat="52.372102" lon="4.634424"><ele>0.0</ele></rtept>
    <rtept lat="52.372038" lon="4.634832"><ele>0.0</ele></rtept>
    <rtept lat="52.371886" lon="4.635595"><ele>0.0</ele></rtept>
    <rtept lat="52.371791" lon="4.636059"><ele>0.0</ele></rtept>
    <rtept lat="52.371738" lon="4.636292"><ele>0.0</ele></rtept>
    <rtept lat="52.371577" lon="4.636987"><ele>0.0</ele></rtept>
    <rtept lat="52.371583" lon="4.637042"><ele>0.0</ele></rtept>
    <rtept lat="52.371438" lon="4.637319"><ele>0.0</ele></rtept>
    <rtept lat="52.371414" lon="4.637379"><ele>0.0</ele></rtept>
    <rtept lat="52.371341" lon="4.637511"><ele>0.0</ele></rtept>
    <rtept lat="52.371474" lon="4.637802"><ele>0.0</ele></rtept>
    <rtept lat="52.371549" lon="4.638079"><ele>0.0</ele></rtept>
    <rtept lat="52.371635" lon="4.638537"><ele>0.0</ele></rtept>
    <rtept lat="52.371655" lon="4.638718"><ele>0.0</ele></rtept>
    <rtept lat="52.371652" lon="4.639079"><ele>0.0</ele></rtept>
    <rtept lat="52.371626" lon="4.639241"><ele>0.0</ele></rtept>
    <rtept lat="52.371543" lon="4.639528"><ele>0.0</ele></rtept>
    <rtept lat="52.371485" lon="4.639651"><ele>0.0</ele></rtept>
    <rtept lat="52.371163" lon="4.640177"><ele>0.0</ele></rtept>
    <rtept lat="52.371069" lon="4.640286"><ele>0.0</ele></rtept>
    <rtept lat="52.370855" lon="4.639911"><ele>0.0</ele></rtept>
    <rtept lat="52.370878" lon="4.639885"><ele>0.0</ele></rtept>
    <rtept lat="52.370979" lon="4.639909"><ele>0.0</ele></rtept>
    <rtept lat="52.371085" lon="4.639996"><ele>0.0</ele></rtept>
    <rtept lat="52.371435" lon="4.640556"><ele>0.0</ele></rtept>
    <rtept lat="52.371507" lon="4.640757"><ele>0.0</ele></rtept>
    <rtept lat="52.371533" lon="4.640985"><ele>0.0</ele></rtept>
    <rtept lat="52.371530" lon="4.641052"><ele>0.0</ele></rtept>
    <rtept lat="52.371916" lon="4.641663"><ele>0.0</ele></rtept>
    <rtept lat="52.372468" lon="4.642417"><ele>0.0</ele></rtept>
    <rtept lat="52.372544" lon="4.642493"><ele>0.0</ele></rtept>
    <rtept lat="52.373028" lon="4.642867"><ele>0.0</ele></rtept>
    <rtept lat="52.373346" lon="4.643068"><ele>0.0</ele></rtept>
    <rtept lat="52.373649" lon="4.643191"><ele>0.0</ele></rtept>
    <rtept lat="52.373635" lon="4.643324"><ele>0.0</ele></rtept>
    <rtept lat="52.373626" lon="4.643460"><ele>0.0</ele></rtept>
    <rtept lat="52.373649" lon="4.644390"><ele>0.0</ele></rtept>
    <rtept lat="52.373716" lon="4.646253"><ele>0.0</ele></rtept>
    <rtept lat="52.373741" lon="4.647203"><ele>0.0</ele></rtept>
    <rtept lat="52.373807" lon="4.648893"><ele>0.0</ele></rtept>
    <rtept lat="52.374260" lon="4.648870"><ele>0.0</ele></rtept>
    <rtept lat="52.374570" lon="4.648850"><ele>0.0</ele></rtept>
    <rtept lat="52.374726" lon="4.648878"><ele>0.0</ele></rtept>
    <rtept lat="52.374852" lon="4.648931"><ele>0.0</ele></rtept>
    <rtept lat="52.375431" lon="4.649330"><ele>0.0</ele></rtept>
    <rtept lat="52.375644" lon="4.649501"><ele>0.0</ele></rtept>
    <rtept lat="52.375810" lon="4.649550"><ele>0.0</ele></rtept>
    <rtept lat="52.376065" lon="4.649522"><ele>0.0</ele></rtept>
    <rtept lat="52.376626" lon="4.649419"><ele>0.0</ele></rtept>
    <rtept lat="52.376792" lon="4.649386"><ele>0.0</ele></rtept>
    <rtept lat="52.376935" lon="4.649362"><ele>0.0</ele></rtept>
    <rtept lat="52.376986" lon="4.649354"><ele>0.0</ele></rtept>
    <rtept lat="52.377017" lon="4.649942"><ele>0.0</ele></rtept>
    <rtept lat="52.377039" lon="4.650248"><ele>0.0</ele></rtept>
    <rtept lat="52.377041" lon="4.650289"><ele>0.0</ele></rtept>
    <rtept lat="52.377079" lon="4.650924"><ele>0.0</ele></rtept>
    <rtept lat="52.376764" lon="4.651077"><ele>0.0</ele></rtept>
    <rtept lat="52.376704" lon="4.651130"><ele>0.0</ele></rtept>
    <rtept lat="52.376382" lon="4.651708"><ele>0.0</ele></rtept>
    <rtept lat="52.376357" lon="4.651822"><ele>0.0</ele></rtept>
    <rtept lat="52.376353" lon="4.651934"><ele>0.0</ele></rtept>
    <rtept lat="52.376384" lon="4.652182"><ele>0.0</ele></rtept>
    <rtept lat="52.376463" lon="4.652848"><ele>0.0</ele></rtept>
    <rtept lat="52.376578" lon="4.653775"><ele>0.0</ele></rtept>
    <rtept lat="52.376571" lon="4.653984"><ele>0.0</ele></rtept>
    <rtept lat="52.376715" lon="4.654486"><ele>0.0</ele></rtept>
    <rtept lat="52.376862" lon="4.655041"><ele>0.0</ele></rtept>
    <rtept lat="52.376926" lon="4.655274"><ele>0.0</ele></rtept>
    <rtept lat="52.377017" lon="4.655609"><ele>0.0</ele></rtept>
    <rtept lat="52.377129" lon="4.656052"><ele>0.0</ele></rtept>
    <rtept lat="52.377176" lon="4.656129"><ele>0.0</ele></rtept>
    <rtept lat="52.377279" lon="4.656200"><ele>0.0</ele></rtept>
    <rtept lat="52.377592" lon="4.656397"><ele>0.0</ele></rtept>
    <rtept lat="52.378161" lon="4.656810"><ele>0.0</ele></rtept>
    <rtept lat="52.378896" lon="4.657371"><ele>0.0</ele></rtept>
    <rtept lat="52.379192" lon="4.657600"><ele>0.0</ele></rtept>
    <rtept lat="52.379403" lon="4.657759"><ele>0.0</ele></rtept>
    <rtept lat="52.379574" lon="4.657888"><ele>0.0</ele></rtept>
    <rtept lat="52.379804" lon="4.657899"><ele>0.0</ele></rtept>
    <rtept lat="52.380041" lon="4.657887"><ele>0.0</ele></rtept>
    <rtept lat="52.380029" lon="4.657510"><ele>0.0</ele></rtept>
  </rte>
</gpx>